locId,country,region,city,postcode
567,AR,10,Jujuy,
568,AR,8,Victoria,
569,AR,5,Córdoba,
570,AR,1,San Isidro,
571,AR,7,Puerto Madero,
572,AR,21,Rosario,
573,AR,8,Federal,
574,AR,4,Puerto Madryn,
575,AR,21,Santa Fe,
576,AR,24,Tucumán,
577,AR,21,Alvear,
578,AR,1,Canning,
579,AR,21,San Guillermo,
580,AR,13,Mendoza,
581,AR,5,Río Ceballos,
582,AR,1,Mar Del Plata,
583,AR,22,Santa Cruz,
584,AR,18,San Juan,
585,AR,8,Paraná,
586,AR,6,Corrientes,
587,AR,9,Formosa,
588,AR,19,San Luis,
589,AR,17,Salta,
590,AR,16,Viedma,
591,AR,4,Madryn,
592,AR,13,Luján,
593,AR,24,Ciudad Universitaria,
594,AR,1,Quilmes,
595,AR,19,Hipólito Yrigoyen,
596,AR,1,La Plata,
597,AR,5,Justiniano Posse,
598,AR,11,Santa Rosa,
599,AR,1,Villa Gesell,
600,AR,1,Munro,
601,AR,1,Tres Arroyos,
602,AR,8,Concordia,
603,AR,1,Del Viso,
604,AR,21,Rafaela,
605,AR,13,San Martín,
606,AR,22,Lugones,
607,AR,1,Lomas De Zamora,
608,AR,1,Pujol,
609,AR,1,Villa Sarmiento,
610,AR,3,Roque Sáenz Peña,
611,AR,1,Necochea,
612,AR,13,Rivadavia,
613,AR,11,Realicó,
614,AR,16,General Roca,
615,AR,24,Famaillá,
616,AR,18,Villa Aberastain,
617,AR,22,Santiago Del Estero,
618,AR,1,Azul,
619,AR,4,Trelew,
620,AR,20,Río Gallegos,
621,AR,1,Hilario Ascasubi,
622,AR,1,Bordenave,
623,AR,5,Manfredi,
624,AR,21,Oliveros,
625,AR,21,Reconquista,
626,AR,19,Mercedes,
627,AR,1,Bariloche,
628,AR,1,Pergamino,
629,AR,5,Marcos Juárez,
630,AR,1,Balcarce,
631,AR,22,Concepción,
632,AR,1,Drabble,
633,AR,20,Los Antiguos,
634,AR,18,Hilario,
635,AR,17,Piquete Cabado,
636,AR,21,Capitán Bermúdez,
637,AR,1,Bragado,
638,AR,5,Colonia Caroya,
639,AR,22,Lavalle,
640,AR,15,Neuquén,
641,AR,1,General Villegas,
642,AR,21,San Antonio,
643,AR,1,Chacabuco,
644,AR,5,Río Tercero,
645,AR,8,Gualeguaychú,
646,AR,1,Olavarría,
647,AR,14,De Mayo,
648,AR,11,Cevallos,
649,AR,1,San Fernando,
650,AR,22,San Carlos,
651,AR,1,Pellegrini,
652,AR,1,Alem,
653,AR,21,Rodriguez,
654,AR,1,Isidro Casanova,
655,AR,1,San Nicolás,
656,AR,1,Campana,
657,AR,1,Vicente López,
658,AR,22,San Bernardo,
659,AR,21,Gobernador Gálvez,
660,AR,21,Pilar,
661,AR,5,La Cesira,
662,AR,1,General Pacheco,
663,AR,21,San Genaro,
664,AR,22,Herrera,
665,AR,1,Marcos Paz,
666,AR,5,Las Heras,
667,AR,21,Sarmiento,
668,AR,3,Resistencia,
669,AR,23,Ushuaia,
670,AR,1,Monte Grande,
671,AR,1,La Paz,
672,AR,20,Caleta Olivia,
673,AR,1,Tacuarí,
674,AR,23,Río Grande,
675,AR,11,Río Colorado,
676,AR,1,Suipacha,
677,AR,5,La Pampa,
678,AR,1,Luis Guillón,
679,AR,1,Libertad,
680,AR,1,San Antonio De Padua,
681,AR,1,Centenario,
682,AR,1,Médanos,
683,AR,1,Punta Alta,
684,AR,1,Trenque Lauquen,
685,AR,8,Chajarí,
686,AR,1,Villa Adelina,
687,AR,12,La Rioja,
688,AR,1,Grand Bourg,
689,AR,5,Villa Las Rosas,
690,AR,2,Catamarca,
691,AR,21,Venado Tuerto,
692,AR,5,Embalse,
693,AR,22,Santa Lucía,
694,AR,1,El Talar,
695,AR,6,Goya,
696,AR,14,Oberá,
697,AR,21,Funes,
698,AR,14,Posadas,
699,AR,1,Gobernador Castro,
700,AR,5,Adelia María,
701,AR,5,Los Surgentes,
702,AR,1,El Dorado,
703,AR,8,Crespo,
704,AR,22,Frías,
705,AR,14,Apóstoles,
706,AR,14,Puerto Iguazú,
707,AR,22,Termas De Río Hondo,
708,AR,1,Martínez,
709,AR,21,Carlos Pellegrini,
710,AR,16,Choele Choel,
711,AR,22,Las Flores,
712,AR,1,Mar De Ajó,
713,AR,1,Batán,
714,AR,1,Olivos,
715,AR,21,Avellaneda,
716,AR,1,Zárate,
717,AR,1,San Cayetano,
718,AR,1,Rojas,
719,AR,5,Río Cuarto,
720,AR,1,General Belgrano,
721,AR,21,Saladillo,
722,AR,5,Corral De Bustos,
723,AR,1,Bolívar,
724,AR,1,Bahía Blanca,
725,AR,1,Miramar,
726,AR,21,Esmeralda,
727,AR,1,Bartolomé Mitre,
728,AR,21,Díaz,
729,AR,1,Dolores,
730,AR,1,Luro,
731,AR,7,Comodoro Rivadavia,
732,AR,22,El Hoyo,
733,AR,21,Sunchales,
734,AR,11,San Miguel,
735,AR,22,San Justo,
736,AR,19,El Chorrillo,
737,AR,3,Las Breñas,
738,AR,13,Godoy Cruz,
739,AR,17,Río Piedras,
740,AR,1,Ayacucho,
741,AR,1,Bosch,
742,AR,1,Florida,
743,AR,1,Abasto,
744,AR,5,Las Perdices,
745,AR,5,Oliva,
746,AR,5,Salsipuedes,
747,AR,21,Casilda,
748,AR,1,Colón,
749,AR,5,Despeñaderos,
750,AR,1,Santa Teresita,
751,AR,1,Salto,
752,AR,1,Junín,
753,AR,1,Pigüé,
754,AR,1,Lobos,
755,AR,22,Belgrano,
756,AR,1,Alsina,
757,AR,1,Wilde,
758,AR,13,Peña,
759,AR,24,Banda Del Río Salí,
760,AR,1,Don Torcuato,
761,AR,1,Presidente Derqui,
762,AR,1,Carlos Casares,
763,AR,7,Varela,
764,AR,21,Amenábar,
765,AR,13,Guaymallén,
766,AR,1,Acassuso,
767,AR,1,Pérez Millán,
768,AR,1,Darregueira,
769,AR,1,Los Polvorines,
770,AR,22,Villa Nueva,
771,AR,13,San Rafael,
772,AR,8,Ramírez,
773,AR,5,Porteña,
774,AR,16,Catriel,
775,AR,19,Concarán,
776,AR,7,Flores,
777,AR,5,Olivia,
778,AR,1,San Miguel Del Monte,
779,AR,1,Pedro Luro,
780,AR,1,Merlo,
781,AR,22,San Manuel,
782,AR,1,Germania,
783,AR,22,Navarro,
784,AR,1,Todd,
785,AR,1,Puan,
786,AR,22,Fernández,
787,AR,1,Carlos Tejedor,
788,AR,1,Tigre,
789,AR,19,Crámer,
790,AR,1,Rosa,
791,AR,1,Calderón,
792,AR,8,Gualeguay,
793,AR,5,Perón,
794,AR,16,Cipolleti,
795,AR,21,San Jorge,
796,AR,8,Villaguay,
797,AR,7,Esquel,
798,AR,21,Rufino,
799,AR,1,Coronel Suárez,
800,AR,1,Boulogne,
801,AR,1,Energía,
802,AR,1,Ituzaingó,
803,AR,1,Lima,
804,AR,1,Ranelagh,
805,AR,1,Ezeiza,
806,AR,10,Aguilar,
807,AR,1,El Palomar,
808,AR,1,J. León Suárez,
809,AR,1,Villa Iglesias,
810,AR,1,Billinghurst,
811,AR,1,Diamante,
812,AR,1,Beccar,
813,AR,1,Villa León,
814,AR,7,Villa Urquiza,
815,AR,21,La Lucila,
816,AR,1,General San Martín,
817,AR,1,Muñiz,
818,AR,1,Temperley,
819,AR,1,Haedo,
820,AR,1,Hurlingham,
821,AR,1,Lomas Del Mirador,
822,AR,1,Morón,
823,AR,1,Ramos Mejía,
824,AR,1,Caseros,
825,AR,1,Villa Martínez De Hoz,
826,AR,1,Ciudadela,
827,AR,7,Luis J. García,
828,AR,1,San Justo,
829,AR,1,I. Casanova,
830,AR,1,J.m. Gutierrez,
831,AR,1,Ciudad Evita,
832,AR,7,Mataderos,
833,AR,1,Villa Ansaldi,
834,AR,7,Comandante L. Piedrabuena,
835,AR,1,Villa España,
836,AR,1,6 De Septiembre,
837,AR,1,Villa Madero,
838,AR,1,Berisso,
839,AR,1,San Vicente,
840,AR,11,General Pico,
841,AR,1,Lincoln,
842,AR,1,Chivilcoy,
843,AR,1,Ballester,
844,AR,7,Los Perales,
845,AR,21,San Carlos Centro,
846,AR,5,Bell Ville,
847,AR,5,Villa General Belgrano,
848,AR,1,Pilar,
849,AR,5,Pueblo Italiano,
850,AR,5,Cruz Alta,
851,AR,21,Berabevú,
852,AR,8,Urdinarrain,
853,AR,8,Aldea Brava,
854,AR,21,Villa Constitución,
855,AR,1,C. De Mayo,
856,AR,24,Colonia San José,
857,AR,5,Freyre,
858,AR,3,Kilómetro 846,
859,AR,8,Aldea Asunción,
860,AR,21,Los Quebrachos,
861,AR,8,Concepción Del Uruguay,
862,AR,5,Pilar,
863,AR,5,Alta Gracia,
864,AR,24,Villa Nueva,
865,AR,1,Rafael Castillo,
866,AR,1,Villa D. Sobral,
867,AR,1,Villa Luzuriaga,
868,AR,24,Palmitas,
869,AR,5,El Rosario,
870,AR,21,Carcarañá,
871,AR,1,Tortuguitas,
872,AR,1,Escobar,
873,AR,1,Villa Ballester,
874,AR,1,Ingeniero Maschwitz,
875,AR,5,Laguna Larga,
876,AR,1,Bella Vista,
877,AR,1,Villa Bosch,
878,AR,1,Belén De Escobar,
879,AR,1,Benavides,
880,AR,1,Chillar,
881,AR,1,16 De Julio,
882,AR,1,J.m. Bosch,
883,AR,1,Piñero,
884,AR,1,Luján,
885,AR,1,28 De Septiembre,
886,AR,1,M. Acosta,
887,AR,1,Castelar,
888,AR,18,Retamito,
889,AR,1,Lanús,
890,AR,1,Villa Basso,
891,AR,1,Monte Chingolo,
892,AR,1,Banfield,
893,AR,1,Burzaco,
894,AR,7,Calaza,
895,AR,1,José Mármol,
896,AR,1,Rafael Calzada,
897,AR,1,Llavallol,
898,AR,1,Santos Lugares,
899,AR,21,Maciel,
900,AR,6,San Lorenzo,
901,AR,1,Berazategui,
902,AR,1,Poblet,
903,AR,1,City Bell,
904,AR,16,Allen,
905,AR,1,José C. Paz,
906,AR,21,Arroyo Seco,
907,AR,1,Brandsen,
908,AR,1,Gerli,
909,AR,5,Cosme Sud,
910,AR,1,J.c. Paz,
911,AR,24,Yerba Buena,
912,AR,22,Lomitas,
913,AR,24,Viclos,
914,AR,8,Diamante,
915,AR,21,Esperanza,
916,AR,8,Costa Grande,
917,AR,24,Nueva España,
918,AR,5,Villa Carlos Paz,
919,AR,24,Ingas,
920,AR,21,Arteaga,
921,AR,21,Las Parejas,
922,AR,21,Armstrong,
923,AR,24,Las Cejas,
924,AR,5,Villa María,
925,AR,22,Bobadal,
926,AR,5,Villa Colachanga,
927,AR,5,Cosquín,
928,AR,22,Boca Del Tigre,
929,AR,16,Chichinales,
930,AR,1,Las Toninas,
931,AR,21,Larrechea,
932,AR,21,Villa Estela,
933,AR,21,Muñoz,
934,AR,1,José León Suárez,
935,AR,3,Barranqueras,
936,AR,8,Aldea San Juan,
937,AR,8,General Almada,
938,AR,1,Bancalari,
939,AR,5,Oncativo,
940,AR,5,San Francisco,
941,AR,24,Naranjito,
942,AR,7,Almirante Brown,
943,AR,13,Bowen,
944,AR,13,Anchoris,
945,AR,13,Tunuyán,
946,AR,20,Puerto San Julián,
947,AR,1,Laferrere,
948,AR,1,La Reja,
949,AR,16,Cipolletti,
950,AR,16,San Carlos De Bariloche,
951,AR,16,General Fernández Oro,
952,AR,15,Villa La Angostura,
953,AR,15,Cutral-có,
954,AR,16,Pichi Leufú,
955,AR,16,Ferri,
956,AR,1,Comandante Nicanor Otamendi,
957,AR,1,Tandil,
958,AR,1,El Verano,
959,AR,1,Villa Residencial Laguna Brava,
960,AR,1,Mechongué,
961,AR,1,Napaleofú,
962,AR,1,Álzaga,
963,AR,1,Los Pinos,
964,AR,1,Iraizoz,
965,AR,1,Ramos Otero,
966,AR,1,Bernal,
967,AR,1,Longchamps,
968,AR,1,Villa Martín Arín,
969,AR,1,Florencio Varela,
970,AR,1,Claypole,
971,AR,1,Remedios De Escalada,
972,AR,7,Marcelo Torcuato De Alvear,
973,AR,1,L. De Zamora,
974,AR,4,Rawson,
975,AR,1,Saldungaray,
976,AR,1,Estomba,
977,AR,21,Monje,
978,AR,21,Bombal,
979,AR,22,Guasayán,
980,AR,1,Aldo Bonzi,
981,AR,7,San Telmo,
982,AR,7,Liniers,
983,AR,1,Villa Diamante,
984,AR,1,Caraza,
985,AR,1,Ingeniero Budge,
986,AR,1,Villa El Rincón,
987,AR,1,Valentín Alsina,
988,AR,1,Villa Barilari,
989,AR,1,Fiorito,
990,AR,1,Tablada,
991,AR,1,El Talar De Pacheco,
992,AR,1,Villa Progreso,
993,AR,1,Villa Alianza,
994,AR,7,La Paternal,
995,AR,21,Fray Luís Beltrán,
996,AR,1,Capilla Del Señor,
997,AR,1,Los Cardales,
998,AR,7,Monte Castro,
999,AR,7,Villa Luro,
1000,AR,21,Campo Andino,
1001,AR,21,Bella Vista,
1002,AR,21,San Gerónimo Del Sauce,
1003,AR,21,Alcorta,
1004,AR,22,Gramilla,
1005,AR,1,Maquinista Savio,
1006,AR,1,Belén,
1007,AR,1,Garín,
1008,AR,17,Acosta,
1009,AR,24,Los Ralos,
1010,AR,2,El Taco,
1011,AR,1,Vagues,
1012,AR,1,Villa Reichembach,
1013,AR,1,Ezpeleta,
1014,AR,1,Guernica,
1015,AR,16,Cinco Saltos,
1016,AR,1,San Francisco Solano,
1017,AR,1,Manzone,
1018,AR,1,Estación San Andrés,
1019,AR,1,General Rodríguez,
1020,AR,21,Villa Gobernador Gálvez,
1021,AR,1,Villa Colón,
1022,AR,7,Balbastro,
1023,AR,1,Fortín Tiburcio,
1024,AR,7,Bonorino,
1025,AR,16,San Antonio Oeste,
1026,AR,15,San Martín De Los Andes,
1027,AR,1,A. Brown,
1028,AR,7,Ramón L. Falcón,
1029,AR,1,Paso Del Rey,
1030,AR,5,Saldán,
1031,AR,21,Larguía,
1032,AR,14,Puerto Rico,
1033,AR,1,Charlone,
1034,AR,5,Isla Verde,
1035,AR,5,Monte Maíz,
1036,AR,1,San Mauricio,
1037,AR,12,Chepes,
1038,AR,3,Colonia Pozo Colorado,
1039,AR,16,Luis Beltrán,
1040,AR,21,Oroño,
1041,AR,1,Tres Algarrobos,
1042,AR,21,Malabrigo,
1043,AR,9,Pirané,
1044,AR,1,Ramallo,
1045,AR,21,Villa Ocampo,
1046,AR,3,Clodomiro Díaz,
1047,AR,21,Firmat,
1048,AR,21,Matilde,
1049,AR,21,El Laurel,
1050,AR,5,San Marcos Sierra,
1051,AR,8,Paso De La Laguna,
1052,AR,8,María Grande,
1053,AR,5,General Cabrera,
1054,AR,21,Arroyito,
1055,AR,8,Sosa,
1056,AR,24,Padilla,
1057,AR,8,Lucas Sur,
1058,AR,21,Gobernador Crespo,
1059,AR,24,Los Puestos,
1060,AR,3,Charata,
1061,AR,20,El Calafate,
1062,AR,20,Puerto Deseado,
1063,AR,5,El Arañado,
1064,AR,5,La Buena Parada,
1065,AR,21,San Jerónimo,
1066,AR,21,Colonia Belgrano,
1067,AR,11,Castex,
1068,AR,1,Villa Wilde,
1069,AR,1,Villa Recondo,
1070,AR,1,Loma Verde,
1071,AR,1,Tornquist,
1072,AR,1,Dufaur,
1073,AR,1,Colonia San Pedro,
1074,AR,1,Coronel Pringles,
1075,AR,1,R. De Escalada,
1076,AR,1,Villa Leloir,
1077,AR,1,Ranchos,
1078,AR,21,San Gerónimo,
1079,AR,1,Barrio Esteban Echeverría,
1080,AR,1,Arturo Seguí,
1081,AR,21,Carmen Del Sauce,
1082,AR,1,San Andrés,
1083,AR,5,Monte Buey,
1084,AR,5,Camilo Aldao,
1085,AR,1,Cañuelas,
1086,AR,1,Daireaux,
1087,AR,1,Maguire,
1088,AR,22,Villa Mercedes,
1089,AR,21,Calchaquí,
1090,AR,14,Paulito,
1091,AR,24,Acheral,
1092,AR,1,San Antonio De Areco,
1093,AR,21,Elortondo,
1094,AR,21,Carreras,
1095,AR,21,Bigand,
1096,AR,21,Las Cañas,
1097,AR,21,Saladero Cabal,
1098,AR,1,Maipú,
1099,AR,1,Villa De Los Patricios,
1100,AR,4,Rada Tilly,
1101,AR,21,Granadero Baigorria,
1102,AR,21,Coronel Rodríguez,
1103,AR,24,Mujer Muerta,
1104,AR,24,Los Robles,
1105,AR,21,Gálvez,
1106,AR,1,F. Alvarez,
1107,AR,1,San Andrés De Giles,
1108,AR,21,Santo Tomé,
1109,AR,1,Villa Domínico,
1110,AR,7,Nueva Pompeya,
1111,AR,1,Derqui,
1112,AR,1,Gobernador Monteverde,
1113,AR,1,Pinamar,
1114,AR,1,Balneario Ostende,
1115,AR,5,San Clemente,
1116,AR,15,Bazan,
1117,AR,5,Las Varas,
1118,AR,21,Las Petacas,
1119,AR,5,Río Primero,
1120,AR,1,Samborombón,
1121,AR,1,Pontevedra,
1122,AR,1,Glew,
1123,AR,1,G. Catán,
1124,AR,1,Domselaar,
1125,AR,1,Gobernador Obligado,
1126,AR,1,Puente Cascallares,
1127,AR,1,Hunter,
1128,AR,1,Ordoqui,
1129,AR,1,Los Ángeles,
1130,AR,1,Pehuajó,
1131,AR,1,Hortensia,
1132,AR,1,Quiroga,
1133,AR,1,Nueve De Julio,
1134,AR,1,Mercedes,
1135,AR,1,Herrera Vegas,
1136,AR,1,Marcelino Ugarte,
1137,AR,1,Neild,
1138,AR,1,Belloco,
1139,AR,16,El Bolsón,
1140,AR,19,Tilisarao,
1141,AR,20,Pico Truncado,
1142,AR,1,Balneario Mar Azul,
1143,AR,11,Bernardo Larroudé,
1144,AR,1,Condarco,
1145,AR,20,Puerto Santa Cruz,
1146,AR,1,Carhué,
1147,AR,1,San Pedro,
1148,AR,8,Nogoyá,
1149,AR,22,Las Delicias,
1150,AR,1,Zelaya,
1151,AR,22,La Donosa,
1152,AR,24,Loma Verde,
1153,AR,24,Arcadia,
1154,AR,24,Aguilares,
1155,AR,5,Alcira,
1156,AR,24,Monte Bello,
1157,AR,24,Cachí Yaco,
1158,AR,24,Marcos Paz,
1159,AR,21,Coronda,
1160,AR,21,Santa Clara De Buena Vista,
1161,AR,21,Clason,
1162,AR,9,Posta-i,
1163,AR,9,Clorinda,
1164,AR,21,Bustinza,
1165,AR,21,Humberto 1,
1166,AR,21,Mugueta,
1167,AR,21,Cañada De Gómez,
1168,AR,21,Arequito,
1169,AR,1,Dique Luján,
1170,AR,24,General Lamadrid,
1171,AR,24,Abra Rica,
1172,AR,5,Molinari,
1173,AR,1,Atucha,
1174,AR,1,Centinela Del Mar,
1175,AR,1,Boulevard Atlántico,
1176,AR,1,Santo Tomás,
1177,AR,1,Laplacette,
1178,AR,1,Arrecifes,
1179,AR,1,Altona,
1180,AR,1,Girondo,
1181,AR,1,Arroyo Dulce,
1182,AR,1,Monroe,
1183,AR,1,Mari Lauquen,
1184,AR,1,Guanaco,
1185,AR,1,La Invencible,
1186,AR,1,La Niña,
1187,AR,1,González Catán,
1188,AR,1,Ensenada,
1189,AR,1,Villa Giambruno,
1190,AR,1,Derechos De La Ancianidad,
1191,AR,16,Ingeniero Huergo,
1192,AR,3,Machagai,
1193,AR,1,Alberti,
1194,AR,5,Guatimozín,
1195,AR,5,Morteros,
1196,AR,5,Alto De San Pedro,
1197,AR,21,B. De Irigoyen,
1198,AR,21,Desmochado Afuera,
1199,AR,24,Ingenio Nueva Baviera,
1200,AR,22,Pozuelos,
1201,AR,8,Villa Paranacito,
1202,AR,22,Loma Del Medio,
1203,AR,24,Tusquitas,
1204,AR,1,Benavídez,
1205,AR,8,Colonia Delta,
1206,AR,7,Caballito,
1207,AR,21,Fighiera,
1208,AR,1,General Sarmiento,
1209,AR,1,Verónica,
1210,AR,22,El Rosario,
1211,AR,5,Villa Allende,
1212,AR,5,El Sauce,
1213,AR,5,Los Quebrachitos,
1214,AR,22,Baños,
1215,AR,24,San Agustín,
1216,AR,22,La Falda,
1217,AR,8,Tres Bocas,
1218,AR,8,Palavecino,
1219,AR,2,Las Cañas,
1220,AR,17,Tartagal,
1221,AR,21,Uranga,
1222,AR,21,Aguirre,
1223,AR,1,San Clemente Del Tuyú,
1224,AR,19,Durazno,
1225,AR,23,Carmen,
1226,AR,15,Zapala,
1227,AR,15,Filo-hua-hum,
1228,AR,1,Cabildo,
1229,AR,1,Villa Augusta,
1230,AR,1,Sáenz Peña,
1231,AR,3,Villa Ángela,
1232,AR,7,Puerto Nuevo,
1233,AR,1,Mechita,
1234,AR,24,Finca Elisa,
1235,AR,24,Tacanas,
1236,AR,7,Presidente Roque Sáenz Peña,
1237,AR,24,Ingenio San Pablo,
1238,AR,7,Parque Chas,
1239,AR,1,Dock Sud,
1240,AR,1,Treinta De Agosto,
1241,AR,1,José Santos Arévalo,
1242,AR,21,Correa,
1243,AR,15,Coillun-co,
1244,AR,1,San Ignacio,
1245,AR,1,Banderaló,
1246,AR,5,Cavanagh,
1247,AR,1,Sansinena,
1248,AR,3,Villa Berthet,
1249,AR,5,La Calera,
1250,AR,21,Las Garzas,
1251,AR,8,Aldea Jacobi,
1252,AR,8,Maciá,
1253,AR,5,Villa Del Rosario,
1254,AR,24,Malvinas,
1255,AR,21,Colonia La Brava,
1256,AR,5,El Puente,
1257,AR,7,Floresta,
1258,AR,21,Lucio V. López,
1259,AR,1,Saavedra,
1260,AR,1,Villa De Mayo,
1261,AR,21,Florencia,
1262,AR,7,General J. De San Martín,
1263,AR,21,Sanford,
1264,AR,1,Espeleta,
1265,AR,5,Las Calles,
1266,AR,21,Franck,
1267,AR,7,Parque Patricios,
1268,AR,1,Don Bosco,
1269,AR,8,Villa Del Rosario,
1270,AR,5,Carnerillo,
1271,AR,1,Heavy,
1272,AR,1,Villa Hogar Alemán,
1273,AR,1,Jeppener,
1274,AR,21,Colonia Margarita,
1275,AR,1,Larrea,
1276,AR,19,San Ambrosio,
1277,AR,1,Teniente Origone,
1278,AR,1,San Benito,
1279,AR,15,Plaza Huincul,
1280,AR,11,Cereales,
1281,AR,17,Carril,
1282,AR,24,Manuel García Fernández,
1283,AR,24,Laguna Blanca,
1284,AR,24,Miguel Lillo,
1285,AR,21,Irigoyen,
1286,AR,21,Coronel Arnold,
1287,AR,21,Ensanche De Colonia Ella,
1288,AR,6,Santa Lucía,
1289,AR,24,Monteagudo,
1290,AR,24,Orán,
1291,AR,1,Barrio San Patricio,
1292,AR,1,Mar Del Sur,
1293,AR,1,Guido Spano,
1294,AR,1,General O'brien,
1295,AR,1,Chiclana,
1296,AR,1,El Tejar,
1297,AR,1,Mariano Acosta,
1298,AR,7,Parque Chacabuco,
1299,AR,7,Cafferata,
1300,AR,1,General F. Lynch,
1301,AR,21,Soldini,
1302,AR,3,Puerto Vilelas,
1303,AR,22,Isla De Los Sotelo,
1304,AR,5,San Fernando,
1305,AR,24,Obanta,
1306,AR,24,La Bolsa,
1307,AR,21,Álvarez,
1308,AR,3,Fortín Aguilar,
1309,AR,2,Chumbicha,
1310,AR,21,Maizales,
1311,AR,1,Almirante Brown,
1312,AR,1,Doyhenard,
1313,AR,24,Manantial,
1314,AR,24,Tafí Viejo,
1315,AR,22,Isca Yacú,
1316,AR,8,Don Cristóbal,
1317,AR,22,Río Hondo,
1318,AR,21,Monte Flores,
1319,AR,1,Villa Elisa,
1320,AR,1,Labardén,
1321,AR,1,Turdera,
1322,AR,11,Gaviotas,
1323,AR,1,Ingeniero White,
1324,AR,21,Ciudad Evita,
1325,AR,1,L. Guillón,
1326,AR,5,Cruz Chica,
1327,AR,8,Delicias,
1328,AR,8,General Racedo,
1329,AR,7,Boca,
1330,AR,1,30 De Agosto,
1331,AR,21,Hughes,
1332,AR,5,General Roca,
1333,AR,7,Chacarita,
1334,AR,8,Paraje El Cerro,
1335,AR,5,Villa Benegas,
1336,AR,6,Curuzú Cuatiá,
1337,AR,21,Pujato,
1338,AR,5,Alejandro Roca,
1339,AR,22,Caspi Corral,
1340,AR,5,Luque,
1341,AR,5,Las Varillas,
1342,AR,5,Los Chañaritos,
1343,AR,21,Totoras,
1344,AR,5,General Fotheringham,
1345,AR,15,Challacó,
1346,AR,7,Villa Lugano,
1347,AR,21,Las Toscas,
1348,AR,21,Pérez,
1349,AR,5,Ninte,
1350,AR,1,Salliqueló,
1351,AR,1,La Estafeta,
1352,AR,21,Los Molinos,
1353,AR,8,San Gustavo,
1354,AR,1,Coronel Dorrego,
1355,AR,1,Plátanos,
1356,AR,5,Cuchi Corral,
1357,AR,21,Loma Alta,
1358,AR,24,Mojón,
1359,AR,5,Argüello,
1360,AR,21,Casalegno,
1361,AR,18,Médano De Oro,
1362,AR,1,Antonio Maya,
1363,AR,1,Blanca Grande,
1364,AR,1,Gobernador Ugarte,
1365,AR,1,Gnecco,
1366,AR,1,Bonifacio,
1367,AR,1,Peralta,
1368,AR,1,Emiliano Reynoso,
1369,AR,1,Adolfo Alsina,
1370,AR,17,Piedras Moradas,
1371,AR,24,San Antonio,
1372,AR,21,San Carlos Sud,
1373,AR,21,Chabás,
1374,AR,1,Eldía,
1375,AR,24,Villa Belgrano,
1376,AR,5,Huerta Grande,
1377,AR,5,La Cumbre,
1378,AR,1,San Agustín,
1379,AR,21,Puerto San Lorenzo,
1380,AR,1,Pedro Gamen,
1381,AR,1,Zapiola,
1382,AR,3,Juan José Castelli,
1383,AR,16,Villa Regina,
1384,AR,1,San Miguel,
1385,AR,13,Las Heras,
1386,AR,1,Manzanares,
1387,AR,21,Montes De Oca,
1388,AR,6,San Luis Del Palmar,
1389,AR,1,Avellaneda,
1390,AR,14,Garupá,
1391,AR,1,Moreno,
1392,AR,6,Paso De Los Libres,
1393,AR,11,Victorica,
1394,AR,5,Monte Cristo,
1395,AR,21,Coronel Bogado,
1396,AR,5,General Levalle,
1397,AR,1,Luján,
1398,AR,7,Barrio Norte,
1399,AR,5,Villa Dolores,
1400,AR,17,Metán,
1401,AR,5,Capilla De Los Remedios,
1402,AR,7,Villa Devoto,
1403,AR,17,San Ramón,
1404,AR,21,Los Quirquinchos,
1405,AR,13,General Alvear,
1406,AR,1,Sarandí,
1407,AR,7,Villa Del Parque,
1408,AR,7,Colegiales,
1409,AR,21,Roldán,
1410,AR,21,San Cristóbal,
1411,AR,5,Carreta Quebrada,
1412,AR,5,Villa Cura Brochero,
1413,AR,2,Comedero,
1414,AR,13,La Paz,
1415,AR,1,General Arenales,
1416,AR,1,Vedia,
1417,AR,21,Tortugas,
1418,AR,13,Rodeo Del Medio,
1419,AR,4,Trevelín,
1420,AR,7,Retiro,
1421,AR,22,Colonia Alpina,
1422,AR,5,Cruz Del Eje,
1423,AR,14,San Ignacio,
1424,AR,1,Piedritas,
1425,AR,3,San Bernardo,
1426,AR,21,Centeno,
1427,AR,5,Tala Cañada,
1428,AR,22,La Banda,
1429,AR,1,Villa Saboya,
1430,AR,3,Tres Isletas,
1431,AR,8,General Ramírez,
1432,AR,21,San Justo,
1433,AR,8,Rosario Del Tala,
1434,AR,8,Viale,
1435,AR,24,Encrucijada,
1436,AR,5,Chazón,
1437,AR,21,Marcelino Escalada,
1438,AR,16,Sierra Grande,
1439,AR,15,Plottier,
1440,AR,5,Cañada De Luque,
1441,AR,5,Inriville,
1442,AR,1,Fatraló,
1443,AR,14,Esperanza,
1444,AR,21,Villa Mugueta,
1445,AR,21,San Javier,
1446,AR,5,La Carlota,
1447,AR,24,Ampata,
1448,AR,7,Villa Ortúzar,
1449,AR,1,Ostende,
1450,AR,13,Las Catitas,
1451,AR,5,Santa Rosa De Calamuchita,
1452,AR,7,San Cristóbal,
1453,AR,1,Carmen De Areco,
1454,AR,1,Máximo Paz,
1455,AR,1,La Noria,
1456,AR,7,Barracas,
1457,AR,18,9 De Julio,
1458,AR,1,Saladillo,
1459,AR,1,Capitán Sarmiento,
1460,AR,1,Los Toldos,
1461,AR,1,Capitán Castro,
1462,AR,1,Pla,
1463,AR,1,Monte Hermoso,
1464,AR,1,General Conesa,
1465,AR,11,Miguel Riglos,
1466,AR,11,Eduardo Castex,
1467,AR,1,Baradero,
1468,AR,1,Matheu,
1469,AR,24,Lules,
1470,AR,24,Monteros,
1471,AR,24,Atahona,
1472,AR,6,Ituzaingó,
1473,AR,21,Matheu,
1474,AR,3,Margarita Belén,
1475,AR,8,Hernandarias,
1476,AR,5,Tanti,
1477,AR,3,Fontana,
1478,AR,1,Juan José Paso,
1479,AR,1,Salazar,
1480,AR,1,José Hernández,
1481,AR,1,Goyeneche,
1482,AR,1,General Las Heras,
1483,AR,21,María Teresa,
1484,AR,24,Pacará,
1485,AR,1,Benito Juárez,
1486,AR,7,Villa Pueyrredón,
1487,AR,1,Gonnet,
1488,AR,8,Federación,
1489,AR,21,Acebal,
1490,AR,21,López,
1491,AR,13,Carrodilla,
1492,AR,7,Riachuelo,
1493,AR,7,Dolavón,
1494,AR,6,Bella Vista,
1495,AR,5,Tío Pujio,
1496,AR,21,Tacural,
1497,AR,15,Junín De Los Andes,
1498,AR,21,Villa Trinidad,
1499,AR,1,Fátima,
1500,AR,5,Villa Vieja,
1501,AR,5,Villa Fontana,
1502,AR,16,Mainque,
1503,AR,1,Mercedes,
1504,AR,8,Puerto Algarrobo,
1505,AR,1,Valeria Del Mar,
1506,AR,2,José,
1507,AR,21,Wheelwright,
1508,AR,1,Chascomús,
1509,AR,1,Veinticinco De Mayo,
1510,AR,17,González,
1511,AR,8,Galarza,
1512,AR,12,Aimogasta,
1513,AR,8,San Salvador,
1514,AR,4,Valle,
1515,AR,1,Colonia Hogar R. Gutiérrez,
1516,AR,5,La Falda,
1517,AR,7,Almagro,
1518,AR,1,Virreyes,
1519,AR,1,Pila,
1520,AR,7,Núñez,
1521,AR,1,Lynch,
1522,AR,5,Saira,
1523,AR,4,Camarones,
1524,AR,21,Empalme Villa Constitución,
1525,AR,5,Villa Giardino,
1526,AR,10,Perico,
1527,AR,10,Palpalá,
1528,AR,5,San Marcos,
1529,AR,21,Nelson,
1530,AR,6,Monte Caseros,
1531,AR,20,Río Turbio,
1532,AR,13,Malargüe,
1533,AR,1,Villa Rosa,
1534,AR,21,Eusebia,
1535,AR,1,Moguehua,
1536,AR,1,Tristán Suárez,
1537,AR,1,La Lucila,
1538,AR,21,Ceres,
1539,AR,21,Recreo,
1540,AR,13,Chacras De Coria,
1541,AR,21,Santa Clara,
1542,AR,5,Almafuerte,
1543,AR,1,Juan Vucetich,
1544,AR,5,Mendiolaza,
1545,AR,11,25 De Mayo,
1546,AR,5,Totoral,
1547,AR,21,Romang,
1548,AR,3,Las Palmas,
1549,AR,1,Vivoratá,
1550,AR,7,Saavedra,
1551,AR,17,Madariaga,
1552,AR,5,Toro Pujío,
1553,AR,7,Epuyén,
1554,AR,10,Libertador General San Martín,
1555,AR,5,Villa Del Dique,
1556,AR,21,Tostado,
1557,AR,5,Devoto,
1558,AR,24,Cevil Redondo,
1559,AR,1,Henderson,
1560,AR,18,Chimbas,
1561,AR,1,Warnes,
1562,AR,1,Sierra De La Ventana,
1563,AR,1,Mármol,
1564,AR,21,San José,
1565,AR,1,Conesa,
1566,AR,21,Jesús María,
1567,AR,14,Iguazú,
1568,AR,5,Cabaña De Río Pinto,
1569,AR,21,Villa Cañás,
1570,AR,15,Aluminé,
1571,AR,5,Tránsito,
1572,AR,13,Real Del Padre,
1573,AR,5,Colonia General Baldissera,
1574,AR,1,Navarro,
1575,AR,5,Tancacha,
1576,AR,17,Vaqueros,
1577,AR,2,Recreo,
1578,AR,5,Unquillo,
1579,AR,1,Villa Insuperable,
1580,AR,1,Tapalqué,
1581,AR,22,Palermo,
1582,AR,1,V. López,
1583,AR,7,Villa Real,
1584,AR,1,Tapiales,
1585,AR,21,Sauce Viejo,
1586,AR,1,Capilla,
1587,AR,13,Chilecito,
1588,AR,21,Egusquiza,
1589,AR,22,Providencia,
1590,AR,11,Quemú Quemú,
1591,AR,13,Uspallata,
1592,AR,17,Senillosa,
1593,AR,21,Timbues,
1594,AR,10,Fraile Pintado,
1595,AR,5,Alicia,
1596,AR,21,Sastre,
1597,AR,11,Intendente Alvear,
1598,AR,1,Rivera,
1599,AR,17,Rosario De La Frontera,
1600,AR,21,Vera,
1601,AR,1,La Constancia,
1602,AR,21,Las Rosas,
1603,AR,11,Alpachiri,
1604,AR,5,Canals,
1605,AR,1,Open Door,
1606,AR,13,Maipú,
1607,AR,18,Santa Lucía,
1608,AR,5,James Craik,
1609,AR,13,Coquimbito,
1610,AR,21,Murphy,
1611,AR,5,Capilla Del Monte,
1612,AR,8,Oro Verde,
1613,AR,22,Clodomira,
1614,AR,16,Ingeniero Jacobacci,
1615,AR,12,Chamical,
1616,AR,21,Arrufó,
1617,AR,1,Emilio V. Bunge,
1618,AR,21,San José De La Esquina,
1619,AR,21,Villa Guillermina,
1620,AR,17,Campo Quijano,
1621,AR,1,San Sebastián,
1622,AR,1,Pringles,
1623,AR,13,La Consulta,
1624,AR,21,Villa Parque,
1625,AR,22,Magdalena,
1626,AR,5,Leones,
1627,AR,11,Colonia Barón,
1628,AR,14,Puerto Esperanza,
1629,AR,13,Los Andes,
1630,AR,11,Toay,
1631,AR,1,Mayor Buratovich,
1632,AR,1,Norberto De La Riestra,
1633,AR,1,Villa Lynch,
1634,AR,16,Cervantes,
1635,AR,1,V. Casares,
1636,AR,5,Balnearia,
1637,AR,1,Esteban Echeverría,
1638,AR,5,Mina Clavero,
1639,AR,1,Francisco Álvarez,
1640,AR,11,Parera,
1641,AR,21,Cañada Rosquín,
1642,AR,13,Tupungato,
1643,AR,14,Puerto Piray,
1644,AR,21,San Carlos Norte,
1645,AR,19,Justo Daract,
1646,AR,4,Lago Puelo,
1647,AR,13,Luzuriaga,
1648,AR,7,Paternal,
1649,AR,24,Simoca,
1650,AR,21,Felicia,
1651,AR,5,Villa Del Totoral,
1652,AR,5,Villa Ascasubi,
1653,AR,24,Ranchillos,
1654,AR,1,Jáuregui,
1655,AR,5,Rivera Indarte,
1656,AR,21,El Trébol,
1657,AR,17,San Ramón De La Nueva Orán,
1658,AR,22,Palomar,
1659,AR,18,Villa Krause,
1660,AR,10,El Carmen,
1661,AR,21,San José Del Rincón,
1662,AR,20,Piedra Buena,
1663,AR,1,Huanguelén,
1664,AR,5,Huinca Renancó,
1665,AR,10,Yala,
1666,AR,5,Río Segundo,
1667,AR,4,Playa Unión,
1668,AR,17,El Quebrachal,
1669,AR,1,Tres Lomas,
1670,AR,7,Ameghino,
1671,AR,1,Arribeños,
1672,AR,5,Marull,
1673,AR,22,Santa Isabel,
1674,AR,11,Catriló,
1675,AR,1,Polvorines,
1676,AR,5,Laboulaye,
1677,AR,5,Santa María De Punilla,
1678,AR,1,Franklin,
1679,AR,7,Recoleta,
1680,AR,21,Elisa,
1681,AR,1,Escalada,
1682,AR,1,Espartillar,
1683,AR,1,San Miguel Arcángel,
1684,AR,1,Casbas,
1685,AR,1,Vicente Casares,
1686,AR,22,La Unión,
1687,AR,22,Laprida,
1688,AR,7,Palermo,
1689,AR,1,San Martín,
1690,AR,1,Victoria,
1691,AR,5,Serrano,
1692,AR,8,Bovril,
1693,AR,17,San Lorenzo,
1694,AR,5,Concepción,
1695,AR,11,General Acha,
1696,AR,18,Rivadavia,
1697,AR,21,San Lorenzo,
1698,AR,1,Rivadavia,
1699,AR,1,Manuel B. Gonnet,
1700,AR,5,Matorrales,
1701,AR,2,Yerba Buena,
1702,AR,15,Centenario,
1703,AR,12,Chilecito,
1704,AR,21,Pueblo,
1705,AR,5,Jesús María,
1706,AR,8,San Martín,
1707,AR,10,La Quiaca,
1708,AR,17,Güemes,
1709,AR,21,María Susana,
1710,AR,17,Cerrillos,
1711,AR,8,Jubileo,
1712,AR,16,Los Menucos,
1713,AR,5,Anisacate,
1714,AR,1,General Alvear,
1715,AR,13,San Carlos,
1716,AR,13,Junín,
1717,AR,8,Basavilbaso,
1718,AR,21,San Gerónimo Norte,
1719,AR,16,Lamarque,
1720,AR,1,Castelli,
1721,AR,19,Merlo,
1722,AR,21,San Gregorio,
1723,AR,5,Sampacho,
1724,AR,1,Otamendi,
1725,AR,4,Gobernador Costa,
1726,AR,1,López,
1727,AR,17,Santa Cruz,
1728,AR,19,San Salvador,
1729,AR,13,Medrano,
1730,AR,1,Laprida,
1731,AR,16,Bariloche,
1732,AR,1,San Bernardo,
1733,AR,8,Herrera,
1734,AR,4,Sarmiento,
1735,AR,1,Las Flores,
1736,AR,7,Belgrano,
1737,AR,5,Villa Nueva,
1738,AR,5,Obispo Trejo,
1739,AR,1,Lobería,
1740,AR,21,Zavalla,
1741,AR,13,Agrelo,
1742,AR,21,Ataliva,
1743,AR,14,Leandro N. Alem,
1744,AR,24,Güemes,
1745,AR,5,Arroyito,
1746,AR,20,Las Heras,
1747,AR,21,San Vicente,
1748,AR,5,General Deheza,
1749,AR,5,Bialet Massé,
1750,AR,22,San Agustín,
1751,AR,5,Los Sauces,
1752,AR,21,Suardi,
1753,AR,13,Villa Nueva,
1754,AR,1,Dorrego,
1755,AR,11,Trenel,
1756,AR,5,Berrotarán,
1757,AR,21,Salto Grande,
1758,AR,22,Beltrán,
1759,AR,22,Las Termas De Río Hondo,
1760,AR,21,Virginia,
1761,AR,1,La Angelita,
1762,AR,5,Ausonia,
1763,AR,5,Charras,
1764,AR,23,Tolhuin,
1765,AR,22,Bandera,
1766,AR,5,Los Cisnes,
1767,AR,5,Villa De Las Rosas,
1768,AR,14,Wanda,
1769,AR,21,Tacuarendí,
1770,AR,24,Graneros,
1771,AR,21,Helvecia,
1772,AR,9,Las Lomitas,
1773,AR,3,Santa Sylvina,
1774,AR,3,Presidencia Roque Sáenz Peña,
1775,AR,20,Calafate,
1776,AR,21,Angélica,
1777,AR,11,Alta Italia,
1778,AR,22,Santa María,
1779,AR,5,Malvinas Argentinas,
1780,AR,7,Boedo,
1781,AR,11,Lonquimay,
1782,AR,1,Maza,
1783,AR,1,Cacharí,
1784,AR,18,Caucete,
1785,AR,1,Santa Elena,
1786,AR,11,Dorila,
1787,AR,2,El Bolsón,
1788,AR,1,Alejandro Korn,
1789,AR,21,Sancti Spíritu,
1790,AR,7,El Maitén,
1791,AR,14,Jardín América,
1792,AR,21,Juan B. Molina,
1793,AR,5,San Basilio,
1794,AR,6,Itatí,
1795,AR,14,Concepción De La Sierra,
1796,AR,11,Rolón,
1797,AR,5,Ordóñez,
1798,AR,5,Hernando,
1799,AR,1,General Daniel Cerri,
1800,AR,22,Las Talitas,
1801,AR,1,Carmen De Patagones,
1802,AR,6,Mocoretá,
1803,AR,7,Escalante,
1804,AR,1,Quequén,
1805,AR,21,San Martín De Las Escobas,
1806,AR,16,Maquinchao,
1807,AR,22,El Palomar,
1808,AR,1,Coronel Brandsen,
1809,AR,21,Laguna Paiva,
1810,AR,1,Adolfo Gonzáles Chaves,
1811,AR,6,Mercedes,
1812,AR,1,Magdalena,
1813,AR,11,Ingeniero Luiggi,
1814,AR,5,San Antonio De Arredondo,
1815,AR,22,Selva,
1816,AR,17,Colonia Santa Rosa,
1817,AR,1,Juan María Gutiérrez,
1818,AR,1,Punta Lara,
1819,AR,1,Coronel Mom,
1820,AR,21,Llambí Campbell,
1821,AR,21,Puerto Gaboto,
1822,AR,14,Dos De Mayo,
1823,AR,14,Montecarlo,
1824,AR,21,Santa Clara De Saguier,
1825,AR,1,General Pinto,
1826,AR,7,Pueyrredón,
1827,AR,1,Camet,
1828,AR,7,Centro,
1829,AR,5,Pasco,
1830,AR,21,Fuentes,
1831,AR,11,Miguel Cané,
1832,AR,7,Coghlan,
1833,AR,1,Pedernales,
1834,AR,14,Bernardo De Irigoyen,
1835,AR,1,Ameghino,
1836,AR,24,Villa Luján,
1837,AR,5,Malagueño,
1838,AR,5,Los Cocos,
1839,AR,21,Melincué,
1840,AR,24,Villa Carmela,
1841,AR,5,Villa Elisa,
1842,AR,1,La Violeta,
1843,AR,17,Chicoana,
1844,AR,20,28 De Noviembre,
1845,AR,1,López Camelo,
1846,AR,1,La Emilia,
1847,AR,21,Maggiolo,
1848,AR,1,Coronel Vidal,
1849,AR,1,Rauch,
1850,AR,24,Alderetes,
1851,AR,13,Villa Nueva De Guaymallén,
1852,AR,14,San Vicente,
1853,AR,11,La Maruja,
1854,AR,7,Versailles,
1855,AR,1,F. Varela,
1856,AR,1,Leandro N. Alem,
1857,AR,21,Piamonte,
1858,AR,21,San Jerónimo Norte,
1859,AR,8,Gobernador Solá,
1860,AR,3,General Pinedo,
1861,AR,10,La Mendieta,
1862,AR,1,Santa María,
1863,AR,1,Patagones,
1864,AR,21,Máximo Paz,
1865,AR,11,Caleufú,
1866,AR,5,Santa Elena,
1867,AR,13,Vista Flores,
1868,AR,5,Dalmacio Vélez,
1869,AR,5,Etruria,
1870,AR,5,Juárez Celman,
1871,AR,4,Gaimán,
1872,AR,1,Inés Indart,
1873,AR,14,San Javier,
1874,AR,21,María Juana,
1875,AR,21,Villada,
1876,AR,5,Deheza,
1877,AR,4,Río Mayo,
1878,AR,1,Rawson,
1879,AR,8,Valle María,
1880,AR,20,Perito Moreno,
1881,AR,22,San Roque,
1882,AR,5,La Tablada,
1883,AR,15,Villa Traful,
1884,AR,9,El Colorado,
1885,AR,8,San José De Feliciano,
1886,AR,5,Noetinger,
1887,AR,6,Lavalle,
1888,AR,15,Senillosa,
1889,AR,5,Idiazábal,
1890,AR,5,Villa Rumipal,
1891,AR,3,Presidencia De La Plaza,
1892,AR,1,General La Madrid,
1893,AR,2,Bolsón,
1894,AR,5,Las Vertientes,
1895,AR,1,Tolosa,
1896,AR,21,Puerto San Martín,
1897,AR,14,Campo Viera,
1898,AR,1,Ringuelet,
1899,AR,6,Esquina,
1900,AR,5,Cabrera,
1901,AR,5,Laborde,
1902,AR,11,Macachín,
1903,AR,21,Chovet,
1904,AR,21,Humberto I,
1905,AR,21,Villa Eloísa,
1906,AR,3,Pampa Del Indio,
1907,AR,21,Los Cardos,
1908,AR,15,Andacollo,
1909,AR,11,Jacinto Arauz,
1910,AR,5,Villa Huidobro,
1911,AR,1,General Viamonte,
1912,AR,22,Isla Verde,
1913,AR,8,Lucas González,
1914,AR,13,Vistalba,
1915,AR,19,San Francisco,
1916,AR,24,La Madrid,
1917,AR,13,Eugenio Bustos,
1918,AR,7,La Boca,
1919,AR,8,Primero De Mayo,
1920,AR,13,San José,
1921,AR,1,Roque Pérez,
1922,AR,1,Alejandro Petión,
1923,AR,7,Villa Crespo,
1924,AR,5,Jovita,
1925,AR,6,Cerrito,
1926,AR,21,Josefina,
1927,AR,3,Puerto Tirol,
1928,AR,1,Villa Zagala,
1929,AR,1,Empalme,
1930,AR,5,Brinkmann,
1931,AR,2,San Fernando,
1932,AR,21,Domínguez,
1933,AR,8,Durazno,
1934,AR,21,Cayastá,
1935,AR,13,Palmira,
1936,AR,22,La Punta,
1937,AR,19,Las Chacras,
1938,AR,12,Guandacol,
1939,AR,3,Quitilipi,
1940,AR,8,Las Cuevas,
1941,AR,21,Humboldt,
1942,AR,21,Villa Amelia,
1943,AR,21,Santa Rosa De Calchines,
1944,AR,21,Villa Minetti,
1945,AR,1,Lezama,
1946,AR,13,Goudge,
1947,AR,21,Ibarlucea,
1948,AR,5,Arias,
1949,AR,21,Santo Domingo,
1950,AR,21,Peyrano,
1951,AR,14,El Soberbio,
1952,AR,1,Laguna Alsina,
1953,AR,13,Rama Caída,
1954,AR,7,Facundo,
1955,AR,5,Valle Hermoso,
1956,AR,13,Fray Luis Beltrán,
1957,AR,18,Pocito,
1958,AR,7,Villa Riachuelo,
1959,AR,14,Guaraní,
1960,AR,10,San Pedro,
1961,AR,14,Candelaria,
1962,AR,5,Agua De Oro,
1963,AR,5,Sinsacate,
1964,AR,5,Italó,
1965,AR,7,Primera Junta,
1966,AR,5,Las Acequias,
1967,AR,5,San Antonio De Litín,
1968,AR,5,Wenceslao Escalante,
1969,AR,5,Chaján,
1970,AR,24,Villa Quinteros,
1971,AR,1,José L. Suárez,
1972,AR,12,Campanas,
1973,AR,22,Quimilí,
1974,AR,3,Colonia Benítez,
1975,AR,1,Dudignac,
1976,AR,21,Sá Pereira,
1977,AR,14,Cerro Azul,
1978,AR,11,Winifreda,
1979,AR,21,Gregorio,
1980,AR,7,Congreso,
1981,AR,1,La Limpia,
1982,AR,17,General Martín Miguel De Güemes,
1983,AR,5,Bajo Grande,
1984,AR,1,Ducós,
1985,AR,21,Arocena,
1986,AR,5,Colonia Río Chico,
1987,AR,1,J. Hernández,
1988,AR,15,Arroyito,
1989,AR,5,Candonga,
1990,AR,8,Villa Angelica,
1991,AR,21,Nuevo Alberdi,
1992,AR,1,Villa Libertad,
1993,AR,8,Hasenkamp,
1994,AR,8,San Jaime,
1995,AR,17,Embarcación,
1996,AR,1,Guillermo E. Hudson,
1997,AR,5,Costa Sacate,
1998,AR,5,Santa Isabel,
1999,AR,21,Lehmann,
2000,AR,21,Alberdi,
2001,AR,13,Costa De Araujo,
2002,AR,21,Providencia,
2003,AR,1,R. Mejía,
2004,AR,1,Mar Chiquita,
2005,AR,1,Mar Del Tuyú,
2006,AR,8,Ibicuy,
2007,AR,8,Mansilla,
2008,AR,7,Once,
2009,AR,24,Delfín Gallo,
2010,AR,1,Solís,
2011,AR,11,Guatraché,
2012,AR,1,Villars,
2013,AR,1,Río Luján,
2014,AR,1,Manantiales Chicos,
2015,AR,21,San Agustín,
2016,AR,8,General Alvear,
2017,AR,17,Cafayate,
2018,AR,5,Higuera,
2019,AR,13,Lavalle,
2020,AR,24,Concepción,
2021,AR,8,Villa Domínguez,
2022,AR,1,San Carlos De Bolívar,
2023,AR,13,Gobernador Benegas,
2024,AR,1,Carlos Keen,
2025,AR,1,Azcuénaga,
2026,AR,1,Leandro Alem,
2027,AR,13,Santa Rosa,
2028,AR,5,Olaeta,
2029,AR,1,Arenales,
2030,AR,5,Los Cóndores,
2031,AR,12,Catuna,
2032,AR,1,De La Garma,
2033,AR,1,Guaminí,
2034,AR,1,Cascada,
2035,AR,5,Los Altos,
2036,AR,5,Dumesnil,
2037,AR,21,Colonia Clodo,
2038,AR,1,Larligau,
2039,AR,5,Arroyo Cabral,
2040,AR,1,Bahía San Blas,
2041,AR,7,Constitución,
2042,AR,20,Gobernador Gregores,
2043,AR,21,Dúrham,
2044,AR,24,Santa Bárbara,
2045,AR,1,Santa Regina,
2046,AR,5,Pozo Del Molle,
2047,AR,5,Rafael García,
2048,AR,2,Amadores,
2049,AR,7,Lacarra,
2050,AR,1,Guerrico,
2051,AR,21,San Carlos Sur,
2052,AR,5,Alta De La Piedra,
2053,AR,21,Colastiné Sur,
2054,AR,8,Puerto Ruiz,
2055,AR,1,La Torrecita,
2056,AR,5,El Pueblito,
2057,AR,8,Rincón Del Doll,
2058,AR,13,Pedregal,
2059,AR,18,Zonda,
2060,AR,1,Juan B. Alberdi,
2061,AR,5,Toledo,
2062,AR,1,Villa Iris,
2063,AR,5,La Cruz,
2064,AR,15,Picún Leufú,
2065,AR,5,Deán Funes,
2066,AR,5,Ballesteros,
2067,AR,5,Quebracho Herrado,
2068,AR,22,Añatuya,
2069,AR,21,Teodelina,
2070,AR,8,Larroque,
2071,AR,1,Mariano J. Haedo,
2072,AR,8,Seguí,
2073,AR,1,Villa Del Mar,
2074,AR,18,Calingasta,
2075,AR,16,Cipoletti,
2076,AR,1,Claromecó,
2077,AR,9,Siete Palmas,
2078,AR,21,Pavón,
2079,AR,7,Monserrat,
2080,AR,1,Villa C. Colón,
2081,AR,14,Parada Leis,
2082,AR,1,Ingeniero Otamendi,
2083,AR,18,Villa San Isidro,
2084,AR,5,Sitón,
2085,AR,21,Serodino,
2086,AR,21,Bernardo De Irigoyen,
2087,AR,1,Roberts,
2088,AR,21,Progreso,
2089,AR,24,La Reducción,
2090,AR,2,Belén,
2091,AR,1,Coronel Granada,
2092,AR,21,Gödeken,
2093,AR,5,Las Higueras,
2094,AR,11,General San Martín,
2095,AR,1,Carabelas,
2096,AR,1,Bunge,
2097,AR,5,Mattaldi,
2098,AR,1,Villanueva,
2099,AR,5,Coronel Baigorria,
2100,AR,1,Conchitas,
2101,AR,5,Colonia Tirolesa,
2102,AR,8,Aldea De Las Arañas,
2103,AR,7,Villa Soldati,
2104,AR,5,El Tala,
2105,AR,21,Iriondo,
2106,AR,14,Garuhapé,
2107,AR,13,Lunlunta,
2108,AR,1,Patricios,
2109,AR,1,Arenaza,
2110,AR,1,Estación Ramallo,
2111,AR,1,Juan Couste,
2112,AR,1,Mariano Moreno,
2113,AR,15,Añelo,
2114,AR,13,Mayor Drummond,
2115,AR,24,Leales,
2116,AR,20,Cañadón Seco,
2117,AR,1,Puerto Belgrano,
2118,AR,5,Colonia Marina,
2119,AR,7,Agronomía,
2120,AR,8,Villa San Marcial,
2121,AR,1,Sierra De Los Padres,
2122,AR,8,Aldea Brasilera,
2123,AR,21,Huanqueros,
2124,AR,5,Villa Tulumba,
2125,AR,6,Sauce,
2126,AR,8,Villa Mantero,
2127,AR,3,La Leonesa,
2128,AR,21,La Carolina,
2129,AR,17,Santa Rufina,
2130,AR,5,Villa Albertina,
2131,AR,21,Videla,
2132,AR,17,El Tala,
2133,AR,13,General Gutiérrez,
2134,AR,1,Carboni,
2135,AR,20,Sindicato Dodero,
2136,AR,1,Villa Castelar,
2137,AR,21,Pavón Arriba,
2138,AR,5,Casa Grande,
2139,AR,1,General Hornos,
2140,AR,1,A. De La Cruz,
2141,AR,11,Anguil,
2142,AR,1,Sierras Bayas,
2143,AR,1,R. Castillo,
2144,AR,8,Hernández,
2145,AR,3,Coronel Du Graty,
2146,AR,1,Ferré,
2147,AR,1,Olascoaga,
2148,AR,22,Los Ralos,
2149,AR,21,Susana,
2150,AR,3,Castelli,
2151,AR,21,Monte Vera,
2152,AR,6,Curuzú,
2153,AR,4,Las Pulgas,
2154,AR,1,Bosques,
2155,AR,2,San José,
2156,AR,5,Cotagaita,
2157,AR,21,Andino,
2158,AR,11,José De San Martín,
2159,AR,5,Buena Vista,
2160,AR,5,Caroya,
2161,AR,5,Ticino,
2162,AR,10,Tilcara,
2163,AR,5,Ferreyra,
2164,AR,13,Chapanay,
2165,AR,21,Barrancas,
2166,AR,5,Morrison,
2167,AR,16,Godoy,
2168,AR,1,Estanislao S. Zeballos,
2169,AR,13,Fray L. Beltrán,
2170,AR,22,Los Juríes,
2171,AR,9,Pilcomayo,
2172,AR,1,Alberdi,
2173,AR,13,La Puntilla,
2174,AR,21,Nuevo Torino,
2175,AR,13,Bermejo,
2176,AR,8,Echagüe,
2177,AR,5,Elena,
2178,AR,1,Coronel Charlone,
2179,AR,3,Makallé,
2180,AR,13,Rodeo De La Cruz,
2181,AR,1,Ministro Rivadavia,
2182,AR,5,Piquillín,
2183,AR,5,Santa Rosa De Río Primero,
2184,AR,11,Colonia Santa María,
2185,AR,13,Villa Atuel,
2186,AR,1,V. Alsina,
2187,AR,5,Melo,
2188,AR,5,Quilino,
2189,AR,8,Puiggari,
2190,AR,1,Pirovano,
2191,AR,5,Del Campillo,
2192,AR,16,Contraalmirante Martín Guerrico,
2193,AR,5,Colonia Almada,
2194,AR,22,Monte Quemado,
2195,AR,14,Eva Perón,
2196,AR,1,Mar De Ostende,
2197,AR,21,Bauer Y Sigel,
2198,AR,5,Villa De Soto,
2199,AR,1,Villa Cacique,
2200,AR,21,Ricardone,
2201,AR,24,Los Gutiérrez,
2202,AR,1,Beruti,
2203,AR,5,Cintra,
2204,AR,21,Chañar Ladeado,
2205,AR,5,Villa Belgrano,
2206,AR,21,Lanteri,
2207,AR,21,Puerto Reconquista,
2208,AR,21,San Eduardo,
2209,AR,24,Trancas,
2210,AR,5,La Francia,
2211,AR,14,Gobernador López,
2212,AR,1,Garré,
2213,AR,21,San Diego,
2214,AR,10,La Unión,
2215,AR,22,Villa Atamisqui,
2216,AR,6,San Cosme,
2217,AR,5,Ucacha,
2218,AR,5,Achiras,
2219,AR,1,Colonia Seré,
2220,AR,5,Charbonier,
2221,AR,1,E. Echeverría,
2222,AR,7,General Urquiza,
2223,AR,1,Sánchez,
2224,AR,1,Mathew,
2225,AR,14,Gobernador Roca,
2226,AR,13,El Challao,
2227,AR,5,Buchardo,
2228,AR,11,Rancul,
2229,AR,2,Tinogasta,
2230,AR,21,Bossi,
2231,AR,1,Villa Lía,
2232,AR,20,Comandante Luis Piedra Buena,
2233,AR,1,Curarú,
2234,AR,15,Loncopué,
2235,AR,20,San Julián,
2236,AR,4,Corcovado,
2237,AR,5,Alejo Ledesma,
2238,AR,5,General Baldissera,
2239,AR,1,El Triunfo,
2240,AR,13,Tres De Mayo,
2241,AR,21,Arminda,
2242,AR,21,Clucellas,
2243,AR,3,Colonias Unidas,
2244,AR,1,El Socorro,
2245,AR,1,Punta Indio,
2246,AR,5,Benjamín Gould,
2247,AR,1,General Madariaga,
2248,AR,5,Vicuña Mackenna,
2249,AR,11,Embajador Martini,
2250,AR,12,Sanagasta,
2251,AR,5,Falda Del Carmen,
2252,AR,5,San José De La Dormida,
2253,AR,3,Pampa Del Infierno,
2254,AR,15,El Cholar,
2255,AR,1,General Pirán,
2256,AR,5,Los Reartes,
2257,AR,1,Arana,
2258,AR,5,Cordoba,
2259,AR,24,Tucuman,
2260,AR,5,Rio Ceballos,
2261,AR,1,Zarate,
2262,AR,5,Villa Maria,
2263,AR,15,Neuquen,
2264,AR,13,San Martin,
2265,AR,1,Junin,
2266,AR,8,Gualeguaychu,
2267,AR,8,Chajari,
2268,AR,1,Ramos Mejia,
2269,AR,17,Guemes,
2270,AR,1,Benavidez,
2271,AR,5,Rio Cuarto,
2272,AR,2,Jose,
2273,AR,8,Parana,
2274,AR,13,Lujan,
2275,AR,1,Bahia Blanca,
2276,AR,19,Hipolito Yrigoyen,
2277,AR,1,San Andres De Giles,
2278,AR,1,Huanguelen,
2279,AR,1,San Nicolas,
2280,AR,5,Ordonez,
2281,AR,21,Capitan Bermudez,
2282,AR,1,Fatima,
2283,AR,3,Roque Saenz Pena,
2284,AR,11,Realico,
2285,AR,24,Famailla,
2286,AR,20,Rio Gallegos,
2287,AR,5,Marcos Juarez,
2288,AR,5,Concepcion,
2289,AR,5,Rio Tercero,
2290,AR,1,Olavarria,
2291,AR,1,Vicente Lopez,
2292,AR,21,Gobernador Galvez,
2293,AR,5,Tio Pujio,
2294,AR,1,Tacuari,
2295,AR,23,Rio Grande,
2296,AR,11,Rio Colorado,
2297,AR,1,Luis Guillon,
2298,AR,1,Medanos,
2299,AR,1,Sanchez,
2300,AR,22,Santa Lucia,
2301,AR,22,Frias,
2302,AR,14,Obera,
2303,AR,5,Adelia Maria,
2304,AR,14,Apostoles,
2305,AR,14,Puerto Iguazu,
2306,AR,22,Termas De Rio Hondo,
2307,AR,1,Martinez,
2308,AR,1,Mar De Ajo,
2309,AR,1,Batan,
2310,AR,1,Bolivar,
2311,AR,1,Bartolome Mitre,
2312,AR,21,Diaz,
2313,AR,3,Las Brenas,
2314,AR,17,Rio Piedras,
2315,AR,1,Colon,
2316,AR,5,Despenaderos,
2317,AR,1,Pigue,
2318,AR,13,Pena,
2319,AR,24,Banda Del Rio Sali,
2320,AR,21,Amenabar,
2321,AR,13,Guaymallen,
2322,AR,1,Perez Millan,
2323,AR,8,Ramirez,
2324,AR,5,Portena,
2325,AR,19,Concaran,
2326,AR,22,Fernandez,
2327,AR,19,Cramer,
2328,AR,1,Calderon,
2329,AR,5,Peron,
2330,AR,1,Coronel Suarez,
2331,AR,1,Energia,
2332,AR,21,Liniers,
2333,AR,1,Estacion San Andres,
2334,AR,21,Perez,
2335,AR,21,San Jose,
2336,AR,1,Ituzaingo,
2337,AR,1,Lanus,
2338,AR,1,Lujan,
2339,AR,1,Jose C. Paz,
2340,AR,1,Gonzalez Catan,
2341,AR,1,Jose L. Suarez,
2342,AR,1,Moron,
2343,AR,1,Jose Leon Suarez,
2344,AR,1,Villa Dominico,
2345,AR,1,Garin,
2346,AR,21,Santo Tome,
2347,AR,3,Villa Angela,
2348,AR,1,Belen De Escobar,
2349,AR,8,Concepcion Del Uruguay,
2350,AR,1,Barrio Esteban Echeverria,
2351,AR,1,Jose Marmol,
2352,AR,1,Muniz,
2353,AR,5,Vicuna Mackenna,
2354,AR,7,Nunez,
2355,AR,6,Curuzu Cuatia,
2356,AR,13,Malargue,
2357,AR,13,Tunuyan,
2358,AR,1,San Martin,
2359,AR,21,Canada De Gomez,
2360,AR,1,Saenz Pena,
2361,AR,24,Los Gutierrez,
2362,AR,24,Tafi Viejo,
2363,AR,5,Cosquin,
2364,AR,3,Makalle,
2365,AR,21,La Florida,
2366,AR,21,Fray Luis Beltran,
2367,AR,1,General Rodriguez,
2368,AR,7,Constitucion,
2369,AR,21,Empalme Villa Constitucion,
2370,AR,5,Villa Del Lago,
2371,AR,21,Villa Constitucion,
2372,AR,21,Calchaqui,
2373,AR,14,San Alberto,
2374,AR,21,Maria Juana,
2375,AR,1,Pehuajo,
2376,AR,11,Macachin,
2377,AR,5,Rio Segundo,
2378,AR,5,Saldan,
2379,AR,5,Juarez Celman,
2380,AR,13,General Gutierrez,
2381,AR,16,Fuerte General Roca,
2382,AR,7,San Cristobal,
2383,AR,1,Esteban Echeverria,
2384,AR,10,La Union,
2385,AR,15,Junin De Los Andes,
2386,AR,15,Loncopue,
2387,AR,1,Canuelas,
2388,AR,1,Francisco Alvarez,
2389,AR,21,Chabas,
2390,AR,5,Malagueno,
2391,AR,21,Roldan,
2392,AR,11,Catrilo,
2393,AR,7,Velez Sarsfield,
2394,AR,10,Palpala,
2395,AR,2,El Bolson,
2396,AR,1,Salliquelo,
2397,AR,1,Carhue,
2398,AR,1,General Piran,
2399,AR,20,Rio Turbio,
2400,AR,1,Tristan Suarez,
2401,AR,1,Valentin Alsina,
2402,AR,1,Platanos,
2403,AR,13,Junin,
2404,AR,1,Sarandi,
2405,AR,8,General Ramirez,
2406,AR,1,Veronica,
2407,AR,8,San Jose De Feliciano,
2408,AR,16,Luis Beltran,
2409,AR,15,Cutral-co,
2410,AR,1,Roque Perez,
2411,AR,15,Anelo,
2412,AR,15,Picun Leufu,
2413,AR,21,Villa Gobernador Galvez,
2414,AR,21,Galvez,
2415,AR,21,Maria Susana,
2416,AR,5,Jesus Maria,
2417,AR,1,Jauregui,
2418,AR,21,Arrufo,
2419,AR,17,San Ramon,
2420,AR,24,Guemes,
2421,AR,1,San Andres,
2422,AR,1,Benito Juarez,
2423,AR,21,Fredriksson,
2424,AR,1,Quequen,
2425,AR,20,Puerto San Julian,
2426,AR,16,General Fernandez Oro,
2427,AR,18,Santa Lucia,
2428,AR,17,San Ramon De La Nueva Oran,
2429,AR,7,Agronomia,
2430,AR,1,Juan Maria Gutierrez,
2431,AR,14,Garupa,
2432,AR,1,Chascomus,
2433,AR,21,Carcarana,
2434,AR,1,Adolfo Gonzales Chaves,
2435,AR,21,Dominguez,
2436,AR,2,Belen,
2437,AR,21,Alvarez,
2438,AR,1,Loberia,
2439,AR,14,Gobernador Lopez,
2440,AR,21,San Martin,
2441,AR,14,Puerto Eldorado,
2442,AR,21,Los Rosas,
2443,AR,21,Godeken,
2444,AR,21,Canada Rosquin,
2445,AR,5,Santa Maria De Punilla,
2446,AR,3,Presidencia Roque Saenz Pena,
2447,AR,1,San Clemente Del Tuyu,
2448,AR,21,Pavon Arriba,
2449,AR,21,San Martin De Las Escobas,
2450,AR,8,Segui,
2451,AR,1,Capilla Del Senor,
2452,AR,11,General San Martin,
2453,AR,11,Jose De San Martin,
2454,AR,5,Bialet Masse,
2455,AR,21,Sa Pereira,
2456,AR,21,San Cristobal,
2457,AR,5,Huinca Renanco,
2458,AR,8,Federacion,
2459,AR,5,Monte Maiz,
2460,AR,21,Melincue,
2461,AR,9,Pirane,
2462,AR,21,Villa Canas,
2463,AR,8,Maria Grande,
2464,AR,1,Colonia Sere,
2465,AR,21,San Jeronimo Norte,
2466,AR,1,Lopez,
2467,AR,21,Villa Eloisa,
2468,AR,5,Italo,
2469,AR,4,Trevelin,
2470,AR,5,Piquillin,
2471,AR,5,Barrio La Fortuna,
2472,AR,1,Maipu,
2473,AR,15,San Martin De Los Andes,
2474,AR,1,Capitan Sarmiento,
2475,AR,1,Ferre,
2476,AR,4,Rio Mayo,
2477,AR,1,Villa Lia,
2478,AR,1,Villa San Jose,
2479,AR,8,Nogoya,
2480,AR,1,Estacion Ramallo,
2481,AR,21,Pavon,
2482,AR,1,Villa Leon,
2483,AR,1,Los Palverines,
2484,AR,5,Mercedes,
2485,AR,1,Villa Martinez De Hoz,
2486,AR,1,J. Leon Suarez,
2487,AR,21,Estacion Matilde,
2488,AR,17,General Guemes,
2489,AR,14,Garuhape,
2490,AR,1,General San Martin,
2491,AR,7,Villa Pueyrredon,
2492,AR,13,Maipu,
2493,AR,14,Jardin America,
2494,AR,1,Santa Maria,
2495,AR,1,Pinero,
2496,AR,1,Vina,
2497,AR,1,Manuel Ocampo,
2498,AR,8,Hernandez,
2499,AR,5,Guatimozin,
2500,AR,5,La Playosa,
2501,AR,17,El Encon,
2502,AR,19,Carpinteria,
2503,AR,5,Villa Icho Cruz,
2504,AR,5,Rio Primero,
2505,AR,21,Theobald,
2506,AR,21,Puerto San Martin,
2507,AR,1,Solano,
2508,AR,5,Arguello,
2509,AR,21,San Jose De La Esquina,
2510,AR,5,Washington,
2511,AR,17,Pichanal,
2512,AR,21,Llambi Campbell,
2513,AR,1,Juan Bautista Alberdi,
2514,AR,1,Curaru,
2515,AR,1,Dique Lujan,
2516,AR,5,Yoccina,
2517,AR,13,San Jose,
2518,AR,21,Maximo Paz,
2519,AR,21,El Trebol,
2520,AR,5,Dean Funes,
2521,AR,17,La Caldera,
2522,AR,1,G. Catan,
2523,AR,6,Santo Tome,
2524,AR,17,Aguaray,
2525,AR,1,Mar Del Tuyu,
2526,AR,5,Luca,
2527,AR,14,Puerto Libertad,
2528,AR,5,Villa De Maria,
2529,AR,24,Bella Vista,
2530,AR,17,Salvador Mazza,
2531,AR,21,Moreno,
2532,AR,5,San Javier,
2533,AR,21,Chanar Ladeado,
2534,AR,1,O'brien,
2535,AR,21,Palacios,
2536,AR,21,Rosquin,
2537,AR,12,Anjullon,
2538,AR,7,El Maiten,
2539,AR,5,Viamonte,
2540,AR,21,Zenon Pereyra,
2541,AR,21,Canada Del Ucle,
2542,AR,21,Hersilia,
2543,AR,22,Anatuya,
2544,AR,15,Alumine,
2545,AR,21,Cayasta,
2546,AR,1,N. De La Riestra,
2547,AR,5,Los Condores,
2548,AR,5,San Jose De La Dormida,
2549,AR,11,Guatrache,
2550,AR,1,Labarden,
2551,AR,1,Villalonga,
2552,AR,21,Emilia,
2553,AR,3,Presidencia Roca,
2554,AR,5,Frontera,
2555,AR,1,Villa Martin Arin,
2556,AR,22,Las Termas De Rio Hondo,
2557,AR,4,Playa Union,
2558,AR,1,San Agustin,
2559,AR,8,Campos,
2560,AR,21,San Jose Del Rincon,
2561,AR,21,Maria Teresa,
2562,AR,5,Coronel Moldes,
2563,AR,1,Claromeco,
2564,AR,11,Bernardo Larroude,
2565,AR,1,Marmol,
2566,AR,8,Conscripto Bernardi,
2567,AR,22,Rio Hondo,
2568,AR,14,Itacaruare,
2569,AR,14,Ruiz De Montoya,
2570,AR,1,Mariano Benitez,
2571,AR,1,Tapalque,
2572,AR,5,Colonia San Bartolome,
2573,AR,18,Albardon,
2574,AR,20,San Julian,
2575,AR,1,Villa Barcelo,
2576,AR,10,Reyes,
2577,AR,1,Vivorata,
2578,AR,17,Gonzalez,
2579,AR,8,Gobernador Mansilla,
2580,AR,1,Rio Tala,
2581,AR,1,Villa Fortabat,
2582,AR,8,Los Conquistadores,
2583,AR,5,La Palestina,
2584,AR,14,Iguazu,
2585,AR,21,Juncal,
2586,AR,11,Caleufu,
2587,AR,19,La Toma,
2588,AR,3,La Escondida,
2589,AR,1,Francisco Madero,
2590,AR,11,Quemu Quemu,
2591,AR,1,Cachari,
2592,AR,1,Loma Negra,
2593,AR,14,Capiovi,
2594,AR,22,Loreto,
2595,AR,1,San Carlos De Bolivar,
2596,AR,6,Ituzaingo,
2597,AR,8,Lucas Gonzalez,
2598,AR,10,Libertador General San Martin,
2599,AR,1,Pueblo San Jose,
2600,AR,17,General Mosconi,
2601,AR,21,Cabal,
2602,AR,3,Colonia Benitez,
2603,AR,15,Villa El Chocon,
2604,AR,13,Villa Hipodromo,
2605,AR,4,Gaiman,
2606,AR,5,Berrotaran,
2607,AR,16,San Antonio Este,
2608,AR,17,Metan,
2609,AR,22,Las Termas,
2610,AR,11,Colonia Baron,
2611,AR,1,Baigorrita,
2612,AR,1,V. Lopez,
2613,AR,1,Mechongue,
2614,AR,21,Sancti Spiritu,
2615,AR,6,San Roque,
2616,AR,21,Pinero,
2617,AR,21,General Lagos,
2618,AR,21,Tacuarendi,
2619,AR,24,Tafi Del Valle,
2620,AR,1,Acevedo,
2621,AR,6,Itati,
2622,AR,21,Diego De Alvear,
2623,AR,22,Robles,
2624,AR,21,Margarita,
2625,AR,17,Profesor Salvador Mazza,
2626,AR,21,Vera Y Pintado,
2627,AR,7,Presidente Roque Saenz Pena,
2628,AR,1,Martinez De Hoz,
2629,AR,13,Villa Nueva De Guaymallen,
2630,AR,1,Melchor Romero,
2631,AR,3,Las Garcitas,
2632,AR,2,Los Altos,
2633,AR,11,Bernasconi,
2634,AR,1,Pasteur,
2635,AR,5,La Para,
2636,AR,7,Ramon L. Falcon,
2637,AR,1,Hinojo,
2638,AR,18,Las Casuarinas,
2639,AR,13,Ingeniero Giagnoni,
2640,AR,1,Villa Sanguinetti,
2641,AR,21,Colastine Sur,
2642,AR,6,Paso De La Patria,
2643,AR,24,San Miguel De Tucuman,
2644,AR,13,Lujan De Cuyo,
2645,AR,5,Pascanas,
2646,AR,10,San Salvador De Jujuy,
2647,AR,24,Concepcion,
2648,AR,2,San Isidro,
2649,AR,1,San Nicolas De Los Arroyos,
2650,AR,2,San Jose,
2651,AR,21,La Criolla,
2652,AR,2,San Fernando Del Valle De Catamarca,
2653,AR,21,Angelica,
2654,AR,1,Maximo Paz,
2655,AR,14,Corpus,
2656,AR,16,El Bolson,
2657,AR,1,9 De Julio,
2658,AR,21,Rivadavia,
2659,AR,11,Pico,
2660,AR,1,Mar De Plata,
2661,AR,17,Las Lajitas,
2662,AR,8,Colon,
2663,AR,14,Aristobulo Del Valle,
2664,AR,19,Villa Mercedes,
2665,AR,13,Los Sauces,
2666,AR,21,Lopez,
2667,AR,5,Calchin,
2668,AR,5,Escalante,
2669,AR,16,Pomona,
2670,AR,1,25 De Mayo,
2671,AR,8,Villa Elisa,
2672,AR,17,Oran,
2673,AR,15,El Huecu,
2674,AR,22,Colonia Josefina,
2675,AR,21,Carrizales,
2676,AR,8,San Martin,
2677,AR,8,La Paz,
2678,AR,1,Canada Seca,
2679,AR,10,Ledesma,
2680,AR,5,El Tio,
2681,AR,16,Balneario El Condor,
2682,AR,15,Nequen,
2683,AR,7,Epuyen,
2684,AR,12,Villa Castelli,
2685,AR,1,San Manuel,
2686,AR,13,Zapata,
2687,AR,21,Espana,
2688,AR,9,San Martin,
2689,AR,8,Villa Clara,
2690,AR,1,Ascension,
2691,AR,3,Corzuela,
2692,AR,1,Guamini,
2693,AR,1,Sierra Chica,
2694,AR,5,Cabana,
2695,AR,1,Claraz,
2696,AR,14,Santa Ana,
2697,AR,17,El Bordo,
2698,AR,15,Chos Malal,
2699,AR,17,General Enrique Mosconi,
2700,AR,13,Mayor Drumond,
2701,AR,1,Asamblea,
2702,AR,17,San Julian,
2703,AR,1,Rivas,
2704,AR,22,Beltran,
2705,AR,6,La Cruz,
2706,AR,12,Anillaco,
2707,AR,1,Las Toscas,
2708,AR,17,Rosario De Lerma,
2709,AR,21,Saguier,
2710,AR,5,Pampayasta Sur,
2711,AR,7,General J. De San Martin,
2712,AR,6,Saladas,
2713,AR,21,Las Tunas,
2714,AR,21,San Genaro Norte,
2715,AR,18,San Martin,
2716,AR,1,J.l. Suarez,
2717,AR,21,Silva,
2718,AR,2,Copetonas,
2719,AR,6,Ita Ibate,
2720,AR,12,Vichigasta,
2721,AR,1,Barker,
2722,AR,13,Capdeville,
2723,AR,12,Milagro,
2724,AR,5,Santa Rosa De Rio 1,
2725,AR,22,Rubia Moreno,
2726,AR,16,General Conesa,
2727,AR,1,Empalme Lobos,
2728,AR,21,Bouquet,
2729,AR,12,Vinchina,
2730,AR,1,Arturo Segui,
2731,AR,1,Garre,
2732,AR,1,Moquehua,
2733,AR,14,Eva Peron,
2734,AR,1,Juan Jose Paso,
2735,AR,5,Idiazabal,
2736,AR,5,Las Junturas,
2737,AR,24,La Cocha,
2738,AR,15,Las Lajas,
2739,AR,1,L. Guillon,
2740,AR,10,Santo Domingo,
2741,AR,1,Morse,
2742,AR,5,El Salto,
2743,AR,1,Echeverria,
2744,AR,5,Alto Alegre,
2745,AR,21,La Gallareta,
2746,AR,1,Villa Galicia,
2747,AR,13,Villa Edelmira,
2748,AR,21,Cululu,
2749,AR,14,San Jose,
2750,AR,5,La Laguna,
2751,AR,5,Corralito,
2752,AR,3,Cote-lai,
2753,AR,21,San Jeronimo,
2754,AR,1,Villa Espana,
2755,AR,5,El Aranado,
2756,AR,8,Valle Maria,
2757,AR,21,Barrio Belgrano,
2758,AR,5,Miramar,
2759,AR,5,Chucul,
2760,AR,1,Goldey,
2761,AR,1,Villa C. Colon,
2762,AR,1,Villa Hogar Aleman,
2763,AR,5,Capitan General Bernardo O'higgins,
2764,AR,7,Nazca,
2765,AR,17,Joaquin V. Gonzalez,
2766,AR,8,Villa San Jose,
2767,AR,1,Villa San Francisco,
2768,AR,1,Santa Catalina,
2769,AR,21,Vicente A. Echeverria,
2770,AR,1,Torres,
2771,AR,1,E. Echeverria,
2772,AR,1,Chapadmalal,
2773,AR,3,Margarita Belen,
2774,AR,1,Dock Sur,
2775,AR,1,Ariel,
2776,AR,1,Pavon,
2777,AR,8,Los Charruas,
2778,AR,1,Banderalo,
2779,AR,5,Casa Bamba,
2780,AR,10,Santa Clara,
2781,AR,20,Canadon Seco,
2782,AR,7,Montserrat,
