locId,country,region,city,postcode
11959,AU,,,
11960,AU,4,Brisbane,
11961,AU,7,Doncaster,
11962,AU,7,Melbourne,
11963,AU,7,Geelong,
11964,AU,7,Queensferry,
11965,AU,1,Canberra,
11966,AU,2,Sydney,
11967,AU,7,South Yarra,
11968,AU,4,Toowoomba,
11969,AU,2,Rhodes,
11970,AU,8,Perth,
11971,AU,2,Surry Hills,
11972,AU,2,Merrylands,
11973,AU,4,New Farm,
11974,AU,2,Bondi,
11975,AU,7,Richmond,
11976,AU,7,Box Hill,
11977,AU,4,Clayton,
11978,AU,2,Botany,
11979,AU,7,Hawthorn,
11980,AU,2,Parramatta,
11981,AU,2,Ryde,
11982,AU,8,Paddington,
11983,AU,7,Heidelberg,
11984,AU,2,Pennant Hills,
11985,AU,7,Collingwood,
11986,AU,7,Auburn,
11987,AU,5,Adelaide,
11988,AU,2,Castle Hill,
11989,AU,7,Newtown,
11990,AU,7,Redbank,
11991,AU,7,Epping,
11992,AU,2,Concord,
11993,AU,7,Upwey,
11994,AU,4,Mitchell,
11995,AU,6,Mayfield,
11996,AU,4,Cairns,
11997,AU,7,Seaford,
11998,AU,4,Noosa Heads,
11999,AU,2,Lane Cove,
12000,AU,2,Barry,
12001,AU,2,Rydalmere,
12002,AU,6,Carlton,
12003,AU,7,Forest Hill,
12004,AU,7,Albion,
12005,AU,4,Edge Hill,
12006,AU,7,Rosebery,
12007,AU,2,Baulkham Hills,
12008,AU,2,Matraville,
12009,AU,4,Surfers Paradise,
12010,AU,7,Horsham,
12011,AU,7,Sunshine,
12012,AU,7,Ballarat,
12013,AU,2,Turramurra,
12014,AU,2,Pyrmont,
12015,AU,4,Abermain,
12016,AU,4,Broadbeach,
12017,AU,2,Burwood,
12018,AU,2,Kenmore,
12019,AU,7,Mulgrave,
12020,AU,7,Gordon,
12021,AU,8,Collie,
12022,AU,7,Bayswater,
12023,AU,2,Balgownie,
12024,AU,2,Chatswood,
12025,AU,2,Armidale,
12026,AU,7,Salisbury,
12027,AU,7,Aspendale,
12028,AU,5,Phillip,
12029,AU,5,Mitcham,
12030,AU,4,Gladstone,
12031,AU,5,Elizabeth,
12032,AU,7,Newstead,
12033,AU,6,Forest,
12034,AU,2,Lavington,
12035,AU,7,Brighton,
12036,AU,2,Newcastle,
12037,AU,2,Balmain,
12038,AU,7,Dean,
12039,AU,2,Narrabeen,
12040,AU,7,Scoresby,
12041,AU,2,Ultimo,
12042,AU,7,Wheelers Hill,
12043,AU,6,Guilford,
12044,AU,6,Penguin,
12045,AU,5,Windsor,
12046,AU,2,Mathoura,
12047,AU,2,Flemington,
12048,AU,7,Camberwell,
12049,AU,7,Spring Hill,
12050,AU,7,Yarra Junction,
12051,AU,6,Grove,
12052,AU,7,Dandenong,
12053,AU,7,Mansfield,
12054,AU,7,Broadmeadows,
12055,AU,2,Neutral Bay,
12056,AU,2,Dural,
12057,AU,7,Ringwood North,
12058,AU,2,Vaucluse,
12059,AU,4,Moore,
12060,AU,8,Nedlands,
12061,AU,4,Tarragindi,
12062,AU,5,Unley,
12063,AU,7,Glen Waverley,
12064,AU,4,Ipswich,
12065,AU,4,Gold Coast,
12066,AU,4,Bethania,
12067,AU,2,Marrickville,
12068,AU,2,Thirroul,
12069,AU,4,Manly,
12070,AU,2,Coffs Harbour,
12071,AU,8,Bellevue,
12072,AU,4,Caloundra,
12073,AU,4,Southport,
12074,AU,7,Edithvale,
12075,AU,5,Modbury,
12076,AU,4,Bundaberg,
12077,AU,8,Glen Iris,
12078,AU,2,Byron Bay,
12079,AU,4,Bancroft,
12080,AU,2,Mittagong,
12081,AU,4,Port Douglas,
12082,AU,5,Hindmarsh,
12083,AU,2,Potts Point,
12084,AU,2,Euston,
12085,AU,2,Ramsgate,
12086,AU,7,Brunswick,
12087,AU,2,Tweed Heads,
12088,AU,2,Nowra,
12089,AU,2,Artarmon,
12090,AU,4,Pine Hill,
12091,AU,7,Barkly,
12092,AU,7,Preston,
12093,AU,7,Ascot,
12094,AU,2,Federal,
12095,AU,2,Bankstown,
12096,AU,2,Blacktown,
12097,AU,5,Avenue,
12098,AU,7,Fielder,
12099,AU,2,Weston,
12100,AU,1,Tuggeranong,
12101,AU,8,Pioneer,
12102,AU,2,Edith,
12103,AU,5,Smithfield,
12104,AU,2,Liverpool,
12105,AU,7,Mount Waverley,
12106,AU,6,Hobart,
12107,AU,7,Campbellfield,
12108,AU,5,Virginia,
12109,AU,4,Howard,
12110,AU,7,Coburg,
12111,AU,8,Bowes,
12112,AU,6,Bell Bay,
12113,AU,2,Villawood,
12114,AU,7,Footscray,
12115,AU,7,Homebush,
12116,AU,5,Cook,
12117,AU,2,Wellington,
12118,AU,7,Altona,
12119,AU,2,Bourke,
12120,AU,4,Lytton,
12121,AU,2,Lambton,
12122,AU,2,Young,
12123,AU,4,Miles,
12124,AU,2,Wollongong,
12125,AU,2,Kurri Kurri,
12126,AU,2,Clovelly,
12127,AU,2,Abbotsford,
12128,AU,7,Myer,
12129,AU,5,Prospect,
12130,AU,4,Rockhampton,
12131,AU,7,Bendigo,
12132,AU,2,Parkville,
12133,AU,6,Plenty,
12134,AU,4,Sunnybank,
12135,AU,8,Wembley,
12136,AU,5,Keith,
12137,AU,7,Morwell,
12138,AU,7,Camperdown,
12139,AU,4,Aitkenvale,
12140,AU,7,Valhalla,
12141,AU,7,Research,
12142,AU,5,Georgetown,
12143,AU,2,Port Kembla,
12144,AU,2,East Maitland,
12145,AU,7,Fitzroy,
12146,AU,2,Roseville,
12147,AU,7,Essendon,
12148,AU,7,Doncaster East,
12149,AU,2,Osborne,
12150,AU,8,Subiaco,
12151,AU,2,Wagga Wagga,
12152,AU,1,Belconnen,
12153,AU,3,Darwin,
12154,AU,4,Townsville,
12155,AU,7,Kingston,
12156,AU,2,Collaroy,
12157,AU,7,Donald,
12158,AU,5,Bruce,
12159,AU,2,Tottenham,
12160,AU,2,Greenwich,
12161,AU,2,Westmead,
12162,AU,2,Drummoyne,
12163,AU,5,Clapham,
12164,AU,6,Mona Vale,
12165,AU,2,Aberfoyle,
12166,AU,4,Wynnum,
12167,AU,5,Hahndorf,
12168,AU,7,Sandringham,
12169,AU,7,Baxter,
12170,AU,5,Findon,
12171,AU,7,Belmont,
12172,AU,2,Bowral,
12173,AU,7,Malvern,
12174,AU,6,Launceston,
12175,AU,5,Mount Gambier,
12176,AU,7,Frankston East,
12177,AU,7,Sinclair,
12178,AU,8,Kelmscott,
12179,AU,4,Mudgeeraba,
12180,AU,4,Acacia Ridge,
12181,AU,5,Sturt,
12182,AU,7,Caulfield,
12183,AU,2,Wahroonga,
12184,AU,2,Menai,
12185,AU,7,Hampton Park,
12186,AU,7,Blackwood,
12187,AU,7,Canadian,
12188,AU,4,Yandina,
12189,AU,7,Frankston,
12190,AU,7,Armadale,
12191,AU,2,Griffith,
12192,AU,2,Ashfield,
12193,AU,7,Lindsay,
12194,AU,2,Orange,
12195,AU,2,Fairfield,
12196,AU,2,Watsons Bay,
12197,AU,5,Kensington,
12198,AU,7,Campbell,
12199,AU,7,Tatura,
12200,AU,7,Maffra,
12201,AU,2,Milton,
12202,AU,5,Semaphore,
12203,AU,5,Keswick,
12204,AU,2,Singleton,
12205,AU,7,Guildford,
12206,AU,7,Prahran,
12207,AU,2,Gladesville,
12208,AU,4,Dalby,
12209,AU,7,Burleigh,
12210,AU,7,Wantirna South,
12211,AU,7,Waterloo,
12212,AU,2,Mascot,
12213,AU,7,Mortlake,
12214,AU,7,Oakleigh,
12215,AU,5,Woodville,
12216,AU,4,Coorparoo,
12217,AU,2,Berowra,
12218,AU,7,Douglas,
12219,AU,7,Southern Cross,
12220,AU,4,Invicta,
12221,AU,2,Parkes,
12222,AU,7,Elsternwick,
12223,AU,2,Cooma,
12224,AU,7,Traralgon,
12225,AU,7,Croydon,
12226,AU,2,Robertson,
12227,AU,2,Richlands,
12228,AU,7,Cheltenham,
12229,AU,2,Lismore,
12230,AU,4,Redland Bay,
12231,AU,4,Crows Nest,
12232,AU,6,Aspley,
12233,AU,8,Williams,
12234,AU,7,Laverton,
12235,AU,5,Gawler,
12236,AU,2,Beresfield,
12237,AU,2,Albury,
12238,AU,7,Keilor,
12239,AU,7,Springvale South,
12240,AU,7,Rowville,
12241,AU,7,Beaconsfield,
12242,AU,5,Morphett Vale,
12243,AU,2,Seven Hills,
12244,AU,7,The Patch,
12245,AU,7,Welshpool,
12246,AU,2,Spencer,
12247,AU,2,Cammeray,
12248,AU,8,Northcliffe,
12249,AU,7,Baker,
12250,AU,2,Goulburn,
12251,AU,2,Kareela,
12252,AU,8,Claremont,
12253,AU,6,Burnie,
12254,AU,6,Devonport,
12255,AU,2,Seaham,
12256,AU,2,Raymond Terrace,
12257,AU,7,Lara,
12258,AU,2,Abercrombie,
12259,AU,7,Stirling,
12260,AU,2,Penrith,
12261,AU,5,Birdwood,
12262,AU,7,Inglewood,
12263,AU,2,Lidcombe,
12264,AU,2,Eastwood,
12265,AU,7,Flinders,
12266,AU,2,Unanderra,
12267,AU,5,Leighton,
12268,AU,2,Padstow,
12269,AU,2,Bundarra,
12270,AU,8,Fremantle,
12271,AU,7,Earlston,
12272,AU,8,Scarborough Beach,
12273,AU,7,Boronia,
12274,AU,7,Vincent,
12275,AU,7,Lilydale,
12276,AU,6,Cleveland,
12277,AU,5,Plympton,
12278,AU,8,Scarborough,
12279,AU,7,Keon Park,
12280,AU,7,Donvale,
12281,AU,2,Ivanhoe,
12282,AU,4,Bowen,
12283,AU,7,Woodside,
12284,AU,6,Evandale,
12285,AU,2,Waverley,
12286,AU,2,Strathfield,
12287,AU,2,Lindfield,
12288,AU,5,Bedford Park,
12289,AU,8,Rockingham,
12290,AU,3,Katherine,
12291,AU,2,Randwick,
12292,AU,2,Woy Woy,
12293,AU,8,Augusta,
12294,AU,2,Rosebank,
12295,AU,7,Moorabbin,
12296,AU,2,Minto,
12297,AU,7,Dingley,
12298,AU,8,Albany,
12299,AU,3,Nhulunbuy,
12300,AU,2,Berkeley Vale,
12301,AU,2,Port Macquarie,
12302,AU,7,Melton,
12303,AU,7,Thomastown,
12304,AU,4,Corinda,
12305,AU,7,Rosebud,
12306,AU,7,Warrandyte,
12307,AU,7,Lower Templestowe,
12308,AU,7,Northcote,
12309,AU,7,Daisy Hill,
12310,AU,8,Bentley,
12311,AU,7,Werribee,
12312,AU,2,Corrimal,
12313,AU,7,Wangaratta,
12314,AU,2,Sylvania,
12315,AU,8,Hotham,
12316,AU,2,Como,
12317,AU,2,Hornsby,
12318,AU,2,Pymble,
12319,AU,1,Fyshwick,
12320,AU,8,Ives,
12321,AU,7,Waratah,
12322,AU,7,Nunawading,
12323,AU,2,Carrington,
12324,AU,2,Brookvale,
12325,AU,4,Herberton,
12326,AU,2,Tuggerah,
12327,AU,8,Kalgoorlie,
12328,AU,2,Narrabri,
12329,AU,4,Torquay,
12330,AU,2,Empire Bay,
12331,AU,7,Woodvale,
12332,AU,7,Noble Park,
12333,AU,8,Coogee,
12334,AU,7,Ringwood,
12335,AU,8,Mandurah,
12336,AU,5,Norwood,
12337,AU,2,Wauchope,
12338,AU,2,Burdett,
12339,AU,7,Killara,
12340,AU,7,Everton,
12341,AU,7,Fenwick,
12342,AU,7,Deakin,
12343,AU,7,Rodborough,
12344,AU,2,Wamberal,
12345,AU,7,Wombat,
12346,AU,6,Moonah,
12347,AU,6,Ross,
12348,AU,8,Westfield,
12349,AU,2,Terrigal,
12350,AU,2,Miranda,
12351,AU,7,Springvale,
12352,AU,8,Kwinana,
12353,AU,7,Templestowe Lower,
12354,AU,5,Meadows,
12355,AU,2,Dundee,
12356,AU,2,Greenwood,
12357,AU,2,Brooklyn,
12358,AU,4,Capalaba,
12359,AU,2,Ashley,
12360,AU,4,Wacol,
12361,AU,2,Avalon,
12362,AU,7,Wantirna,
12363,AU,7,Illawarra,
12364,AU,7,Denver,
12365,AU,7,Mildura,
12366,AU,7,Warrnambool,
12367,AU,4,Cordelia,
12368,AU,4,Eight Mile Plains,
12369,AU,7,Shepparton,
12370,AU,7,Braeside,
12371,AU,7,Mentone,
12372,AU,2,Mount Ousley,
12373,AU,2,Eden,
12374,AU,8,Peppermint Grove,
12375,AU,4,Redcliffe,
12376,AU,7,Hamilton,
12377,AU,4,Cloncurry,
12378,AU,7,Ringwood East,
12379,AU,7,Bridgewater,
12380,AU,7,Darby,
12381,AU,5,Bradbury,
12382,AU,8,Latham,
12383,AU,8,Weld,
12384,AU,8,York,
12385,AU,4,Victoria Point,
12386,AU,7,Mornington,
12387,AU,2,Kogarah,
12388,AU,2,Verona,
12389,AU,6,Ringarooma,
12390,AU,7,Panton Hill,
12391,AU,2,Ingleburn,
12392,AU,4,Innisfail,
12393,AU,5,Port Willunga,
12394,AU,2,Broken Hill,
12395,AU,7,Ferny Creek,
12396,AU,2,Tomago,
12397,AU,5,Noarlunga,
12398,AU,2,Tamworth,
12399,AU,4,Toogoom,
12400,AU,7,Campbelltown,
12401,AU,2,Gymea,
12402,AU,2,Muswellbrook,
12403,AU,2,Riverside,
12404,AU,5,Mount Barker,
12405,AU,7,Notting Hill,
12406,AU,4,Mackay,
12407,AU,5,Thebarton,
12408,AU,8,Applecross,
12409,AU,7,Yarraville,
12410,AU,2,Castlecrag,
12411,AU,7,Malmsbury,
12412,AU,2,Chullora,
12413,AU,4,Victoria Park,
12414,AU,4,Tamborine,
12415,AU,8,Dundas,
12416,AU,7,Leichardt,
12417,AU,8,Melville,
12418,AU,4,Lawnton,
12419,AU,2,Leichhardt,
12420,AU,2,Rockdale,
12421,AU,2,Dover Heights,
12422,AU,8,Broome,
12423,AU,7,Darlington,
12424,AU,7,Templestowe,
12425,AU,5,Wayville,
12426,AU,8,Eaton,
12427,AU,2,Lawson,
12428,AU,4,Blair Athol,
12429,AU,7,Lyons,
12430,AU,2,Maroubra,
12431,AU,2,Lithgow,
12432,AU,7,Moonee Ponds,
12433,AU,2,New Lambton,
12434,AU,5,Murray Bridge,
12435,AU,7,Elwood,
12436,AU,2,Pendle Hill,
12437,AU,4,Buderim,
12438,AU,2,Forestville,
12439,AU,2,Tumut,
12440,AU,7,Sale,
12441,AU,2,Gore Hill,
12442,AU,4,Taylor,
12443,AU,8,Port Hedland,
12444,AU,2,Bathurst,
12445,AU,4,Emerald,
12446,AU,7,Hallam,
12447,AU,8,Hamersley,
12448,AU,2,Longueville,
12449,AU,7,Belgrave,
12450,AU,2,Forbes,
12451,AU,2,Emu Plains,
12452,AU,7,Cremorne,
12453,AU,4,Bundamba,
12454,AU,6,Oatlands,
12455,AU,5,Angaston,
12456,AU,2,Hunters Hill,
12457,AU,2,Bellevue Hill,
12458,AU,2,Carlingford,
12459,AU,4,Gordonvale,
12460,AU,7,Forrest,
12461,AU,2,Yenda,
12462,AU,6,Sandy Bay,
12463,AU,2,Regents Park,
12464,AU,2,Hurstville,
12465,AU,2,Mosman,
12466,AU,5,Palmer,
12467,AU,4,Endeavour,
12468,AU,7,Heathmont,
12469,AU,7,Numurkah,
12470,AU,7,Granite,
12471,AU,4,Mooloolaba,
12472,AU,7,Sebastopol,
12473,AU,2,Gosford,
12474,AU,2,Albert,
12475,AU,2,Revesby,
12476,AU,5,Bonython,
12477,AU,7,Browns Plains,
12478,AU,2,Annandale,
12479,AU,4,Hendon,
12480,AU,6,Cambridge,
12481,AU,7,Stanley,
12482,AU,4,Coolangatta,
12483,AU,7,Chelsea Heights,
12484,AU,4,Ross River,
12485,AU,7,Montrose,
12486,AU,7,Carina,
12487,AU,4,Warwick,
12488,AU,1,Hall,
12489,AU,7,Eltham,
12490,AU,7,Bairnsdale,
12491,AU,3,Fannie Bay,
12492,AU,4,Riverview,
12493,AU,2,Kempsey,
12494,AU,2,Laurieton,
12495,AU,2,Katoomba,
12496,AU,4,Miva,
12497,AU,5,Black Rock,
12498,AU,7,Kyneton,
12499,AU,4,Ashgrove,
12500,AU,4,Maryborough,
12501,AU,8,Katanning,
12502,AU,7,Rochester,
12503,AU,7,Tennyson,
12504,AU,2,Yarramalong,
12505,AU,4,Burleigh Heads,
12506,AU,4,Rosella,
12507,AU,8,East Fremantle,
12508,AU,2,Enmore,
12509,AU,7,Alma,
12510,AU,7,Raglan,
12511,AU,2,Balgowlah,
12512,AU,7,Derrimut,
12513,AU,7,Dimboola,
12514,AU,7,Glenorchy,
12515,AU,7,Narre Warren,
12516,AU,7,Beeac,
12517,AU,6,Margate,
12518,AU,7,Balmoral,
12519,AU,8,Mosman Park,
12520,AU,2,Cronulla,
12521,AU,2,Camden,
12522,AU,2,Yanco,
12523,AU,7,Clarendon,
12524,AU,5,Inkerman,
12525,AU,7,Coldstream,
12526,AU,5,Mclachlan,
12527,AU,7,Shelbourne,
12528,AU,2,Wentworth,
12529,AU,2,Doonside,
12530,AU,7,Bass,
12531,AU,4,Yeppoon,
12532,AU,7,Oxley,
12533,AU,4,Avondale,
12534,AU,5,Hawker,
12535,AU,6,Ferntree,
12536,AU,2,Greenhill,
12537,AU,4,Grosvenor,
12538,AU,2,Yarra,
12539,AU,2,Waverton,
12540,AU,7,Ascot Vale,
12541,AU,4,Norman Park,
12542,AU,2,Peakhurst,
12543,AU,8,Shenton Park,
12544,AU,8,Bassendean,
12545,AU,4,Currumbin,
12546,AU,2,Waitara,
12547,AU,4,Slacks Creek,
12548,AU,4,Malanda,
12549,AU,2,Moree,
12550,AU,5,Kingscote,
12551,AU,4,Woodridge,
12552,AU,7,Leopold,
12553,AU,7,Walkerville,
12554,AU,4,Caboolture,
12555,AU,7,Merton,
12556,AU,2,Granville,
12557,AU,8,Geraldton,
12558,AU,4,Canterbury,
12559,AU,2,Kelvin,
12560,AU,5,Hallett,
12561,AU,7,Berwick,
12562,AU,7,Strathmore,
12563,AU,2,Lakemba,
12564,AU,7,Reservoir,
12565,AU,4,Mckinlay,
12566,AU,2,Blakehurst,
12567,AU,7,Broughton,
12568,AU,6,Junee,
12569,AU,7,Pakenham,
12570,AU,7,Sutherland,
12571,AU,7,Castlemaine,
12572,AU,2,Belrose,
12573,AU,2,Thornleigh,
12574,AU,4,Petrie,
12575,AU,8,Upper Swan,
12576,AU,7,Tullamarine,
12577,AU,7,Bulleen,
12578,AU,6,Saint Marys,
12579,AU,2,Wentworthville,
12580,AU,4,Boondall,
12581,AU,2,Ravensworth,
12582,AU,7,Donnybrook,
12583,AU,8,Kondinin,
12584,AU,7,Regent,
12585,AU,7,Vermont,
12586,AU,2,Warrawee,
12587,AU,7,Kilsyth,
12588,AU,2,Kirrawee,
12589,AU,2,Belford,
12590,AU,5,Hampden,
12591,AU,3,Palmerston,
12592,AU,5,Glenelg,
12593,AU,2,Isabella,
12594,AU,4,Worongary,
12595,AU,7,Nicholson,
12596,AU,2,Graham,
12597,AU,3,Alice Springs,
12598,AU,7,Murtoa,
12599,AU,2,Kootingal,
12600,AU,5,Largs,
12601,AU,6,Underwood,
12602,AU,4,Bell,
12603,AU,2,Kellyville,
12604,AU,2,Caringbah,
12605,AU,2,Warrigal,
12606,AU,7,Red Cliffs,
12607,AU,2,Riverstone,
12608,AU,7,Highett,
12609,AU,4,Nerang,
12610,AU,8,Greenhills,
12611,AU,6,Balfour,
12612,AU,5,Kersbrook,
12613,AU,8,Dunsborough,
12614,AU,5,Aldgate,
12615,AU,5,Naracoorte,
12616,AU,8,Comet,
12617,AU,7,Alexandra,
12618,AU,7,Carrum Downs,
12619,AU,7,Sorrento,
12620,AU,2,Mooney Mooney,
12621,AU,8,Pearce,
12622,AU,2,Oatley,
12623,AU,2,Brighton-le-sands,
12624,AU,5,Two Wells,
12625,AU,2,Woronora,
12626,AU,2,East Hills,
12627,AU,5,Aldinga,
12628,AU,4,Stanthorpe,
12629,AU,2,Rozelle,
12630,AU,4,Loganholme,
12631,AU,4,Proserpine,
12632,AU,8,Pilbara,
12633,AU,8,Wanneroo,
12634,AU,7,Beulah,
12635,AU,7,Mangalore,
12636,AU,5,Strathalbyn,
12637,AU,7,Elaine,
12638,AU,2,Medowie,
12639,AU,4,Biloela,
12640,AU,4,Logan Village,
12641,AU,4,Moggill,
12642,AU,4,Goodna,
12643,AU,5,Port Pirie,
12644,AU,7,Hunter,
12645,AU,6,Goodwood,
12646,AU,4,Strathpine,
12647,AU,4,Rosehill,
12648,AU,7,Montmorency,
12649,AU,7,Ferndale,
12650,AU,8,Australind,
12651,AU,4,Charters Towers,
12652,AU,4,Longreach,
12653,AU,4,Mareeba,
12654,AU,2,Vineyard,
12655,AU,2,Quakers Hill,
12656,AU,7,Wodonga,
12657,AU,6,Wynyard,
12658,AU,8,Bunbury,
12659,AU,2,Braidwood,
12660,AU,7,Seymour,
12661,AU,2,Bulli,
12662,AU,7,Winton,
12663,AU,7,Bright,
12664,AU,7,Hastings,
12665,AU,4,Kennedy,
12666,AU,4,Oaky,
12667,AU,2,Casino,
12668,AU,8,Bridgetown,
12669,AU,5,Grange,
12670,AU,4,Wyandra,
12671,AU,2,Galston,
12672,AU,4,Clifton,
12673,AU,2,Exeter,
12674,AU,2,Springwood,
12675,AU,7,Williamstown,
12676,AU,8,Gosnells,
12677,AU,4,Barcoo,
12678,AU,7,Woodend,
12679,AU,7,Somerville,
12680,AU,8,Linden,
12681,AU,2,Cooranbong,
12682,AU,5,Mylor,
12683,AU,4,Coolum Beach,
12684,AU,6,Bellerive,
12685,AU,7,Logan,
12686,AU,2,Riverwood,
12687,AU,2,Bega,
12688,AU,4,Yatala,
12689,AU,7,Cobram,
12690,AU,7,Warragul,
12691,AU,7,Echuca,
12692,AU,2,Catherine Hill Bay,
12693,AU,5,Kangarilla,
12694,AU,2,Mullumbimby,
12695,AU,7,Lysterfield,
12696,AU,2,Queanbeyan,
12697,AU,2,Beechwood,
12698,AU,2,Berry,
12699,AU,2,Wirega,
12700,AU,5,Balaklava,
12701,AU,8,Lower Chittering,
12702,AU,7,Kerang,
12703,AU,7,Koetong,
12704,AU,7,Speed,
12705,AU,8,Cannington,
12706,AU,2,North Haven,
12707,AU,4,Churchill,
12708,AU,7,Loch,
12709,AU,4,Mount Isa,
12710,AU,6,Kings Park,
12711,AU,2,Rose Bay,
12712,AU,4,Clontarf,
12713,AU,6,Latrobe,
12714,AU,5,Monash,
12715,AU,6,Franklin,
12716,AU,7,Barwon,
12717,AU,2,Carroll,
12718,AU,2,Erina,
12719,AU,4,Conway,
12720,AU,2,Cooper,
12721,AU,7,Apsley,
12722,AU,2,Grafton,
12723,AU,5,Saints,
12724,AU,4,Noosaville,
12725,AU,2,Coolamon,
12726,AU,7,Stawell,
12727,AU,4,Morayfield,
12728,AU,4,Stanmore,
12729,AU,8,Notting,
12730,AU,4,Maroochydore,
12731,AU,2,Banksmeadow,
12732,AU,2,Northmead,
12733,AU,4,Jackson,
12734,AU,7,Wallan,
12735,AU,5,Kadina,
12736,AU,7,Heathcote,
12737,AU,2,Bannister,
12738,AU,6,Cornwall,
12739,AU,5,Port Noarlunga,
12740,AU,2,Sherwood,
12741,AU,7,Keysborough,
12742,AU,7,Derby,
12743,AU,7,Point Lonsdale,
12744,AU,4,Hodgson,
12745,AU,7,Bellarine,
12746,AU,2,Kentucky,
12747,AU,7,Grovedale,
12748,AU,2,Point Piper,
12749,AU,5,Marion,
12750,AU,7,Lalor,
12751,AU,8,Agnew,
12752,AU,4,Rocklea,
12753,AU,2,Lisarow,
12754,AU,4,Hampton,
12755,AU,7,Newport,
12756,AU,8,Dampier,
12757,AU,7,Inverloch,
12758,AU,7,Wonthaggi,
12759,AU,2,Hargraves,
12760,AU,4,Lynwood,
12761,AU,2,Nelson Bay,
12762,AU,4,Palmwoods,
12763,AU,7,Grant,
12764,AU,7,Oakleigh South,
12765,AU,6,Fitzgerald,
12766,AU,7,Drysdale,
12767,AU,5,Gepps Cross,
12768,AU,7,Marshalltown,
12769,AU,7,Red Hill,
12770,AU,8,Rockwell,
12771,AU,2,Lincoln,
12772,AU,2,Kincumber,
12773,AU,7,Yarrawonga,
12774,AU,8,Highbury,
12775,AU,4,Blaxland,
12776,AU,5,Hope Valley,
12777,AU,7,Irymple,
12778,AU,8,Cottesloe,
12779,AU,7,Milawa,
12780,AU,2,Leumeah,
12781,AU,8,Boulder,
12782,AU,8,Wyndham,
12783,AU,5,Riverton,
12784,AU,4,Palm Beach,
12785,AU,7,Maribyrnong,
12786,AU,5,Kingston Park,
12787,AU,7,Saint Kilda,
12788,AU,5,Bligh,
12789,AU,2,Kirribilli,
12790,AU,8,Mingenew,
12791,AU,2,Wallsend,
12792,AU,2,Southgate,
12793,AU,8,Eyre,
12794,AU,7,Linton,
12795,AU,2,Carrathool,
12796,AU,2,Monterey,
12797,AU,2,Point Clare,
12798,AU,2,Wyong,
12799,AU,7,Mountain View,
12800,AU,5,Berri,
12801,AU,4,Eagle Farm,
12802,AU,7,Avoca,
12803,AU,5,Price,
12804,AU,2,Alpine,
12805,AU,4,Byfield,
12806,AU,7,Anderson,
12807,AU,8,Wongan Hills,
12808,AU,5,Somerset,
12809,AU,2,Charlestown,
12810,AU,8,Chittering,
12811,AU,2,Huntley,
12812,AU,2,Grenfell,
12813,AU,7,Dawson,
12814,AU,3,Stuart,
12815,AU,2,Liston,
12816,AU,7,Point Cook,
12817,AU,7,Denison,
12818,AU,7,Truganina,
12819,AU,5,Bute,
12820,AU,7,Waterford,
12821,AU,7,Mount Clear,
12822,AU,2,Kialla,
12823,AU,7,Stockdale,
12824,AU,4,Selwyn,
12825,AU,7,Cranbourne,
12826,AU,7,Waurn Ponds,
12827,AU,7,Colac,
12828,AU,7,Swan Hill,
12829,AU,7,Benalla,
12830,AU,7,Mordialloc,
12831,AU,7,Glenroy,
12832,AU,2,Copeland,
12833,AU,7,Sunbury,
12834,AU,7,Mooroolbark,
12835,AU,7,Dromana,
12836,AU,7,Gisborne,
12837,AU,7,Merricks,
12838,AU,7,Lower Plenty,
12839,AU,7,Trentham,
12840,AU,7,Moama,
12841,AU,7,Corio,
12842,AU,2,Belgravia,
12843,AU,7,Mooroopna,
12844,AU,7,Olinda,
12845,AU,8,Harvey,
12846,AU,7,Evelyn,
12847,AU,7,Ocean Grove,
12848,AU,7,Neerim,
12849,AU,7,Kinglake,
12850,AU,6,Royal Park,
12851,AU,4,Minerva,
12852,AU,7,North Brighton,
12853,AU,8,Oak Park,
12854,AU,8,Gibson,
12855,AU,8,Maylands,
12856,AU,5,Tanunda,
12857,AU,7,Christies,
12858,AU,5,Clare,
12859,AU,5,Dorrien,
12860,AU,2,Athol,
12861,AU,8,Maddington,
12862,AU,5,Erskine,
12863,AU,5,Howe,
12864,AU,7,Clayton North,
12865,AU,2,Kinross,
12866,AU,2,Murwillumbah,
12867,AU,2,Dubbo,
12868,AU,2,Bexley,
12869,AU,2,Lilyfield,
12870,AU,2,Warrimoo,
12871,AU,2,Deniliquin,
12872,AU,7,Drummond,
12873,AU,7,Nyora,
12874,AU,6,Ulverstone,
12875,AU,6,Derwent,
12876,AU,6,Lutana,
12877,AU,6,Lauderdale,
12878,AU,6,Invermay,
12879,AU,6,Lindisfarne,
12880,AU,6,Old Beach,
12881,AU,6,New Town,
12882,AU,4,Bayfield,
12883,AU,6,Risdon,
12884,AU,6,Sorell,
12885,AU,6,New Norfolk,
12886,AU,5,Golden Grove,
12887,AU,6,Kingston Beach,
12888,AU,6,Kaoota,
12889,AU,7,Ellerslie,
12890,AU,6,Runnymede,
12891,AU,7,Kyabram,
12892,AU,7,Rokeby,
12893,AU,6,George Town,
12894,AU,7,Tabor,
12895,AU,6,Warrane,
12896,AU,6,Taroona,
12897,AU,6,Scottsdale,
12898,AU,6,Wivenhoe,
12899,AU,6,Austins Ferry,
12900,AU,6,Montagu,
12901,AU,4,Gympie,
12902,AU,4,Tewantin,
12903,AU,7,Hopetoun,
12904,AU,4,Samford,
12905,AU,7,Paradise,
12906,AU,4,Nambour,
12907,AU,4,Tugun,
12908,AU,4,Woombye,
12909,AU,4,Goondiwindi,
12910,AU,4,Beerwah,
12911,AU,4,Brookfield,
12912,AU,7,Parkwood,
12913,AU,7,Flynn,
12914,AU,7,Meredith,
12915,AU,2,Jindalee,
12916,AU,4,Bulimba,
12917,AU,4,Pialba,
12918,AU,7,Hillcrest,
12919,AU,8,Manning,
12920,AU,2,North Turramurra,
12921,AU,2,Leura,
12922,AU,2,Earlwood,
12923,AU,2,Taree,
12924,AU,2,Glenhaven,
12925,AU,2,Merimbula,
12926,AU,7,Langwarrin,
12927,AU,2,Burns,
12928,AU,7,Greenvale,
12929,AU,7,Syndal,
12930,AU,7,Nagambie,
12931,AU,7,Parkdale,
12932,AU,4,Pinnacle,
12933,AU,7,Bena,
12934,AU,7,Fernshaw,
12935,AU,7,Silvan,
12936,AU,7,Somerton,
12937,AU,7,Wallace,
12938,AU,2,Neville,
12939,AU,4,Darra,
12940,AU,7,Garfield,
12941,AU,4,Parkhurst,
12942,AU,7,Cohuna,
12943,AU,2,Rob Roy,
12944,AU,2,Evans Head,
12945,AU,7,Chelsea,
12946,AU,7,Whittlesea,
12947,AU,8,Newman,
12948,AU,2,Jindabyne,
12949,AU,7,Kalorama,
12950,AU,2,Tathra,
12951,AU,7,Toolamba,
12952,AU,7,Karnak,
12953,AU,4,Westwood,
12954,AU,7,Korumburra,
12955,AU,7,Euroa,
12956,AU,2,Bellbird,
12957,AU,7,Mount Eliza,
12958,AU,7,Ballan,
12959,AU,7,Mount Martha,
12960,AU,7,Buxton,
12961,AU,7,Tallangatta,
12962,AU,2,Bungonia,
12963,AU,7,Narre Warren North,
12964,AU,4,Mitchelton,
12965,AU,4,Beenleigh,
12966,AU,6,Dover,
12967,AU,2,Arthur,
12968,AU,7,Great Southern,
12969,AU,6,Kelso,
12970,AU,2,Soldiers Point,
12971,AU,2,Chipping Norton,
12972,AU,4,Trinity Beach,
12973,AU,0,Longridge,
12974,AU,2,Coledale,
12975,AU,7,Craigieburn,
12976,AU,4,Cannonvale,
12977,AU,4,Gilbert,
12978,AU,7,Wandin,
12979,AU,2,Darling Point,
12980,AU,7,Kilmore,
12981,AU,2,Kotara,
12982,AU,2,Wardell,
12983,AU,8,Buckingham,
12984,AU,7,Kalimna,
12985,AU,7,Bald Hills,
12986,AU,2,Davistown,
12987,AU,7,Mount Dandenong,
12988,AU,7,Portarlington,
12989,AU,7,Charlton,
12990,AU,8,Kirwan,
12991,AU,1,Duntroon,
12992,AU,8,Walpole,
12993,AU,2,Taren Point,
12994,AU,4,Thornlands,
12995,AU,7,Arundel,
12996,AU,2,Fairy Meadow,
12997,AU,4,Gatton,
12998,AU,3,Ludmilla,
12999,AU,7,Seaton,
13000,AU,4,Birkdale,
13001,AU,2,Brindabella,
13002,AU,6,Lewisham,
13003,AU,7,Oakleigh East,
13004,AU,4,Devereaux,
13005,AU,4,Newmarket,
13006,AU,4,Marian,
13007,AU,4,Park Ridge,
13008,AU,5,Wilson,
13009,AU,7,Northwood,
13010,AU,8,Ogilvie,
13011,AU,2,Gloucester,
13012,AU,5,Gilles Plains,
13013,AU,7,Landsborough,
13014,AU,6,Forester,
13015,AU,7,Devon,
13016,AU,2,Harrington,
13017,AU,4,Rochedale,
13018,AU,7,Newhaven,
13019,AU,4,Walsh,
13020,AU,4,Copperfield,
13021,AU,4,Daintree,
13022,AU,7,Cowes,
13023,AU,4,Pittsworth,
13024,AU,2,Kiama,
13025,AU,2,Narellan,
13026,AU,2,Mangerton,
13027,AU,2,Goonellabah,
13028,AU,3,Tennant Creek,
13029,AU,7,Bunyip,
13030,AU,2,Ryan,
13031,AU,4,Benowa,
13032,AU,4,Ingham,
13033,AU,2,Mcmahon,
13034,AU,7,Morrison,
13035,AU,2,Caloola,
13036,AU,2,Wentworth Falls,
13037,AU,8,Margaret River,
13038,AU,4,Bli Bli,
13039,AU,2,Asquith,
13040,AU,6,Glen Huon,
13041,AU,2,Abernethy,
13042,AU,4,Marlborough,
13043,AU,7,Manor,
13044,AU,2,Nambucca,
13045,AU,5,Maitland,
13046,AU,6,Lisle,
13047,AU,4,Fletcher,
13048,AU,7,Crossover,
13049,AU,7,Clyde,
13050,AU,2,Cargo,
13051,AU,4,Donaldson,
13052,AU,7,Noojee,
13053,AU,4,Delta,
13054,AU,2,Cessnock,
13055,AU,2,Lowther,
13056,AU,2,Ocean Beach,
13057,AU,4,Theodore,
13058,AU,5,Finsbury,
13059,AU,6,Gray,
13060,AU,2,Davidson,
13061,AU,7,Harcourt,
13062,AU,2,Tuncurry,
13063,AU,2,Stockton,
13064,AU,3,Stuart Park,
13065,AU,8,Kitchener,
13066,AU,2,Whale Beach,
13067,AU,8,Cranbrook,
13068,AU,7,Foster,
13069,AU,4,Kingaroy,
13070,AU,2,Hazelbrook,
13071,AU,5,Port Lincoln,
13072,AU,2,Yamba,
13073,AU,4,Bellara,
13074,AU,4,Gore,
13075,AU,4,Mount Gravatt,
13076,AU,5,Mount Pleasant,
13077,AU,7,Tally Ho,
13078,AU,4,Alpha,
13079,AU,7,Nelson,
13080,AU,4,Hewitt,
13081,AU,2,Aberdeen,
13082,AU,8,Keane,
13083,AU,7,Portland,
13084,AU,2,Rossi,
13085,AU,5,Melrose,
13086,AU,2,Kurnell,
13087,AU,4,Anthony,
13088,AU,2,Colo,
13089,AU,2,Shaw,
13090,AU,5,Avon,
13091,AU,6,Eldon,
13092,AU,4,Lockyer,
13093,AU,4,Cunningham,
13094,AU,4,Narangba,
13095,AU,5,Tepko,
13096,AU,4,Northgate,
13097,AU,5,Jervois,
13098,AU,4,Pimpama,
13099,AU,5,Brooker,
13100,AU,5,Chain Of Ponds,
13101,AU,7,Cosgrove,
13102,AU,8,Attadale,
13103,AU,4,Bribie,
13104,AU,4,Jimboomba,
13105,AU,4,Hannaford,
13106,AU,7,Buchanan,
13107,AU,8,Kununurra,
13108,AU,4,Burpengary,
13109,AU,7,Norlane,
13110,AU,6,Birralee,
13111,AU,7,Corryong,
13112,AU,6,Currie,
13113,AU,8,Beacon,
13114,AU,5,Gumeracha,
13115,AU,2,Rothbury,
13116,AU,4,Alice,
13117,AU,7,Culgoa,
13118,AU,2,Bass Hill,
13119,AU,2,Bangalow,
13120,AU,7,Kinglake West,
13121,AU,2,Eureka,
13122,AU,2,Ourimbah,
13123,AU,2,Kingswood,
13124,AU,7,Lyndhurst,
13125,AU,8,Napier,
13126,AU,7,Billabong,
13127,AU,2,Gerringong,
13128,AU,2,Mortdale,
13129,AU,7,The Basin,
13130,AU,4,Scarness,
13131,AU,5,Angle Vale,
13132,AU,8,Roleystone,
13133,AU,6,Woodbury,
13134,AU,7,Thompson,
13135,AU,4,Bahrs Scrub,
13136,AU,5,Victor Harbour,
13137,AU,4,Wulkuraka,
13138,AU,4,Maleny,
13139,AU,4,Carbrook,
13140,AU,7,Bonbeach,
13141,AU,2,Tempe,
13142,AU,2,Rooty Hill,
13143,AU,6,Oaks,
13144,AU,4,Bargara,
13145,AU,7,Toongabbie,
13146,AU,2,Ballina,
13147,AU,4,Eagleby,
13148,AU,8,Lionel,
13149,AU,7,Macarthur,
13150,AU,2,Mylestom,
13151,AU,2,Port Botany,
13152,AU,6,Catamaran,
13153,AU,2,West Wallsend,
13154,AU,8,Illawong,
13155,AU,2,Mudgee,
13156,AU,2,Uralla,
13157,AU,4,Greenbank,
13158,AU,7,Navigator,
13159,AU,4,Kooringal,
13160,AU,5,Oakdale,
13161,AU,7,Giffard,
13162,AU,8,Redmond,
13163,AU,7,Epsom,
13164,AU,4,Sandgate,
13165,AU,6,Fingal,
13166,AU,2,Rugby,
13167,AU,4,Freshwater,
13168,AU,5,Penola,
13169,AU,7,Briar Hill,
13170,AU,2,Somersby,
13171,AU,8,Hopetown,
13172,AU,4,Crawford,
13173,AU,6,Highclere,
13174,AU,6,Lachlan,
13175,AU,8,Moora,
13176,AU,7,Newington,
13177,AU,7,Fawkner,
13178,AU,7,Healesville,
13179,AU,8,Sandstone,
13180,AU,2,Wallgrove,
13181,AU,7,Egerton,
13182,AU,8,Merredin,
13183,AU,6,Newnham,
13184,AU,2,Boro,
13185,AU,4,Thornton,
13186,AU,7,Buchan,
13187,AU,8,Beverley,
13188,AU,4,Roma,
13189,AU,7,Bromley,
13190,AU,7,Orford,
13191,AU,7,Lorne,
13192,AU,4,Cooktown,
13193,AU,4,Trueman,
13194,AU,4,Chinchilla,
13195,AU,7,North Shore,
13196,AU,4,Pinkenba,
13197,AU,7,Fairhaven,
13198,AU,7,Alberton,
13199,AU,4,Merinda,
13200,AU,4,Bridges,
13201,AU,2,Tahmoor,
13202,AU,6,Kimberley,
13203,AU,6,Bronte,
13204,AU,4,Malabar,
13205,AU,7,Lexton,
13206,AU,5,Welland,
13207,AU,6,Roland,
13208,AU,4,Pine Mountain,
13209,AU,2,Austinmer,
13210,AU,2,Bomaderry,
13211,AU,7,Arnold,
13212,AU,7,Huon,
13213,AU,7,Wallington,
13214,AU,7,Homewood,
13215,AU,6,Linda,
13216,AU,2,Raleigh,
13217,AU,2,East Gosford,
13218,AU,7,Jordan,
13219,AU,7,Mitre,
13220,AU,2,Cardiff,
13221,AU,7,Lethbridge,
13222,AU,2,Kurrajong,
13223,AU,2,Coniston,
13224,AU,2,Gundy,
13225,AU,2,Red Rock,
13226,AU,2,Lake Albert,
13227,AU,7,Magpie,
13228,AU,8,Bramley,
13229,AU,2,Tyringham,
13230,AU,2,Ashby,
13231,AU,2,West Wyalong,
13232,AU,5,Woods,
13233,AU,2,Ashford,
13234,AU,2,Garema,
13235,AU,7,Bolton,
13236,AU,7,Ararat,
13237,AU,8,Dalton,
13238,AU,7,Eden Park,
13239,AU,7,Bacchus Marsh,
13240,AU,5,Dutton,
13241,AU,2,Narara,
13242,AU,7,Blakeville,
13243,AU,7,Kangaroo Flat,
13244,AU,7,Koondrook,
13245,AU,7,Tarneit,
13246,AU,5,Waterloo Corner,
13247,AU,2,Springfield,
13248,AU,2,Warnervale,
13249,AU,2,Jilliby,
13250,AU,2,Kilcare,
13251,AU,2,Belmont,
13252,AU,2,Saint Marys,
13253,AU,2,Morisset East,
13254,AU,2,Goonengerry,
13255,AU,2,Wedderburn,
13256,AU,4,Deception Bay,
13257,AU,2,Toongabbie,
13258,AU,2,Camp Fire,
13259,AU,2,Mandalong,
13260,AU,2,Morisset,
13261,AU,2,Whitebridge,
13262,AU,2,Waterfall,
13263,AU,2,Mount White,
13264,AU,4,Walloon,
13265,AU,2,Brush Creek,
13266,AU,2,Gorokan,
13267,AU,4,Westcourt,
13268,AU,2,Tea Gardens,
13269,AU,2,Chittaway Point,
13270,AU,2,Falls Creek,
13271,AU,5,Reynella,
13272,AU,7,Sailors Falls,
13273,AU,7,Clifton Springs,
13274,AU,7,Barkstead,
13275,AU,7,Greendale,
13276,AU,5,Coromandel Valley,
13277,AU,4,Bongaree,
13278,AU,2,Bonalbo,
13279,AU,4,Allora,
13280,AU,2,Clunes,
13281,AU,2,Dooralong,
13282,AU,2,Holmesville,
13283,AU,2,Lakeside,
13284,AU,2,Woronora Dam,
13285,AU,2,Karraganbah,
13286,AU,4,Camp Mountain,
13287,AU,2,Durren Durren,
13288,AU,2,Werris Creek,
13289,AU,7,Moorookyle,
13290,AU,7,Sandown Park,
13291,AU,7,Werona,
13292,AU,7,Jordanville,
13293,AU,5,Seacliff,
13294,AU,7,Ardmona,
13295,AU,7,Nathalia,
13296,AU,5,Crafers,
13297,AU,5,Lobethal,
13298,AU,2,Cowra,
13299,AU,2,Beaconsfield,
13300,AU,7,Majors Line,
13301,AU,7,Glenaroua,
13302,AU,7,Burramine South,
13303,AU,2,Yarrawarrah,
13304,AU,2,Wyee,
13305,AU,2,Long Point,
13306,AU,2,Ettalong,
13307,AU,2,West Pymble,
13308,AU,2,Pymble West,
13309,AU,2,Lugarno,
13310,AU,7,Korweinguboora,
13311,AU,7,Mooroopna North,
13312,AU,2,The Entrance,
13313,AU,2,Largs,
13314,AU,4,Limevale,
13315,AU,2,The Gibbers,
13316,AU,2,Glenfield,
13317,AU,2,Gowrie,
13318,AU,4,Amberley,
13319,AU,4,Ebbw Vale,
13320,AU,2,Repton,
13321,AU,4,Helidon,
13322,AU,4,Coleyville,
13323,AU,2,Long Jetty,
13324,AU,4,Malu,
13325,AU,2,Toukley,
13326,AU,2,Campbelltown South,
13327,AU,4,Mount Crosby,
13328,AU,2,Engadine,
13329,AU,2,Mount Pleasant,
13330,AU,4,Fairneyview,
13331,AU,4,Yandilla,
13332,AU,4,Westbrook,
13333,AU,4,Pullen Vale,
13334,AU,2,Matcham,
13335,AU,2,Binna Burra,
13336,AU,7,Creswick,
13337,AU,2,Warrawong,
13338,AU,7,Struan,
13339,AU,2,Booker Bay,
13340,AU,2,Ettalong Beach,
13341,AU,2,Penshurst,
13342,AU,2,Avoca Beach,
13343,AU,2,Cringila,
13344,AU,2,Lake Heights,
13345,AU,7,Myola,
13346,AU,2,Bringelly,
13347,AU,2,Auburn,
13348,AU,2,Toronto,
13349,AU,2,Wangi Wangi,
13350,AU,2,Nords Wharf,
13351,AU,2,Marsden,
13352,AU,2,Wee Jasper,
13353,AU,2,Clyde,
13354,AU,7,Crib Point,
13355,AU,7,Kew,
13356,AU,4,Royston,
13357,AU,8,Swanbourne,
13358,AU,2,Mount Druitt,
13359,AU,7,Springfield,
13360,AU,7,Bealiba,
13361,AU,7,Maryborough,
13362,AU,7,Glengower,
13363,AU,4,Loganlea,
13364,AU,4,Wellington Point,
13365,AU,2,Northwood,
13366,AU,2,Upper Lansdowne,
13367,AU,7,Darlingford,
13368,AU,2,Narraburra,
13369,AU,4,Capella,
13370,AU,2,Coonabarabran,
13371,AU,7,Seville,
13372,AU,2,Gulargambone,
13373,AU,2,Gulf Creek,
13374,AU,2,Weetaliba,
13375,AU,2,Windellama,
13376,AU,4,Urraween,
13377,AU,4,Birdsville,
13378,AU,2,The Lagoon,
13379,AU,2,Bingara,
13380,AU,4,Atherton,
13381,AU,4,Josephville,
13382,AU,2,Mullengudgery,
13383,AU,2,Bungendore,
13384,AU,5,Port Price,
13385,AU,2,Corowa,
13386,AU,8,Boyanup,
13387,AU,2,Heathcote,
13388,AU,2,Ulladulla,
13389,AU,2,Wallacia,
13390,AU,2,Budgewoi,
13391,AU,2,Daceyville,
13392,AU,2,Paterson,
13393,AU,7,Cornella East,
13394,AU,7,Fern Tree Gully,
13395,AU,4,Upper Brookfield,
13396,AU,4,Maidenwell,
13397,AU,4,Eumundi,
13398,AU,4,Mount Walker,
13399,AU,7,Reedy Creek,
13400,AU,8,Boya,
13401,AU,7,Black Flat,
13402,AU,7,Mentone South,
13403,AU,7,Naringaningalook East,
13404,AU,7,Lockington,
13405,AU,2,Tocumwal,
13406,AU,7,Toolleen,
13407,AU,2,Jerilderie,
13408,AU,7,Yalca,
13409,AU,7,Waaia,
13410,AU,4,Mount Sibley,
13411,AU,4,Nanango,
13412,AU,4,Emu Park,
13413,AU,4,Brightview,
13414,AU,4,Plainland,
13415,AU,4,Bororen,
13416,AU,4,Boyne Island,
13417,AU,4,Pampas,
13418,AU,2,Cockle Creek,
13419,AU,2,Megalong,
13420,AU,2,West Hoxton,
13421,AU,2,Deer Park,
13422,AU,2,Koolewong,
13423,AU,5,Happy Valley,
13424,AU,5,Port Augusta,
13425,AU,7,Monbulk,
13426,AU,7,Eltham North,
13427,AU,2,Kanwal,
13428,AU,2,Jembatcumbene,
13429,AU,2,Rosedale,
13430,AU,2,Pearl Beach,
13431,AU,4,Wolfdene,
13432,AU,4,Oakey,
13433,AU,4,Landsborough,
13434,AU,4,Upper Coomera,
13435,AU,4,Ripley,
13436,AU,4,Fernflat,
13437,AU,8,Spearwood,
13438,AU,7,Corop,
13439,AU,7,Black Rock North,
13440,AU,2,Thyra,
13441,AU,7,Gunbower,
13442,AU,7,Arcadia,
13443,AU,7,Wallan East,
13444,AU,2,Appin,
13445,AU,2,Mangrove Mountain,
13446,AU,2,Kurrajong Heights,
13447,AU,2,Patonga Beach,
13448,AU,2,Faulconbridge,
13449,AU,4,Watalgan,
13450,AU,4,Marburg,
13451,AU,4,Korenan,
13452,AU,4,Hampstead,
13453,AU,4,Windera,
13454,AU,4,Murrumba,
13455,AU,4,Miriam Vale,
13456,AU,8,Corrigin,
13457,AU,2,Redhead,
13458,AU,7,Mitchellstown,
13459,AU,7,Katandra,
13460,AU,7,Colbinabbin West,
13461,AU,2,Royalla,
13462,AU,6,Flowery Gully,
13463,AU,6,Frankford,
13464,AU,6,Hillwood,
13465,AU,6,Glengarry,
13466,AU,6,Port Sorell,
13467,AU,6,Holwell,
13468,AU,6,Deloraine,
13469,AU,6,Railton,
13470,AU,6,Winkleigh,
13471,AU,6,Waddamana,
13472,AU,4,Toorbul,
13473,AU,4,Wanora,
13474,AU,4,Thagoona,
13475,AU,4,Point Vernon,
13476,AU,4,Bustard Head,
13477,AU,4,Yimbun,
13478,AU,5,Kulpara,
13479,AU,5,Bundaleer,
13480,AU,3,Parap,
13481,AU,4,Borallon,
13482,AU,5,Spalding,
13483,AU,5,Lyrup,
13484,AU,5,Wallaroo,
13485,AU,5,Whyalla,
13486,AU,8,Mundaring Weir,
13487,AU,7,Mount Wallace,
13488,AU,7,Sandmount,
13489,AU,7,Colbinabbin,
13490,AU,2,Epping,
13491,AU,2,Glenbrook,
13492,AU,2,Leeton,
13493,AU,5,Bangor,
13494,AU,2,Jannali,
13495,AU,2,Holroyd,
13496,AU,7,Dunluce,
13497,AU,7,Mount Hooghly,
13498,AU,4,Ormiston,
13499,AU,4,Shorncliffe,
13500,AU,4,Aspley,
13501,AU,4,Albany Creek,
13502,AU,7,South Morang,
13503,AU,2,Broke,
13504,AU,2,Moss Vale,
13505,AU,2,Mulgoa,
13506,AU,2,The Oaks,
13507,AU,2,Upper Mangrove Creek,
13508,AU,4,Ormeau,
13509,AU,4,Bromelton,
13510,AU,7,Carrum,
13511,AU,8,Swan View,
13512,AU,8,Kellerberrin,
13513,AU,8,Cowaramup,
13514,AU,7,Bungil,
13515,AU,2,Branxton,
13516,AU,2,Lorne,
13517,AU,4,Pelican,
13518,AU,2,Helensburgh,
13519,AU,2,Burragorang,
13520,AU,7,Longford,
13521,AU,8,Busselton,
13522,AU,8,Belka,
13523,AU,8,Narrogin,
13524,AU,8,Bedfordale,
13525,AU,8,Nannup,
13526,AU,8,Manjimup,
13527,AU,8,Sawyers Valley,
13528,AU,8,Mount Helena,
13529,AU,8,Northam,
13530,AU,8,Cookernup,
13531,AU,8,Hamel,
13532,AU,8,Byford,
13533,AU,8,Guildford,
13534,AU,2,Bendemeer,
13535,AU,5,Hartley,
13536,AU,4,Ellangowan,
13537,AU,7,Elsternwick East,
13538,AU,4,Brookstead,
13539,AU,4,Ebenezer,
13540,AU,4,Nara,
13541,AU,4,Dinmore,
13542,AU,2,Holsworthy,
13543,AU,2,Palm Dale,
13544,AU,2,Dapto,
13545,AU,7,Croydon North,
13546,AU,7,Cow Flat,
13547,AU,7,Wattle Grove,
13548,AU,7,Belgrave Heights,
13549,AU,4,Long Pocket,
13550,AU,5,Lower Light,
13551,AU,5,Marino,
13552,AU,5,Oaklands,
13553,AU,2,Fairview,
13554,AU,5,Saint Kilda,
13555,AU,2,Kenthurst,
13556,AU,2,Burrier,
13557,AU,4,D'aguilar,
13558,AU,4,Ottaba,
13559,AU,4,Esk,
13560,AU,4,Jimna,
13561,AU,4,Northbrook,
13562,AU,4,Umbiram,
13563,AU,2,Barraba,
13564,AU,2,Thredbo Village,
13565,AU,2,Windang,
13566,AU,2,Cooperabung,
13567,AU,4,Springfield,
13568,AU,2,Pitt Town,
13569,AU,2,Olinda,
13570,AU,2,Hurstville Grove,
13571,AU,2,Scone,
13572,AU,2,East Minto,
13573,AU,2,Umina,
13574,AU,2,Saint Albans,
13575,AU,2,Upper Colo,
13576,AU,2,Mount Gwynne,
13577,AU,7,Broadford,
13578,AU,7,Melton South,
13579,AU,2,Barham,
13580,AU,7,Grantville,
13581,AU,4,Lowood,
13582,AU,4,Oxford Park,
13583,AU,4,Mount Tyson,
13584,AU,4,Coominya,
13585,AU,4,Rosalie,
13586,AU,4,Kilcoy,
13587,AU,4,Cootharaba,
13588,AU,4,Brigalow,
13589,AU,4,Maclagan,
13590,AU,4,Fernvale,
13591,AU,4,Murgon,
13592,AU,5,Long Gully,
13593,AU,5,Snowtown,
13594,AU,7,Wallinduc,
13595,AU,4,Hatton Vale,
13596,AU,4,Yarranlea,
13597,AU,7,Tarranyurk,
13598,AU,2,Inverary Park,
13599,AU,4,Frenchton,
13600,AU,2,North Sydney,
13601,AU,2,Sans Souci,
13602,AU,2,Yass,
13603,AU,5,Cromer,
13604,AU,2,Connells Point,
13605,AU,4,Oxley,
13606,AU,5,O'halloran Hill,
13607,AU,7,Cobaw,
13608,AU,2,Tuglow,
13609,AU,7,Baynton,
13610,AU,2,Grays Point,
13611,AU,4,Newstead,
13612,AU,7,Murrindindi,
13613,AU,2,The Blacksmith,
13614,AU,2,Martinsville,
13615,AU,2,Wattagong,
13616,AU,7,Darley,
13617,AU,5,Hackham,
13618,AU,8,Lakewood,
13619,AU,5,Crystal Brook,
13620,AU,7,Pakenham Upper,
13621,AU,2,Trundle,
13622,AU,8,Quindalup,
13623,AU,2,Yalwal,
13624,AU,4,One Mile,
13625,AU,2,Clareville,
13626,AU,2,Mount Hunter,
13627,AU,4,Muirlea,
13628,AU,2,Swansea,
13629,AU,2,Cobar,
13630,AU,6,Hagley,
13631,AU,2,Smithfield,
13632,AU,2,Rathmines,
13633,AU,2,Howlong,
13634,AU,2,Cootamundra,
13635,AU,2,Mangrove Creek,
13636,AU,6,Dilston,
13637,AU,7,Leonards Hill,
13638,AU,7,Eastoakleigh,
13639,AU,4,Tennyson,
13640,AU,6,North Motton,
13641,AU,7,Belgrave South,
13642,AU,5,Tumby Bay,
13643,AU,8,Lancelin,
13644,AU,8,Wandering,
13645,AU,2,Saint Ives,
13646,AU,2,Wollombi,
13647,AU,2,Oyster Bay,
13648,AU,2,Bungalow Flat,
13649,AU,2,Bay View,
13650,AU,2,Batemans Bay,
13651,AU,2,Luddenham,
13652,AU,2,Schofields,
13653,AU,2,North Bridge,
13654,AU,2,Campbelltown,
13655,AU,2,Coila,
13656,AU,2,Palm Grove,
13657,AU,2,Holbrook,
13658,AU,2,Huonbrook,
13659,AU,2,Canoelands,
13660,AU,2,Stanwell Park,
13661,AU,2,Palm Beach,
13662,AU,2,Wilberforce,
13663,AU,2,Werombi,
13664,AU,2,Gunnedah,
13665,AU,2,Wisemans Ferry,
13666,AU,2,Tallong,
13667,AU,2,Bundook,
13668,AU,2,Berrilee,
13669,AU,2,Holgate,
13670,AU,7,Gooramadda,
13671,AU,2,Erina East,
13672,AU,7,Miepoll,
13673,AU,7,Steiglitz,
13674,AU,7,Dunbulbalane,
13675,AU,5,Rochester,
13676,AU,5,Mambray Creek,
13677,AU,5,Baker Gully,
13678,AU,5,Salisbury,
13679,AU,5,Sanderston,
13680,AU,5,Kuitpo,
13681,AU,5,Victor Harbor,
13682,AU,7,Kaniva,
13683,AU,5,Blewitts Springs,
13684,AU,8,Berakin,
13685,AU,8,Parkerville,
13686,AU,8,Wonyil,
13687,AU,8,Balingup,
13688,AU,4,Homebush,
13689,AU,4,Broxburn,
13690,AU,4,Blackwater,
13691,AU,4,Redbank,
13692,AU,4,Prenzlau,
13693,AU,4,Banana,
13694,AU,7,Barrys Reef,
13695,AU,4,Aubigney,
13696,AU,4,Pomona,
13697,AU,4,Karrabin,
13698,AU,4,Meerawa,
13699,AU,4,Cottonvale,
13700,AU,4,Cooroy,
13701,AU,4,Tilgonda,
13702,AU,4,Goodwood,
13703,AU,6,Whitemore,
13704,AU,4,Glamorgan Vale,
13705,AU,2,Woonona,
13706,AU,2,Quaamaa,
13707,AU,2,Yaouk,
13708,AU,2,Nerriga,
13709,AU,2,Terrey Hills,
13710,AU,2,Tumbi Vmbi,
13711,AU,7,Lal Lal,
13712,AU,4,Rockton,
13713,AU,7,Mount Bute,
13714,AU,2,Yetholme,
13715,AU,2,Bargo,
13716,AU,2,Kandos,
13717,AU,2,Inverell,
13718,AU,2,Wybong,
13719,AU,2,Stewarts Brook,
13720,AU,2,Hermidale,
13721,AU,2,Widgeland,
13722,AU,2,Belltrees,
13723,AU,7,Trafalgar South,
13724,AU,5,Mount Torrens,
13725,AU,2,Wilton,
13726,AU,4,Stockleigh,
13727,AU,4,Upper Nerang,
13728,AU,2,Teralba,
13729,AU,2,Bensville,
13730,AU,4,Coomera,
13731,AU,8,Tenterden,
13732,AU,8,Smailes Mill,
13733,AU,7,Rainbow,
13734,AU,2,Comleroy,
13735,AU,7,Kanagulk,
13736,AU,2,Wyalong,
13737,AU,5,Keyneton,
13738,AU,4,Kolan,
13739,AU,6,Bally Park,
13740,AU,6,Apsiey,
13741,AU,8,Doconing,
13742,AU,5,Bordertown,
13743,AU,4,Virginia,
13744,AU,2,Collaroy Beach,
13745,AU,2,Amaroo,
13746,AU,4,Waterford,
13747,AU,4,Mannhurst,
13748,AU,4,Kenilworth,
13749,AU,4,Manumbar,
13750,AU,4,Manumbar Mill,
13751,AU,4,Duffield,
13752,AU,4,Harlin,
13753,AU,4,Benarkin,
13754,AU,4,Greenmount,
13755,AU,4,Lower Cressbrook,
13756,AU,4,Meringandan,
13757,AU,4,Jandowae,
13758,AU,4,Clermont,
13759,AU,4,The Leap,
13760,AU,2,Wandandian,
13761,AU,2,Wallarobba,
13762,AU,2,Gerogery,
13763,AU,2,Jamberoo,
13764,AU,2,Woodford,
13765,AU,2,Uranquinty,
13766,AU,2,Mount David,
13767,AU,2,Upper Myall,
13768,AU,2,Bunyah,
13769,AU,2,Weabonga,
13770,AU,2,Excelsior,
13771,AU,7,Invergordon,
13772,AU,7,Woolamai,
13773,AU,7,Wycheproof,
13774,AU,7,Wedderburn,
13775,AU,5,Eudunda,
13776,AU,6,Zeehan,
13777,AU,2,Jindera,
13778,AU,7,Rutherglen,
13779,AU,5,Orroroo,
13780,AU,2,Triangle Flat,
13781,AU,8,Walliston,
13782,AU,6,Howth,
13783,AU,6,Newstead,
13784,AU,6,Tunnack,
13785,AU,6,Upper Castra,
13786,AU,6,Longley Lower,
13787,AU,7,Clunes,
13788,AU,2,Gymea Bay,
13789,AU,4,Montville,
13790,AU,2,Kings Plains,
13791,AU,7,Derrinal,
13792,AU,7,Carlsruhe,
13793,AU,7,Kennington,
13794,AU,7,Murchison,
13795,AU,6,Beauty Point,
13796,AU,6,Wesley Vale,
13797,AU,4,Andergrove,
13798,AU,4,Bongeen,
13799,AU,4,Cambooya,
13800,AU,4,Holmes,
13801,AU,4,Gayndah,
13802,AU,4,Tara,
13803,AU,4,Gowrie,
13804,AU,4,Kanighan,
13805,AU,4,Aldershot,
13806,AU,4,Woodgate,
13807,AU,4,Sabine,
13808,AU,5,Rapid Bay,
13809,AU,5,Marrabel,
13810,AU,5,Port Wakefield,
13811,AU,8,Yanchep,
13812,AU,8,Rosa Brook,
13813,AU,8,Bicton,
13814,AU,8,Toodyay,
13815,AU,8,Mukinbudin,
13816,AU,8,Mundaring,
13817,AU,5,Port Broughton,
13818,AU,5,Hoyleton,
13819,AU,7,Yarrock,
13820,AU,5,Rowland Flat,
13821,AU,8,West Toodyay,
13822,AU,2,Essington,
13823,AU,2,Newport,
13824,AU,4,Kinbombi,
13825,AU,4,Laidley,
13826,AU,4,Maclean,
13827,AU,7,Yarra Glen,
13828,AU,7,Bailieston,
13829,AU,7,Puckapunyal,
13830,AU,7,Koyuga,
13831,AU,7,Nanneella,
13832,AU,7,Yarrawalla,
13833,AU,7,Knowsley,
13834,AU,7,Benloch,
13835,AU,7,Upper Beaconsfield,
13836,AU,7,Whroo,
13837,AU,7,Raywood,
13838,AU,7,Naneella,
13839,AU,7,Wattleglen,
13840,AU,7,Darch,
13841,AU,7,Hesket,
13842,AU,7,Doreen,
13843,AU,6,Alberton,
13844,AU,5,Nuriootpa,
13845,AU,6,Hampshire,
13846,AU,6,Neika,
13847,AU,5,Clarendon,
13848,AU,5,Winkie,
13849,AU,7,Jeparit,
13850,AU,2,Windsor,
13851,AU,2,Blackwall,
13852,AU,2,Gallymont,
13853,AU,2,Woolooware,
13854,AU,2,Mount Colah,
13855,AU,2,Wamberal North,
13856,AU,2,Wyongah,
13857,AU,2,Aberglasslyn,
13858,AU,2,Glenworth Valley,
13859,AU,2,Manildra,
13860,AU,2,Peats Ridge,
13861,AU,2,Valley Heights,
13862,AU,2,Mimosa,
13863,AU,2,Cobbitty,
13864,AU,4,Boodua,
13865,AU,4,Summerholm,
13866,AU,4,Dundas,
13867,AU,4,Rosevale,
13868,AU,4,Vernor,
13869,AU,4,Kin Kin,
13870,AU,4,Goolman,
13871,AU,4,Rosewood,
13872,AU,4,West Burleigh,
13873,AU,4,Anduramba,
13874,AU,4,Cabanda,
13875,AU,4,Ubobo,
13876,AU,4,Yednia,
13877,AU,4,Southbrook,
13878,AU,4,Hirstglen,
13879,AU,4,Bowenville,
13880,AU,4,Muldu,
13881,AU,4,Vetland,
13882,AU,4,Geham,
13883,AU,4,Mount Sylvia,
13884,AU,4,Calvert,
13885,AU,4,Wellcamp,
13886,AU,4,Blackbutt,
13887,AU,4,Glenore Grove,
13888,AU,4,Tiaro,
13889,AU,4,Jinghi Jinghi,
13890,AU,4,Cynthia,
13891,AU,4,Wietalaba,
13892,AU,4,Weranga,
13893,AU,4,Millmerran,
13894,AU,4,Sunnyglen,
13895,AU,4,Tummaville,
13896,AU,7,Lawrence,
13897,AU,7,Woodstock-on-loddon,
13898,AU,7,Rochford,
13899,AU,7,Redesdale Junction,
13900,AU,7,Harrisfield,
13901,AU,1,Tharwa,
13902,AU,1,Gudgenby,
13903,AU,2,Coalcliff,
13904,AU,2,Weethalle,
13905,AU,2,Narrandera,
13906,AU,2,Grong Grong,
13907,AU,2,Temora,
13908,AU,7,Parslows,
13909,AU,4,Biddeston,
13910,AU,2,Sodwalls,
13911,AU,2,Wyong Creek,
13912,AU,8,Greenmount,
13913,AU,2,Otford,
13914,AU,2,Woolwich,
13915,AU,5,Renmark,
13916,AU,8,Kenwick,
13917,AU,8,Dalkeith,
13918,AU,2,Tegerin,
13919,AU,7,Sydenham,
13920,AU,4,Pallarenda,
13921,AU,4,Rollingstone,
13922,AU,4,Redlynch,
13923,AU,2,Glenorie,
13924,AU,7,Glendaruel,
13925,AU,2,Wards River,
13926,AU,4,Kogan,
13927,AU,7,Katunga,
13928,AU,7,Congupna Road,
13929,AU,7,Avenel,
13930,AU,2,Finley,
13931,AU,5,Redhill,
13932,AU,3,Leanyer,
13933,AU,5,Laura,
13934,AU,4,Coowonga,
13935,AU,4,Gracemere,
13936,AU,3,Batchelor,
13937,AU,2,Bilambil,
13938,AU,7,Aura,
13939,AU,2,Scarborough,
13940,AU,2,Middle Camp,
13941,AU,2,Billinudgel,
13942,AU,4,Caboonbah,
13943,AU,5,Freeling,
13944,AU,8,Wonnerup,
13945,AU,8,Brookton,
13946,AU,7,Saint Albans,
13947,AU,7,Deer Park,
13948,AU,7,Cobden,
13949,AU,2,Little Bay,
13950,AU,4,North Gate Junction,
13951,AU,2,Dorrigo,
13952,AU,4,Maudsland,
13953,AU,4,North Mackay,
13954,AU,4,Toogoolawah,
13955,AU,5,Jamestown,
13956,AU,5,Ingle Farm,
13957,AU,5,Uraidla,
13958,AU,6,Mangana,
13959,AU,2,Greengrove,
13960,AU,7,Barmah,
13961,AU,7,Yabba North,
13962,AU,4,Talegalla,
13963,AU,5,Black Springs,
13964,AU,2,Rosebery,
13965,AU,2,Mortlake,
13966,AU,2,Curl Curl,
13967,AU,8,Williamstown,
13968,AU,8,Carrabin,
13969,AU,8,Bodallin,
13970,AU,4,Little Mulgrave,
13971,AU,4,Kawungan,
13972,AU,4,Ayr,
13973,AU,4,Leyburn,
13974,AU,3,Alyangula,
13975,AU,4,Cardwell,
13976,AU,2,Argoon,
13977,AU,7,Torrumbarry,
13978,AU,2,Glen Innes,
13979,AU,2,Avenel,
13980,AU,7,Menzies Creek,
13981,AU,2,Gleniffer,
13982,AU,2,Theresa Park,
13983,AU,2,Tarana,
13984,AU,2,Sofala,
13985,AU,4,Windorah,
13986,AU,2,Coramba,
13987,AU,4,Muttaburra,
13988,AU,4,Badu,
13989,AU,4,Bedourie,
13990,AU,4,Chillagoe,
13991,AU,8,Mullewa,
13992,AU,4,Yungaburra,
13993,AU,2,Porters Retreat,
13994,AU,2,Wee Waa,
13995,AU,4,Dirranbandi,
13996,AU,2,Wollar,
13997,AU,4,Surat,
13998,AU,2,Condobolin,
13999,AU,2,Rankins Springs,
14000,AU,7,Langley,
14001,AU,7,Glengarry,
14002,AU,7,Baranduda,
14003,AU,4,Beaudesert,
14004,AU,4,Beecher,
14005,AU,5,Springton,
14006,AU,2,Bendethera,
14007,AU,7,Bunbartha,
14008,AU,4,Edmonton,
14009,AU,7,Wunghnu,
14010,AU,5,Mclaren Vale,
14011,AU,2,Lake Cargelligo,
14012,AU,8,Celebration,
14013,AU,8,Widgemooltha,
14014,AU,8,Toolbrunup,
14015,AU,4,Peak Crossing,
14016,AU,5,Inkster,
14017,AU,5,Caliph,
14018,AU,7,Poowong,
14019,AU,4,Retro,
14020,AU,2,Bonnet Bay,
14021,AU,5,Loxton,
14022,AU,7,Urangara,
14023,AU,8,Warnbro,
14024,AU,2,Perthville,
14025,AU,7,Lance Field,
14026,AU,7,Upper Diamond Creek,
14027,AU,2,Bilpin,
14028,AU,2,Artarman,
14029,AU,5,Lameroo,
14030,AU,2,Jenolan Caves,
14031,AU,5,Wool Bay,
14032,AU,5,Curramulka,
14033,AU,5,Minlaton,
14034,AU,7,Werribee South,
14035,AU,7,Strath Creek,
14036,AU,1,Harman,
14037,AU,7,Queenscliff,
14038,AU,7,Beremboke,
14039,AU,7,Ellinbank,
14040,AU,7,Myrtleford,
14041,AU,7,Nowa Nowa,
14042,AU,7,Orbost,
14043,AU,7,Cann River,
14044,AU,7,Bendoc,
14045,AU,7,Nelsons Hill,
14046,AU,7,Leongatha,
14047,AU,2,Normanhurst,
14048,AU,4,Goomeri,
14049,AU,2,Clear Ridge,
14050,AU,4,Gheerulla,
14051,AU,7,Lang Lang,
14052,AU,7,Ravenswood,
14053,AU,7,Penshurst,
14054,AU,5,Caroline,
14055,AU,7,Port Melbourne,
14056,AU,7,Newry,
14057,AU,7,Tinamba,
14058,AU,7,Boolarra South,
14059,AU,7,Valencia Creek,
14060,AU,7,Moyhu,
14061,AU,5,Kimba,
14062,AU,7,Pomborneit,
14063,AU,7,Port Fairy,
14064,AU,7,Framlingham,
14065,AU,7,Glenfyne,
14066,AU,7,Timboon,
14067,AU,7,Naringal,
14068,AU,7,Moyne,
14069,AU,7,Kilcunda,
14070,AU,2,New Brighton,
14071,AU,8,Wattleup,
14072,AU,5,Goolwa,
14073,AU,5,Coober Pedy,
14074,AU,8,Frankland,
14075,AU,2,Krambach,
14076,AU,2,Belbora,
14077,AU,7,Carrum North,
14078,AU,7,Mount Evelyn,
14079,AU,7,Darnum,
14080,AU,2,Canowindra,
14081,AU,4,Babinda,
14082,AU,5,Kapunda,
14083,AU,8,Dowerin,
14084,AU,8,Goomalling,
14085,AU,8,Leeman,
14086,AU,8,Boddington,
14087,AU,8,Pintharuka,
14088,AU,8,Carilla,
14089,AU,8,Morawa,
14090,AU,8,Southern Brook,
14091,AU,8,Nungarin,
14092,AU,8,Tambellup,
14093,AU,8,Hovea,
14094,AU,8,Wooroloo,
14095,AU,8,Bullsbrook,
14096,AU,8,Kudardup,
14097,AU,7,Stanhope,
14098,AU,7,Sassafras,
14099,AU,2,Burraneer,
14100,AU,8,Pemberton,
14101,AU,2,Douglas Park,
14102,AU,2,Albion Park,
14103,AU,2,Shellharbour,
14104,AU,5,Wilmington,
14105,AU,2,Narooma,
14106,AU,4,Calliope,
14107,AU,7,Apollo Bay,
14108,AU,7,Kernot,
14109,AU,6,Woodbridge,
14110,AU,4,Aratula,
14111,AU,7,Moe,
14112,AU,5,Mallala,
14113,AU,5,Lewiston,
14114,AU,2,Kahiba,
14115,AU,2,Plattsburg,
14116,AU,2,Rylstone,
14117,AU,2,Kincumber South,
14118,AU,4,Wellers Hill,
14119,AU,5,Butler,
14120,AU,5,Ashbourne,
14121,AU,2,Saint Peters,
14122,AU,7,Muntham,
14123,AU,8,Three Springs,
14124,AU,8,Bolgart,
14125,AU,8,Dandaragan,
14126,AU,8,Woodanilling,
14127,AU,6,Interlaken,
14128,AU,7,Strathfieldsaye,
14129,AU,7,Womerah,
14130,AU,7,Eildon,
14131,AU,7,Pyramid Hill,
14132,AU,7,Warragamba,
14133,AU,2,Tinpot,
14134,AU,2,Cooba,
14135,AU,7,Yan Yean,
14136,AU,7,Wy Yung,
14137,AU,7,Wattle Flat,
14138,AU,5,Loveday,
14139,AU,5,Yinkanie,
14140,AU,7,Bullarto,
14141,AU,7,Mount Cottrell,
14142,AU,4,Kulgun,
14143,AU,4,Nurinda,
14144,AU,4,Cedar Grove,
14145,AU,7,Childers,
14146,AU,7,Drouin,
14147,AU,7,Tynong,
14148,AU,1,Weston Creek,
14149,AU,8,Wundowie,
14150,AU,7,Talgarno,
14151,AU,2,Boambee,
14152,AU,2,Burringbar,
14153,AU,2,Willawarrin,
14154,AU,2,Moonbi,
14155,AU,2,Quirindi,
14156,AU,2,Ben Lomond,
14157,AU,2,Cobargo,
14158,AU,2,Mcdonalds Creek,
14159,AU,2,Meranburn,
14160,AU,2,Homebush,
14161,AU,2,Richmond,
14162,AU,2,Glencoe,
14163,AU,6,Legana,
14164,AU,7,Wensleydale,
14165,AU,5,Nildottie,
14166,AU,4,Back Plains,
14167,AU,4,Braeside,
14168,AU,4,Eudlo,
14169,AU,7,Bamawm,
14170,AU,4,Wandoan,
14171,AU,6,Conara Junction,
14172,AU,7,Orrvale,
14173,AU,7,Kancoona,
14174,AU,4,Tin Can Bay,
14175,AU,8,Nyannia,
14176,AU,2,Terranora,
14177,AU,2,Woolomin,
14178,AU,2,Walcha,
14179,AU,2,Maybole,
14180,AU,2,Gaspard,
14181,AU,7,Lyal,
14182,AU,4,Brighton,
14183,AU,2,Bungaree Norah,
14184,AU,2,Blaxland,
14185,AU,2,Marlowe,
14186,AU,7,Stuart Mill,
14187,AU,7,Elmore,
14188,AU,4,Hazledean,
14189,AU,5,Burra,
14190,AU,8,Boyup Brook,
14191,AU,2,Bobin,
14192,AU,7,Tabilk,
14193,AU,4,Millaa Millaa,
14194,AU,2,Rutherford,
14195,AU,8,Wellard,
14196,AU,7,Porepunkah,
14197,AU,7,Diamond Creek,
14198,AU,2,Lilli Pilli,
14199,AU,4,Mount Perry,
14200,AU,2,Guyra,
14201,AU,2,Quaama,
14202,AU,2,Cawdor,
14203,AU,2,Yarrabandai,
14204,AU,2,Tintenbar,
14205,AU,2,Illabo,
14206,AU,2,Sackville,
14207,AU,2,Maroota,
14208,AU,7,Winiam East,
14209,AU,2,Gol Gol,
14210,AU,7,Brookville,
14211,AU,7,Jeetho,
14212,AU,7,Panmure,
14213,AU,4,Dalysford,
14214,AU,4,Iveragh,
14215,AU,4,Kilkivan,
14216,AU,8,Denmark,
14217,AU,5,Conmurra,
14218,AU,5,Lalirra,
14219,AU,5,Lock,
14220,AU,5,Lochiel,
14221,AU,5,Stow,
14222,AU,2,Medlow Bath,
14223,AU,7,Woodford,
14224,AU,6,Parkham,
14225,AU,5,Mclaren Flat,
14226,AU,4,Tully,
14227,AU,4,Saint Helens,
14228,AU,7,Nhill,
14229,AU,7,Boolarra,
14230,AU,7,Livingston,
14231,AU,2,Crudine,
14232,AU,2,Tyagarah,
14233,AU,7,Dollar,
14234,AU,7,Gormandale,
14235,AU,7,Willow Grove,
14236,AU,2,Ironmungy,
14237,AU,2,Murrimba,
14238,AU,5,Mount Crawford,
14239,AU,8,Mullalyup,
14240,AU,5,Sellicks Hill,
14241,AU,2,Greigs Flat,
14242,AU,6,Powranna,
14243,AU,7,Sea View,
14244,AU,7,Tawonga,
14245,AU,5,Undalya,
14246,AU,7,Garlicks,
14247,AU,7,Taggerty,
14248,AU,7,Eganstown,
14249,AU,2,Lerida,
14250,AU,4,Adavale,
14251,AU,4,Isisford,
14252,AU,4,Quilpie,
14253,AU,2,Baldry,
14254,AU,7,Five Ways,
14255,AU,5,Moonta Bay,
14256,AU,2,Adaminaby,
14257,AU,7,Tallygaroopna,
14258,AU,8,Meekatharra,
14259,AU,4,Burleigh,
14260,AU,7,Queenstown,
14261,AU,7,Wendouree,
14262,AU,7,Cockatoo,
14263,AU,2,Stevys Forest,
14264,AU,7,Axedale,
14265,AU,2,Ilililiwa,
14266,AU,7,Woods Point,
14267,AU,2,Missingham,
14268,AU,8,Fitzroy Crossing,
14269,AU,8,Halls Creek,
14270,AU,5,Mercunda,
14271,AU,5,Copeville,
14272,AU,2,Manilla,
14273,AU,2,Tambar Springs,
14274,AU,5,Paruna,
14275,AU,4,Gin Gin,
14276,AU,7,Moriac,
14277,AU,2,Old Junee,
14278,AU,2,Mitta Mitta,
14279,AU,7,Carag Carag,
14280,AU,5,Northfield,
14281,AU,7,Daylesford,
14282,AU,2,Dobroyd Point,
14283,AU,4,Mount Edwards,
14284,AU,7,Woodfield,
14285,AU,2,Clybucca,
14286,AU,2,Bowraville,
14287,AU,7,Myrniong,
14288,AU,2,Geurie,
14289,AU,7,Strathewen,
14290,AU,7,Cottell's Bridge,
14291,AU,7,Wonga Park,
14292,AU,2,Menangle,
14293,AU,7,Ballendella,
14294,AU,2,Landervale,
14295,AU,4,Tarzali,
14296,AU,2,Aylmerton,
14297,AU,2,Gundagai,
14298,AU,2,Yerrinbool,
14299,AU,2,Tarana Quarry,
14300,AU,2,Quandialla,
14301,AU,4,Perwillowen,
14302,AU,2,Telegraph Point,
14303,AU,5,Allendale East,
14304,AU,2,Trungley Hall,
14305,AU,2,Glen Davis,
14306,AU,2,Oberon,
14307,AU,2,Ungarie,
14308,AU,2,Woodford Leigh,
14309,AU,2,White Top,
14310,AU,6,Sulphur Creek,
14311,AU,2,Bamarong,
14312,AU,5,Forster,
14313,AU,8,Kambalda,
14314,AU,8,Coolgardie,
14315,AU,8,Binningup,
14316,AU,4,Burnett Heads,
14317,AU,2,O'connell,
14318,AU,2,Dunkeld,
14319,AU,4,Upper Tallebudgera,
14320,AU,2,Boorowa,
14321,AU,2,Rogans Hill,
14322,AU,7,Hill End,
14323,AU,6,Tunbridge,
14324,AU,6,Bothwell,
14325,AU,2,Urunga,
14326,AU,7,Tarwin,
14327,AU,7,Ross Creek,
14328,AU,7,Beaufort,
14329,AU,5,Waikerie,
14330,AU,4,Moorang,
14331,AU,4,Buccan,
14332,AU,6,Smithton,
14333,AU,6,Wilmot,
14334,AU,5,Bridgewater,
14335,AU,6,Westbury,
14336,AU,6,Sheffield,
14337,AU,7,Barwon Heads,
14338,AU,5,Cleve,
14339,AU,5,Montacute,
14340,AU,2,Sylvania Waters,
14341,AU,2,Crookwell,
14342,AU,2,Berrebangalo,
14343,AU,2,Binda,
14344,AU,2,Sawtell,
14345,AU,2,Fernmount,
14346,AU,2,Bundaburra,
14347,AU,4,Severnlea,
14348,AU,4,Hockley,
14349,AU,2,Cremorne,
14350,AU,2,Glenburn,
14351,AU,7,Yallourn,
14352,AU,4,Yorkeys Knob,
14353,AU,2,Spring Hill,
14354,AU,7,Monegeetta,
14355,AU,7,Ovens,
14356,AU,2,Kembla,
14357,AU,7,Wahgunyah,
14358,AU,7,Wandin North,
14359,AU,7,Spargo Creek,
14360,AU,5,Stirling,
14361,AU,4,Seaforth,
14362,AU,6,Grassy,
14363,AU,7,Eagle Point,
14364,AU,7,Middle Creek,
14365,AU,2,Brunswick Heads,
14366,AU,2,Yelgun,
14367,AU,2,Woolgoolga,
14368,AU,2,Fassifern,
14369,AU,5,Ceduna,
14370,AU,2,Kyeemagh,
14371,AU,2,Lower Mangrove,
14372,AU,8,Coolup,
14373,AU,5,Dunira,
14374,AU,4,Wowan,
14375,AU,2,Sackville Reach,
14376,AU,2,Awaba,
14377,AU,8,North Lake Grace,
14378,AU,8,Kulin,
14379,AU,8,Aldersyde,
14380,AU,8,Muradup,
14381,AU,8,Bartons Mill,
14382,AU,8,Jitarning,
14383,AU,8,Morbinning,
14384,AU,8,Narembeen,
14385,AU,8,Wagin,
14386,AU,8,Muntadgin,
14387,AU,8,Jarrahdale,
14388,AU,8,Wilga,
14389,AU,7,Toolamba West,
14390,AU,5,Caltowie,
14391,AU,5,Gladstone,
14392,AU,5,Stockport,
14393,AU,8,Point Samson,
14394,AU,8,Muchea,
14395,AU,2,Eglinton,
14396,AU,2,Yellow Rock,
14397,AU,7,North Prentice,
14398,AU,7,Peechelba,
14399,AU,2,Good Hope,
14400,AU,2,Bellingen,
14401,AU,2,Dora Creek,
14402,AU,2,Killingworth,
14403,AU,2,Pretty Beach,
14404,AU,2,Dungog,
14405,AU,2,Wollomombi,
14406,AU,2,Wootton,
14407,AU,2,Nambucca Heads,
14408,AU,7,Werneth,
14409,AU,5,Bolivar,
14410,AU,7,Macorna,
14411,AU,7,Huntly,
14412,AU,7,Teal Point,
14413,AU,7,Lake Cooper,
14414,AU,7,Goornong,
14415,AU,6,Pyengana,
14416,AU,2,Oban,
14417,AU,2,Lower Creek,
14418,AU,2,Raglan,
14419,AU,7,Morang,
14420,AU,8,Waroona,
14421,AU,4,Breakfast Creek,
14422,AU,7,Emu,
14423,AU,2,Gilgandra,
14424,AU,7,Victoria Valley,
14425,AU,5,Willunga,
14426,AU,6,Boat Harbour,
14427,AU,2,Tuppal,
14428,AU,7,Nambrok,
14429,AU,4,Wyreema,
14430,AU,6,Berriedale,
14431,AU,7,Wareek,
14432,AU,2,Noraville,
14433,AU,2,Eraring,
14434,AU,4,Flagstone Creek,
14435,AU,2,Maclean's Ridges,
14436,AU,7,Serpentine,
14437,AU,7,Moglonemby,
14438,AU,7,Redesdale,
14439,AU,7,Wannon,
14440,AU,7,Wanalta,
14441,AU,7,Anakie,
14442,AU,7,Gerang Gerung,
14443,AU,2,Maryland,
14444,AU,2,Kangaroo Valley,
14445,AU,4,Lanefield,
14446,AU,4,Cotswold,
14447,AU,2,Minimbah,
14448,AU,2,Pelican Flat,
14449,AU,2,Marulan,
14450,AU,2,Craigie,
14451,AU,7,Black Springs,
14452,AU,2,Failford,
14453,AU,7,Glenburn,
14454,AU,2,Cumnock,
14455,AU,2,Coolah,
14456,AU,7,Flinn,
14457,AU,4,Monto,
14458,AU,2,Wanaaring,
14459,AU,2,Somerton,
14460,AU,2,Hillston,
14461,AU,6,Dromedary,
14462,AU,7,Wirrate,
14463,AU,7,Hilldene,
14464,AU,2,Mulwala,
14465,AU,7,Barwo,
14466,AU,4,Bunburra,
14467,AU,4,Isis,
14468,AU,4,Pilton,
14469,AU,4,Motley,
14470,AU,6,Rowella,
14471,AU,4,Takoko,
14472,AU,4,Mount Kent,
14473,AU,8,O'connor,
14474,AU,2,Whiterock,
14475,AU,2,Rockley,
14476,AU,2,Bethungra,
14477,AU,7,Tongala,
14478,AU,4,Wondai,
14479,AU,5,Bethany,
14480,AU,5,Cunliffe,
14481,AU,5,Allandale North,
14482,AU,5,Dashwoods Gully,
14483,AU,8,Caroling,
14484,AU,8,Qualen,
14485,AU,7,Pine Lodge,
14486,AU,7,Bagshot,
14487,AU,7,Burlington,
14488,AU,4,Felton East,
14489,AU,2,Mogo,
14490,AU,2,Millthorpe,
14491,AU,5,Keilli,
14492,AU,5,Saddleworth,
14493,AU,6,Gravelly Beach,
14494,AU,8,Bannister North,
14495,AU,8,Banksiadale,
14496,AU,8,Worsley,
14497,AU,4,Priestdale Lagoons,
14498,AU,2,Chinderah,
14499,AU,4,Canungra,
14500,AU,4,Mount Forbes,
14501,AU,5,Pinery,
14502,AU,7,Sassafras Gully,
14503,AU,6,Bagdad,
14504,AU,4,Charlton,
14505,AU,2,Murrumbateman,
14506,AU,7,Wollert,
14507,AU,4,Nunkulla,
14508,AU,4,Rywung,
14509,AU,4,Djuan,
14510,AU,5,Mitchellville,
14511,AU,4,The Caves,
14512,AU,4,Closeburn,
14513,AU,2,Coreen,
14514,AU,2,Talmalmo,
14515,AU,7,Warrandyte South,
14516,AU,2,Hoskinstown,
14517,AU,2,Cranbury,
14518,AU,5,Hamilton,
14519,AU,5,Giles Corner,
14520,AU,2,Tenambit,
14521,AU,2,Gungal,
14522,AU,8,North Fremantle,
14523,AU,8,Guilderton,
14524,AU,7,Humevale,
14525,AU,2,Courangra,
14526,AU,2,Moruya Heads,
14527,AU,2,Gundamaian,
14528,AU,2,Thirlmere,
14529,AU,2,Coolongolook,
14530,AU,2,Merriwa,
14531,AU,2,Jaspers Brush,
14532,AU,2,Central Colo,
14533,AU,2,Maianbar,
14534,AU,2,Fosterton,
14535,AU,7,Tooradin,
14536,AU,8,Wungong,
14537,AU,4,Elliott Heads,
14538,AU,4,Bondoola,
14539,AU,4,Boynedale,
14540,AU,4,Cooloolabin,
14541,AU,5,One Tree Hill,
14542,AU,2,Jerrawa,
14543,AU,4,Belmont,
14544,AU,4,Rathdowney,
14545,AU,2,Rawdon Vale,
14546,AU,2,Nyngan,
14547,AU,4,Cawarral,
14548,AU,7,Woodbourne,
14549,AU,2,Lower Portland,
14550,AU,4,Rosedale,
14551,AU,7,Creighton,
14552,AU,5,Morgan,
14553,AU,4,Norwell,
14554,AU,4,Warren,
14555,AU,4,Ravensbourne,
14556,AU,4,Moura,
14557,AU,4,Mooloolah,
14558,AU,4,Mundubbera,
14559,AU,4,Boondooma,
14560,AU,4,Glass House Mountains,
14561,AU,2,Whiporie,
14562,AU,2,Burrumbuttock,
14563,AU,8,Wansbrough,
14564,AU,8,Yealering,
14565,AU,7,Petersons,
14566,AU,6,Tullah,
14567,AU,6,Rosebery,
14568,AU,7,Cornella,
14569,AU,7,Kialla East,
14570,AU,7,Licola,
14571,AU,6,Robigana,
14572,AU,6,Mathinna,
14573,AU,4,Drayton,
14574,AU,4,The Summit,
14575,AU,4,Townson,
14576,AU,4,Yamsion,
14577,AU,2,Bonnie Vale,
14578,AU,4,Cabarlah,
14579,AU,4,Tarampa,
14580,AU,4,Columboola,
14581,AU,4,Harrisville,
14582,AU,7,Yundool,
14583,AU,7,Moorilim,
14584,AU,7,Port Franklin,
14585,AU,2,Conargo,
14586,AU,6,Pyengana West,
14587,AU,5,Cobdog,
14588,AU,6,Hadspen,
14589,AU,6,Windermere,
14590,AU,6,Rosevale,
14591,AU,2,Woodville,
14592,AU,2,Killcare,
14593,AU,4,Amamoor,
14594,AU,4,Docters Creek,
14595,AU,4,Baking Board,
14596,AU,4,Fulham Vale,
14597,AU,4,Boonarda,
14598,AU,4,Bryden,
14599,AU,4,Tarong,
14600,AU,4,Evergreen,
14601,AU,4,Kingsthorpe,
14602,AU,4,Junction View,
14603,AU,4,Black Duck Creek,
14604,AU,4,Mutdapilly,
14605,AU,4,Coalbank,
14606,AU,4,Old Talgai,
14607,AU,4,College Green,
14608,AU,6,Stoodley,
14609,AU,7,Selby,
14610,AU,2,Stanbridge,
14611,AU,2,Avon Dam,
14612,AU,2,Morumbateman,
14613,AU,2,Winchendon Vale,
14614,AU,7,Hepburn,
14615,AU,2,Dungaree,
14616,AU,5,Bool Lagoon,
14617,AU,8,Cardup,
14618,AU,2,Killarney,
14619,AU,7,Diggers Rest,
14620,AU,2,Maldon,
14621,AU,4,Oonoonba,
14622,AU,2,Doyles Creek,
14623,AU,5,Cheltenham,
14624,AU,4,Euleilah,
14625,AU,2,Kangaloon,
14626,AU,4,Dakabin,
14627,AU,4,Raby Bay,
14628,AU,4,Birru,
14629,AU,5,Frances,
14630,AU,8,Higginsville,
14631,AU,4,Cinnabar,
14632,AU,2,Cadgee,
14633,AU,7,Bringalbert,
14634,AU,7,Sylvaterre,
14635,AU,2,Bowan Park,
14636,AU,3,Borroloola,
14637,AU,4,Oorindi,
14638,AU,4,Augathella,
14639,AU,4,Aramac,
14640,AU,2,Balranald,
14641,AU,2,Turondale,
14642,AU,6,The Glen,
14643,AU,2,Locksley,
14644,AU,2,Water Mark,
14645,AU,2,Utopia,
14646,AU,7,Mundoona,
14647,AU,5,Lochaber,
14648,AU,8,Tandagin,
14649,AU,8,Porongorup,
14650,AU,5,Rudall,
14651,AU,5,Streaky Bay,
14652,AU,5,Terowie,
14653,AU,2,Girvan,
14654,AU,7,Leigh Creek,
14655,AU,2,Berridale,
14656,AU,2,Tallimba,
14657,AU,7,Winnindoo,
14658,AU,7,Yarram,
14659,AU,8,Esperance,
14660,AU,7,Kolora,
14661,AU,7,Yarpturk,
14662,AU,2,Beaumont,
14663,AU,7,Edgecombe,
14664,AU,7,Sebastian,
14665,AU,2,Tooma,
14666,AU,8,Youraling,
14667,AU,8,Tammin,
14668,AU,4,Port Kennedy,
14669,AU,8,Spencers Brook,
14670,AU,8,Shark Bay,
14671,AU,4,Wamuran,
14672,AU,7,Ceres,
14673,AU,7,Tanjil South,
14674,AU,5,Dublin,
14675,AU,7,Lakes Entrance,
14676,AU,5,Gordon,
14677,AU,2,Collarenebri,
14678,AU,8,Elabbin,
14679,AU,8,Quins Castle,
14680,AU,4,Rubyvale,
14681,AU,7,Hazelwood,
14682,AU,7,Gundowring,
14683,AU,7,Yinnar,
14684,AU,7,Mcmahons Creek,
14685,AU,5,Sedan,
14686,AU,5,Kurlana,
14687,AU,2,Bellawongarah,
14688,AU,2,Allandale,
14689,AU,2,Tabbita,
14690,AU,2,Woodburn,
14691,AU,2,Llangothlin,
14692,AU,6,Alanvale,
14693,AU,2,Tooleybuc,
14694,AU,7,Kooroocheang,
14695,AU,2,Breeza,
14696,AU,5,Wunkar,
14697,AU,4,Colinton,
14698,AU,3,Pine Creek,
14699,AU,2,Glen Alice,
14700,AU,7,Mysia,
14701,AU,2,Cangai,
14702,AU,7,Bailieston East,
14703,AU,6,Liffey,
14704,AU,7,Pitfield,
14705,AU,2,Tabbimoble,
14706,AU,2,Bundannon,
14707,AU,2,Junee Reefs,
14708,AU,7,Swan Reach,
14709,AU,4,Banna,
14710,AU,4,Barmundu,
14711,AU,5,Halbury,
14712,AU,2,Mullanjandra,
14713,AU,5,Mount Compass,
14714,AU,4,Miriwinni,
14715,AU,7,Nerrina,
14716,AU,7,Oswald,
14717,AU,7,Mount Best,
14718,AU,7,Gunyah,
14719,AU,2,Upper Turon,
14720,AU,2,Hill Top,
14721,AU,7,Glenbrae,
14722,AU,2,Balgowlah Heights,
14723,AU,2,Moorwatha,
14724,AU,7,Wehla,
14725,AU,2,Collector,
14726,AU,5,Arthurton,
14727,AU,2,Rhine Falls,
14728,AU,4,Armstrong Creek,
14729,AU,5,Galga,
14730,AU,7,Yielima,
14731,AU,2,Blighty,
14732,AU,2,Arcadia,
14733,AU,2,Moonbah,
14734,AU,7,Bonnie Doon,
14735,AU,2,Harwood Island,
14736,AU,2,Macksville,
14737,AU,5,Somerton,
14738,AU,2,Tarago,
14739,AU,2,Stroud,
14740,AU,2,Wimbledon,
14741,AU,2,Wirrinya,
14742,AU,7,Bung Bong,
14743,AU,2,Louth,
14744,AU,2,Marrar,
14745,AU,2,Reefton,
14746,AU,2,Eastholme,
14747,AU,6,Montumana,
14748,AU,2,Seelands,
14749,AU,4,Peachester,
14750,AU,2,Chatsworth,
14751,AU,7,Bradshaw,
14752,AU,6,Spreyton,
14753,AU,2,Warialda,
14754,AU,6,Myalla,
14755,AU,5,Gomersal,
14756,AU,7,Mingay,
14757,AU,2,Wowingragong,
14758,AU,5,Mannum,
14759,AU,5,Korunye,
14760,AU,6,Elderslie,
14761,AU,4,Benaraby,
14762,AU,5,Joanna,
14763,AU,4,Cedarton,
14764,AU,6,Mawbanna,
14765,AU,8,Beechina,
14766,AU,7,Newbury,
14767,AU,2,Lochinvar,
14768,AU,4,Eagle Heights,
14769,AU,7,Tyaak,
14770,AU,7,Tallarook,
14771,AU,8,North Beach,
14772,AU,5,The Range,
14773,AU,2,Savernake,
14774,AU,4,Milyando,
14775,AU,8,Broomehill,
14776,AU,8,Kojonup,
14777,AU,8,Talbot Brook,
14778,AU,8,Wickepin,
14779,AU,8,Darkin,
14780,AU,8,Quairading,
14781,AU,8,Jennacubbine,
14782,AU,8,Gnowangerup,
14783,AU,8,Nannup Mill,
14784,AU,8,Ongerup,
14785,AU,2,Blandford,
14786,AU,8,Kirup,
14787,AU,2,Sparebrook,
14788,AU,4,Gowrie Junction,
14789,AU,4,Croftby,
14790,AU,4,Harristown,
14791,AU,2,Mooyabil,
14792,AU,2,Fiddletown,
14793,AU,2,Johns River,
14794,AU,2,Wylie Creek,
14795,AU,2,Coopernook,
14796,AU,2,Marshall Mountain,
14797,AU,2,Tarro,
14798,AU,2,Ellerston,
14799,AU,2,Barnsley,
14800,AU,4,Blenheim,
14801,AU,4,Bodalla,
14802,AU,5,Balhannah,
14803,AU,4,Fordsdale,
14804,AU,7,Rocklyn,
14805,AU,7,Katyil,
14806,AU,7,Mount Lonarch,
14807,AU,2,Dunns Creek,
14808,AU,2,Numulgi,
14809,AU,2,Wangat,
14810,AU,2,Terry Hie Hie,
14811,AU,2,Pee Dee,
14812,AU,2,Chichester,
14813,AU,2,Croydon,
14814,AU,2,Blackville,
14815,AU,2,Coonamble,
14816,AU,2,Baan Baa,
14817,AU,4,Julia Creek,
14818,AU,4,Traviston,
14819,AU,4,Imbil,
14820,AU,5,Auburn,
14821,AU,7,Romsey,
14822,AU,7,Rye,
14823,AU,2,Gulgong,
14824,AU,7,Kaarimba,
14825,AU,4,Proston,
14826,AU,7,Echuca Village,
14827,AU,7,Willowvale,
14828,AU,2,Rosehill,
14829,AU,4,Deagon,
14830,AU,7,Munro,
14831,AU,6,Bracknell,
14832,AU,8,Norseman,
14833,AU,5,Merriton,
14834,AU,2,Yowie Bay,
14835,AU,8,Mahogany Creek,
14836,AU,8,Yornup,
14837,AU,8,Pinjarra,
14838,AU,8,Northampton,
14839,AU,4,Murphys Creek,
14840,AU,5,Canowie,
14841,AU,6,Loira,
14842,AU,2,Pendle Hills,
14843,AU,5,Campbelltown,
14844,AU,2,Upper Orara,
14845,AU,2,Pampoolah,
14846,AU,7,Arthurs Creek,
14847,AU,4,Cooyar,
14848,AU,5,Tarlee,
14849,AU,2,Clarence Town,
14850,AU,7,Appin,
14851,AU,4,Mapleton,
14852,AU,5,Scotts Creek,
14853,AU,2,Wyan,
14854,AU,7,Keely,
14855,AU,4,Tungamull,
14856,AU,4,Wyampa,
14857,AU,5,Montarra,
14858,AU,5,Penfield,
14859,AU,5,Sampsons Flat,
14860,AU,7,Drumanure,
14861,AU,2,Tumbarumba,
14862,AU,2,Weeamera,
14863,AU,7,Gowangardie East,
14864,AU,2,Molong,
14865,AU,2,Keepit,
14866,AU,4,Fernlees,
14867,AU,4,Gleneagle,
14868,AU,8,Meelon,
14869,AU,8,Yelbeni,
14870,AU,7,Powlett Hill,
14871,AU,2,Frogmore,
14872,AU,5,Angas Valley,
14873,AU,4,Evelyn,
14874,AU,4,Myrtle,
14875,AU,7,Allendale,
14876,AU,4,Browns Plains,
14877,AU,4,Wutul,
14878,AU,4,Glan Devon,
14879,AU,4,Walkerston,
14880,AU,4,Cutella,
14881,AU,4,Burrumba,
14882,AU,4,Goombi,
14883,AU,2,Denman,
14884,AU,2,Farquhar Park,
14885,AU,2,The Flags,
14886,AU,2,Bylong,
14887,AU,8,Jacobs Well,
14888,AU,4,Banana Pocket,
14889,AU,7,Murmungee,
14890,AU,6,Renison Bell,
14891,AU,7,Springmount,
14892,AU,7,Musk Vale,
14893,AU,8,Capel,
14894,AU,7,Youarang,
14895,AU,6,Sidmouth,
14896,AU,6,Exton,
14897,AU,6,Weetah,
14898,AU,4,Goombungee,
14899,AU,4,Kumbarilla,
14900,AU,4,Cooranga North,
14901,AU,5,Rhynie,
14902,AU,4,Clarendon,
14903,AU,4,Yarraman,
14904,AU,7,Marungi,
14905,AU,7,Scarsdale,
14906,AU,6,Simpsons Bay,
14907,AU,5,Beaufort,
14908,AU,2,Bundeena,
14909,AU,2,Gundibindyal,
14910,AU,4,Bootawa,
14911,AU,4,Springsure,
14912,AU,4,Saint Aubyn,
14913,AU,4,Alligator Creek,
14914,AU,4,Jondaryan,
14915,AU,4,Tangkam,
14916,AU,4,Glencarth,
14917,AU,4,Coolana,
14918,AU,6,Mole Creek,
14919,AU,7,Byrneside,
14920,AU,7,High Camp,
14921,AU,6,Selbourne,
14922,AU,2,Barellan,
14923,AU,7,Durham Ox,
14924,AU,2,Cudal,
14925,AU,2,Stonehenge,
14926,AU,5,Yunta,
14927,AU,4,Kynuna,
14928,AU,4,Hughenden,
14929,AU,7,Toora,
14930,AU,4,Cunnamulla,
14931,AU,7,Rosedale,
14932,AU,4,Morven,
14933,AU,7,Prairie,
14934,AU,7,Docker,
14935,AU,2,Yarraford,
14936,AU,2,Gumble,
14937,AU,4,Mount Samson,
14938,AU,2,Mundowey,
14939,AU,2,Lockwood,
14940,AU,8,Kendenup,
14941,AU,5,Yaninee,
14942,AU,4,Meandarra,
14943,AU,5,Mount Rat,
14944,AU,7,Toolern Vale,
14945,AU,7,Shady Creek,
14946,AU,7,Eaglehawk,
14947,AU,4,Wieambilla,
14948,AU,2,Barooga,
14949,AU,2,Putty,
14950,AU,7,Terang,
14951,AU,7,Bostocks Creek,
14952,AU,7,Brucknell,
14953,AU,7,The Sisters,
14954,AU,7,Campbells Creek,
14955,AU,2,Farmeadow,
14956,AU,2,Crescent Head,
14957,AU,4,Mossman,
14958,AU,4,Millbong,
14959,AU,8,Millendon,
14960,AU,8,Bally Bally,
14961,AU,5,Baroota,
14962,AU,8,Karlgarin,
14963,AU,7,Back Creek,
14964,AU,7,Weerite,
14965,AU,2,Gowan,
14966,AU,2,Telarah,
14967,AU,4,Kalbar,
14968,AU,7,Modella,
14969,AU,2,Lawrence,
14970,AU,2,Warburn,
14971,AU,7,Bolinda,
14972,AU,2,Seaforth,
14973,AU,4,Lowmead,
14974,AU,2,Jerseyville,
14975,AU,8,Brunswick Junction,
14976,AU,2,Loftus,
14977,AU,7,Kingowar,
14978,AU,7,Sulky Gully,
14979,AU,7,Little River,
14980,AU,7,Merbein,
14981,AU,4,Dows Creek,
14982,AU,7,Mangalore West,
14983,AU,2,Allworth,
14984,AU,5,Middleton,
14985,AU,6,Perth,
14986,AU,2,Palmers Island,
14987,AU,7,Poowong South,
14988,AU,7,Nullawarre,
14989,AU,4,Taragoola,
14990,AU,5,Millicent,
14991,AU,5,Kielpa,
14992,AU,2,Klori,
14993,AU,4,Kuttabul,
14994,AU,7,Waubra,
14995,AU,7,English's Corner,
14996,AU,7,Nerrena East,
14997,AU,2,Walla-walla,
14998,AU,2,Caroona,
14999,AU,2,Mongogarie,
15000,AU,7,Trentham East,
15001,AU,2,Bermagui,
15002,AU,2,Grogan,
15003,AU,8,Dongara,
15004,AU,7,Manangatang,
15005,AU,2,Woods Reef,
15006,AU,7,Myrrhee,
15007,AU,2,Bulahdelah,
15008,AU,4,Nerimbera,
15009,AU,4,Ilfracombe,
15010,AU,2,Beelbangera,
15011,AU,7,Fernihurst,
15012,AU,2,Pokolbin,
15013,AU,7,Whorouly South,
15014,AU,2,Tyalgum,
15015,AU,2,Monkerai,
15016,AU,4,Dalveen,
15017,AU,6,Myrtle Bank,
15018,AU,2,Norway,
15019,AU,4,Yandaran,
15020,AU,7,Heathmere,
15021,AU,2,Badjerribong,
15022,AU,4,Sapphire,
15023,AU,5,Sandergrove,
15024,AU,7,Mandurang South,
15025,AU,7,Mernda,
15026,AU,4,Margate,
15027,AU,4,Pioneer,
15028,AU,2,Central Bucca,
15029,AU,4,Dayboro,
15030,AU,2,Jeogla,
15031,AU,8,Jardee,
15032,AU,8,North Karlgarin,
15033,AU,8,Chowerup,
15034,AU,8,Karragullen,
15035,AU,8,Doodenanning,
15036,AU,8,Quindanning,
15037,AU,8,Dumbleyung,
15038,AU,2,Mulbring,
15039,AU,8,Bungulluping,
15040,AU,7,Carboor Upper,
15041,AU,2,Tarban,
15042,AU,2,Afterlee,
15043,AU,2,Tomerong,
15044,AU,2,Patonga,
15045,AU,7,Mollongghip,
15046,AU,7,Tandara,
15047,AU,2,Matheson,
15048,AU,2,Tarcutta,
15049,AU,4,Kimberly,
15050,AU,7,Coimadai,
15051,AU,4,Innisplain,
15052,AU,6,Beaconsfield,
15053,AU,6,Rosevears,
15054,AU,4,Cleveland,
15055,AU,2,Pambula,
15056,AU,4,Tallebudgera,
15057,AU,2,Coogee,
15058,AU,2,Bangor,
15059,AU,2,Moruya,
15060,AU,5,Sunny Hill,
15061,AU,2,Kingscliff,
15062,AU,2,Aldavilla,
15063,AU,2,Mona Vale,
15064,AU,4,Forest Hill,
15065,AU,2,Forster,
15066,AU,2,Manly,
15067,AU,2,Crows Nest,
15068,AU,7,Yea,
15069,AU,2,Kensington,
15070,AU,2,Lightning Ridge,
15071,AU,2,Williamtown,
15072,AU,2,Murrurundi,
15073,AU,2,Greta,
15074,AU,2,Sutherland,
15075,AU,7,Kalkallo,
15076,AU,2,Newrybar,
15077,AU,4,Alexandra,
15078,AU,4,Kingston,
15079,AU,2,Eschol,
15080,AU,7,Tylden,
15081,AU,5,Greenock,
15082,AU,8,Safety Bay,
15083,AU,6,Glenorchy,
15084,AU,6,Kingston,
15085,AU,5,Meningie,
15086,AU,5,Wistow,
15087,AU,4,Gilston,
15088,AU,2,Bellambi,
15089,AU,4,Woolooga,
15090,AU,2,Peak Hill,
15091,AU,2,Hill End,
15092,AU,8,Duranillin,
15093,AU,4,Raglan,
15094,AU,5,Marananga,
15095,AU,6,Taranna,
15096,AU,6,Judbury,
15097,AU,4,Mount Morgan,
15098,AU,8,Nornalup,
15099,AU,8,Koorda,
15100,AU,2,Bogan Gate,
15101,AU,4,Ravenshoe,
15102,AU,4,Woodford,
15103,AU,5,Woodchester,
15104,AU,4,Koumala,
15105,AU,7,Tooborac,
15106,AU,6,Meander,
15107,AU,4,Farleigh,
15108,AU,4,Keppel Sands,
15109,AU,2,Mount Victoria,
15110,AU,2,Limbri,
15111,AU,8,Donnybrook,
15112,AU,7,Tittybong,
15113,AU,5,Charleston,
15114,AU,6,Bishopsbourne,
15115,AU,5,Wirrabara,
15116,AU,2,Balmoral,
15117,AU,7,Merricks North,
15118,AU,4,Urangan,
15119,AU,2,Stanmore,
15120,AU,2,Malabar,
15121,AU,2,Wattle Flat,
15122,AU,7,Hepburn Springs,
15123,AU,7,Piangil,
15124,AU,2,Wallerawang,
15125,AU,2,Clontarf,
15126,AU,2,Piggabeen,
15127,AU,2,Picton,
15128,AU,4,Winton,
15129,AU,7,Maindample,
15130,AU,2,Gooloogong,
15131,AU,7,Buninyong,
15132,AU,2,Illawong,
15133,AU,5,Hamley Bridge,
15134,AU,4,Pyramid,
15135,AU,2,Nerrigundah,
15136,AU,7,Pearcedale,
15137,AU,8,Moorine Rock,
15138,AU,5,Cummins,
15139,AU,7,Outtrim,
15140,AU,4,Mondure,
15141,AU,5,Roger Corner,
15142,AU,5,Port Victoria,
15143,AU,7,Swifts Creek,
15144,AU,7,Connewarre,
15145,AU,2,Myuna,
15146,AU,7,Moolap,
15147,AU,2,Junee,
15148,AU,7,Cowwarr,
15149,AU,4,Sarina,
15150,AU,7,Wallacedale,
15151,AU,7,Noorat,
15152,AU,7,Smythes Creek,
15153,AU,5,Templers,
15154,AU,4,Injune,
15155,AU,7,Geelong West,
15156,AU,7,Woodleigh,
15157,AU,5,Woodside,
15158,AU,8,Wyalkatchem,
15159,AU,8,Dardanup,
15160,AU,8,Grass Valley,
15161,AU,8,Doodlakine,
15162,AU,2,Wingham,
15163,AU,5,Warrow,
15164,AU,4,Purga,
15165,AU,7,Elmhurst,
15166,AU,7,Jancourt,
15167,AU,2,The Channon,
15168,AU,4,Moresby,
15169,AU,5,Kyeema,
15170,AU,2,Kahibah,
15171,AU,8,Bruce Rock,
15172,AU,5,Mcharg Creek,
15173,AU,4,Childers,
15174,AU,7,Labertouche,
15175,AU,6,Sandford,
15176,AU,4,Elimbah,
15177,AU,2,Upper Shark Creek,
15178,AU,2,Iluka,
15179,AU,2,Towradgi,
15180,AU,2,Berkeley,
15181,AU,7,Narrawong,
15182,AU,7,Modewarre,
15183,AU,7,Digby,
15184,AU,7,Newham,
15185,AU,5,Kanmantoo,
15186,AU,4,Yangan,
15187,AU,5,Quorn,
15188,AU,7,Rokewood,
15189,AU,8,Medina,
15190,AU,4,Wagoora,
15191,AU,8,Calingiri,
15192,AU,7,Moorooduc,
15193,AU,2,Borambola,
15194,AU,7,Katamatite,
15195,AU,6,Longford,
15196,AU,2,Binnaway,
15197,AU,2,Tucabia,
15198,AU,2,Brooklet,
15199,AU,7,Pipers Creek,
15200,AU,7,Ultima,
15201,AU,7,Iona,
15202,AU,7,Ecklin South,
15203,AU,8,Derby,
15204,AU,5,Kilroo,
15205,AU,6,Elizabeth Town,
15206,AU,4,Windaroo,
15207,AU,4,Gargett,
15208,AU,2,East Ballina,
15209,AU,2,Wyrallah,
15210,AU,7,Fish Creek,
15211,AU,2,Bombala,
15212,AU,2,Kelso,
15213,AU,5,Moonta,
15214,AU,6,Lilydale,
15215,AU,2,Lakesland,
15216,AU,2,Kyogle,
15217,AU,2,Myall Creek,
15218,AU,4,Inglewood,
15219,AU,7,Bellbrae,
15220,AU,6,Triabunna,
15221,AU,2,Burradoo,
15222,AU,7,Hillside,
15223,AU,7,Lyonville,
15224,AU,4,Scarborough,
15225,AU,4,Kerry,
15226,AU,4,Pleystowe,
15227,AU,7,Callignee,
15228,AU,8,Carnarvon,
15229,AU,5,Ardrossan,
15230,AU,2,Clifton,
15231,AU,7,Glenvale,
15232,AU,7,Mount Beauty,
15233,AU,7,Macedon,
15234,AU,4,Ballandean,
15235,AU,2,Sapphire,
15236,AU,5,Karoonda,
15237,AU,4,Flinders,
15238,AU,7,Millgrove,
15239,AU,5,Seaton,
15240,AU,8,Darkan,
15241,AU,7,Fern Hill,
15242,AU,7,Montgomery,
15243,AU,2,Clandulla,
15244,AU,2,Bronte,
15245,AU,2,Anna Bay,
15246,AU,7,Boisdale,
15247,AU,5,Wolseley,
15248,AU,5,Cockatoo Valley,
15249,AU,2,Gunderman,
15250,AU,2,Warrell Creek,
15251,AU,2,Laughtondale,
15252,AU,2,Berry Park,
15253,AU,7,Fulham,
15254,AU,2,Narromine,
15255,AU,2,Warren,
15256,AU,7,Woori Yallock,
15257,AU,4,Minden,
15258,AU,4,Stapylton,
15259,AU,4,Seventeen Seventy,
15260,AU,6,Ranelagh,
15261,AU,8,Cunderdin,
15262,AU,5,Lyndoch,
15263,AU,7,Warburton,
15264,AU,2,Williamsdale,
15265,AU,4,Bajool,
15266,AU,8,Gooseberry Hill,
15267,AU,7,Hurstbridge,
15268,AU,5,Bull Creek,
15269,AU,4,Hawthorne,
15270,AU,4,Hillcrest,
15271,AU,5,Seaview,
15272,AU,7,Jung,
15273,AU,5,Willaston,
15274,AU,5,Concordia,
15275,AU,4,Boonah,
15276,AU,6,Collinsvale,
15277,AU,2,Millfield,
15278,AU,5,Second Valley,
15279,AU,6,Premaydena,
15280,AU,7,Leslie Manor,
15281,AU,2,Blayney,
15282,AU,6,Deviot,
15283,AU,8,Witchcliffe,
15284,AU,2,Grabben Gullen,
15285,AU,6,Nubeena,
15286,AU,2,Colinton,
15287,AU,2,Nimbin,
15288,AU,4,Builyan,
15289,AU,4,Mount Cotton,
15290,AU,6,Georgetown,
15291,AU,5,Nairne,
15292,AU,5,Belair,
15293,AU,2,Alstonville,
15294,AU,7,Goorambat,
15295,AU,7,Mccrae,
15296,AU,7,Dereel,
15297,AU,2,Quambone,
15298,AU,2,Pilliga,
15299,AU,4,Eton,
15300,AU,7,Wandong,
15301,AU,6,Rhyndaston,
15302,AU,5,Geranium,
15303,AU,7,Nar Nar Goon North,
15304,AU,4,Ipswitch,
15305,AU,4,Burrum,
15306,AU,4,Booloumba,
15307,AU,4,Noosa,
15308,AU,2,Kianga,
15309,AU,2,Bonville,
15310,AU,2,Old Bar,
15311,AU,2,Tuross Head,
15312,AU,7,Larpent,
15313,AU,2,Spring Ridge,
15314,AU,8,Cuballing,
15315,AU,8,Boundain,
15316,AU,6,Kayena,
15317,AU,4,Linville,
15318,AU,8,Karnup,
15319,AU,6,Sprent,
15320,AU,6,Leith,
15321,AU,2,Oakdale,
15322,AU,4,Nobby,
15323,AU,4,Buaraba Creek,
15324,AU,4,Woodstock,
15325,AU,7,Leitchville,
15326,AU,2,Thornton,
15327,AU,4,Biggenden,
15328,AU,7,Lavers Hill,
15329,AU,2,Barringun,
15330,AU,2,Goodooga,
15331,AU,2,Tooraweenah,
15332,AU,5,Lucindale,
15333,AU,8,Porongurup,
15334,AU,7,Patho,
15335,AU,5,Coolcha,
15336,AU,4,The Gums,
15337,AU,4,Ravenswood,
15338,AU,2,Waterloo,
15339,AU,7,Yambuk,
15340,AU,5,Blackwood,
15341,AU,4,Kuranda,
15342,AU,2,Blackheath,
15343,AU,7,Lovely Banks,
15344,AU,5,Yorketown,
15345,AU,7,Won Wron,
15346,AU,7,Willung South,
15347,AU,2,Woodstock,
15348,AU,7,Bruarong,
15349,AU,5,Hammond,
15350,AU,2,Coutts Crossing,
15351,AU,7,Aireys Inlet,
15352,AU,2,Running Stream,
15353,AU,2,Delungra,
15354,AU,5,Woodlands,
15355,AU,4,Kairi,
15356,AU,4,Tannalo,
15357,AU,7,Highlands,
15358,AU,7,Greta South,
15359,AU,2,Wapengo,
15360,AU,2,Buxton,
15361,AU,2,Maclean,
15362,AU,2,Frampton,
15363,AU,4,Dadamarine,
15364,AU,5,Hope Forest,
15365,AU,7,Yarck,
15366,AU,7,Beaconsfield Upper,
15367,AU,8,Kalbarri,
15368,AU,8,Cancanning,
15369,AU,5,Barmera,
15370,AU,2,Curlewis,
15371,AU,2,Lorn,
15372,AU,2,Brogo,
15373,AU,4,Harlaxton,
15374,AU,2,Cresford,
15375,AU,2,Berrima,
15376,AU,7,Woosang,
15377,AU,6,Tinderbox,
15378,AU,2,Tarrawanna,
15379,AU,2,Whitton,
15380,AU,7,Warrak,
15381,AU,5,Mypolonga,
15382,AU,2,Elderslie,
15383,AU,2,Gordon,
15384,AU,4,South Mission Beach,
15385,AU,2,Maitland,
15386,AU,7,Kialla West,
15387,AU,2,Kunghur,
15388,AU,5,Port Adelaide,
15389,AU,8,Tarin Rock,
15390,AU,2,Valla,
15391,AU,2,Sandgate,
15392,AU,7,Alfredton,
15393,AU,2,Dyers Crossing,
15394,AU,8,Darlington,
15395,AU,2,Kew,
15396,AU,7,Clayton,
15397,AU,4,Boomerang,
15398,AU,7,Bunding,
15399,AU,2,Rhondda,
15400,AU,4,Blanchview,
15401,AU,7,Picola,
15402,AU,8,Pingelly,
15403,AU,4,Cecil Plains,
15404,AU,7,Bittern,
15405,AU,8,Bullaring,
15406,AU,8,Bakers Hill,
15407,AU,8,Jurien,
15408,AU,5,Beaumont,
15409,AU,2,Meroo,
15410,AU,2,Bundanoon,
15411,AU,4,Amos Quarries,
15412,AU,7,Ouyen,
15413,AU,4,Amiens,
15414,AU,2,Knorrit Flat,
15415,AU,7,Acheron,
15416,AU,4,Talwood,
15417,AU,2,Nimmitabel,
15418,AU,7,Taradale,
15419,AU,4,Bootharh,
15420,AU,6,Rossarden,
15421,AU,2,Abermain,
15422,AU,2,Eugowra,
15423,AU,4,Bilinga,
15424,AU,5,Birkenhead,
15425,AU,2,Raworth,
15426,AU,2,Tomingley,
15427,AU,4,Karara,
15428,AU,2,Pallamallawa,
15429,AU,2,Numeralla,
15430,AU,4,Rolleston,
15431,AU,7,Netherby,
15432,AU,4,Karaweena,
15433,AU,4,Brooloo,
15434,AU,5,Booleroo Centre,
15435,AU,5,Cambrai,
15436,AU,6,Somerset,
15437,AU,4,Bungadoo,
15438,AU,4,Torbanlea,
15439,AU,2,Braunstone,
15440,AU,2,Bolwarra,
15441,AU,2,Premer,
15442,AU,8,Elleker,
15443,AU,7,Yarroweyah,
15444,AU,7,Trawool,
15445,AU,7,Graytown,
15446,AU,2,Morpeth,
15447,AU,4,Kooralgin,
15448,AU,2,Tilba Tilba,
15449,AU,4,Oakhurst,
15450,AU,7,Mirboo North,
15451,AU,8,Hopetoun,
15452,AU,7,Yannathan,
15453,AU,2,Conjola,
15454,AU,6,Lower Barrington,
15455,AU,7,Jarklin,
15456,AU,2,Warkworth,
15457,AU,4,Glenview,
15458,AU,2,Toshs Wongy,
15459,AU,4,Duaringa,
15460,AU,2,Delegate,
15461,AU,4,Dunwich,
15462,AU,7,Condah,
15463,AU,7,Boorcan,
15464,AU,7,Winslow,
15465,AU,7,Maude,
15466,AU,4,Upper Caboolture,
15467,AU,8,Bencubbin,
15468,AU,7,Briagolong,
15469,AU,8,Borden,
15470,AU,5,Reeves Plains,
15471,AU,4,Beachmere,
15472,AU,7,Christmas Hills,
15473,AU,7,Navarre,
15474,AU,7,Longwarry,
15475,AU,7,Drouin South,
15476,AU,4,White Rock,
15477,AU,2,Dungowan,
15478,AU,2,Dareton,
15479,AU,6,Derby,
15480,AU,5,Salters Springs,
15481,AU,7,Woomelang,
15482,AU,7,Timberoo South,
15483,AU,7,Dennington,
15484,AU,5,Wallaroo Mines,
15485,AU,2,Sutton,
15486,AU,2,Copmanhurst,
15487,AU,8,Armadale,
15488,AU,5,Eden Valley,
15489,AU,7,Mont Park,
15490,AU,2,Middlingbank,
15491,AU,2,Currabubula,
15492,AU,7,North Eltham,
15493,AU,4,Charleville,
15494,AU,2,Cobbora,
15495,AU,7,Macclesfield,
15496,AU,7,Erica,
15497,AU,6,York Plains,
15498,AU,4,Eimeo,
15499,AU,7,Winchelsea,
15500,AU,7,Bochara,
15501,AU,2,Dolans Bay,
15502,AU,2,Brookfield,
15503,AU,7,Beechworth,
15504,AU,2,Dunbogan,
15505,AU,2,Laguna,
15506,AU,7,Murrayville,
15507,AU,2,Barrington,
15508,AU,4,Mungindi,
15509,AU,5,Yatina,
15510,AU,7,Wahring,
15511,AU,6,Mount Direction,
15512,AU,7,Sedgwick,
15513,AU,2,Rydal,
15514,AU,8,Yallingup,
15515,AU,8,Midland Junction,
15516,AU,2,Darlington Point,
15517,AU,4,Goovigen,
15518,AU,2,Hanging Rock,
15519,AU,5,New Well,
15520,AU,6,Port Arthur,
15521,AU,7,Deans Marsh,
15522,AU,7,Cheshunt,
15523,AU,7,Caramut,
15524,AU,7,Harkaway,
15525,AU,2,Norahville,
15526,AU,4,Horrane,
15527,AU,6,Karoola,
15528,AU,2,Bowning,
15529,AU,2,Euabalong West,
15530,AU,4,Mirani,
15531,AU,4,Emu Vale,
15532,AU,4,Conondale,
15533,AU,4,Alton Downs,
15534,AU,7,Goldsborough,
15535,AU,5,Finniss,
15536,AU,6,Low Head,
15537,AU,4,Curra,
15538,AU,2,Wanganella,
15539,AU,5,Peterborough,
15540,AU,4,Norwin,
15541,AU,4,Kobble,
15542,AU,2,Oaklands,
15543,AU,5,Myponga,
15544,AU,5,Seaford,
15545,AU,8,Southern Cross,
15546,AU,4,Coalstoun Lakes,
15547,AU,2,Yowrie,
15548,AU,5,Furner,
15549,AU,4,Ridgelands,
15550,AU,2,Baradine,
15551,AU,5,Kingston,
15552,AU,7,Club Terrace,
15553,AU,4,Upper Widgee,
15554,AU,7,Kallista,
15555,AU,7,Lake Rowan,
15556,AU,2,Gundaroo,
15557,AU,8,Trayning,
15558,AU,7,Ferguson,
15559,AU,7,Elphinstone,
15560,AU,7,Delburn,
15561,AU,5,Warooka,
15562,AU,8,Wubin,
15563,AU,4,Boyland,
15564,AU,7,Buln Buln,
15565,AU,2,Glanmire,
15566,AU,2,Yoogali,
15567,AU,2,Wingello,
15568,AU,2,Coraki,
15569,AU,5,Pyap,
15570,AU,7,Inverleigh,
15571,AU,4,Carmila,
15572,AU,8,Mudiarrup,
15573,AU,4,Home Hill,
15574,AU,2,Murrah,
15575,AU,2,Borenore,
15576,AU,2,Sebastopol,
15577,AU,7,Torrita,
15578,AU,7,Port Welshpool,
15579,AU,5,Arno Bay,
15580,AU,2,Deewhy,
15581,AU,2,Lake Illawarra,
15582,AU,6,Claremont,
15583,AU,7,Piries,
15584,AU,7,Skipton,
15585,AU,2,Mount George,
15586,AU,2,Toogong,
15587,AU,2,Wadbilliga,
15588,AU,2,Wollongbar,
15589,AU,8,Greenbushes,
15590,AU,2,Murrami,
15591,AU,4,Laravale,
15592,AU,2,Wallalong,
15593,AU,7,Kilmore East,
15594,AU,2,Baw Baw,
15595,AU,8,Holly,
15596,AU,6,Blessington,
15597,AU,7,Clarkefield,
15598,AU,2,White Cliffs,
15599,AU,4,Sharon,
15600,AU,7,Teesdale,
15601,AU,6,Woodstock,
15602,AU,6,Retreat,
15603,AU,6,Huonville,
15604,AU,7,Marysville,
15605,AU,2,Lallahrook,
15606,AU,8,Middle Swan,
15607,AU,7,Mount Macedon,
15608,AU,7,Loch Valley,
15609,AU,7,Rhyll,
15610,AU,7,Trawalla,
15611,AU,4,Silkwood,
15612,AU,2,Neath,
15613,AU,2,Binalong,
15614,AU,5,Tailem Bend,
15615,AU,2,Crowther,
15616,AU,2,Bemboka,
15617,AU,2,Tabulam,
15618,AU,5,Brighton,
15619,AU,7,Avonsleigh,
15620,AU,2,Greenethorpe,
15621,AU,2,Trewilga,
15622,AU,5,Truro,
15623,AU,7,Nyamville,
15624,AU,2,Taralga,
15625,AU,4,Durong,
15626,AU,4,Gooburrum,
15627,AU,4,Degilbo,
15628,AU,2,Wildes Meadow,
15629,AU,2,Gumly Gumly,
15630,AU,2,Broulee,
15631,AU,2,Mount Wilson,
15632,AU,7,Heywood,
15633,AU,4,Killarney,
15634,AU,8,Herne Hill,
15635,AU,4,Haden,
15636,AU,4,Tandur,
15637,AU,4,Wooroolin,
15638,AU,7,Trafalgar,
15639,AU,7,Pyalong,
15640,AU,4,Springbrook,
15641,AU,7,Miners Rest,
15642,AU,2,Huskisson,
15643,AU,5,Binnum,
15644,AU,2,Mossgiel,
15645,AU,2,Tibooburra,
15646,AU,2,Meadow Flat,
15647,AU,4,Aramara,
15648,AU,7,Ulupna West,
15649,AU,3,Maningrida,
15650,AU,8,Mount Barker,
15651,AU,8,Shackleton,
15652,AU,7,Dry Creek,
15653,AU,2,Stokers Siding,
15654,AU,7,Marlo,
15655,AU,4,Amity Point,
15656,AU,7,Rowsley,
15657,AU,7,Tarrington,
15658,AU,7,Knotts,
15659,AU,7,Hotspur,
15660,AU,4,Freestone,
15661,AU,7,Drouin West,
15662,AU,2,Croki,
15663,AU,4,Takura,
15664,AU,2,Karuah,
15665,AU,2,Kingstown,
15666,AU,5,Black Hill,
15667,AU,7,Warrenbayne,
15668,AU,7,Staughton Vale,
15669,AU,5,Manoora,
15670,AU,5,Robe,
15671,AU,2,Wandello,
15672,AU,2,Boyben,
15673,AU,7,Nillahcootie,
15674,AU,5,Wokurna,
15675,AU,8,Hyden,
15676,AU,7,Stratford,
15677,AU,5,Trial Hill,
15678,AU,7,Gembrook,
15679,AU,2,Wooli,
15680,AU,2,Gunning,
15681,AU,7,Marshall,
15682,AU,7,Monomeith,
15683,AU,8,Two Rocks,
15684,AU,7,Buckland,
15685,AU,2,Fairfax,
15686,AU,2,Hannan,
15687,AU,8,Whitehead,
15688,AU,2,Segenhoe,
15689,AU,4,Brisbane,4000
15690,AU,8,Perth,6000
15691,AU,7,Melbourne,3000
15692,AU,5,Adelaide,5000
15693,AU,2,Sydney,2000
15694,AU,1,Canberra,2600
15695,AU,2,Salt Ash,
15696,AU,2,Tenterfield,
15697,AU,4,Wheatvale,
15698,AU,2,Mountain Creek,
15699,AU,8,Torbay,
15700,AU,2,Bellbrook,
15701,AU,7,Mia Mia,
15702,AU,7,Towong,
15703,AU,4,Pentland,
15704,AU,4,Bucasia,
15705,AU,4,Traveston,
15706,AU,7,Streatham,
15707,AU,2,Torrington,
15708,AU,7,Binginwarri,
15709,AU,4,Woorabinda,
15710,AU,4,Condamine,
15711,AU,4,Beerburrum,
15712,AU,7,Violet Town,
15713,AU,2,Central Tilba,
15714,AU,2,Colo Vale,
15715,AU,2,Avisford,
15716,AU,2,Cobbadah,
15717,AU,7,Mardan,
15718,AU,2,Carinda,
15719,AU,2,Fifield,
15720,AU,4,Koah,
15721,AU,8,New Norcia,
15722,AU,2,Waroo,
15723,AU,2,Winduella,
15724,AU,4,Taabinga,
15725,AU,2,Tinonee,
15726,AU,4,Sexton,
15727,AU,8,Nullagine,
15728,AU,8,Metricup,
15729,AU,2,Black Springs,
15730,AU,2,Howes Valley,
15731,AU,4,Armstrong,
15732,AU,2,Greenwell Point,
15733,AU,4,Gundiah,
15734,AU,2,Ulmarra,
15735,AU,4,Boonooroo,
15736,AU,7,Borung,
15737,AU,4,Thargomindah,
15738,AU,7,Chillingollah,
15739,AU,2,Ootha,
15740,AU,4,Eungella,
15741,AU,2,Mount Cooper,
15742,AU,5,Stansbury,
15743,AU,5,Upper Sturt,
15744,AU,7,Bruthen,
15745,AU,7,Killarney,
15746,AU,7,Mailors Flat,
15747,AU,7,Tower Hill,
15748,AU,7,Princetown,
15749,AU,8,Lake King,
15750,AU,8,Dwellingup,
15751,AU,7,Blampied,
15752,AU,6,Westerway,
15753,AU,6,Cooee,
15754,AU,7,Merino,
15755,AU,2,Swan Vale,
15756,AU,2,Boolaroo,
15757,AU,5,Pinnaroo,
15758,AU,7,Bolwarra,
15759,AU,6,Tayene,
15760,AU,2,Mendooran,
15761,AU,7,Hopevale,
15762,AU,7,Cowangie,
15763,AU,5,Kyancutta,
15764,AU,8,Popanyinning,
15765,AU,4,Advancetown,
15766,AU,8,Spargoville,
15767,AU,4,Innot Hot Springs,
15768,AU,6,Rokeby,
15769,AU,8,Nabawa,
15770,AU,4,Point Lookout,
15771,AU,7,Koo-wee-rup,
15772,AU,2,Bobs Farm,
15773,AU,8,Burracoppin,
15774,AU,2,Rappville,
15775,AU,2,Urbenville,
15776,AU,7,Shirley,
15777,AU,5,Brownlow,
15778,AU,7,Armstrong,
15779,AU,2,Cummings,
15780,AU,7,Eldorado,
15781,AU,4,Middletown,
15782,AU,7,Bullengarook,
15783,AU,7,Glenlyon,
15784,AU,2,Heddon Greta,
15785,AU,2,Pullabooka,
15786,AU,4,Yuleba,
15787,AU,8,Exmouth,
15788,AU,8,Brookdale,
15789,AU,2,Goolgowi,
15790,AU,8,Burekup,
15791,AU,8,Yarloop,
15792,AU,8,Clackline,
15793,AU,4,Slade Point,
15794,AU,5,Napperby,
15795,AU,2,Crystal Creek,
15796,AU,2,Wombarra,
15797,AU,5,Littlehampton,
15798,AU,4,Rocksberg,
15799,AU,2,Swan Bay,
15800,AU,2,Rocky Glen,
15801,AU,2,Rye Park,
15802,AU,2,Nabiac,
15803,AU,5,Blinman,
15804,AU,2,Rock Valley,
15805,AU,6,Natone,
15806,AU,6,Weldborough,
15807,AU,2,Peel,
15808,AU,2,Milbrulong,
15809,AU,7,Newmerella,
15810,AU,2,Tullymorgan,
15811,AU,2,Wallangra,
15812,AU,5,Moana,
15813,AU,5,Normanville,
15814,AU,7,Nar Nar Goon,
15815,AU,2,Glenreagh,
15816,AU,2,Mogendoura,
15817,AU,2,Murringo,
15818,AU,5,Port Neill,
15819,AU,7,Corinella,
15820,AU,7,Longwarry North,
15821,AU,7,Meeniyan,
15822,AU,7,Neerim South,
15823,AU,7,Tynong North,
15824,AU,7,Buln Buln East,
15825,AU,2,Lostock,
15826,AU,2,Nana Glen,
15827,AU,7,Swan Marsh,
15828,AU,4,Roadvale,
15829,AU,4,Byrnestown,
15830,AU,2,Mitchells Flat,
15831,AU,2,Elsmore,
15832,AU,2,Yarras,
15833,AU,2,Chatsworth Island,
15834,AU,5,Norton Summit,
15835,AU,6,Lebrina,
15836,AU,6,Barnes Bay,
15837,AU,6,Paradise,
15838,AU,6,Yolla,
15839,AU,2,Wiangaree,
15840,AU,7,Genoa,
15841,AU,7,Omeo,
15842,AU,5,Stockwell,
15843,AU,7,Gnarwarre,
15844,AU,7,Toolangi,
15845,AU,2,Yerong Creek,
15846,AU,7,Bamganie,
15847,AU,5,Inman Valley,
15848,AU,2,Upper Rouchel,
15849,AU,7,Mirboo,
15850,AU,7,Seaspray,
15851,AU,2,Nashua,
15852,AU,5,Roseworthy,
15853,AU,2,Dungay,
15854,AU,2,Forest Hill,
15855,AU,4,Alberton,
15856,AU,4,Thabeban,
15857,AU,2,Dorroughby,
15858,AU,4,Wilsons,
15859,AU,2,Wongarbon,
15860,AU,2,Grattai,
15861,AU,2,Vacy,
15862,AU,2,Emmaville,
15863,AU,2,Bunnan,
15864,AU,2,Alectown,
15865,AU,4,Dimbulah,
15866,AU,4,Goodger,
15867,AU,4,Eidsvold,
15868,AU,4,Grandchester,
15869,AU,2,Bigga,
15870,AU,2,Dalgety,
15871,AU,4,Guluguba,
15872,AU,2,Hilldale,
15873,AU,2,Kungala,
15874,AU,2,Duri,
15875,AU,2,Mullaley,
15876,AU,7,Bambra,
15877,AU,7,Glen Creek,
15878,AU,7,Buckley,
15879,AU,7,Lardner,
15880,AU,7,Mount Egerton,
15881,AU,6,Geeveston,
15882,AU,6,Ridgeway,
15883,AU,2,Wombat,
15884,AU,8,Condon,
15885,AU,2,Murrumburrah,
15886,AU,4,Weipa,
15887,AU,4,Moodlu,
15888,AU,2,Bulga,
15889,AU,4,Giru,
15890,AU,2,Pimlico,
15891,AU,2,Kendall,
15892,AU,7,Ebden,
15893,AU,2,Herons Creek,
15894,AU,4,Memerambi,
15895,AU,2,Hay,
15896,AU,2,Stotts Creek,
15897,AU,4,Barcaldine,
15898,AU,2,Uki,
15899,AU,2,Captains Flat,
15900,AU,4,Lucinda,
15901,AU,7,San Remo,
15902,AU,2,Walgett,
15903,AU,2,Wolumla,
15904,AU,4,Halifax,
15905,AU,8,Perenjori,
15906,AU,8,Piawaning,
15907,AU,8,Grasmere,
15908,AU,2,Cullerin,
15909,AU,7,Stony Creek,
15910,AU,2,Mandurama,
15911,AU,2,Lake Bathurst,
15912,AU,2,Shadforth,
15913,AU,5,Port Elliot,
15914,AU,4,Coolabunia,
15915,AU,2,Carcoar,
15916,AU,7,Lascelles,
15917,AU,5,Perponda,
15918,AU,6,Black Hills,
15919,AU,6,Woodsdale,
15920,AU,8,Gingin,
15921,AU,8,Nyabing,
15922,AU,7,Mount Moriac,
15923,AU,7,Moonambel,
15924,AU,3,Yirrkala,
15925,AU,4,Thallon,
15926,AU,4,Tolga,
15927,AU,4,Mount Fox,
15928,AU,4,Maroondan,
15929,AU,5,Kalangadoo,
15930,AU,2,Yetman,
15931,AU,4,Flaggy Creek,
15932,AU,7,Haddon,
15933,AU,7,Marcus Hill,
15934,AU,6,Forcett,
15935,AU,5,Moorook,
15936,AU,6,South Arm,
15937,AU,5,Kangaroo Flat,
15938,AU,7,Birchip,
15939,AU,7,Carisbrook,
15940,AU,7,Casterton,
15941,AU,6,Bicheno,
15942,AU,3,Nightcliff,
15943,AU,5,Summertown,
15944,AU,5,Port Macdonnell,
15945,AU,8,Caversham,
15946,AU,5,Tungkillo,
15947,AU,5,Mount Schank,
15948,AU,6,Orford,
15949,AU,7,Halls Gap,
15950,AU,6,Swansea,
15951,AU,5,Tantanoola,
15952,AU,7,Saint Andrews,
15953,AU,6,Seymour,
15954,AU,7,Paynesville,
15955,AU,6,Queenstown,
15956,AU,6,Copping,
15957,AU,6,Cressy,
15958,AU,6,Richmond,
15959,AU,7,Anglesea,
15960,AU,7,Alvie,
15961,AU,8,Thevenard,
15962,AU,7,Woorinen,
15963,AU,7,Minyip,
15964,AU,7,Devon Meadows,
15965,AU,5,Darlington,
15966,AU,4,Glenella,
15967,AU,4,Kandanga,
15968,AU,4,Cluden,
15969,AU,7,Edenhope,
15970,AU,2,Marrangaroo,
15971,AU,2,Gerogery West,
15972,AU,2,Retreat,
15973,AU,6,Penna,
15974,AU,2,Paxton,
15975,AU,2,Tregeagle,
15976,AU,2,Attunga,
15977,AU,7,Springhurst,
15978,AU,7,Dunkeld,
15979,AU,2,Woodhill,
15980,AU,8,Roebourne,
15981,AU,2,Bywong,
15982,AU,4,Beechmont,
15983,AU,7,Tyabb,
15984,AU,4,Red Hill,
15985,AU,8,Serpentine,
15986,AU,2,Bodalla,
15987,AU,5,Port Rickaby,
15988,AU,7,Buckrabanyule,
15989,AU,2,Cundletown,
15990,AU,2,Coolangatta,
15991,AU,7,Nyah,
15992,AU,6,Dunalley,
15993,AU,5,Pine Point,
15994,AU,7,Noorinbee,
15995,AU,4,Wolvi,
15996,AU,4,Glastonbury,
15997,AU,4,Theebine,
15998,AU,4,Kybong,
15999,AU,4,Gunalda,
16000,AU,4,Dagun,
16001,AU,7,Armadale North,
16002,AU,6,Campbell Town,
16003,AU,2,Berrigan,
16004,AU,5,Edithburgh,
16005,AU,7,Riddells Creek,
16006,AU,7,Allansford,
16007,AU,7,Gorae West,
16008,AU,7,Willung,
16009,AU,7,Glenmaggie,
16010,AU,7,Lindenow South,
16011,AU,7,Sarsfield,
16012,AU,7,Mossiface,
16013,AU,7,Wulgulmerang,
16014,AU,7,Yinnar South,
16015,AU,8,Newlands,
16016,AU,7,Mallacoota,
16017,AU,4,Strathdickie,
16018,AU,7,Bushfield,
16019,AU,7,Illowa,
16020,AU,7,Wangoom,
16021,AU,7,Purnim,
16022,AU,7,Bessiebelle,
16023,AU,7,Branxholme,
16024,AU,7,Cobrico,
16025,AU,7,Allestree,
16026,AU,7,Dixie,
16027,AU,7,Woolsthorpe,
16028,AU,7,Port Campbell,
16029,AU,2,Gundurimba,
16030,AU,4,Paterson,
16031,AU,7,Yarragon,
16032,AU,7,Undera,
16033,AU,4,Saint George,
16034,AU,4,Woorim,
16035,AU,6,Nook,
16036,AU,2,Norah,
16037,AU,3,Larrakeyah,
16038,AU,2,Westville,
16039,AU,7,Upper Plenty,
16040,AU,2,Gilgai,
16041,AU,7,Batesford,
16042,AU,7,Navigators,
16043,AU,6,Pontville,
16044,AU,4,Steiglitz,
16045,AU,4,Mount Tamborine,
16046,AU,5,Inglewood,
16047,AU,2,Stuarts Point,
16048,AU,2,Arakoon,
16049,AU,7,Eurobin,
16050,AU,7,Biggara,
16051,AU,2,Michelago,
16052,AU,5,Cudlee Creek,
16053,AU,7,Koorlong,
16054,AU,8,Yoting,
16055,AU,8,Dangin,
16056,AU,8,Yellowdine,
16057,AU,2,Greenwich Park,
16058,AU,2,Oakhampton,
16059,AU,1,Jervis Bay,
16060,AU,5,Mindarie,
16061,AU,7,Cardinia,
16062,AU,7,Tangambalanga,
16063,AU,7,Walpa,
16064,AU,2,Lyndhurst,
16065,AU,5,Monteith,
16066,AU,5,Monarto,
16067,AU,2,Cudgen,
16068,AU,7,Boho,
16069,AU,7,Marong,
16070,AU,7,Smeaton,
16071,AU,7,Peronne,
16072,AU,8,Lake Grace,
16073,AU,7,Jeeralang,
16074,AU,7,Glengarry West,
16075,AU,2,Bredbo,
16076,AU,7,Metung,
16077,AU,2,Eungella,
16078,AU,7,Gnotuk,
16079,AU,2,Candelo,
16080,AU,4,Meadowvale,
16081,AU,7,Jindivick,
16082,AU,7,Neerim East,
16083,AU,7,Nilma,
16084,AU,7,Cora Lynn,
16085,AU,7,Cloverlea,
16086,AU,7,Poowong East,
16087,AU,7,Tetoora Road,
16088,AU,6,Strahan,
16089,AU,2,Palmvale,
16090,AU,2,Whian Whian,
16091,AU,7,Hansonville,
16092,AU,2,Sandy Hollow,
16093,AU,2,Towamba,
16094,AU,7,Nyah West,
16095,AU,6,Campania,
16096,AU,5,Houghton,
16097,AU,7,Tamleugh West,
16098,AU,7,Lauriston,
16099,AU,2,Lidsdale,
16100,AU,4,Witta,
16101,AU,2,Willow Vale,
16102,AU,4,Larcom,
16103,AU,4,Wombye,
16104,AU,4,Collinsville,
16105,AU,7,Beveridge,
16106,AU,2,Bellangry,
16107,AU,8,Roelands,
16108,AU,4,Calen,
16109,AU,7,Boort,
16110,AU,7,Maldon,
16111,AU,7,Pheasant Creek,
16112,AU,7,Rockbank,
16113,AU,7,Yendon,
16114,AU,2,Minnamurra,
16115,AU,4,Topaz,
16116,AU,4,Mutchilba,
16117,AU,4,Ogmore,
16118,AU,4,Nebo,
16119,AU,2,Willow Tree,
16120,AU,6,Sassafras,
16121,AU,4,Amby,
16122,AU,5,Poochera,
16123,AU,6,Patersonia,
16124,AU,6,Caveside,
16125,AU,6,Detention,
16126,AU,2,Woodview,
16127,AU,4,Drillham,
16128,AU,2,Gunningbland,
16129,AU,5,Renmark North,
16130,AU,8,Vasse,
16131,AU,8,Karridale,
16132,AU,2,Limeburners Creek,
16133,AU,7,Strathbogie,
16134,AU,4,Mourilyan,
16135,AU,2,Tuena,
16136,AU,2,Tubbul,
16137,AU,5,Port Germein,
16138,AU,6,Ellendale,
16139,AU,6,Sisters Creek,
16140,AU,6,White Hills,
16141,AU,6,Gunns Plains,
16142,AU,7,Moliagul,
16143,AU,7,Archies Creek,
16144,AU,7,Mockinya,
16145,AU,6,Bridgewater,
16146,AU,7,Moorngag,
16147,AU,4,Habana,
16148,AU,7,Chiltern,
16149,AU,5,Echunga,
16150,AU,2,Urana,
16151,AU,7,Nilma North,
16152,AU,7,Diggora West,
16153,AU,7,Callawadda,
16154,AU,2,Hexham,
16155,AU,7,Balnarring,
16156,AU,7,Hallora,
16157,AU,7,Yackandandah,
16158,AU,6,Stanley,
16159,AU,2,Khancoban,
16160,AU,4,Blackall,
16161,AU,7,Narracan,
16162,AU,5,Carey Gully,
16163,AU,6,Bridport,
16164,AU,2,Urangeline East,
16165,AU,2,South Grafton,
16166,AU,2,Eungai Creek,
16167,AU,2,Rawdon Island,
16168,AU,4,Mulgowie,
16169,AU,2,Peelwood,
16170,AU,2,Tarlo,
16171,AU,2,Moonee Beach,
16172,AU,2,Lowanna,
16173,AU,2,Thora,
16174,AU,4,Queens Beach,
16175,AU,4,Wallangarra,
16176,AU,4,Wonga,
16177,AU,2,Jerrys Plains,
16178,AU,7,Greta,
16179,AU,2,Gresford,
16180,AU,4,Yaraka,
16181,AU,5,Woomera,
16182,AU,2,Minmi,
16183,AU,7,Bannockburn,
16184,AU,6,Carrick,
16185,AU,6,Waratah,
16186,AU,7,Wombelano,
16187,AU,5,American River,
16188,AU,2,Rockwell,
16189,AU,7,Balliang,
16190,AU,8,Bickley,
16191,AU,5,Port Hughes,
16192,AU,7,Longwood,
16193,AU,7,Bonegilla,
16194,AU,2,Tingha,
16195,AU,7,Koroit,
16196,AU,7,Freeburgh,
16197,AU,4,Kaimkillenbun,
16198,AU,6,Don,
16199,AU,2,Tullibigeal,
16200,AU,7,Clematis,
16201,AU,7,Somers,
16202,AU,7,Red Hill South,
16203,AU,7,Tourello,
16204,AU,6,Scamander,
16205,AU,6,Snug,
16206,AU,4,Blue Mountain,
16207,AU,4,Coorooman,
16208,AU,7,Durham Lead,
16209,AU,7,Gruyere,
16210,AU,2,Talbingo,
16211,AU,2,Burrawang,
16212,AU,4,Woree,
16213,AU,7,Exford,
16214,AU,2,Hartley,
16215,AU,4,Dulacca,
16216,AU,5,Langhorne Creek,
16217,AU,6,Breadalbane,
16218,AU,5,Delamere,
16219,AU,2,Balladoran,
16220,AU,5,Ashton,
16221,AU,5,Urania,
16222,AU,2,Wogamia,
16223,AU,2,West Cambewarra,
16224,AU,2,Brunswick,
16225,AU,2,Mount Mitchell,
16226,AU,5,Corny Point,
16227,AU,5,Point Turton,
16228,AU,2,Towrang,
16229,AU,8,Stoneville,
16230,AU,5,Kuitpo Colony,
16231,AU,4,Hillside,
16232,AU,2,Nundle,
16233,AU,2,Bergalia,
16234,AU,2,Duranbah,
16235,AU,2,Goolmangar,
16236,AU,2,Kerrs Creek,
16237,AU,7,Tolmie,
16238,AU,7,Caldermeade,
16239,AU,2,Capertee,
16240,AU,5,Yumali,
16241,AU,7,Cavendish,
16242,AU,6,Liena,
16243,AU,2,Bell,
16244,AU,7,Buangor,
16245,AU,2,Laggan,
16246,AU,8,Waggrakine,
16247,AU,7,Woodstock,
16248,AU,7,Yandoit,
16249,AU,6,Franklin Village,
16250,AU,7,Hillsborough,
16251,AU,4,Marathon,
16252,AU,2,Kain,
16253,AU,5,Auld,
16254,AU,3,Playford,
16255,AU,2,Morton,
16256,AU,2,Yeoval,
16257,AU,7,Locksley,
16258,AU,4,Grantham,
16259,AU,4,Brooweena,
16260,AU,4,Hay Point,
16261,AU,7,Whitfield,
16262,AU,2,Bunnaloo,
16263,AU,8,Pingrup,
16264,AU,7,Pomonal,
16265,AU,7,Wesburn,
16266,AU,2,Two Mile Flat,
16267,AU,7,Boxwood,
16268,AU,6,Levendale,
16269,AU,7,Dumbalk,
16270,AU,2,Crabbes Creek,
16271,AU,2,Tallawang,
16272,AU,6,Nunamara,
16273,AU,2,Gurley,
16274,AU,2,Doon Doon,
16275,AU,4,Blantyre,
16276,AU,7,Castella,
16277,AU,7,Thorpdale,
16278,AU,7,Leongatha South,
16279,AU,7,Lurg,
16280,AU,7,Perry Bridge,
16281,AU,7,Baringhup,
16282,AU,2,Brushgrove,
16283,AU,8,Mundijong,
16284,AU,4,Kentville,
16285,AU,4,Kumbia,
16286,AU,4,Gaeta,
16287,AU,2,Burraga,
16288,AU,2,Obley,
16289,AU,7,Carrajung Lower,
16290,AU,8,Noggerup,
16291,AU,2,Cumbalum,
16292,AU,2,Mandagery,
16293,AU,7,Bullumwaal,
16294,AU,2,Newbridge,
16295,AU,4,Goomburra,
16296,AU,6,Little Swanport,
16297,AU,2,Tullamore,
16298,AU,2,Bonshaw,
16299,AU,2,Port Hacking,
16300,AU,5,Cherry Gardens,
16301,AU,8,Wongamine,
16302,AU,7,Warncoort,
16303,AU,7,Lake Bolac,
16304,AU,6,Bream Creek,
16305,AU,6,Ormley,
16306,AU,7,Officer,
16307,AU,2,Baerami,
16308,AU,8,Manypeaks,
16309,AU,4,Mount Hallen,
16310,AU,6,Elliott,
16311,AU,7,Smythesdale,
16312,AU,7,Heath Hill,
16313,AU,7,Freshwater Creek,
16314,AU,7,Warracknabeal,
16315,AU,7,Kilmany,
16316,AU,7,Kirkstall,
16317,AU,2,Henty,
16318,AU,6,Legerwood,
16319,AU,2,North Tumbulgum,
16320,AU,2,Rainbow Flat,
16321,AU,7,Chewton,
16322,AU,7,Koonwarra,
16323,AU,8,Marvel Loch,
16324,AU,6,Kettering,
16325,AU,8,Allanson,
16326,AU,3,Newcastle Waters,
16327,AU,7,Wickliffe,
16328,AU,2,Linden,
16329,AU,7,Ullswater,
16330,AU,7,Trafalgar East,
16331,AU,4,Cooran,
16332,AU,2,Charlotte Bay,
16333,AU,2,Boggabri,
16334,AU,7,Litchfield,
16335,AU,2,Bungowannah,
16336,AU,2,Yarrowyck,
16337,AU,2,Wallabadah,
16338,AU,2,Loomberah,
16339,AU,5,Parrakie,
16340,AU,6,Rocky Cape,
16341,AU,5,Point Pass,
16342,AU,7,Natimuk,
16343,AU,6,Turners Marsh,
16344,AU,6,Nicholls Rivulet,
16345,AU,6,Bridgenorth,
16346,AU,2,Morundah,
16347,AU,7,Athlone,
16348,AU,2,Millingandi,
16349,AU,2,Batlow,
16350,AU,8,Carrolup,
16351,AU,5,Wharminda,
16352,AU,2,Springdale,
16353,AU,4,Bauple,
16354,AU,2,Bevendale,
16355,AU,8,Newdegate,
16356,AU,2,Boat Harbour,
16357,AU,7,Mitiamo,
16358,AU,2,Hinton,
16359,AU,7,Berrys Creek,
16360,AU,7,Walwa,
16361,AU,7,Napoleons,
16362,AU,7,Bundalong,
16363,AU,7,Bennison,
16364,AU,7,Maddingley,
16365,AU,7,Shoreham,
16366,AU,6,Dunorlan,
16367,AU,6,Stowport,
16368,AU,6,Sisters Beach,
16369,AU,7,Macks Creek,
16370,AU,5,Tintinara,
16371,AU,2,Cooyal,
16372,AU,5,Milang,
16373,AU,4,Victoria Estate,
16374,AU,6,Barrington,
16375,AU,6,Sandfly,
16376,AU,6,Lower Longley,
16377,AU,7,Limestone,
16378,AU,2,Binya,
16379,AU,5,Salt Lake,
16380,AU,1,Ginninderra,
16381,AU,2,Pembroke,
16382,AU,4,Lakeside,
16383,AU,8,Corinthian,
16384,AU,7,Marcus,
16385,AU,3,Bagot,
16386,AU,2,Mcalister,
16387,AU,4,Coolum,
16388,AU,2,Cowper,
16389,AU,4,Texas,
16390,AU,8,Hutt,
16391,AU,2,Kundabung,
16392,AU,7,Strathmerton,
16393,AU,4,Jericho,
16394,AU,4,Cheepie,
16395,AU,4,Cooladdi,
16396,AU,7,Dunnstown,
16397,AU,2,Georges Plains,
16398,AU,8,Coorow,
16399,AU,2,Buccarumbi,
16400,AU,4,Septimus,
16401,AU,7,Barwite,
16402,AU,7,Bulla,
16403,AU,5,Verdun,
16404,AU,2,Coaldale,
16405,AU,5,Mundoora,
16406,AU,7,Blowhard,
16407,AU,8,Monkey Mia,
16408,AU,2,Hickeys Creek,
16409,AU,7,Irrewillipe,
16410,AU,7,Langkoop,
16411,AU,5,Leigh Creek,
16412,AU,2,Eumungerie,
16413,AU,2,Deepwater,
16414,AU,4,Coondoo,
16415,AU,4,Peranga,
16416,AU,7,Carrajung,
16417,AU,7,Stoneyford,
16418,AU,3,Paraparap,
16419,AU,7,Toolondo,
16420,AU,2,Watsons Creek,
16421,AU,2,Yorklea,
16422,AU,8,Bornholm,
16423,AU,7,Calrossie,
16424,AU,4,Cawdor,
16425,AU,2,Millers Forest,
16426,AU,2,Hat Head,
16427,AU,4,Pilerwa,
16428,AU,5,Robertstown,
16429,AU,5,Ramco,
16430,AU,2,Mangoplah,
16431,AU,7,Dergholm,
16432,AU,2,Dalton,
16433,AU,6,Cranbrook,
16434,AU,6,Dysart,
16435,AU,7,Molesworth,
16436,AU,4,Nikenbah,
16437,AU,2,Wingen,
16438,AU,7,Balmattum,
16439,AU,4,Rosalie Plains,
16440,AU,7,Vervale,
16441,AU,4,Hivesville,
16442,AU,7,Jeeralang Junction,
16443,AU,7,Emu Flat,
16444,AU,4,Maryvale,
16445,AU,7,Merbein South,
16446,AU,5,Coonawarra,
16447,AU,7,Corack,
16448,AU,4,Hebel,
16449,AU,7,Tatong,
16450,AU,4,Woongoolba,
16451,AU,4,Grahams Creek,
16452,AU,7,Broadwater,
16453,AU,7,Hexham,
16454,AU,2,Fernleigh,
16455,AU,7,Coleraine,
16456,AU,7,Glenrowan,
16457,AU,4,Kulangoor,
16458,AU,2,North Lismore,
16459,AU,7,Berringa,
16460,AU,2,Culcairn,
16461,AU,7,Hoddles Creek,
16462,AU,4,Barmaryee,
16463,AU,2,Dunoon,
16464,AU,4,Palms,
16465,AU,8,Laverton,
16466,AU,2,Mogriguy,
16467,AU,2,Hawks Nest,
16468,AU,6,Middleton,
16469,AU,6,Oldina,
16470,AU,7,Upper Lurg,
16471,AU,2,Mcleans Ridges,
16472,AU,2,Woodenbong,
16473,AU,2,Burrell Creek,
16474,AU,7,Wye River,
16475,AU,7,Wurdiboluc,
16476,AU,4,Dalrymple Heights,
16477,AU,4,Clairview,
16478,AU,6,Eaglehawk Neck,
16479,AU,6,Henrietta,
16480,AU,2,Tumblong,
16481,AU,2,Yarrie Lake,
16482,AU,4,Carruchan,
16483,AU,4,Mount Larcom,
16484,AU,4,Thangool,
16485,AU,2,Ariah Park,
16486,AU,2,Kars Springs,
16487,AU,2,Brocklesby,
16488,AU,2,Nora Head,
16489,AU,2,Langley Vale,
16490,AU,6,Lapoinya,
16491,AU,6,Western Junction,
16492,AU,2,Jennings,
16493,AU,2,Woolooma,
16494,AU,5,Reedy Creek,
16495,AU,5,North Yelta,
16496,AU,2,Womboota,
16497,AU,7,Turtons Creek,
16498,AU,2,Turrawan,
16499,AU,2,Koorainghat,
16500,AU,2,Limpinwood,
16501,AU,7,Dalmore,
16502,AU,7,Fish Point,
16503,AU,7,Windermere,
16504,AU,6,Black River,
16505,AU,2,Baryulgil,
16506,AU,5,Yankalilla,
16507,AU,2,Wherrol Flat,
16508,AU,2,Barrengarry,
16509,AU,6,Electrona,
16510,AU,6,Cygnet,
16511,AU,5,Glencoe,
16512,AU,8,Waddington,
16513,AU,5,Kybybolite,
16514,AU,6,Opossum Bay,
16515,AU,8,Pickering Brook,
16516,AU,7,Swanpool,
16517,AU,5,Lenswood,
16518,AU,2,Brundee,
16519,AU,7,Budgeree,
16520,AU,2,Legume,
16521,AU,4,Woodhill,
16522,AU,4,Dingo,
16523,AU,8,Wattening,
16524,AU,7,Ruffy,
16525,AU,6,Epping Forest,
16526,AU,7,Wongarra,
16527,AU,4,Macknade,
16528,AU,7,Emu Creek,
16529,AU,7,Myers Flat,
16530,AU,4,Julatten,
16531,AU,6,Gretna,
16532,AU,5,Wudinna,
16533,AU,6,Tea Tree,
16534,AU,4,North Arm,
16535,AU,2,Lower Southgate,
16536,AU,2,Bexhill,
16537,AU,2,Sutton Forest,
16538,AU,8,Mount Kokeby,
16539,AU,8,Carnamah,
16540,AU,2,Karangi,
16541,AU,7,Kergunyah,
16542,AU,2,Hampton,
16543,AU,7,Flowerdale,
16544,AU,8,Mardella,
16545,AU,5,Solomontown,
16546,AU,2,Burragate,
16547,AU,6,Chudleigh,
16548,AU,6,Golden Valley,
16549,AU,5,Cowell,
16550,AU,7,Kotupna,
16551,AU,5,Mundulla,
16552,AU,2,Old Bonalbo,
16553,AU,7,Scotsburn,
16554,AU,4,Veresdale,
16555,AU,7,Carapooee,
16556,AU,2,Dingo Creek,
16557,AU,7,Skenes Creek,
16558,AU,5,Barabba,
16559,AU,5,Longwood,
16560,AU,6,Glaziers Bay,
16561,AU,2,Dilkoon,
16562,AU,2,Cathcart,
16563,AU,2,Monteagle,
16564,AU,2,Lidster,
16565,AU,4,Balberra,
16566,AU,7,Valley View,
16567,AU,7,Wattle Bank,
16568,AU,7,Hallston,
16569,AU,7,Bayles,
16570,AU,5,Brentwood,
16571,AU,5,Beachport,
16572,AU,8,Kondut,
16573,AU,8,Babakin,
16574,AU,2,Nashdale,
16575,AU,6,Flowerdale,
16576,AU,2,Fitzroy Falls,
16577,AU,7,Moutajup,
16578,AU,4,Yengarie,
16579,AU,4,Bloomsbury,
16580,AU,7,Ondit,
16581,AU,6,Pipers River,
16582,AU,2,Possum Brush,
16583,AU,4,Tirroan,
16584,AU,2,Byron,
16585,AU,7,Eppalock,
16586,AU,5,Swan Reach,
16587,AU,7,Saint Leonards,
16588,AU,7,Garvoc,
16589,AU,7,Glenormiston,
16590,AU,7,Grassmere,
16591,AU,2,Tuncester,
16592,AU,7,Talbot,
16593,AU,7,Port Albert,
16594,AU,2,Table Top,
16595,AU,2,Lockhart,
16596,AU,2,Barkers Vale,
16597,AU,2,Penrose,
16598,AU,2,Braemar,
16599,AU,6,Jericho,
16600,AU,2,Moulamein,
16601,AU,7,Henty,
16602,AU,2,Dunedoo,
16603,AU,7,Auburn South,
16604,AU,7,Mandurang,
16605,AU,7,Fryerstown,
16606,AU,2,Yanderra,
16607,AU,7,Cambrian Hill,
16608,AU,7,Ullina,
16609,AU,7,Snake Valley,
16610,AU,8,Konnongorring,
16611,AU,7,Pennyroyal,
16612,AU,7,She Oaks,
16613,AU,7,Riggs Creek,
16614,AU,2,Bellata,
16615,AU,2,Wang Wauk,
16616,AU,7,Betley,
16617,AU,4,Urandangi,
16618,AU,5,Booborowie,
16619,AU,6,Forth,
16620,AU,8,Greenough,
16621,AU,7,Marnoo,
16622,AU,7,Bangerang,
16623,AU,4,Applethorpe,
16624,AU,7,Barfold,
16625,AU,2,Brewongle,
16626,AU,2,Gurrundah,
16627,AU,2,Harwood,
16628,AU,4,Finch Hatton,
16629,AU,4,Nindaroo,
16630,AU,4,Devereux Creek,
16631,AU,7,Glenlee,
16632,AU,7,Lockwood,
16633,AU,2,Ewingsdale,
16634,AU,7,Tungamah,
16635,AU,7,Arawata,
16636,AU,2,Blair Athol,
16637,AU,2,Fairy Hill,
16638,AU,2,Billimari,
16639,AU,2,Bucca-wauka,
16640,AU,5,Oakbank,
16641,AU,7,Mount Duneed,
16642,AU,6,Kempton,
16643,AU,7,Dixons Creek,
16644,AU,5,Port Vincent,
16645,AU,2,Tumbulgum,
16646,AU,2,Wattamolla,
16647,AU,5,Williamstown,
16648,AU,2,Tullimbar,
16649,AU,2,Oakwood,
16650,AU,2,Teven,
16651,AU,2,Craven,
16652,AU,8,Marble Bar,
16653,AU,7,Johnsonville,
16654,AU,2,Guyong,
16655,AU,8,Carmel,
16656,AU,7,Waratah North,
16657,AU,5,Ungarra,
16658,AU,7,Pine Grove,
16659,AU,4,Baralaba,
16660,AU,2,Camberwell,
16661,AU,6,Northdown,
16662,AU,2,Farley,
16663,AU,8,Leonora,
16664,AU,4,Eulo,
16665,AU,4,Baffle Creek,
16666,AU,4,Mount Berryman,
16667,AU,2,Pappinbarra,
16668,AU,5,Brinkworth,
16669,AU,2,Buckajo,
16670,AU,5,Callington,
16671,AU,4,Georgetown,
16672,AU,2,Jerangle,
16673,AU,7,Vite Vite,
16674,AU,7,Minhamite,
16675,AU,4,Tingoora,
16676,AU,2,Salisbury,
16677,AU,2,The Rock,
16678,AU,7,Sea Lake,
16679,AU,4,Deuchar,
16680,AU,7,Darlimurla,
16681,AU,7,Bindi,
16682,AU,7,Beech Forest,
16683,AU,4,Te Kowai,
16684,AU,7,Neilborough,
16685,AU,4,Richmond,
16686,AU,2,Milroy,
16687,AU,5,Wasleys,
16688,AU,7,Kotta,
16689,AU,7,Barnawartha,
16690,AU,4,Woodbine,
16691,AU,2,Ganmain,
16692,AU,7,Rushworth,
16693,AU,7,Dookie,
16694,AU,7,Lindenow,
16695,AU,7,Fernbank,
16696,AU,7,Milltown,
16697,AU,7,Strangways,
16698,AU,2,Cookamidgera,
16699,AU,7,Birregurra,
16700,AU,8,Lower King,
16701,AU,4,Morinish,
16702,AU,8,Westonia,
16703,AU,8,Green Head,
16704,AU,2,Tomakin,
16705,AU,4,Hutton,
16706,AU,7,Nareen,
16707,AU,7,Bundalaguah,
16708,AU,2,Adelong,
16709,AU,4,Nome,
16710,AU,6,Bangor,
16711,AU,3,Daly Waters,
16712,AU,5,Nantawarra,
16713,AU,5,Prospect Hill,
16714,AU,8,Cadoux,
16715,AU,7,Combienbar,
16716,AU,8,Forest Grove,
16717,AU,5,Owen,
16718,AU,4,Cordalba,
16719,AU,4,Blacks Beach,
16720,AU,8,Benger,
16721,AU,2,Bungwahl,
16722,AU,2,Couridjah,
16723,AU,2,Pindimar,
16724,AU,7,Harrietville,
16725,AU,7,Tyrendarra,
16726,AU,8,Yuna,
16727,AU,6,Broadmarsh,
16728,AU,5,Wongulla,
16729,AU,2,Tatham,
16730,AU,2,Ardlethan,
16731,AU,7,Gilderoy,
16732,AU,2,Mumbil,
16733,AU,7,Yeodene,
16734,AU,2,Foxground,
16735,AU,2,Mount Keira,
16736,AU,2,Dunmore,
16737,AU,4,Ma Ma Creek,
16738,AU,4,Clumber,
16739,AU,4,Yarwun,
16740,AU,2,Nullamanna,
16741,AU,2,Eccleston,
16742,AU,2,Red Range,
16743,AU,2,Leadville,
16744,AU,7,Carngham,
16745,AU,6,Preolenna,
16746,AU,7,Buffalo,
16747,AU,2,Hernani,
16748,AU,5,Tarpeena,
16749,AU,2,Hollisdale,
16750,AU,4,Birnam,
16751,AU,7,Milloo,
16752,AU,2,Tanja,
16753,AU,7,Byaduk,
16754,AU,7,Fyansford,
16755,AU,7,Wurruk,
16756,AU,7,Gainsborough,
16757,AU,7,Yeo,
16758,AU,6,Winnaleah,
16759,AU,2,Gravesend,
16760,AU,6,Koonya,
16761,AU,5,Blyth,
16762,AU,5,Rosedale,
16763,AU,6,Magra,
16764,AU,5,Flinders,
16765,AU,2,Turlinjah,
16766,AU,6,Trowutta,
16767,AU,7,Sherbrooke,
16768,AU,7,Saint Arnaud,
16769,AU,7,Samaria,
16770,AU,5,Edillilie,
16771,AU,2,Markwell,
16772,AU,7,Fentons Creek,
16773,AU,7,Mckenzie Creek,
16774,AU,2,Nymboida,
16775,AU,7,Walmer,
16776,AU,2,Mount View,
16777,AU,7,Lucyvale,
16778,AU,2,Bryans Gap,
16779,AU,5,Venus Bay,
16780,AU,8,Yornaning,
16781,AU,7,Boweya,
16782,AU,7,Wyuna,
16783,AU,7,Merrigum,
16784,AU,7,Lake Tyers,
16785,AU,7,Torquay,
16786,AU,7,Powelltown,
16787,AU,4,Hamilton,
16788,AU,4,Stratford,
16789,AU,7,Lismore,
16790,AU,8,Londonderry,
16791,AU,6,South Riana,
16792,AU,6,Gladstone,
16793,AU,5,Cadell,
16794,AU,4,El Arish,
16795,AU,2,Moorland,
16796,AU,2,Ilarwill,
16797,AU,4,Dugandan,
16798,AU,2,Nemingha,
16799,AU,5,Worrolong,
16800,AU,5,Ponde,
16801,AU,7,Greta West,
16802,AU,6,Riana,
16803,AU,7,Beenak,
16804,AU,6,Lileah,
16805,AU,4,Moorland,
16806,AU,2,Kiah,
16807,AU,4,Tanby,
16808,AU,7,Bylands,
16809,AU,2,Saumarez,
16810,AU,7,Wyelangta,
16811,AU,2,Dales Creek,
16812,AU,4,Brandon,
16813,AU,2,Broadwater,
16814,AU,5,Ironbank,
16815,AU,4,Langley,
16816,AU,7,Hoppers Crossing,
16817,AU,7,Learmonth,
16818,AU,8,Cervantes,
16819,AU,2,Hatfield,
16820,AU,4,Upper Glastonbury,
16821,AU,7,Cressy,
16822,AU,7,Tarnagulla,
16823,AU,2,Mummulgum,
16824,AU,7,Harrow,
16825,AU,2,Bulliac,
16826,AU,5,Cockburn,
16827,AU,2,Torryburn,
16828,AU,4,Quinalow,
16829,AU,7,Shelford,
16830,AU,5,Lyndhurst,
16831,AU,5,Mount Burr,
16832,AU,4,Hervey Bay,
16833,AU,7,Dunolly,
16834,AU,5,Yeelanna,
16835,AU,5,Penong,
16836,AU,8,Hester,
16837,AU,8,Karratha,
16838,AU,7,Thoona,
16839,AU,7,Emerald,
16840,AU,7,Berriwillock,
16841,AU,7,Gerangamete,
16842,AU,7,Tarrawingee,
16843,AU,8,Youngs,
16844,AU,8,Forrest,
16845,AU,2,Angledale,
16846,AU,7,Longlea,
16847,AU,2,Yarragundry,
16848,AU,7,Corack East,
16849,AU,2,Bagnoo,
16850,AU,2,Portland,
16851,AU,7,Bridgewater-on-loddon,
16852,AU,2,Killabakh,
16853,AU,7,Kardella,
16854,AU,7,Benambra,
16855,AU,2,Moore Creek,
16856,AU,7,Boneo,
16857,AU,6,Weegena,
16858,AU,7,Dalyston,
16859,AU,4,Tamaree,
16860,AU,6,Ridgley,
16861,AU,7,Baddaginnie,
16862,AU,2,Georgica,
16863,AU,7,Myall,
16864,AU,7,South Melbourne,
16865,AU,2,Paddington,
16866,AU,4,East Brisbane,
16867,AU,4,South Brisbane,
16868,AU,7,Big Pats Creek,
16869,AU,4,Saint Lucia,
16870,AU,8,Utakarra,
16871,AU,2,Mount Saint Thomas,
16872,AU,2,Ben Bullen,
16873,AU,6,West Kentish,
16874,AU,7,Winnap,
16875,AU,2,Taylors Arm,
16876,AU,2,Keiraville,
16877,AU,2,Gwynneville,
16878,AU,6,Nabowla,
16879,AU,7,Tarwin Lower,
16880,AU,5,Nunjikompita,
16881,AU,4,Charlwood,
16882,AU,2,Figtree,
16883,AU,6,Lagoons,
16884,AU,7,Middle Tarwin,
16885,AU,2,Cedar Brush,
16886,AU,2,Clothiers Creek,
16887,AU,6,Ouse,
16888,AU,2,Barraganyatti,
16889,AU,2,Hillgrove,
16890,AU,4,Donnybrook,
16891,AU,6,Thirlstane,
16892,AU,2,Pillar Valley,
16893,AU,5,Port Clinton,
16894,AU,8,Cue,
16895,AU,7,Tyers,
16896,AU,7,Woorndoo,
16897,AU,2,Wyndham,
16898,AU,5,Flaxley,
16899,AU,2,Corndale,
16900,AU,7,Muckleford,
16901,AU,7,Lake Boga,
16902,AU,7,Cardigan,
16903,AU,6,Tarraleah,
16904,AU,7,Lucknow,
16905,AU,4,Wallumbilla,
16906,AU,2,Ladysmith,
16907,AU,2,Niangala,
16908,AU,2,Koorawatha,
16909,AU,7,Londrigan,
16910,AU,7,Merrijig,
16911,AU,7,Westmere,
16912,AU,6,Baden,
16913,AU,6,Surges Bay,
16914,AU,2,Tootool,
16915,AU,2,Chambigne,
16916,AU,2,Woolbrook,
16917,AU,2,Comboyne,
16918,AU,7,Ventnor,
16919,AU,2,Morrisset,
16920,AU,5,Teatree Gully,
16921,AU,5,Heathfield,
16922,AU,2,Aberdare,
16923,AU,7,Curlewis,
16924,AU,7,Balnarring Beach,
16925,AU,2,Rand,
16926,AU,2,Killawarra,
16927,AU,2,Booral,
16928,AU,2,Stroud Road,
16929,AU,2,Ando,
16930,AU,6,Lorinna,
16931,AU,7,Tarrenlea,
16932,AU,4,Mena Creek,
16933,AU,8,Miling,
16934,AU,8,Hines Hill,
16935,AU,7,Chetwynd,
16936,AU,4,Forsayth,
16937,AU,2,Wantabadgery,
16938,AU,5,Waterloo,
16939,AU,7,Willaura,
16940,AU,2,Clifton Gardens,
16941,AU,2,Bullawa Creek,
16942,AU,4,Mungallala,
16943,AU,8,Yalgoo,
16944,AU,5,Avenue Range,
16945,AU,4,Macalister,
16946,AU,7,Barnadown,
16947,AU,6,Osterley,
16948,AU,7,Strzelecki,
16949,AU,7,Kingower,
16950,AU,6,Nietta,
16951,AU,6,Bellingham,
16952,AU,6,Jackeys Marsh,
16953,AU,2,Utungun,
16954,AU,8,Moonyoonooka,
16955,AU,7,Sheep Hills,
16956,AU,4,Kulpi,
16957,AU,2,Elong Elong,
16958,AU,4,Mount Mort,
16959,AU,7,Scotts Creek,
16960,AU,7,Mepunga East,
16961,AU,8,Narrikup,
16962,AU,2,Alice,
16963,AU,6,Wyena,
16964,AU,7,Sandy Creek,
16965,AU,6,Nile,
16966,AU,7,Raymond Island,
16967,AU,7,Peterborough,
16968,AU,8,Port Denison,
16969,AU,2,Woombah,
16970,AU,6,Lymington,
16971,AU,4,Dululu,
16972,AU,6,Glendevie,
16973,AU,2,Upper Horton,
16974,AU,6,Orielton,
16975,AU,4,Clare,
16976,AU,2,Eurobodalla,
16977,AU,4,Moonford,
16978,AU,7,Derrinallum,
16979,AU,2,Kioloa,
16980,AU,7,Hordern Vale,
16981,AU,7,Wooragee,
16982,AU,2,Brownsville,
16983,AU,4,Bingera,
16984,AU,6,Coles Bay,
16985,AU,2,Phillip Bay,
16986,AU,7,Tandarra,
16987,AU,8,Meckering,
16988,AU,4,Flaggy Rock,
16989,AU,7,Barkers Creek,
16990,AU,6,Lucaston,
16991,AU,2,Sunny Corner,
16992,AU,8,Grass Patch,
16993,AU,4,Buaraba,
16994,AU,7,Mount Burnett,
16995,AU,7,Bengworden,
16996,AU,2,Pyree,
16997,AU,6,Dennes Point,
16998,AU,2,Galong,
16999,AU,2,Frederickton,
17000,AU,5,Macclesfield,
17001,AU,2,Brewarrina,
17002,AU,7,Mudgegonga,
17003,AU,4,Bellenden Ker,
17004,AU,4,Miallo,
17005,AU,6,Blackwall,
17006,AU,4,Tambo,
17007,AU,5,Wellington,
17008,AU,2,Windeyer,
17009,AU,4,Tambourine,
17010,AU,2,Coombell,
17011,AU,2,Maimuru,
17012,AU,7,Buchan South,
17013,AU,2,Missabotti,
17014,AU,6,Needles,
17015,AU,2,Koonorigan,
17016,AU,3,Mataranka,
17017,AU,4,Oman-ama,
17018,AU,4,Colston Park,
17019,AU,7,Jumbunna,
17020,AU,5,Encounter Bay,
17021,AU,2,Burrapine,
17022,AU,7,Gorae,
17023,AU,2,Lochiel,
17024,AU,7,Tambo Upper,
17025,AU,7,Hedley,
17026,AU,4,Mutarnee,
17027,AU,6,Nugent,
17028,AU,6,Greens Beach,
17029,AU,7,The Heart,
17030,AU,7,Bungeet,
17031,AU,5,Port Parham,
17032,AU,7,Tarraville,
17033,AU,7,Gladysdale,
17034,AU,7,Warrenheip,
17035,AU,2,Unumgar,
17036,AU,2,Yannergee,
17037,AU,7,Morrisons,
17038,AU,6,Blackwood Creek,
17039,AU,2,Smithtown,
17040,AU,2,Kitchener,
17041,AU,4,South Johnstone,
17042,AU,2,Tichborne,
17043,AU,2,Woomargama,
17044,AU,7,Myamyn,
17045,AU,2,Bimbi,
17046,AU,4,North Burleigh,
17047,AU,6,Moorina,
17048,AU,6,Glenlusk,
17049,AU,8,Holt Rock,
17050,AU,8,Ravensthorpe,
17051,AU,7,Wando Vale,
17052,AU,2,Garah,
17053,AU,2,Sancrox,
17054,AU,4,Booyal,
17055,AU,2,Mallanganee,
17056,AU,2,Collingullie,
17057,AU,1,Majura,
17058,AU,4,Burketown,
17059,AU,4,Wondecla,
17060,AU,7,Dreeite,
17061,AU,6,Cradoc,
17062,AU,2,Mitchell,
17063,AU,7,Glenormiston North,
17064,AU,7,Carpendeit,
17065,AU,7,Willatook,
17066,AU,7,Codrington,
17067,AU,2,Martins Creek,
17068,AU,2,La Perouse,
17069,AU,2,Reidsdale,
17070,AU,7,Fumina South,
17071,AU,2,Byabarra,
17072,AU,4,Boompa,
17073,AU,5,Punthari,
17074,AU,6,Parattah,
17075,AU,2,Byangum,
17076,AU,7,Cudgewa,
17077,AU,5,Minnipa,
17078,AU,2,Bowenfels,
17079,AU,2,Ulong,
17080,AU,2,Oura,
17081,AU,8,Picton,
17082,AU,7,Endeavour Hills,
17083,AU,2,Hanwood,
17084,AU,2,Cassilis,
17085,AU,4,Apple Tree Creek,
17086,AU,2,Linburn,
17087,AU,2,Godfreys Creek,
17088,AU,4,Nagoorin,
17089,AU,4,Stockyard,
17090,AU,6,Paloona,
17091,AU,2,Ulamambri,
17092,AU,7,Laceby,
17093,AU,4,Bucca,
17094,AU,7,Patyah,
17095,AU,7,Yanac,
17096,AU,7,Amphitheatre,
17097,AU,5,Mount Lofty,
17098,AU,7,Almurta,
17099,AU,5,Yundi,
17100,AU,5,Sherlock,
17101,AU,4,Trebonne,
17102,AU,4,Caffey,
17103,AU,7,Pirron Yallock,
17104,AU,7,Elliminyt,
17105,AU,4,Marmor,
17106,AU,5,Milendella,
17107,AU,4,Didcot,
17108,AU,7,Timmering,
17109,AU,7,Laang,
17110,AU,2,Girilambone,
17111,AU,7,Cororooke,
17112,AU,6,Glenfern,
17113,AU,2,Naradhan,
17114,AU,6,Colebrook,
17115,AU,2,Eurongilly,
17116,AU,7,Bandiana,
17117,AU,2,Bedgerebong,
17118,AU,2,Arthurs Seat,
17119,AU,2,Booyong,
17120,AU,4,Yerra,
17121,AU,7,Weering,
17122,AU,7,Nutfield,
17123,AU,7,Gheringhap,
17124,AU,7,Lancaster,
17125,AU,7,Llanelly,
17126,AU,7,Bungaree,
17127,AU,4,Warra,
17128,AU,7,Mooralla,
17129,AU,8,Lake Camm,
17130,AU,2,Knockrow,
17131,AU,5,Piccadilly,
17132,AU,7,Cottles Bridge,
17133,AU,7,Sutton Grange,
17134,AU,2,Wittitrin,
17135,AU,7,Portsea,
17136,AU,7,Gellibrand,
17137,AU,7,Badger Creek,
17138,AU,5,Weetulta,
17139,AU,2,Sedgefield,
17140,AU,7,Dederang,
17141,AU,2,Numbugga,
17142,AU,2,Bentley,
17143,AU,4,Junabee,
17144,AU,4,Peeramon,
17145,AU,8,Keysbrook,
17146,AU,6,Buckland,
17147,AU,6,Gawler,
17148,AU,6,Roger River,
17149,AU,7,Quambatook,
17150,AU,7,Moyston,
17151,AU,7,Ensay,
17152,AU,2,Steeple Flat,
17153,AU,2,Brierfield,
17154,AU,6,Mount Lloyd,
17155,AU,4,Mount Ossa,
17156,AU,7,Walpeup,
17157,AU,4,Swan Creek,
17158,AU,7,Meerlieu,
17159,AU,4,Munbura,
17160,AU,7,Crossley,
17161,AU,8,Koomberkine,
17162,AU,7,Nayook,
17163,AU,6,Stonor,
17164,AU,5,Tarcowie,
17165,AU,2,Kingsvale,
17166,AU,2,Kalkite,
17167,AU,7,Wal Wal,
17168,AU,2,Maude,
17169,AU,4,Biboohra,
17170,AU,2,Cundle Flat,
17171,AU,2,Burren Junction,
17172,AU,8,Dudinin,
17173,AU,6,Whitemark,
17174,AU,2,Moombooldool,
17175,AU,8,Denham,
17176,AU,2,Thuddungra,
17177,AU,7,Bowenvale,
17178,AU,7,Krowera,
17179,AU,4,Byee,
17180,AU,7,Bet Bet,
17181,AU,2,Piallamore,
17182,AU,5,Moculta,
17183,AU,2,Toonumbar,
17184,AU,6,Pelverata,
17185,AU,7,Tarra Valley,
17186,AU,2,Morven,
17187,AU,7,Howes Creek,
17188,AU,8,Wellington Mill,
17189,AU,2,Bookham,
17190,AU,2,Nobbys Creek,
17191,AU,7,Stradbroke,
17192,AU,7,Brandy Creek,
17193,AU,7,Sandy Point,
17194,AU,2,South Bowenfels,
17195,AU,2,Coopers Shoot,
17196,AU,2,Carabost,
17197,AU,2,Caragabal,
17198,AU,2,Mullion Creek,
17199,AU,5,Marama,
17200,AU,2,Wantiool,
17201,AU,5,Stockyard Creek,
17202,AU,2,Furracabad,
17203,AU,7,Carrajung South,
17204,AU,7,Newbridge,
17205,AU,4,Boulia,
17206,AU,8,Yilliminning,
17207,AU,6,Montana,
17208,AU,7,Eddington,
17209,AU,2,Trunkey Creek,
17210,AU,2,Byng,
17211,AU,2,Currarong,
17212,AU,4,Ropeley,
17213,AU,2,Boggabilla,
17214,AU,7,Edi Upper,
17215,AU,8,Youndegin,
17216,AU,7,Sandford,
17217,AU,5,Sandleton,
17218,AU,7,Nariel Creek,
17219,AU,7,Greens Creek,
17220,AU,7,Bethanga,
17221,AU,8,Brown Hill,
17222,AU,2,Willina,
17223,AU,4,Moolboolaman,
17224,AU,4,Bakers Creek,
17225,AU,2,Condong,
17226,AU,4,Perseverance,
17227,AU,7,Joel Joel,
17228,AU,5,Walker Flat,
17229,AU,5,Elliston,
17230,AU,2,Kangiara,
17231,AU,7,Blackheath,
17232,AU,5,Green Hills,
17233,AU,8,Kronkup,
17234,AU,5,Hindmarsh Island,
17235,AU,4,Thulimbah,
17236,AU,7,Nintingbool,
17237,AU,7,Clyde North,
17238,AU,5,Red Banks,
17239,AU,2,Terara,
17240,AU,2,Glenquarry,
17241,AU,2,Wakool,
17242,AU,2,Clergate,
17243,AU,2,Doubtful Creek,
17244,AU,6,Tewkesbury,
17245,AU,4,Neurum,
17246,AU,5,Culburra,
17247,AU,2,Mororo,
17248,AU,5,Penneshaw,
17249,AU,7,Nullawil,
17250,AU,7,Colignan,
17251,AU,2,Gwabegar,
17252,AU,7,Wallaloo,
17253,AU,7,Georges Creek,
17254,AU,7,Kongwak,
17255,AU,6,Wattle Hill,
17256,AU,4,Maroon,
17257,AU,4,Toobeah,
17258,AU,2,Oxley,
17259,AU,2,Beckom,
17260,AU,4,Mount Martin,
17261,AU,2,Ebor,
17262,AU,6,Targa,
17263,AU,4,Littabella,
17264,AU,7,Wartook,
17265,AU,7,Tremont,
17266,AU,8,Lowden,
17267,AU,8,Kukerin,
17268,AU,4,Obi Obi,
17269,AU,7,Mepunga,
17270,AU,7,Tresco,
17271,AU,2,Bald Hills,
17272,AU,2,Miandetta,
17273,AU,7,Bookar,
17274,AU,5,Appila,
17275,AU,5,Parilla,
17276,AU,2,Walbundrie,
17277,AU,7,Rupanyup,
17278,AU,4,Stonehenge,
17279,AU,2,Tyndale,
17280,AU,2,Mortons Creek,
17281,AU,7,Vite Vite North,
17282,AU,7,Kennedys Creek,
17283,AU,4,Winwill,
17284,AU,8,Qualeup,
17285,AU,6,Garden Island Creek,
17286,AU,2,Gladstone,
17287,AU,7,Lalbert,
17288,AU,7,Tyntynder,
17289,AU,5,Pompoota,
17290,AU,2,Weilmoringle,
17291,AU,6,Golconda,
17292,AU,2,Rosebury,
17293,AU,4,Huxley,
17294,AU,2,Rollands Plains,
17295,AU,2,Bannaby,
17296,AU,2,Menindee,
17297,AU,4,Rockmount,
17298,AU,4,Aloomba,
17299,AU,2,Empire Vale,
17300,AU,7,Leaghur,
17301,AU,2,Boomi,
17302,AU,2,Turners Flat,
17303,AU,7,Gymbowen,
17304,AU,7,Glen Alvie,
17305,AU,7,Boho South,
17306,AU,5,Sutherlands,
17307,AU,5,Port Augusta West,
17308,AU,7,Watchem,
17309,AU,7,Glen Forbes,
17310,AU,6,Quamby Brook,
17311,AU,2,Matong,
17312,AU,7,Greenwald,
17313,AU,4,Pechey,
17314,AU,2,Deep Creek,
17315,AU,4,Murray Upper,
17316,AU,4,Horton,
17317,AU,7,Forge Creek,
17318,AU,2,Ferodale,
17319,AU,2,Yarrowitch,
17320,AU,2,Durras,
17321,AU,7,Ancona,
17322,AU,2,Mowbray Park,
17323,AU,2,Wallendbeen,
17324,AU,7,Newlyn,
17325,AU,7,Serviceton,
17326,AU,4,Prairie,
17327,AU,7,Warrong,
17328,AU,4,Archer,
17329,AU,8,Cleary,
17330,AU,7,Yambuna,
17331,AU,7,Patchewollock,
17332,AU,4,Lower Tully,
17333,AU,2,Marlee,
17334,AU,4,Tuen,
17335,AU,2,Whiteman Creek,
17336,AU,4,Wilkesdale,
17337,AU,2,North Wagga,
17338,AU,7,Gapsted,
17339,AU,5,Wanbi,
17340,AU,7,Tahara,
17341,AU,7,Carlisle River,
17342,AU,2,Coolatai,
17343,AU,4,Willows,
17344,AU,7,Majorca,
17345,AU,4,Dallarnil,
17346,AU,2,Larnook,
17347,AU,2,Cawongla,
17348,AU,4,Boonarga,
17349,AU,2,The Pocket,
17350,AU,7,Yapeen,
17351,AU,8,Horrocks,
17352,AU,4,Lake Clarendon,
17353,AU,2,Wollun,
17354,AU,7,Tyrendarra East,
17355,AU,8,Walkaway,
17356,AU,7,Lake Goldsmith,
17357,AU,7,Gipsy Point,
17358,AU,7,Traralgon South,
17359,AU,5,North Shields,
17360,AU,2,Glennies Creek,
17361,AU,4,Mount Coolon,
17362,AU,2,Fullerton,
17363,AU,2,Glenmartin,
17364,AU,8,Ballidu,
17365,AU,4,Mount Whitestone,
17366,AU,7,Timor,
17367,AU,7,Pimpinio,
17368,AU,2,Meerschaum Vale,
17369,AU,2,Pooncarie,
17370,AU,6,Kellevie,
17371,AU,7,Joel South,
17372,AU,8,Widgiemooltha,
17373,AU,5,Wanilla,
17374,AU,6,Mayberry,
17375,AU,4,Barney View,
17376,AU,7,Cape Clear,
17377,AU,2,Lue,
17378,AU,4,Camooweal,
17379,AU,5,Port Kenny,
17380,AU,7,Leneva,
17381,AU,8,Bulyee,
17382,AU,7,Pootilla,
17383,AU,8,Eastern Creek,
17384,AU,6,Radnor,
17385,AU,2,Crawford River,
17386,AU,6,Redpa,
17387,AU,2,Rowena,
17388,AU,2,Nangus,
17389,AU,7,Mincha,
17390,AU,4,Coen,
17391,AU,2,Carool,
17392,AU,6,Goulds Country,
17393,AU,4,Stanwell,
17394,AU,2,Tongarra,
17395,AU,6,Moltema,
17396,AU,7,Wattle Hill,
17397,AU,6,South Burnie,
17398,AU,4,Bapaume,
17399,AU,2,Argents Hill,
17400,AU,5,Coonalpyn,
17401,AU,7,North Wonthaggi,
17402,AU,4,Buxton,
17403,AU,2,Leeville,
17404,AU,7,Tyntynder South,
17405,AU,7,Harston,
17406,AU,2,Wondalga,
17407,AU,2,Cullen Bullen,
17408,AU,4,Jundah,
17409,AU,7,Stewarton,
17410,AU,4,Jambin,
17411,AU,5,Cherryville,
17412,AU,3,Adelaide River,
17413,AU,6,Adventure Bay,
17414,AU,2,The Branch,
17415,AU,7,Appin South,
17416,AU,2,Merriwagga,
17417,AU,4,Moondooner,
17418,AU,2,Wongwibinda,
17419,AU,2,Mitchells Island,
17420,AU,7,Evansford,
17421,AU,2,Homeleigh,
17422,AU,7,Metcalfe,
17423,AU,7,Konongwootong,
17424,AU,2,Coolac,
17425,AU,4,Goondi,
17426,AU,6,Wattle Grove,
17427,AU,2,West Tamworth,
17428,AU,7,Yangery,
17429,AU,8,Crossman,
17430,AU,2,Backmede,
17431,AU,5,Mintaro,
17432,AU,2,Springrove,
17433,AU,6,Bushy Park,
17434,AU,2,Trangie,
17435,AU,2,Ettrick,
17436,AU,7,Parwan,
17437,AU,7,Kardella South,
17438,AU,4,Lamington,
17439,AU,2,Barmedman,
17440,AU,2,Beverley,
17441,AU,6,Coningham,
17442,AU,2,Nelligen,
17443,AU,7,South Belgrave,
17444,AU,7,Devenish,
17445,AU,5,Denial Bay,
17446,AU,2,Bodangora,
17447,AU,2,Weedallion,
17448,AU,2,Chatsbury,
17449,AU,7,Buffalo River,
17450,AU,7,Glenaladale,
17451,AU,2,Clovass,
17452,AU,2,Eltham,
17453,AU,8,Wialki,
17454,AU,4,Bilyana,
17455,AU,2,Coffee Camp,
17456,AU,4,Mount Chalmers,
17457,AU,8,Mayanup,
17458,AU,6,Cape Barren Island,
17459,AU,2,Upper Rollands Plains,
17460,AU,2,Nyrang Creek,
17461,AU,2,Nowendoc,
17462,AU,7,Wandiligong,
17463,AU,7,Bolwarrah,
17464,AU,7,Carboor,
17465,AU,5,Innamincka,
17466,AU,2,Mckees Hill,
17467,AU,4,Kabra,
17468,AU,2,Gundary,
17469,AU,2,Nelsons Plains,
17470,AU,2,Hillville,
17471,AU,2,Lillian Rock,
17472,AU,7,Riverslea,
17473,AU,4,Ekibin,
17474,AU,4,Bullyard,
17475,AU,2,Taylors Flat,
17476,AU,5,Warramboo,
17477,AU,4,Eromanga,
17478,AU,4,Wonbah,
17479,AU,7,Waanyarra,
17480,AU,5,Compton,
17481,AU,2,Corindi,
17482,AU,6,Hamilton,
17483,AU,6,Mangalore,
17484,AU,4,Tabooba,
17485,AU,7,Whorouly,
17486,AU,2,Rocky Hall,
17487,AU,2,Nevertire,
17488,AU,2,Rookhurst,
17489,AU,4,Nelia,
17490,AU,6,Kindred,
17491,AU,5,Oodnadatta,
17492,AU,2,Blue Knob,
17493,AU,4,Dangore,
17494,AU,2,Wellingrove,
17495,AU,2,Mila,
17496,AU,7,Gooroc,
17497,AU,8,Salmon Gums,
17498,AU,8,Jennapullin,
17499,AU,7,Bonang,
17500,AU,2,Sandy Flat,
17501,AU,2,Wamoon,
17502,AU,2,Edgeroi,
17503,AU,8,Carbine,
17504,AU,2,Grevillia,
17505,AU,7,Banbrae Park,
17506,AU,2,Drake,
17507,AU,5,Waitpinga,
17508,AU,7,Howqua,
17509,AU,2,Tomalla,
17510,AU,7,Tatyoon,
17511,AU,4,Comet,
17512,AU,5,Iron Knob,
17513,AU,6,Branxholm,
17514,AU,7,Hampaton,
17515,AU,2,Dignams Creek,
17516,AU,2,Ghinni Ghinni,
17517,AU,5,Australia Plains,
17518,AU,2,Charbon,
17519,AU,4,Kowguran,
17520,AU,2,Toothdale,
17521,AU,7,Jumbuk,
17522,AU,2,Marom Creek,
17523,AU,2,Mooneba,
17524,AU,5,Long Plains,
17525,AU,6,Longley,
17526,AU,2,Rous Mill,
17527,AU,7,Wychitella,
17528,AU,8,Dindiloa,
17529,AU,2,Cronulla Beach,
17530,AU,7,Brewster,
17531,AU,2,Moonan Flat,
17532,AU,7,Deep Lead,
17533,AU,4,Kalapa,
17534,AU,2,East Guyong,
17535,AU,7,Drumborg,
17536,AU,7,Thorpdale South,
17537,AU,2,Curban,
17538,AU,4,Elliott,
17539,AU,7,Millbrook,
17540,AU,6,Whitefoord,
17541,AU,4,Normanton,
17542,AU,4,Bamaga,
17543,AU,2,Black Mountain,
17544,AU,5,Moorlands,
17545,AU,2,Brooklana,
17546,AU,4,Neranwood,
17547,AU,5,Swanport,
17548,AU,2,South Sydney Municipality,
17549,AU,2,Lidcomb,
17550,AU,4,Danderoo,
17551,AU,7,Lillico,
17552,AU,4,Gogango,
17553,AU,8,Dulbelling,
17554,AU,4,Einasleigh,
17555,AU,4,Toobanna,
17556,AU,4,Pindi Pindi,
17557,AU,7,Kinglake Central,
17558,AU,5,Tickera,
17559,AU,7,Elingamite North,
17560,AU,2,Kerrabee,
17561,AU,2,Spring Terrace,
17562,AU,4,Pratten,
17563,AU,2,Tintinhull,
17564,AU,2,Brownlow Hill,
17565,AU,4,Pozieres,
17566,AU,5,Harrogate,
17567,AU,2,Girral,
17568,AU,7,Molyullah,
17569,AU,8,Onslow,
17570,AU,7,Garibaldi,
17571,AU,4,Tangalooma,
17572,AU,4,Farnborough,
17573,AU,7,Lake Charm,
17574,AU,4,Etna Creek,
17575,AU,7,Callignee South,
17576,AU,2,Twelve Mile,
17577,AU,6,Gardners Bay,
17578,AU,7,Seacombe,
17579,AU,4,Dumbleton,
17580,AU,5,Wellington East,
17581,AU,2,Lower Cudgera,
17582,AU,2,Camberwarra,
17583,AU,4,Netherdale,
17584,AU,7,Alberton West,
17585,AU,7,Nalangil,
17586,AU,7,Lamplough,
17587,AU,5,Basket Range,
17588,AU,7,Upotipotpon,
17589,AU,2,Winton,
17590,AU,2,Termeil,
17591,AU,7,Dunach,
17592,AU,7,Clydesdale,
17593,AU,2,Rileys Hill,
17594,AU,6,Mount Seymour,
17595,AU,5,Copley,
17596,AU,2,Keith Hall,
17597,AU,5,Cambelltown,
17598,AU,7,Brington Beach,
17599,AU,7,South Werribee,
17600,AU,7,Great Western,
17601,AU,2,Ballimore,
17602,AU,2,Mount Burrell,
17603,AU,8,Carbunup,
17604,AU,2,Tooloom,
17605,AU,7,Kamarooka,
17606,AU,7,Allambee,
17607,AU,2,Ellangowan,
17608,AU,4,Merseylea,
17609,AU,7,Langi Logan,
17610,AU,7,Gowar East,
17611,AU,5,Alford,
17612,AU,5,Coulta,
17613,AU,4,Boyne,
17614,AU,7,Wharparilla,
17615,AU,7,Ruby,
17616,AU,7,Johanna,
17617,AU,2,Mount Fairy,
17618,AU,5,Peake,
17619,AU,7,Murgheboluc,
17620,AU,2,Duncans Creek,
17621,AU,7,Yulecart,
17622,AU,8,Mogumber,
17623,AU,7,Cudgee,
17624,AU,7,Hawkesdale,
17625,AU,4,Yelarbon,
17626,AU,2,Brucedale,
17627,AU,4,Balfes Creek,
17628,AU,6,Lady Barron,
17629,AU,5,Carrieton,
17630,AU,5,Coomandook,
17631,AU,2,Gidginbung,
17632,AU,7,Faraday,
17633,AU,7,Balliang East,
17634,AU,2,Chelmsford,
17635,AU,4,Prenslau,
17636,AU,7,Sidonia,
17637,AU,5,Mannanarie,
17638,AU,7,Milford,
17639,AU,4,Berajondo,
17640,AU,4,Haly Creek,
17641,AU,2,Sleepy Hollow,
17642,AU,4,Mcilwraith,
17643,AU,4,Karumba,
17644,AU,7,Wilby,
17645,AU,2,Mullengandra,
17646,AU,2,Boolambayte,
17647,AU,4,Kalpowar,
17648,AU,2,Glendon Brook,
17649,AU,5,Coobowie,
17650,AU,7,Jamieson,
17651,AU,4,Mount Garnet,
17652,AU,2,Lucknow,
17653,AU,4,Kolan South,
17654,AU,5,Ki Ki,
17655,AU,7,Indigo,
17656,AU,8,Eucla,
17657,AU,4,Beebo,
17658,AU,2,Bumberry,
17659,AU,2,Jingellic,
17660,AU,7,Gelantipy,
17661,AU,7,Brim,
17662,AU,7,Yatchaw,
17663,AU,2,Kellys Plains,
17664,AU,5,Koolunga,
17665,AU,2,Oxley Island,
17666,AU,7,Boonah,
17667,AU,4,Little Burleigh,
17668,AU,2,Eungai,
17669,AU,2,Croppa Creek,
17670,AU,7,Kawarren,
17671,AU,2,Collie,
17672,AU,7,Newlyn North,
17673,AU,7,Newtown And Chilwell,
17674,AU,2,Whoota,
17675,AU,8,Xantippe,
17676,AU,6,Alonnah,
17677,AU,4,Carmila West,
17678,AU,5,Wirrulla,
17679,AU,4,Kinka,
17680,AU,4,Yaamba,
17681,AU,7,Fumina,
17682,AU,6,Pipers Brook,
17683,AU,4,Upper Stone,
17684,AU,7,Mount Mercer,
17685,AU,2,Bandon,
17686,AU,7,Barongarook,
17687,AU,8,Arthur River,
17688,AU,4,Mount Alford,
17689,AU,7,Glenisla,
17690,AU,7,Culla,
17691,AU,2,Ingebirah,
17692,AU,2,Apple Tree Flat,
17693,AU,7,Nariel,
17694,AU,7,Eversley,
17695,AU,2,Melrose,
17696,AU,7,Dooen,
17697,AU,7,Killawarra,
17698,AU,4,Bracalba,
17699,AU,2,Ilford,
17700,AU,4,Langshaw,
17701,AU,8,North Dandalup,
17702,AU,7,Tintaldra,
17703,AU,7,Goroke,
17704,AU,6,Fentonbury,
17705,AU,7,Coghills Creek,
17706,AU,2,Stuart Town,
17707,AU,2,Goolma,
17708,AU,7,Goon Nure,
17709,AU,4,Owanyilla,
17710,AU,2,Balldale,
17711,AU,6,Loorana,
17712,AU,2,Stannum,
17713,AU,7,Moorabool,
17714,AU,2,Mayers Flat,
17715,AU,6,Gowrie Park,
17716,AU,8,King River,
17717,AU,2,Euabalong,
17718,AU,7,Bannerton,
17719,AU,2,Numbla Vale,
17720,AU,5,Barossa,
17721,AU,4,Mount Molloy,
17722,AU,7,Tallandoon,
17723,AU,2,Lewis Ponds,
17724,AU,7,Taminick,
17725,AU,2,Waukivory,
17726,AU,2,Cookardinia,
17727,AU,8,Kalgan,
17728,AU,8,Cuthbert,
17729,AU,6,Goshen,
17730,AU,7,Ballangeich,
17731,AU,2,Timor,
17732,AU,7,Foxhow,
17733,AU,8,Watheroo,
17734,AU,2,Bendick Murrell,
17735,AU,5,Marree,
17736,AU,4,Nukku,
17737,AU,7,Bungalally,
17738,AU,2,Jiggi,
17739,AU,2,Stewarts River,
17740,AU,7,Germantown,
17741,AU,6,Weymouth,
17742,AU,7,Catani,
17743,AU,4,Milman,
17744,AU,4,Bloomfield,
17745,AU,4,East Barron,
17746,AU,2,Bundella,
17747,AU,6,Highcroft,
17748,AU,6,Melton Mowbray,
17749,AU,2,Tucklan,
17750,AU,7,Richmond Plains,
17751,AU,2,Busbys Flat,
17752,AU,2,Boree Creek,
17753,AU,2,Bugaldie,
17754,AU,7,Granya,
17755,AU,7,Poowong North,
17756,AU,7,Nurrabiel,
17757,AU,7,Welshmans Reef,
17758,AU,7,Bullioh,
17759,AU,6,Upper Natone,
17760,AU,8,Kalannie,
17761,AU,7,Pakenham South,
17762,AU,4,Bulwer,
17763,AU,2,Upper Burringbar,
17764,AU,2,Ophir,
17765,AU,5,Jabuk,
17766,AU,2,Rocky Creek,
17767,AU,2,Warrah,
17768,AU,2,Murrumbucca,
17769,AU,2,Gilmore,
17770,AU,4,Irvinebank,
17771,AU,2,Numinbah,
17772,AU,7,Staffordshire Reef,
17773,AU,4,Mingela,
17774,AU,4,Watsonville,
17775,AU,4,Pimpana,
17776,AU,2,Tamban,
17777,AU,7,Argyle,
17778,AU,4,Bribie View,
17779,AU,5,Warla,
17780,AU,4,Fassifern Valley,
17781,AU,2,Corrima,
17782,AU,2,Breadalbane,
17783,AU,2,Mongarlowe,
17784,AU,2,Bumbaldry,
17785,AU,7,Quantong,
17786,AU,2,Smiths Creek,
17787,AU,7,Barraport,
17788,AU,6,Springfield,
17789,AU,4,Kunwarara,
17790,AU,5,Butler Tanks,
17791,AU,4,Stamford,
17792,AU,2,Upper Corindi,
17793,AU,7,Beazleys Bridge,
17794,AU,2,Araluen,
17795,AU,2,Wandsworth,
17796,AU,7,Dobie,
17797,AU,2,West Bargo,
17798,AU,2,Jerrawangala,
17799,AU,7,Cashmore,
17800,AU,2,Graman,
17801,AU,4,Moonmera,
17802,AU,7,Waranga,
17803,AU,7,Lara Lake,
17804,AU,2,Coolabah,
17805,AU,2,Eatonsville,
17806,AU,2,Wattamondara,
17807,AU,7,Tankerton,
17808,AU,2,Mooball,
17809,AU,5,Wild Horse Plains,
17810,AU,4,Mount Marshall,
17811,AU,7,Tongio,
17812,AU,4,Binjour,
17813,AU,2,Rocky Gully,
17814,AU,2,Emerald Hill,
17815,AU,4,Canoona,
17816,AU,4,Ayton,
17817,AU,2,Stockinbingal,
17818,AU,2,Pembrooke,
17819,AU,2,Glen Elgin,
17820,AU,2,Bibbenluke,
17821,AU,2,Birriwa,
17822,AU,4,Torrens Creek,
17823,AU,5,Currency Creek,
17824,AU,4,Villeneuve,
17825,AU,7,Koornalla,
17826,AU,7,Antwerp,
17827,AU,2,Bridgman,
17828,AU,7,Dingwall,
17829,AU,7,Croxton East,
17830,AU,7,Adelaide Lead,
17831,AU,7,Pound Creek,
17832,AU,7,Cape Bridgewater,
17833,AU,4,Gilberton,
17834,AU,6,Emita,
17835,AU,2,Ellenborough,
17836,AU,5,Paracombe,
17837,AU,4,Kupunn,
17838,AU,4,Orange Grove,
17839,AU,4,Ducklo,
17840,AU,4,Rossville,
17841,AU,4,Gindie,
17842,AU,2,Bagotville,
17843,AU,6,Loccota,
17844,AU,2,Keera,
17845,AU,7,Tanybryn,
17846,AU,2,Mogilla,
17847,AU,8,Kintore,
17848,AU,4,Orkabie,
17849,AU,7,Thalia,
17850,AU,7,Telangatuk East,
17851,AU,8,Wannamal,
17852,AU,2,Kamarah,
17853,AU,6,Deddington,
17854,AU,6,Gordon,
17855,AU,3,Mcminns Lagoon,
17856,AU,2,Wuuluman,
17857,AU,4,Weerimba,
17858,AU,5,Forest Range,
17859,AU,6,Tonganah,
17860,AU,6,Moina,
17861,AU,4,Sunnyside,
17862,AU,7,Brimpaen,
17863,AU,2,New Italy,
17864,AU,2,Creewah,
17865,AU,7,Maroona,
17866,AU,2,Grawin,
17867,AU,7,Mannibadar,
17868,AU,2,Tullera,
17869,AU,4,Gumlu,
17870,AU,7,Walhalla,
17871,AU,5,Smoky Bay,
17872,AU,4,Bartle Frere,
17873,AU,2,Halton,
17874,AU,5,Claypans,
17875,AU,2,Gum Scrub,
17876,AU,7,Ranceby,
17877,AU,7,Nirranda,
17878,AU,7,Glennons Hill,
17879,AU,7,Eskdale,
17880,AU,4,Cassowary,
17881,AU,7,Longerenong,
17882,AU,2,Armatree,
17883,AU,7,Kiewa,
17884,AU,6,Lottah,
17885,AU,2,Rous,
17886,AU,2,Dum Dum,
17887,AU,2,Round Mountain,
17888,AU,7,Vesper,
17889,AU,7,Kanumbra,
17890,AU,2,Humula,
17891,AU,8,Dalwallinu,
17892,AU,7,Underbool,
17893,AU,5,Wangary,
17894,AU,7,Brimin,
17895,AU,7,Laanecoorie,
17896,AU,7,Amherst,
17897,AU,7,Korumburra South,
17898,AU,7,Mosquito Creek,
17899,AU,7,Lemnos,
17900,AU,2,Whittingham,
17901,AU,4,Many Peaks,
17902,AU,4,Wolfram,
17903,AU,2,Cudgegong,
17904,AU,5,Blakiston,
17905,AU,7,Bulart,
17906,AU,2,Gostwyck,
17907,AU,2,Wadeville,
17908,AU,7,Dandenong West,
17909,AU,3,Elliott,
17910,AU,6,Edith Creek,
17911,AU,8,Mooliabeenee,
17912,AU,7,Maffra West Upper,
17913,AU,4,Cranley,
17914,AU,4,Meringa,
17915,AU,8,Wagerup,
17916,AU,6,Pawleena,
17917,AU,2,Duckenfield,
17918,AU,7,Cheviot,
17919,AU,2,Lower Boro,
17920,AU,2,Mount Mcdonald,
17921,AU,4,Upper Barron,
17922,AU,8,Harrismith,
17923,AU,5,Rockleigh,
17924,AU,7,Clear Lake,
17925,AU,5,Towitta,
17926,AU,4,Ambrose,
17927,AU,7,Crowlands,
17928,AU,7,Balook,
17929,AU,7,Trida,
17930,AU,8,Wiluna,
17931,AU,7,Boomahnoomoonah,
17932,AU,4,Teviotville,
17933,AU,7,Banyena,
17934,AU,8,Yorkrakine,
17935,AU,6,Beulah,
17936,AU,2,Muttama,
17937,AU,6,Cascades,
17938,AU,7,Allambee South,
17939,AU,7,Marraweeney,
17940,AU,2,Tilpa,
17941,AU,6,Mengha,
17942,AU,4,South Nanango,
17943,AU,4,Kleinton,
17944,AU,4,Bellevue,
17945,AU,2,Darawank,
17946,AU,2,Brays Creek,
17947,AU,6,Moorleah,
17948,AU,7,Bobinawarrah,
17949,AU,6,Saint Helens,
17950,AU,7,Lyndhurst South,
17951,AU,4,Euramo,
17952,AU,4,Bracewell,
17953,AU,2,Warral,
17954,AU,2,Rocky River,
17955,AU,6,Melrose,
17956,AU,6,Moriarty,
17957,AU,4,Ilbilbie,
17958,AU,7,Konagaderra,
17959,AU,2,Calarie,
17960,AU,6,Saint Leonards,
17961,AU,4,Tarampa Flat,
17962,AU,5,Fowlers Bay,
17963,AU,2,Hebden,
17964,AU,2,Murga,
17965,AU,7,Chiselhurst,
17966,AU,7,Terip Terip,
17967,AU,2,Newton Boyd,
17968,AU,7,Morang South,
17969,AU,2,Long Flat,
17970,AU,4,Bushley,
17971,AU,7,Muckatah,
17972,AU,2,Stratford,
17973,AU,4,Moongan,
17974,AU,7,Redcastle,
17975,AU,7,Mininera,
17976,AU,2,Widden,
17977,AU,4,Spring Creek,
17978,AU,7,Pakenham East,
17979,AU,4,Tumoulin,
17980,AU,5,Paris Creek,
17981,AU,2,Golspie,
17982,AU,7,Diggora,
17983,AU,5,Tooperang,
17984,AU,7,Minimay,
17985,AU,6,Alcomie,
17986,AU,2,Talarm,
17987,AU,8,Warup,
17988,AU,7,Carapook,
17989,AU,5,Wattle Flat,
17990,AU,2,Howell,
17991,AU,2,Broughton Village,
17992,AU,4,Japoonvale,
17993,AU,2,Balmoral Park,
17994,AU,4,Munbilla,
17995,AU,4,Radford,
17996,AU,2,Halfway Creek,
17997,AU,2,Leycester,
17998,AU,7,Saint James,
17999,AU,7,Irrewarra,
18000,AU,7,Broomfield,
18001,AU,2,Buraja,
18002,AU,2,Shannon Brook,
18003,AU,2,Daysdale,
18004,AU,5,Overland Corner,
18005,AU,2,Kinswood,
18006,AU,2,Blakebrook,
18007,AU,7,Grenville,
18008,AU,7,Berrimal,
18009,AU,7,Arapiles,
18010,AU,4,Bluff,
18011,AU,4,Baree,
18012,AU,4,Pinbarren,
18013,AU,1,Weetangerra,
18014,AU,7,Miram,
18015,AU,5,Dawesley,
18016,AU,7,Gatum,
18017,AU,7,Mystic Park,
18018,AU,7,South Dudley,
18019,AU,2,Gosforth,
18020,AU,1,Campbell,
18021,AU,1,Phillip,
18022,AU,2,Girraween,
18023,AU,8,Menzies,
18024,AU,4,Cracow,
18025,AU,7,Moyarra,
18026,AU,5,Karkoo,
18027,AU,4,Aubigny,
18028,AU,4,Wycarbah,
18029,AU,8,Marbelup,
18030,AU,4,Owens Creek,
18031,AU,7,Burrumbeet,
18032,AU,5,Allendale North,
18033,AU,8,Bowelling,
18034,AU,2,Benandarah,
18035,AU,7,Dingee,
18036,AU,4,Templin,
18037,AU,2,Mount Darragh,
18038,AU,7,Carwarp,
18039,AU,2,Wilcannia,
18040,AU,7,Eurack,
18041,AU,4,Hillview,
18042,AU,2,Kyalite,
18043,AU,5,Wakefield,
18044,AU,7,Kyvalley,
18045,AU,2,New Koreelah,
18046,AU,2,Quipolly,
18047,AU,4,Croydon,
18048,AU,3,The Palms,
18049,AU,7,Longwood East,
18050,AU,2,Tuross Heads,
18051,AU,7,Darraweith Guim,
18052,AU,4,Wongun,
18053,AU,8,Deeside,
18054,AU,5,Port Prime,
18055,AU,2,Dungarubba,
18056,AU,2,Maryvale,
18057,AU,7,Aberfeldy,
18058,AU,4,Cowley,
18059,AU,7,Lake Mundi,
18060,AU,7,Brunswick East,
18061,AU,7,Glen Iris,
18062,AU,2,Alexandria,
18063,AU,2,Edgecliff,
18064,AU,7,Carlton,
18065,AU,7,Dandenong Road,
18066,AU,4,West End,
18067,AU,7,Beaumaris,
18068,AU,7,Abbotsford,
18069,AU,7,Ashburton,
18070,AU,7,Balwyn,
18071,AU,7,Burwood East,
18072,AU,5,Mile End,
18073,AU,7,Mitcham,
18074,AU,7,Windsor,
18075,AU,2,Redfern,
18076,AU,7,Bundoora,
18077,AU,2,Silverwater,
18078,AU,4,Moore Park,
18079,AU,8,Wickham,
18080,AU,7,Blackburn,
18081,AU,7,Mckinnon,
18082,AU,2,Haberfield,
18083,AU,2,Glebe,
18084,AU,4,Kelvin Grove,
18085,AU,7,Cabarita,
18086,AU,7,Darling,
18087,AU,4,Oxenford,
18088,AU,7,Parkville,
18089,AU,3,Northern Territory,
18090,AU,7,Tooronga,
18091,AU,7,Kensington,
18092,AU,7,East Kew,
18093,AU,7,Hawksburn,
18094,AU,2,Haymarket,
18095,AU,7,Balwyn North,
18096,AU,7,Victoria Park,
18097,AU,7,Burwood,
18098,AU,7,Eaglemont,
18099,AU,8,East Perth,
18100,AU,8,South Perth,
18101,AU,7,Brighton East,
18102,AU,7,Bentleigh East,
18103,AU,7,Macleod,
18104,AU,7,Camberwell East,
18105,AU,2,Newtown,
18106,AU,7,Canterbury,
18107,AU,4,Enoggera,
18108,AU,7,Caulfield North,
18109,AU,4,Kangaroo Point,
18110,AU,7,Kew East,
18111,AU,7,Clayton South,
18112,AU,7,Carlton North,
18113,AU,4,Toowong,
18114,AU,7,North Melbourne,
18115,AU,7,Watsonia,
18116,AU,2,Darlinghurst,
18117,AU,7,Parkside,
18118,AU,7,Preston West,
18119,AU,2,Mount Drummond,
18120,AU,2,Hamilton,
18121,AU,2,Glossodia,
18122,AU,2,Bateau Bay,
18123,AU,4,Karalee,
18124,AU,2,Central Coast,
18125,AU,2,Silverdale,
18126,AU,7,Balaclava,
18127,AU,7,Fairfield,
18128,AU,7,Albert Park,
18129,AU,7,Carnegie,
18130,AU,7,Brunswick West,
18131,AU,7,Rosanna,
18132,AU,7,Box Hill South,
18133,AU,7,Toorak,
18134,AU,7,Thornbury,
18135,AU,7,Hampton,
18136,AU,7,Malvern East,
18137,AU,2,Camperdown,
18138,AU,2,Brightwaters,
18139,AU,2,Adamstown,
18140,AU,2,Waratah,
18141,AU,7,Clarinda,
18142,AU,7,Ivanhoe,
18143,AU,7,Mont Albert,
18144,AU,7,Pascoe Vale,
18145,AU,7,Bentleigh,
18146,AU,4,Belgian Gardens,
18147,AU,4,Widgee Shire,
18148,AU,5,North Adelaide,
18149,AU,7,Caulfield South,
18150,AU,7,Greensborough,
18151,AU,7,Caroline Springs,
18152,AU,7,Caulfield Junction,
18153,AU,7,Fitzroy North,
18154,AU,7,Middle Camberwell,
18155,AU,4,Mary Kathleen,
18156,AU,8,Crawley-nedlands,
18157,AU,7,Alphington,
18158,AU,7,Caulfield East,
18159,AU,2,Kurmond,
18160,AU,4,Tannum Sands,
18161,AU,7,Surrey Hills,
18162,AU,6,Turners Beach,
18163,AU,7,Lancefield,
18164,AU,2,Manly Vale,
18165,AU,2,Woolloomooloo,
18166,AU,4,Helensvale,
18167,AU,4,Hope Island,
18168,AU,7,North Fitzroy,
18169,AU,2,Albury Municipality,
18170,AU,4,North Bundaberg,
18171,AU,4,Kooralbyn,
18172,AU,4,Dundowran Beach,
18173,AU,5,Burnside,
18174,AU,4,Mission Beach,
18175,AU,4,Peregian Beach,
18176,AU,4,Burrum Heads,
18177,AU,4,Napranum,
18178,AU,4,Sippy Downs,
18179,AU,4,Sandstone Point,
18180,AU,4,Bushland Beach,
18181,AU,4,Mount Low,
18182,AU,4,Windsor,
18183,AU,7,Saint Helena,
18184,AU,7,Mongans Bridge,
18185,AU,7,Heatherton,
18186,AU,7,Warramate,
18187,AU,7,Indented Head,
18188,AU,7,Redan,
18189,AU,7,Blackwood Forest,
18190,AU,7,Murrumbeena,
18191,AU,7,Heidelberg West,
18192,AU,7,Shepparton Shire,
18193,AU,7,Clifton Hill,
18194,AU,7,Glen Huntly,
18195,AU,5,Maslin Beach,
18196,AU,5,Edwardstown,
18197,AU,5,Glen Osmond,
18198,AU,8,Tom Price,
18199,AU,8,Jimblebar,
18200,AU,1,Lyneham,
18201,AU,1,Australian Capital Territory,
18202,AU,4,Gaythorne,
18203,AU,2,Chain Valley Bay,
18204,AU,7,East Malvern,
18205,AU,2,The Rocks,
18206,AU,2,Wallabi Point,
18207,AU,2,Corlette,
18208,AU,2,Merewether,
18209,AU,7,Enfield,
18210,AU,8,Yunderup,
18211,AU,2,Tura Beach,
18212,AU,7,Ormond,
18213,AU,2,Bonnells Bay,
18214,AU,7,Ivanhoe East,
18215,AU,2,Wyong Shire,
18216,AU,5,Magill,
18217,AU,5,Sellicks Beach,
18218,AU,4,Toowoong,
18219,AU,7,Hughesdale,
18220,AU,4,Fairyland,
18221,AU,6,Cremorne,
18222,AU,2,Gwandalan,
18223,AU,7,Plenty,
18224,AU,2,Chippendale,
18225,AU,7,Robinvale,
18226,AU,2,Bathurst Municipality,
18227,AU,2,Warragamba,
18228,AU,2,Mcgraths Hill,
18229,AU,7,Ripponlea,
18230,AU,7,Preston South,
18231,AU,2,Casino Municipality,
18232,AU,2,Tamworth Municipality,
18233,AU,2,Wyee Point,
18234,AU,2,Suffolk Park,
18235,AU,2,Armidale Municipality,
18236,AU,2,Lismore Municipality,
18237,AU,2,South Golden Beach,
18238,AU,2,Safety Beach,
18239,AU,2,Dubbo Municipality,
18240,AU,2,Angourie,
18241,AU,2,Sandy Beach,
18242,AU,2,Agnes Banks,
18243,AU,2,Sussex Inlet,
18244,AU,2,Walla Walla,
18245,AU,2,Lennox Head,
18246,AU,2,Maitland Municipality,
18247,AU,2,Windermere Park,
18248,AU,2,Pacific Palms,
18249,AU,2,Londonderry,
18250,AU,7,Burnley,
18251,AU,2,Kalaru,
18252,AU,7,Surrey Hills North,
18253,AU,5,Newland,
18254,AU,6,Lanena,
18255,AU,4,Karana Downs,
18256,AU,7,Gardenvale,
18257,AU,6,Blackmans Bay,
18258,AU,4,Airlie Beach,
18259,AU,2,Arrawarra,
18260,AU,2,Wagonga,
18261,AU,2,Corindi Beach,
18262,AU,2,South West Rocks,
18263,AU,2,Lake Munmorah,
18264,AU,4,Woodgate Beach,
18265,AU,4,Bohle Plains,
18266,AU,4,Saunders Beach,
18267,AU,4,Ningi,
18268,AU,2,Hyland Park,
18269,AU,2,Tapitallee,
18270,AU,2,Scotts Head,
18271,AU,4,Jacobs Well,
18272,AU,2,Long Beach,
18273,AU,2,Smiths Lake,
18274,AU,2,Salamander Bay,
18275,AU,2,Culburra,
18276,AU,4,Deeragun,
18277,AU,4,Yaroomba,
18278,AU,2,Malua Bay,
18279,AU,2,Lake Conjola,
18280,AU,2,Hawkesbury Heights,
18281,AU,2,Orchard Hills,
18282,AU,2,Ocean Shores,
18283,AU,2,Hallidays Point,
18284,AU,2,Mannering Park,
18285,AU,4,Withcott,
18286,AU,4,Campwin Beach,
18287,AU,2,Lake Cathie,
18288,AU,4,Talban,
18289,AU,4,Palm Island,
18290,AU,2,Mossy Point,
18291,AU,2,Bowthorne,
18292,AU,4,Mount Nebo,
18293,AU,2,Cambewarra,
18294,AU,2,Estella,
18295,AU,2,Gulmarrad,
18296,AU,2,Valla Beach,
18297,AU,2,Lemon Tree Passage,
18298,AU,2,North Arm Cove,
18299,AU,2,Lansdowne,
18300,AU,4,Cooloola Cove,
18301,AU,2,Callala Bay,
18302,AU,4,Marcoola,
18303,AU,7,Seville East,
18304,AU,7,Mount Pleasant,
18305,AU,7,State Of Victoria,
18306,AU,5,Aldinga Beach,
18307,AU,2,Broken Hill Municipality,
18308,AU,6,Dodges Ferry,
18309,AU,8,Jurien Bay,
18310,AU,2,Moama,
18311,AU,6,Stieglitz,
18312,AU,6,Heybridge,
18313,AU,7,Goulburn Weir,
18314,AU,7,Heathcote Junction,
18315,AU,7,Saint Kilda South,
18316,AU,7,Coronet Bay,
18317,AU,3,Yulara,
18318,AU,6,Seven Mile Beach,
18319,AU,7,Kinglake East,
18320,AU,8,Paraburdoo,
18321,AU,7,Cockatoo Creek,
18322,AU,6,Gagebrook,
18323,AU,8,Chidlow,
18324,AU,7,Launching Place,
18325,AU,7,Cranbourne South,
18326,AU,6,Exeter,
18327,AU,7,Hartwell,
18328,AU,2,North Rothbury,
18329,AU,2,Fingal Bay,
18330,AU,7,Kooyong,
18331,AU,4,Pormpuraaw,
18332,AU,8,Coral Bay,
18333,AU,4,Shoal Point,
18334,AU,2,Wickham,
18335,AU,7,Spotswood,
18336,AU,8,Junjuwa,
18337,AU,2,Green Point,
18338,AU,8,Jerramungup,
18339,AU,2,Berrara,
18340,AU,4,Rainbow Beach,
18341,AU,5,Hove,
18342,AU,5,Hendon,
18343,AU,1,Kingston,
18344,AU,4,Dysart,
18345,AU,4,Hamilton Island,
18346,AU,3,Daly River,
18347,AU,3,Howard Springs,
18348,AU,4,Wynnum North,
18349,AU,7,Carlton South,
18350,AU,6,Midway Point,
18351,AU,4,Tieri,
18352,AU,4,The Junction,
18353,AU,2,Rose Valley,
18354,AU,2,Freemans Reach,
18355,AU,2,Grasmere,
18356,AU,2,Dalmeny,
18357,AU,2,Emerald Beach,
18358,AU,7,East Burwood,
18359,AU,2,Sanctuary Point,
18360,AU,2,Kings Point,
18361,AU,2,Gillieston Heights,
18362,AU,2,Windsor Downs,
18363,AU,6,Fern Tree,
18364,AU,2,Morton Creek,
18365,AU,2,Temora Municipality,
18366,AU,7,Yellourn,
18367,AU,7,Saint Helens,
18368,AU,2,Basin View,
18369,AU,2,Bowen Mountain,
18370,AU,4,North Tamborine,
18371,AU,7,Ballarat East,
18372,AU,8,Gelorup,
18373,AU,5,Roxby Downs,
18374,AU,4,Innes Park,
18375,AU,7,Silver Creek,
18376,AU,7,Chiltern Valley,
18377,AU,7,Prahran East,
18378,AU,4,Yarrabah,
18379,AU,4,Blackall Shire,
18380,AU,2,Mirrabooka,
18381,AU,2,Campbelltown Municipality,
18382,AU,7,Brighton West,
18383,AU,7,Malvern North,
18384,AU,7,Darebin,
18385,AU,7,Cardigan Village,
18386,AU,7,Gardiner,
18387,AU,4,Highfields,
18388,AU,7,Richmond South,
18389,AU,7,Saint Andrews Beach,
18390,AU,2,Kings Cross,
18391,AU,2,Coomba Park,
18392,AU,2,Bogangar,
18393,AU,7,Churchill,
18394,AU,4,Toolooa,
18395,AU,4,Middlemount,
18396,AU,2,Manning Point,
18397,AU,2,Shoalhaven Heads,
18398,AU,4,Wangan,
18399,AU,7,Venus Bay,
18400,AU,2,Norah Head,
18401,AU,4,Mudjimba,
18402,AU,7,Northcote North,
18403,AU,7,Brighton Beach,
18404,AU,7,Camberwell South,
18405,AU,6,Howden,
18406,AU,2,Fishermans Paradise,
18407,AU,4,Caravonica,
18408,AU,2,Gerroa,
18409,AU,2,Stanwell Tops,
18410,AU,7,Yarrambat,
18411,AU,6,Murdunna,
18412,AU,7,Surrey Hills South,
18413,AU,7,Elgar Park,
18414,AU,7,Deepdene,
18415,AU,2,Marsden Park,
18416,AU,8,Pannawonica,
18417,AU,7,Yallourn North,
18418,AU,2,Burrill Lake,
18419,AU,8,Drummond Cove,
18420,AU,5,Sandilands,
18421,AU,2,Ellalong,
18422,AU,7,Mount Helen,
18423,AU,7,Hotham,
18424,AU,4,Pikedale,
18425,AU,8,Leschenault,
18426,AU,2,Cowan,
18427,AU,2,Blanket Flat,
18428,AU,4,Jensen,
18429,AU,4,Feluga,
18430,AU,7,Kobyboyn,
18431,AU,2,Mungindi,
18432,AU,7,Ballarat North,
18433,AU,4,Agnes Water,
18434,AU,7,Gilberton,
18435,AU,8,Stratham,
18436,AU,5,Lights Pass,
18437,AU,2,Yarrawonga Park,
18438,AU,4,Thuringowa,
18439,AU,7,Cape Paterson,
18440,AU,4,Moranbah,
18441,AU,7,Hawthorn West,
18442,AU,2,Narrawa,
18443,AU,2,Brandy Hill,
18444,AU,2,Old Erowal Bay,
18445,AU,4,The Palms,
18446,AU,7,Yering,
18447,AU,7,Rawson,
18448,AU,7,Brown Hill,
18449,AU,4,Balgal Beach,
18450,AU,2,Saint Georges Basin,
18451,AU,6,Port Huon,
18452,AU,4,Bouldercombe,
18453,AU,7,Piggoreet,
18454,AU,4,Melbourne Street Station,
18455,AU,6,Otago,
18456,AU,3,Jabiru,
18457,AU,2,Krawarree,
18458,AU,7,Loch Sport,
18459,AU,7,Moonee Vale,
18460,AU,8,Kambalda West,
18461,AU,2,Old Koreelah,
18462,AU,4,Thursday Island,
18463,AU,7,Heyfield,
18464,AU,7,Black Hill,
18465,AU,7,Willsmere,
18466,AU,8,Koojedda,
18467,AU,7,Fawcett,
18468,AU,7,Coongulla,
18469,AU,7,Tolleen,
18470,AU,7,Ferntree Gully,
18471,AU,4,Nelly Bay,
18472,AU,7,Joyces Creek,
18473,AU,2,Bonny Hills,
18474,AU,2,Tarraganda,
18475,AU,2,Seahampton,
18476,AU,7,Ivanhoe North,
18477,AU,5,Angas Plains,
18478,AU,7,Calivil,
18479,AU,2,Austral Eden,
18480,AU,2,Arding,
18481,AU,7,Ballam Park,
18482,AU,7,North Garfield,
18483,AU,7,Gould,
18484,AU,7,Richmond North,
18485,AU,2,Lake Tabourie,
18486,AU,2,Dangar Island,
18487,AU,4,Milford,
18488,AU,7,Dartmoor,
18489,AU,4,Wongaling Beach,
18490,AU,7,Westgarth,
18491,AU,4,Craignish,
18492,AU,8,Little Grove,
18493,AU,2,Waterview Heights,
18494,AU,2,Modanville,
18495,AU,3,Minjilang,
18496,AU,4,Booral,
18497,AU,2,Harden,
18498,AU,4,Newell,
18499,AU,4,Glenden,
18500,AU,4,Horseshoe Bay,
18501,AU,2,Pambula Beach,
18502,AU,2,Orient Point,
18503,AU,2,Wooloweyah,
18504,AU,8,Mullalloo Beach,
18505,AU,5,Paringa,
18506,AU,8,Leinster,
18507,AU,2,Clifton Grove,
18508,AU,4,Taylors Beach,
18509,AU,7,Dalmore East,
18510,AU,7,Ingliston,
18511,AU,2,Gosford Shire,
18512,AU,4,Meeandah,
18513,AU,2,Pottsville Beach,
18514,AU,4,Grovely,
18515,AU,7,Brunswick South,
18516,AU,7,Kerrisdale,
18517,AU,4,Dundowran,
18518,AU,8,Furnissdale,
18519,AU,4,Shiptons Flat,
18520,AU,3,Port Keats,
18521,AU,5,Narrung,
18522,AU,4,Mornington,
18523,AU,2,Greenhills,
18524,AU,5,Tooligie,
18525,AU,7,Lillydale Shire,
18526,AU,7,Preston East,
18527,AU,2,Bawley Point,
18528,AU,7,Northcote South,
18529,AU,7,Hotham Hill,
18530,AU,2,Curra Creek,
18531,AU,5,Bletchley,
18532,AU,7,Hawthorn North,
18533,AU,5,Mintabie,
18534,AU,7,Major Plains,
18535,AU,6,Trenah,
18536,AU,7,Bellbridge,
18537,AU,7,Batman,
18538,AU,7,Thornbury North,
18539,AU,7,Watsons Creek,
18540,AU,4,Kagaru,
18541,AU,2,City Of Greater Wollongong,
18542,AU,2,City Of Sydney,
18543,AU,8,Ajana,
18544,AU,5,Andamooka,
18545,AU,7,Mount Rowan,
18546,AU,7,Darling South,
18547,AU,2,Hastings Point,
18548,AU,2,West Ballina,
18549,AU,7,Korong Vale,
18550,AU,2,Bannockburn,
18551,AU,8,Perth City,
18552,AU,5,Carrickalinga,
18553,AU,3,Wadeye,
18554,AU,4,Mount Julian,
18555,AU,2,Baerami Creek,
18556,AU,6,Lefroy,
18557,AU,7,Boorhaman,
18558,AU,2,Bateman,
18559,AU,7,Merlynston,
18560,AU,2,Erowal Bay,
18561,AU,5,Marion Bay,
18562,AU,6,Hobart Town,
18563,AU,7,Bullarook,
18564,AU,4,Walton,
18565,AU,2,East Kangaloon,
18566,AU,4,Kawana Waters,
18567,AU,2,Morongla Creek,
18568,AU,7,Morrl Morrl,
18569,AU,4,Alice River,
18570,AU,7,Kevington,
18571,AU,2,Lake Macquarie Shire,
18572,AU,7,Campbells Bridge,
18573,AU,5,Cobdogla,
18574,AU,5,Keppoch,
18575,AU,7,Nurcoung,
18576,AU,2,Jugiong,
18577,AU,4,River Heads,
18578,AU,2,Wirrimbi,
18579,AU,7,Gobur,
18580,AU,4,Elbow Valley,
18581,AU,8,Bindi Bindi,
18582,AU,6,Lulworth,
18583,AU,2,Brombin,
18584,AU,7,Cobains,
18585,AU,4,Harrisons Pocket,
18586,AU,4,Tully Heads,
18587,AU,5,Paskeville,
18588,AU,7,Burnley North,
18589,AU,2,Avondale,
18590,AU,7,Warragul,3820
18591,AU,4,Brisbane,4006
18592,AU,2,Sydney,2113
18593,AU,7,Melbourne,3910
18594,AU,8,Perth,6105
18595,AU,2,Sydney,2218
18596,AU,4,Nerang,4211
18597,AU,2,Kensington,2033
18598,AU,4,Brisbane,4051
18599,AU,2,Richmond,2753
18600,AU,4,Mount Isa,4825
18601,AU,2,Sydney,2170
18602,AU,2,Berowra,2081
18603,AU,7,Hawthorn,3122
18604,AU,4,Ipswich,4305
18605,AU,4,Townsville,4817
18606,AU,4,Cairns,4870
18607,AU,4,Maroochydore,4558
18608,AU,4,Mackay,4740
18609,AU,4,Brisbane,4500
18610,AU,3,Darwin,810
18611,AU,8,Perth,6108
18612,AU,2,Quakers Hill,2763
18613,AU,2,Newtown,2042
18614,AU,7,Melbourne,3048
18615,AU,2,Bathurst,2795
18616,AU,2,Albury,2640
18617,AU,2,Armidale,2350
18618,AU,7,Geelong,3215
18619,AU,7,Berwick,3806
18620,AU,7,Sunbury,3429
18621,AU,7,Ballarat,3350
18622,AU,7,Bundoora,3083
18623,AU,2,Hornsby,2077
18624,AU,1,Canberra,2611
18625,AU,1,Canberra,2906
18626,AU,5,Adelaide,5159
18627,AU,7,Dandenong,3175
18628,AU,2,Dubbo,2830
18629,AU,4,Brisbane,4101
18630,AU,8,Perth,6163
18631,AU,7,Clayton,3168
18632,AU,2,Sydney,2100
18633,AU,2,Parramatta,2150
18634,AU,4,Surfers Paradise,4217
18635,AU,2,Lidcombe,2141
18636,AU,2,Manly,2095
18637,AU,2,Sydney,2213
18638,AU,2,Sydney,2221
18639,AU,2,Auburn,2144
18640,AU,2,Sydney,2011
18641,AU,2,Sydney,2046
18642,AU,2,Wahroonga,2076
18643,AU,4,Gold Coast,4214
18644,AU,2,Kogarah,2217
18645,AU,2,Sydney,1234
18646,AU,4,Brisbane,4122
18647,AU,4,Brisbane,4030
18648,AU,7,Glen Iris,3146
18649,AU,7,Frankston,3200
18650,AU,7,Cranbourne,3977
18651,AU,2,Chatswood,2067
18652,AU,7,Horsham,3400
18653,AU,2,Wagga Wagga,2650
18654,AU,8,Perth,6058
18655,AU,8,Perth,6101
18656,AU,8,Perth,6064
18657,AU,8,South Perth,6151
18658,AU,7,Bendigo,3550
18659,AU,2,Sydney,2065
18660,AU,5,Adelaide,5081
18661,AU,8,Perth,6066
18662,AU,8,Perth,6026
18663,AU,8,Perth,6150
18664,AU,8,Nedlands,6009
18665,AU,8,Claremont,6010
18666,AU,8,Perth,6027
18667,AU,8,Perth,6025
18668,AU,8,Perth,6020
18669,AU,4,Brisbane,4068
18670,AU,4,Brisbane,4055
18671,AU,4,Surat,4417
18672,AU,8,Perth,6076
18673,AU,4,Redbank,4301
18674,AU,4,Brisbane,4036
18675,AU,4,Brisbane,4154
18676,AU,1,Canberra,2905
18677,AU,2,Concord,2137
18678,AU,7,Melbourne,3084
18679,AU,2,Sydney,2177
18680,AU,2,Sydney,2176
18681,AU,2,Sydney,2030
18682,AU,2,Sydney,2168
18683,AU,2,Drummoyne,2047
18684,AU,2,Sydney,2036
18685,AU,2,Epping,2121
18686,AU,2,Sydney,2027
18687,AU,2,Castle Hill,2154
18688,AU,4,Brisbane,4078
18689,AU,4,Brisbane,4075
18690,AU,4,Alexandra,4161
18691,AU,4,Brisbane,4118
18692,AU,4,Brisbane,4077
18693,AU,5,Adelaide,5093
18694,AU,5,Adelaide,5037
18695,AU,5,Salisbury,5108
18696,AU,7,Box Hill,3129
18697,AU,7,Box Hill,3128
18698,AU,8,Perth,6031
18699,AU,8,Bunbury,6230
18700,AU,5,Port Pirie,5540
18701,AU,2,Camperdown,2050
18702,AU,2,Ingleburn,2565
18703,AU,2,Rosebery,2018
18704,AU,2,Ryde,2113
18705,AU,4,Bowen,4805
18706,AU,4,Toowoomba,4350
18707,AU,4,Gold Coast,4216
18708,AU,4,Tewantin,4565
18709,AU,4,Gin Gin,4671
18710,AU,4,Brisbane,4152
18711,AU,4,Bundaberg,4670
18712,AU,4,Brisbane,4184
18713,AU,4,Townsville,4818
18714,AU,4,Cannonvale,4802
18715,AU,4,Walkerston,4751
18716,AU,4,Hervey Bay,4655
18717,AU,4,Townsville,4814
18718,AU,4,Townsville,4811
18719,AU,4,Atherton,4883
18720,AU,4,Narangba,4504
18721,AU,4,Townsville,4812
18722,AU,4,Ingham,4850
18723,AU,4,Brisbane,4116
18724,AU,4,Brisbane,4105
18725,AU,4,Brisbane,4034
18726,AU,4,Noosa Heads,4567
18727,AU,4,Brisbane,4103
18728,AU,4,Capalaba,4157
18729,AU,4,Brisbane,4170
18730,AU,4,Brisbane,4121
18731,AU,4,Brisbane,4074
18732,AU,4,Brisbane,4053
18733,AU,4,Brisbane,4169
18734,AU,7,Stawell,3380
18735,AU,7,Melton,3337
18736,AU,7,Mulgrave,3170
18737,AU,7,Rosebud,3939
18738,AU,7,Reservoir,3073
18739,AU,7,Shepparton,3630
18740,AU,7,Melbourne,3037
18741,AU,7,Cowes,3922
18742,AU,7,Saint Kilda,3183
18743,AU,7,Altona,3018
18744,AU,7,Woodend,3442
18745,AU,7,Kilmore,3764
18746,AU,7,Frankston,3199
18747,AU,7,Benalla,3672
18748,AU,7,Melbourne,3019
18749,AU,6,Launceston,7250
18750,AU,6,Hobart,7004
18751,AU,6,Devonport,7310
18752,AU,7,North Melbourne,3051
18753,AU,7,Glen Waverley,3150
18754,AU,7,Melbourne,3003
18755,AU,7,Geelong,3220
18756,AU,7,Eltham,3095
18757,AU,7,Port Melbourne,3207
18758,AU,3,Palmerston,830
18759,AU,5,Adelaide,5116
18760,AU,5,Adelaide,5114
18761,AU,3,Alice Springs,870
18762,AU,3,Darwin,812
18763,AU,5,Whyalla,5608
18764,AU,5,Mannum,5238
18765,AU,5,Kadina,5554
18766,AU,5,Hackham,5163
18767,AU,5,Adelaide,5073
18768,AU,5,Morphett Vale,5162
18769,AU,5,Adelaide,5032
18770,AU,5,Adelaide,5013
18771,AU,5,Adelaide,5091
18772,AU,5,Adelaide,5031
18773,AU,5,Adelaide,5097
18774,AU,5,Adelaide,5024
18775,AU,5,Adelaide,5041
18776,AU,8,Dunsborough,6281
18777,AU,8,Albany,6332
18778,AU,8,Perth,6103
18779,AU,8,Perth,6059
18780,AU,8,Tom Price,6751
18781,AU,8,Perth,6069
18782,AU,8,Perth,6055
18783,AU,8,Gosnells,6110
18784,AU,8,Karratha,6714
18785,AU,8,Perth,6006
18786,AU,8,Perth,6056
18787,AU,8,Toodyay,6566
18788,AU,8,Perth,6167
18789,AU,8,Perth,6005
18790,AU,8,Perth,6050
18791,AU,1,Canberra,2913
18792,AU,1,Canberra,2914
18793,AU,1,Canberra,2615
18794,AU,1,Hall,2618
18795,AU,1,Canberra,2617
18796,AU,1,Canberra,2614
18797,AU,1,Canberra,2606
18798,AU,1,Canberra,2603
18799,AU,1,Canberra,2902
18800,AU,1,Canberra,2903
18801,AU,2,Seven Hills,2147
18802,AU,8,Perth,6017
18803,AU,2,Saint Marys,2760
18804,AU,2,Lane Cove,2066
18805,AU,4,Gold Coast,4226
18806,AU,4,Brisbane,4132
18807,AU,4,Brisbane,4012
18808,AU,2,Lismore,2480
18809,AU,2,Tamworth,2340
18810,AU,2,Sydney,2759
18811,AU,2,Goulburn,2580
18812,AU,5,Nairne,5252
18813,AU,2,Junee,2663
18814,AU,4,Weipa,4874
18815,AU,4,Brisbane,4575
18816,AU,2,Blacktown,2148
18817,AU,7,Narre Warren,3805
18818,AU,1,Canberra,2607
18819,AU,4,Brisbane,4070
18820,AU,5,Adelaide,5015
18821,AU,2,Randwick,2031
18822,AU,2,Pymble,2073
18823,AU,2,Nowra,2541
18824,AU,2,Minto,2566
18825,AU,4,Brisbane,4113
18826,AU,2,Baulkham Hills,2153
18827,AU,2,Mascot,2020
18828,AU,2,Scone,2337
18829,AU,2,Singleton,2330
18830,AU,2,Alexandria,2015
18831,AU,6,Hobart,7001
18832,AU,2,North Sydney,2060
18833,AU,2,Sydney,2161
18834,AU,6,Legana,7277
18835,AU,5,Adelaide,5022
18836,AU,5,Whyalla,5600
18837,AU,3,Alice Springs,871
18838,AU,7,Footscray,3012
18839,AU,2,Ryde,2112
18840,AU,2,Burwood,2134
18841,AU,2,Northmead,2152
18842,AU,2,Sydney,2104
18843,AU,4,Gold Coast,9726
18844,AU,4,Brisbane,4120
18845,AU,2,Forbes,2871
18846,AU,2,Penrith,2750
18847,AU,2,Sydney,2192
18848,AU,3,Darwin,832
18849,AU,8,Broome,6725
18850,AU,5,Adelaide,5139
18851,AU,4,Taroom,
18852,AU,4,Rockhampton,4701
18853,AU,3,Alyangula,885
18854,AU,3,Darwin,820
18855,AU,8,Kununurra,6743
18856,AU,5,Port Augusta,5700
18857,AU,8,Perth,6430
18858,AU,8,Perth,6164
18859,AU,8,Perth,6152
18860,AU,5,Adelaide,5033
18861,AU,5,Adelaide,5066
18862,AU,5,Adelaide,5004
18863,AU,3,Darwin,837
18864,AU,6,Burnie,7320
18865,AU,4,Yeppoon,4703
18866,AU,1,Canberra,2602
18867,AU,5,Mount Gambier,5290
18868,AU,5,Adelaide,5095
18869,AU,2,Sydney,2049
18870,AU,2,Strathfield,2135
18871,AU,2,Rozelle,2039
18872,AU,8,Albany,6330
18873,AU,4,Caloundra,4551
18874,AU,1,Canberra,2605
18875,AU,5,Adelaide,5065
18876,AU,2,Wollongong,2500
18877,AU,5,Adelaide,5083
18878,AU,4,Brisbane,4007
18879,AU,2,Wallsend,2287
18880,AU,5,Adelaide,5021
18881,AU,8,Wembley,6014
18882,AU,8,Perth,6003
18883,AU,5,Adelaide,5126
18884,AU,2,Griffith,2680
18885,AU,8,Scarborough,6019
18886,AU,8,Armadale,6112
18887,AU,8,Perth,6100
18888,AU,4,Rockhampton,4700
18889,AU,4,Brisbane,4001
18890,AU,7,Geelong,3219
18891,AU,2,Marrickville,2204
18892,AU,2,Albion Park,2527
18893,AU,2,Caringbah,2229
18894,AU,2,Katoomba,2780
18895,AU,2,Murwillumbah,2484
18896,AU,2,Sydney,2770
18897,AU,2,Kincumber,2251
18898,AU,2,Sydney,2094
18899,AU,2,Batemans Bay,2536
18900,AU,2,Sydney,2115
18901,AU,2,Pennant Hills,2125
18902,AU,2,Berowra,2082
18903,AU,2,Yamba,2464
18904,AU,2,Sydney,2193
18905,AU,2,Blaxland,2774
18906,AU,2,Cobar,2835
18907,AU,2,Bega,2550
18908,AU,2,Bondi,2022
18909,AU,2,Sydney,2768
18910,AU,2,Terrigal,2260
18911,AU,2,Newcastle,2297
18912,AU,2,Sydney,2769
18913,AU,2,Lithgow,2790
18914,AU,2,Glen Innes,2370
18915,AU,2,Figtree,2525
18916,AU,2,Sydney,2171
18917,AU,2,Hurstville,1481
18918,AU,2,Sutherland,2232
18919,AU,2,Botany,2019
18920,AU,2,Croydon,2133
18921,AU,2,Kiama,2533
18922,AU,2,Sydney,2096
18923,AU,7,Saint Kilda,3182
18924,AU,6,Sandy Bay,7005
18925,AU,4,Brisbane,4171
18926,AU,8,Perth,6148
18927,AU,8,Perth,6964
18928,AU,8,Perth,6154
18929,AU,8,Bassendean,6054
18930,AU,8,Subiaco,6008
18931,AU,8,Kelmscott,6111
18932,AU,8,Perth,6062
18933,AU,7,Melbourne,3004
18934,AU,2,Bondi,2026
18935,AU,2,Newcastle,2300
18936,AU,3,Darwin,828
18937,AU,5,Keith,5267
18938,AU,8,Donnybrook,6239
18939,AU,8,Perth,6065
18940,AU,2,Rydalmere,2116
18941,AU,2,Hamilton,2303
18942,AU,7,Morwell,3840
18943,AU,4,Burleigh,4220
18944,AU,4,Cairns,4878
18945,AU,8,Perth,6171
18946,AU,2,Broken Hill,2880
18947,AU,5,Adelaide,5160
18948,AU,3,Nhulunbuy,881
18949,AU,2,Sydney,2194
18950,AU,2,Lightning Ridge,2834
18951,AU,5,Naracoorte,5271
18952,AU,5,Kapunda,5373
18953,AU,5,Roxby Downs,5725
18954,AU,2,Sydney,2145
18955,AU,8,Rockingham,6168
18956,AU,8,Fremantle,6160
18957,AU,2,Fairfield,2165
18958,AU,8,Perth,6030
18959,AU,5,Adelaide,5166
18960,AU,4,Brisbane,4059
18961,AU,5,Adelaide,5034
18962,AU,5,Adelaide,5089
18963,AU,4,Brisbane,4031
18964,AU,7,Gisborne,3437
18965,AU,7,Melbourne,3114
18966,AU,5,Adelaide,5107
18967,AU,7,Melbourne,3050
18968,AU,5,Adelaide,5075
18969,AU,7,Elsternwick,3185
18970,AU,7,Portland,3305
18971,AU,8,Geraldton,6530
18972,AU,4,Brisbane,4128
18973,AU,4,Brisbane,4069
18974,AU,5,Adelaide,5046
18975,AU,8,Perth,6149
18976,AU,2,Saint Ives,2075
18977,AU,2,Sydney,2166
18978,AU,2,Sydney,2191
18979,AU,4,Brisbane,4107
18980,AU,5,Glenelg,5045
18981,AU,8,Perth,6104
18982,AU,4,Gold Coast,4230
18983,AU,4,Moranbah,4744
18984,AU,4,Townsville,4810
18985,AU,4,Cairns,4868
18986,AU,4,Brisbane,4037
18987,AU,2,Lavington,2641
18988,AU,4,Nanango,4615
18989,AU,4,Sarina,4737
18990,AU,2,Wentworth Falls,2782
18991,AU,7,Wodonga,3690
18992,AU,4,Brisbane,4130
18993,AU,4,Saint Lucia,4067
18994,AU,2,Sydney,2761
18995,AU,4,Brisbane,4108
18996,AU,2,Young,2594
18997,AU,2,Sydney,2619
18998,AU,2,Richmond,2754
18999,AU,2,Byron Bay,2481
19000,AU,4,Cloncurry,4824
19001,AU,4,Middlemount,4746
19002,AU,4,Coolangatta,4225
19003,AU,4,Mackay,4741
19004,AU,4,Gatton,4343
19005,AU,4,Innisfail,4860
19006,AU,4,Alexandra,4572
19007,AU,4,Townsville,4815
19008,AU,2,Carrington,2294
19009,AU,2,Sydney,2043
19010,AU,4,Mooloolah,4553
19011,AU,4,Childers,4660
19012,AU,4,Charters Towers,4820
19013,AU,2,Sydney,2431
19014,AU,2,Eden,2551
19015,AU,2,Boorowa,2586
19016,AU,4,Tully,4854
19017,AU,2,Kempsey,2440
19018,AU,2,Tweed Heads,2485
19019,AU,4,Thornlands,4164
19020,AU,2,Newcastle,2306
19021,AU,4,Brisbane,4032
19022,AU,1,Canberra,2900
19023,AU,2,Sydney,2203
19024,AU,4,Agnes Water,4677
19025,AU,4,Lakes Creek,
19026,AU,4,Gordonvale,4865
19027,AU,2,Sydney,2196
19028,AU,2,Bankstown,2200
19029,AU,4,Brisbane,4064
19030,AU,4,Mooloolaba,4557
19031,AU,4,Brisbane,4115
19032,AU,4,Brisbane,4054
19033,AU,2,Croydon,2132
19034,AU,2,Lane Cove,1595
19035,AU,7,Footscray,3011
19036,AU,2,Sydney,2198
19037,AU,4,Brisbane,4174
19038,AU,5,Adelaide,5127
19039,AU,7,Wangaratta,3677
19040,AU,7,Melbourne,3038
19041,AU,6,Kingston,7050
19042,AU,7,Melbourne,3180
19043,AU,8,Maddington,6109
19044,AU,5,Adelaide,5025
19045,AU,7,Melbourne,3177
19046,AU,7,Melbourne,3245
19047,AU,5,Hallett,5158
19048,AU,3,Darwin,800
19049,AU,7,Altona,3025
19050,AU,6,Launceston,7249
19051,AU,8,Perth,6018
19052,AU,8,Perth,6107
19053,AU,5,Adelaide,5110
19054,AU,5,Adelaide,5035
19055,AU,5,Salisbury,5109
19056,AU,5,Elizabeth,5112
19057,AU,5,Adelaide,5085
19058,AU,4,Marian,4753
19059,AU,2,Miranda,2228
19060,AU,2,Sydney,2117
19061,AU,6,Launceston,7248
19062,AU,7,Wonthaggi,3995
19063,AU,7,Langwarrin,3910
19064,AU,7,Sale,3850
19065,AU,7,Melbourne,3116
19066,AU,7,Robinvale,3549
19067,AU,7,Echuca,3564
19068,AU,5,Gawler,5118
19069,AU,5,Renmark,5341
19070,AU,3,Darwin,836
19071,AU,5,Aldinga Beach,5173
19072,AU,3,Nhulunbuy,880
19073,AU,8,Perth,6028
19074,AU,8,Collie,6225
19075,AU,8,Perth,6063
19076,AU,8,Perth,6060
19077,AU,5,Modbury,5092
19078,AU,5,Strathalbyn,5255
19079,AU,5,Tanunda,5352
19080,AU,5,Goolwa,5214
19081,AU,5,Elizabeth,5113
19082,AU,6,Hobart,7170
19083,AU,8,Esperance,6450
19084,AU,8,Perth,6036
19085,AU,6,Wynyard,7325
19086,AU,6,Ulverstone,7315
19087,AU,6,Kettering,7155
19088,AU,6,Hadspen,7290
19089,AU,7,Cobram,3644
19090,AU,7,Bentleigh East,3165
19091,AU,7,Mansfield,3722
19092,AU,6,Saint Helens,7216
19093,AU,7,Melbourne,3028
19094,AU,3,Katherine,850
19095,AU,7,Kyabram,3620
19096,AU,7,Lilydale,3140
19097,AU,5,Adelaide,5084
19098,AU,5,Adelaide,5063
19099,AU,5,Woodville,5011
19100,AU,5,Adelaide,5069
19101,AU,8,Perth,6057
19102,AU,8,Perth,6023
19103,AU,8,Perth,6016
19104,AU,8,Eaton,6232
19105,AU,8,Boulder,6432
19106,AU,8,Dongara,6525
19107,AU,7,Montrose,3765
19108,AU,8,Fremantle,6162
19109,AU,6,Margate,7054
19110,AU,7,Mildura,3500
19111,AU,7,Hampton Park,3976
19112,AU,8,Perth,6004
19113,AU,8,Gosnells,6990
19114,AU,5,Adelaide,5014
19115,AU,8,Perth,6174
19116,AU,8,Perth,6943
19117,AU,6,Bridgewater,7030
19118,AU,5,Adelaide,5088
19119,AU,8,Bridgetown,6255
19120,AU,8,Perth,6015
19121,AU,8,Broome,6726
19122,AU,5,Adelaide,5070
19123,AU,5,Adelaide,5018
19124,AU,7,Melbourne,3197
19125,AU,7,Macedon,3440
19126,AU,2,Silverwater,2128
19127,AU,8,Bicton,6157
19128,AU,5,Adelaide,5086
19129,AU,5,Adelaide,5008
19130,AU,2,Hurstville,2220
19131,AU,2,Ashfield,2131
19132,AU,2,Sydney,2162
19133,AU,2,Sydney,2179
19134,AU,2,Chatswood,2057
19135,AU,2,Sydney,2178
19136,AU,2,Gladesville,2111
19137,AU,2,Newcastle,2302
19138,AU,2,Sydney,2214
19139,AU,2,Sydney,2190
19140,AU,2,Tenterfield,2372
19141,AU,2,Belrose,2085
19142,AU,2,Auburn,1835
19143,AU,7,Melbourne,3001
19144,AU,2,Sydney,2052
19145,AU,2,Ryde,1670
19146,AU,1,Canberra,2601
19147,AU,1,Canberra,2612
19148,AU,4,Brisbane,4111
19149,AU,2,Wagga Wagga,2678
19150,AU,2,Sydney,2102
19151,AU,3,Darwin,813
19152,AU,4,Brisbane,4029
19153,AU,5,Adelaide,5064
19154,AU,5,Adelaide,5039
19155,AU,1,Canberra,2911
19156,AU,7,Tallangatta,3700
19157,AU,4,Stanthorpe,4380
19158,AU,2,Bulahdelah,2423
19159,AU,2,Parramatta,2151
19160,AU,8,Perth,6722
19161,AU,7,Melbourne,3002
19162,AU,2,Atholwood,
19163,AU,7,Gisborne,3438
19164,AU,2,Ryde,2114
19165,AU,2,Diamond Beach,
19166,AU,7,Hawthorn,3123
19167,AU,2,Sydney,2749
19168,AU,7,Nagambie,3608
19169,AU,2,Artarmon,2064
19170,AU,2,Sydney,2001
19171,AU,2,Mona Vale,2103
19172,AU,2,Sydney,2199
19173,AU,8,Bentley,6102
19174,AU,2,Sydney,2063
19175,AU,7,Mentone,3194
19176,AU,2,Newcastle,2899
19177,AU,4,Brisbane,4156
19178,AU,8,Perth,6798
19179,AU,8,Perth,6799
19180,AU,6,Hobart,7000
19181,AU,7,Ballarat,3354
19182,AU,4,Boonah,4310
19183,AU,8,Cottesloe,6911
19184,AU,1,Canberra,2904
19185,AU,6,Cygnet,7112
19186,AU,2,Eugowra,2806
19187,AU,7,Keilor,3033
19188,AU,4,Brisbane,4065
19189,AU,2,Sydney,2129
19190,AU,8,Perth,6052
19191,AU,2,Sydney,2126
19192,AU,8,Perth,6090
19193,AU,5,Burra,5417
19194,AU,2,Boolaroo,2284
19195,AU,3,Jabiru,886
19196,AU,3,Yulara,872
19197,AU,4,Hamilton Island,4803
19198,AU,3,Darwin,811
19199,AU,3,Katherine,853
19200,AU,3,Darwin,801
19201,AU,5,Adelaide,5007
19202,AU,2,Sydney,2080
19203,AU,8,Perth,6024
19204,AU,7,Melbourne,3633
19205,AU,7,Shepparton,3632
19206,AU,8,Perth,6153
19207,AU,8,Kambalda,6442
19208,AU,7,Seymour,3660
19209,AU,2,Sutherland,1499
19210,AU,5,Adelaide,5062
19211,AU,2,Sydney,2012
19212,AU,2,Sydney,2172
19213,AU,2,Strathfield,2136
19214,AU,2,Berkeley,2506
19215,AU,2,Sydney,2564
19216,AU,2,Sydney,2209
19217,AU,2,Bondi,1355
19218,AU,2,Sydney,2208
19219,AU,2,Rosebery,1445
19220,AU,2,Sydney,2119
19221,AU,2,Wagga Wagga,2651
19222,AU,7,Melbourne,8004
19223,AU,8,Perth,6156
19224,AU,2,Liverpool,2170
19225,AU,8,Perth,6014
19226,AU,2,Thornleigh,2120
19227,AU,2,Rooty Hill,2766
19228,AU,5,Adelaide,5047
19229,AU,4,Alva,
19230,AU,7,Mount Martha,3934
19231,AU,7,Macleod,3085
19232,AU,7,Dingley,3172
19233,AU,7,Pascoe Vale,3044
19234,AU,8,Derby,6728
19235,AU,5,Adelaide,5950
19236,AU,4,Mossman,4873
19237,AU,4,Yalboroo,
19238,AU,8,Perth,6166
19239,AU,2,Wauchope,2446
19240,AU,4,Oxenford,4210
19241,AU,4,Dalby,4405
19242,AU,2,Aberdeen,2336
19243,AU,2,Grenfell,2810
19244,AU,4,Brisbane,4104
19245,AU,7,Richmond East,
19246,AU,7,Melbourne,3049
19247,AU,5,Moonta,5558
19248,AU,8,Perth,6157
19249,AU,2,Sydney,2557
19250,AU,8,Maylands,6051
19251,AU,4,Brisbane,4073
19252,AU,5,Stirling,5152
19253,AU,7,Torquay,3228
19254,AU,3,Katherine,851
19255,AU,7,Shepparton,3633
19256,AU,2,Hamilton,2292
19257,AU,2,Sydney,2028
19258,AU,2,Lakemba,2195
19259,AU,6,Blackmans Bay,7052
19260,AU,2,Blue Mountains Municipality,
19261,AU,8,Perth,6083
19262,AU,7,Mccrae,3938
19263,AU,8,Perth,6007
19264,AU,6,Glenora,
19265,AU,5,Blanchetown,
19266,AU,4,Brisbane,4010
19267,AU,8,Perth,6850
19268,AU,2,Toongabbie,2146
19269,AU,7,Cotham,
19270,AU,6,Derby,7264
19271,AU,2,Parramatta,1750
19272,AU,8,Perth,6061
19273,AU,5,Adelaide,5010
19274,AU,4,Belmont,4153
19275,AU,5,Halletts Cove,
19276,AU,2,Sydney,2004
19277,AU,7,Glenferrie South,
19278,AU,4,Allingham,
19279,AU,5,Woodville,5012
19280,AU,7,Melbourne,8002
19281,AU,5,Bowmans,
19282,AU,4,Picnic Bay,
19283,AU,8,Cottesloe,6011
19284,AU,5,Barmera,5345
19285,AU,5,Kingston,5275
19286,AU,2,Brooms Head,
19287,AU,5,Red Creek,
19288,AU,4,Brisbane,4155
19289,AU,8,Perth,6173
19290,AU,2,Menangle Park,
19291,AU,1,Canberra,2912
19292,AU,6,Scottsdale,7260
19293,AU,2,Buronga,
19294,AU,4,Normanton,4890
19295,AU,1,Canberra,200
19296,AU,5,Adelaide,5009
19297,AU,6,Upper Blessington,
19298,AU,7,Hazel Park,
19299,AU,4,Woodford,4514
19300,AU,4,Longreach,4730
19301,AU,7,Longwarry South,
19302,AU,5,Windy Corner,
19303,AU,7,Muddy Creek,
19304,AU,2,Penrith Municipality,
19305,AU,4,Brisbane,4173
19306,AU,2,Glenfield,2167
19307,AU,5,Mount Gambier,5291
19308,AU,2,Courabyra,
19309,AU,2,Newcastle,2296
19310,AU,2,Crows Nest,1585
19311,AU,7,Allans Flat,
19312,AU,8,Perth,6918
19313,AU,2,Caringbah,1495
19314,AU,5,Adelaide,5044
19315,AU,2,Baulkham Hills Shire,
19316,AU,2,Mcmasters Beach,
19317,AU,2,Lower Bucca,
19318,AU,4,Saint Pauls,
19319,AU,2,Sydney,2175
19320,AU,2,Wollongong,2522
19321,AU,5,Adelaide,5043
19322,AU,8,Perth,6041
19323,AU,7,Melbourne,3022
19324,AU,7,Glenormiston South,
19325,AU,2,Harefield,
19326,AU,5,Adelaide,5001
19327,AU,8,Geraldton,6531
19328,AU,8,Perth,6147
19329,AU,3,Darwin,834
19330,AU,2,Burwood,1805
19331,AU,2,Glenrock,
19332,AU,5,Adelaide,5042
19333,AU,2,Upper Duroby,
19334,AU,7,Dargo,
19335,AU,7,Flinders,8009
19336,AU,2,Pine Ridge,
19337,AU,4,Eukey,
19338,AU,5,Muston,
19339,AU,2,Lake View,
19340,AU,6,Apsley,
19341,AU,2,Coleambally,
19342,AU,2,Wangi Wangi,2267
19343,AU,2,Hartley Vale,
19344,AU,3,Palmerston,831
19345,AU,4,Point Lookout,4183
19346,AU,4,Doomadgee,
19347,AU,2,Sydney,2105
19348,AU,7,Warrion,
19349,AU,7,Turriff,
19350,AU,5,Coffin Bay,
19351,AU,7,Strathkellar,
19352,AU,4,Gununa,
19353,AU,7,Paschendale,
19354,AU,8,South Perth,6951
19355,AU,8,Mount Magnet,
19356,AU,4,Loch Lomond,
19357,AU,7,Main Lead,
19358,AU,5,Reeve's Plain,
19359,AU,2,Sydney,1000
19360,AU,7,Myrtleford,3737
19361,AU,2,Tucki Tucki,
19362,AU,7,Lascelles,3487
19363,AU,5,Nangwarry,
19364,AU,3,Darwin,821
19365,AU,7,North Queenstown,
19366,AU,7,Steels Creek,
19367,AU,2,Paddys Flat,
19368,AU,5,Mclaren Vale,5171
19369,AU,2,Liverpool,1871
19370,AU,4,Brisbane,4072
19371,AU,7,Melbourne,3034
19372,AU,4,Wattle Park,
19373,AU,7,Keilor,3036
19374,AU,7,East Richmond,
19375,AU,5,Adelaide,5040
19376,AU,8,Mosman Park,6012
19377,AU,7,Camberwell North,
19378,AU,8,Perth,6892
19379,AU,8,Claremont,6910
19380,AU,7,Girgarre,
19381,AU,2,Byron Shire,
19382,AU,8,Fremantle,6158
19383,AU,2,North Dorrigo,
19384,AU,5,Adelaide,5059
19385,AU,2,Sydney,2006
19386,AU,5,Adelaide,5096
19387,AU,2,Corunna,
19388,AU,2,Eulomogo,
19389,AU,7,Melbourne,3928
