locId,country,region,city,postcode
19591,BA,,,
19592,BA,1,Sarajevo,
19593,BA,2,Banja Luka,
19594,BA,1,Velika Kladusa,
19595,BA,1,Zenica,
19596,BA,2,Srpska,
19597,BA,1,Mostar,
19598,BA,1,Bosna,
19599,BA,1,Tuzla,
19600,BA,1,Grude,
19601,BA,1,Bihac,
19602,BA,1,Travnik,
19603,BA,1,Konjic,
19604,BA,1,Lukavac,
19605,BA,1,Srebrenik,
19606,BA,1,Gracanica,
19607,BA,1,Kladanj,
19608,BA,1,Visoko,
19609,BA,1,Zavidovici,
19610,BA,BD,Brcko,
19611,BA,1,Kakanj,
19612,BA,1,Gorazde,
19613,BA,1,Slatina,
19614,BA,1,Nedjarici,
19615,BA,1,Vogosca,
19616,BA,2,Gradiska,
19617,BA,2,Teslic,
19618,BA,2,Zvornik,
19619,BA,2,Visegrad,
19620,BA,2,Bijeljina,
19621,BA,2,Pale,
19622,BA,2,Trebinje,
19623,BA,2,Prijedor,
19624,BA,2,Laktasi,
19625,BA,2,Vlasenica,
19626,BA,2,Srbinje,
19627,BA,2,Doboj,
19628,BA,1,Vitez,
19629,BA,1,Police,
19630,BA,1,Ramici,
19631,BA,1,Carsija,
19632,BA,1,Medjugorje,
19633,BA,1,Polje,
19634,BA,1,Rajlovac,
19635,BA,1,Lukavica,
19636,BA,2,Derventa,
19637,BA,2,Nevesinje,
19638,BA,1,Luka,
19639,BA,2,Malta,
19640,BA,1,Bugojno,
19641,BA,1,Zivinice,
19642,BA,2,Prnjavor,
19643,BA,1,Capljina,
19644,BA,1,Ljubuski,
19645,BA,1,Citluk,
19646,BA,1,Posusje,
19647,BA,2,Srebrenica,
19648,BA,1,Tesanj,
19649,BA,2,Modrica,
19650,BA,2,Kotor,
19651,BA,2,Foca,
19652,BA,1,Banja,
19653,BA,1,Core,
19654,BA,1,Music,
19655,BA,1,Udurlije,
19656,BA,1,Butmir,
19657,BA,1,Topic,
19658,BA,1,Kosevo,
19659,BA,2,Obala,
19660,BA,1,Bistrik,
19661,BA,1,Semizovac,
19662,BA,1,Ilijas,
19663,BA,1,Zeljezno Polje,
19664,BA,2,Trn,
19665,BA,2,Bosanska Gradiska,
19666,BA,1,Olovo,
19667,BA,1,Gromiljak,
19668,BA,1,Careva Cuprija,
19669,BA,1,Breza,
19670,BA,1,Gradacac,
19671,BA,1,Njivetine,
19672,BA,1,Potoci,
19673,BA,1,Mionica,
19674,BA,1,Banovici,
19675,BA,1,Ostrozac,
19676,BA,1,Pjanici,
19677,BA,1,Fojnica,
19678,BA,1,Hotonj,
19679,BA,1,Listica,
19680,BA,1,Jajce,
19681,BA,1,Orasje,
19682,BA,1,Tolisa,
19683,BA,1,Kiseljak,
19684,BA,2,Srbac,
19685,BA,1,Donja Medjidja,
19686,BA,1,Dobrinje,
19687,BA,2,Koran,
19688,BA,1,Maglaj,
19689,BA,1,Zepce,
19690,BA,1,Vozuca,
19691,BA,1,Gnojnica,
19692,BA,1,Novi Travnik,
19693,BA,1,Kacuni,
19694,BA,1,Vares,
19695,BA,1,Sanski Most,
19696,BA,2,Lamovita,
19697,BA,2,Vrtovace,
19698,BA,1,Livnica,
19699,BA,2,Novi,
19700,BA,1,Ilidza,
19701,BA,1,Bijela,
19702,BA,2,Cecava,
19703,BA,1,Livno,
19704,BA,1,Gornja Tuzla,
19705,BA,2,Stanari,
19706,BA,1,Puracic,
19707,BA,2,Lopare,
19708,BA,1,Mostre,
19709,BA,1,Pazaric,
19710,BA,1,Gostovici,
19711,BA,1,Busovaca,
19712,BA,1,Cerin,
19713,BA,2,Kablovska,
19714,BA,1,Siroki Brijeg,
19715,BA,1,Krusik,
19716,BA,1,Cengic,
19717,BA,1,Serici,
19718,BA,2,Milici,
19719,BA,1,Donja Orahovica,
19720,BA,1,Barice,
19721,BA,1,Novi Seher,
19722,BA,1,Gornje Zivinice,
19723,BA,1,Tesanjka,
19724,BA,1,Kolonija,
19725,BA,1,Vitina,
19726,BA,1,Malesici,
19727,BA,1,Gabela,
19728,BA,1,Donja Mahala,
19729,BA,1,Crnici,
19730,BA,1,Sladna,
19731,BA,1,Hadzici,
19732,BA,2,Gacko,
19733,BA,2,Priboj,
19734,BA,1,Jablanica,
19735,BA,2,Janja,
19736,BA,1,Bijakovici,
19737,BA,1,Voljevac,
19738,BA,1,Tomislavgrad,
19739,BA,2,Kozarac,
19740,BA,2,Ugljevik,
19741,BA,1,Cazin,
19742,BA,1,Zboriste,
19743,BA,2,Sipovo,
19744,BA,2,Sekovici,
19745,BA,1,Kocerin,
19746,BA,1,Donje Vukovije,
19747,BA,2,Bosanska Dubica,
19748,BA,1,Kostrc,
19749,BA,2,Rogatica,
19750,BA,1,Bosanska Krupa,
19751,BA,1,Kresevo,
19752,BA,1,Brijeg,
19753,BA,1,Simin Han,
19754,BA,1,Blazuj,
19755,BA,1,Odzak,
19756,BA,2,Bosanska Kostajnica,
19757,BA,1,Neum,
19758,BA,1,Dobrinja,
19759,BA,1,Kalesija,
19760,BA,1,Kobilici,
19761,BA,1,Brod,
19762,BA,1,Turbe,
19763,BA,1,Gornji Vakuf,
19764,BA,1,Drvar,
19765,BA,2,Petkovci,
19766,BA,1,Vraca,
19767,BA,1,Grad,
19768,BA,1,Bosanski Petrovac,
19769,BA,1,Stolac,
19770,BA,2,Sokolac,
19771,BA,1,Drinovci,
19772,BA,2,Bosanski Novi,
19773,BA,1,Donji Vakuf,
19774,BA,2,Kotor-varos,
19775,BA,1,Otoka,
19776,BA,1,Kljuc,
19777,BA,1,Ustikolina,
19778,BA,1,Donja Dubica,
19779,BA,1,Jelah,
19780,BA,1,Orguz,
19781,BA,1,Klobuk,
19782,BA,2,Nova Topola,
19783,BA,2,Bosanski Brod,
19784,BA,1,Svojat,
19785,BA,2,Osmaci,
19786,BA,1,Medugorje,
19787,BA,2,Tanackovici,
19788,BA,1,Prozor,
19789,BA,1,Ivanica,
19790,BA,1,Gornja Dubica,
19791,BA,1,Domaljevac,
19792,BA,2,Bileca,
19793,BA,2,Petrovo,
19794,BA,2,Bratunac,
19795,BA,1,Buzim,
19796,BA,1,Petrovac,
19797,BA,2,Mrkonjic Grad,
19798,BA,2,Ljubija,
19799,BA,1,Nova Bila,
19800,BA,1,Teocak,
19801,BA,2,Kozarska Dubica,
19802,BA,2,Celinac,
19803,BA,1,Dubica,
19804,BA,2,Bosanski Samac,
19805,BA,1,Otes,
19806,BA,1,Divicani,
19807,BA,1,Lipnica,
19808,BA,1,Vrazici,
19809,BA,1,Ljusina,
19810,BA,1,Lakic,
19811,BA,2,Misici,
19812,BA,1,Ruzici,
19813,BA,1,Slimena,
19814,BA,1,Vakuf,
19815,BA,2,Ostra Luka,
19816,BA,2,Omarska,
19817,BA,2,Kozluk,
19818,BA,1,Celjevo,
19819,BA,1,Dobosnica,
19820,BA,2,Kladusa,
19821,BA,2,Milosevac,
19822,BA,1,Mala Vinica,
19823,BA,2,Covic Polje,
19824,BA,1,Sovici,
19825,BA,1,Coralici,
19826,BA,1,Rijeka,
19827,BA,1,Do,
19828,BA,1,Velja,
19829,BA,1,Lokvine,
19830,BA,BD,Gornji Islamovac,
19831,BA,1,Protici,
19832,BA,1,Jarovice,
19833,BA,2,Gornji Kukici,
19834,BA,2,Debelac,
19835,BA,2,Pogledevo,
19836,BA,2,Jasenovac,
19837,BA,2,Savicani,
19838,BA,2,Dzigalevac,
19839,BA,2,Svodna,
19840,BA,1,Milankovici,
19841,BA,1,Svinjaca,
19842,BA,1,Seonica,
19843,BA,2,Skender Vakuf,
19844,BA,2,Burca,
19845,BA,1,Devetaci,
19846,BA,2,Donji Magnojevic,
19847,BA,2,Vranjacka Trebava,
19848,BA,2,Krajevi,
19849,BA,2,Podvucijak,
19850,BA,2,Crkvena,
19851,BA,2,Gelici,
19852,BA,2,Polojcani,
19853,BA,1,Solina,
19854,BA,1,Pepelari,
19855,BA,1,Lijesnica,
19856,BA,1,Stupari,
19857,BA,2,Ulobici,
19858,BA,1,Donja Vratna Gora,
19859,BA,2,Knezica,
19860,BA,2,Gornja Zelinja,
19861,BA,2,Gazivode,
19862,BA,1,Mlinari,
19863,BA,2,Vijacani Gornji,
19864,BA,1,Mramor,
19865,BA,1,Dubnica,
19866,BA,2,Maglajani,
19867,BA,1,Dubocani,
19868,BA,1,Vrbak,
19869,BA,1,Orahovica Donja,
19870,BA,1,Stijena,
19871,BA,1,Sanica,
19872,BA,1,Smet,
19873,BA,1,Rudeljak,
19874,BA,2,Zavozi,
19875,BA,2,Gornji Vranjak,
19876,BA,2,Obudovac,
19877,BA,1,Klokotnica,
19878,BA,2,Tendzerici,
19879,BA,1,Peci,
19880,BA,2,Semenovci,
19881,BA,1,Donje Ocevlje,
19882,BA,2,Sahbegovici,
19883,BA,1,Jazmak,
19884,BA,1,Kacelja,
19885,BA,2,Donji Strpci,
19886,BA,1,Donje Ravno,
19887,BA,1,Crnicki Kamenak,
19888,BA,2,Ljubatovci,
19889,BA,2,Bok,
19890,BA,1,Gorani,
19891,BA,1,Donje Dubrave,
19892,BA,2,Ratkovci,
19893,BA,2,Vukadinovici,
19894,BA,1,Lazetovica,
19895,BA,1,Miladici,
19896,BA,1,Ninici,
19897,BA,1,Sagovici,
19898,BA,2,Agici Brdo,
19899,BA,2,Sarkani,
19900,BA,1,Klis,
19901,BA,1,Dalic,
19902,BA,1,Kraje,
19903,BA,2,Piskavica,
19904,BA,1,Mostarska Vrata,
19905,BA,2,Jabanusa,
19906,BA,1,Dreznica,
19907,BA,1,Gornje Ocevlje,
19908,BA,1,Kastel,
19909,BA,1,Zabrce,
19910,BA,2,Kuriacki Tor,
19911,BA,2,Budimcic,
19912,BA,1,Kupres,
19913,BA,1,Bila,
19914,BA,1,Miljanovci,
19915,BA,1,Mihatovici,
19916,BA,1,Celic,
19917,BA,2,Vrtlisce,
19918,BA,1,Mihaljevici,
19919,BA,1,Vicani,
19920,BA,1,Tuholj,
19921,BA,2,Hajvazi,
19922,BA,1,Ratanj,
19923,BA,1,Blagojevici,
19924,BA,1,Vrutci,
19925,BA,1,Tunjik,
19926,BA,1,Hodorovici,
19927,BA,1,Donje Papratno,
19928,BA,1,Rodoc,
19929,BA,1,Radosi,
19930,BA,1,Rumboci,
19931,BA,2,Osorna,
19932,BA,1,Pluzevine,
19933,BA,1,Matuzici,
19934,BA,1,Zabljak,
19935,BA,1,Sapna,
19936,BA,1,Prusac,
19937,BA,2,Srpsko Sarajevo,
19938,BA,1,Malic,
19939,BA,2,Stankovici,
19940,BA,1,Otinovci,
19941,BA,1,Prsljani,
19942,BA,1,Ratkovine,
19943,BA,1,Parnjace,
19944,BA,2,Strijezevo,
19945,BA,1,Mala Ribnica,
19946,BA,1,Slagoscici,
19947,BA,1,Srednja Mahala,
19948,BA,1,Glavencic,
19949,BA,1,Orliste,
19950,BA,2,Dzindici,
19951,BA,2,Celici,
19952,BA,2,Karac,
19953,BA,1,Rudo Polje,
19954,BA,1,Jaruske Donje,
19955,BA,1,Tavani,
19956,BA,2,Busletic,
19957,BA,1,Saraci,
19958,BA,1,Bistrica Gornja,
19959,BA,1,Vreoca,
19960,BA,1,Dubravica,
19961,BA,1,Sidica,
19962,BA,2,Cetnica,
19963,BA,1,Celice,
19964,BA,2,Gornje Podnovlje,
19965,BA,2,Bilali,
19966,BA,2,Kiseljak,
19967,BA,BD,Gligorovici,
19968,BA,1,Dugolazi,
19969,BA,2,Cavici,
19970,BA,1,Vukadinovo Brdo,
19971,BA,2,Cvetkovici,
19972,BA,1,Glamoc,
19973,BA,1,Kucani,
19974,BA,1,Pribava,
19975,BA,1,Poduzje,
19976,BA,2,Mastikosa,
19977,BA,1,Medini,
19978,BA,1,Maslici,
19979,BA,1,Kovacevici,
19980,BA,1,Risovac,
19981,BA,1,Pecigrad,
19982,BA,1,Gorica,
19983,BA,1,Trzac,
19984,BA,1,Donji Mamici,
19985,BA,2,Podrasnica,
19986,BA,1,Trnovac,
19987,BA,1,Klek,
19988,BA,1,Kosiri,
19989,BA,2,Santraci,
19990,BA,2,Gvozd,
19991,BA,1,Kresine Zidine,
19992,BA,1,Mladici,
19993,BA,1,Bratanovici,
19994,BA,2,Babajac,
19995,BA,1,Tarcin,
19996,BA,1,Vrnograc,
19997,BA,1,Jelica,
19998,BA,1,Srednji Dubovik,
19999,BA,1,Nikolic,
20000,BA,1,Seljublje,
20001,BA,2,Gornji Srdevici,
20002,BA,1,Bijela Voda,
20003,BA,2,Vlatkovici,
20004,BA,2,Mravica,
20005,BA,2,Dikici,
20006,BA,1,Tojsici,
20007,BA,1,Sumatac,
20008,BA,1,Sutina,
20009,BA,1,Drenovo Tijesno,
20010,BA,2,Budzuklije,
20011,BA,1,Zvekusa,
20012,BA,BD,Drenova,
20013,BA,1,Zavid,
20014,BA,2,Tuzlani,
20015,BA,2,Usora,
20016,BA,1,Svjeca,
20017,BA,2,Kusturici,
20018,BA,2,Gornji Lokanj,
20019,BA,1,Tolovac,
20020,BA,2,Caradin,
20021,BA,2,Rijeca,
20022,BA,1,Kobilja Glava,
20023,BA,2,Bosancici,
20024,BA,1,Pajic Polje,
20025,BA,1,Prilug,
20026,BA,1,Obrsine,
20027,BA,1,Krs,
20028,BA,2,Ilijak,
20029,BA,1,Podlugovi,
20030,BA,1,Mocevici,
20031,BA,2,Donja Pilica,
20032,BA,1,Zukici,
20033,BA,2,Vujasini,
20034,BA,2,Maricin Breg,
20035,BA,1,Stup,
20036,BA,2,Rijeke,
20037,BA,1,Jakes,
20038,BA,1,Rozanj,
20039,BA,1,Antici,
20040,BA,2,Kicica Kosa,
20041,BA,2,Nazda,
20042,BA,1,Brnjik,
20043,BA,2,Zabrdani,
20044,BA,1,Marsici,
20045,BA,2,Jasikovci,
20046,BA,1,Korca,
20047,BA,1,Bale,
20048,BA,1,Blagaj,
20049,BA,1,Kosmaj,
20050,BA,1,Skrobucani,
20051,BA,BD,Bukvik Donji,
20052,BA,1,Cebara,
20053,BA,2,Porebrice,
20054,BA,1,Golijani,
20055,BA,1,Zivkovici,
20056,BA,2,Han Hanic,
20057,BA,2,Vinjiste,
20058,BA,1,Krestalica,
20059,BA,2,Dukalici,
20060,BA,1,Mijici,
20061,BA,1,Brgule,
20062,BA,1,Hrasnica,
20063,BA,2,Cumurovici,
20064,BA,1,Tupkovici Donji,
20065,BA,2,Canakcije,
20066,BA,2,Stogulje,
20067,BA,2,Dera,
20068,BA,1,Marija,
20069,BA,1,Bok,
20070,BA,2,Detlak Gornji,
20071,BA,2,Dokici,
20072,BA,1,Kicin Greb,
20073,BA,1,Dilberi,
20074,BA,1,Cim,
20075,BA,1,Mirosevici,
20076,BA,2,Martici,
20077,BA,1,Slavici,
20078,BA,1,Stajetina,
20079,BA,1,Culjci,
20080,BA,2,Paklenica Donja,
20081,BA,2,Dine,
20082,BA,1,Bosansko Grahovo,
20083,BA,1,Zagreb,
20084,BA,2,Begovac,
20085,BA,1,Gladnik,
20086,BA,2,Cajnice,
20087,BA,1,Lipovice,
20088,BA,1,Perovici,
20089,BA,1,Karadaglije,
20090,BA,2,Banja Vrucica,
20091,BA,1,Calici,
20092,BA,2,Podvisocnik,
20093,BA,1,Grebnice,
20094,BA,1,Karaotok,
20095,BA,2,Maslovare,
20096,BA,1,Nemila,
20097,BA,1,Ponirak,
20098,BA,2,Dobrljin,
20099,BA,2,Socanica Mala,
20100,BA,1,Sienokos,
20101,BA,1,Velika,
20102,BA,1,Samac,
20103,BA,1,Jezerski,
20104,BA,1,Husino,
20105,BA,BD,Vucilovac,
20106,BA,2,Senkovici,
20107,BA,2,Kovacevic,
20108,BA,1,Sujica,
20109,BA,1,Stari Majdan,
20110,BA,1,Colaci,
20111,BA,2,Jasikovaca,
20112,BA,2,Ovuke,
20113,BA,1,Radisici,
20114,BA,1,Puhovac,
20115,BA,1,Gata,
20116,BA,2,Donja Paklenica,
20117,BA,1,Vasiljevici,
20118,BA,2,Kram,
20119,BA,2,Durme,
20120,BA,2,Sebiocina,
20121,BA,1,Here,
20122,BA,1,Goles,
20123,BA,1,Cavlovici,
20124,BA,1,Bukinje,
20125,BA,1,Caklovica,
20126,BA,1,Jezinac,
20127,BA,1,Dubrave,
20128,BA,1,Begov Han,
20129,BA,2,Kragujevac,
20130,BA,1,Uskoplje,
20131,BA,1,Lepenica,
20132,BA,2,Novi Grad,
20133,BA,2,Karanovac,
20134,BA,1,Ilici,
20135,BA,2,Smrsanj,
20136,BA,2,Kalinovik,
20137,BA,2,Podgorica,
20138,BA,2,Krizanci,
20139,BA,1,Pocitelj,
20140,BA,1,Selo,
20141,BA,1,Smrdusa,
20142,BA,BD,Seonjaci,
20143,BA,1,Cerno,
20144,BA,2,Sejmenovici,
20145,BA,2,Abadzici,
20146,BA,2,Trbuk,
20147,BA,2,Knezevo,
