locId,country,region,city,postcode
20386,BE,,,
20387,BE,12,Leuven,
20388,BE,11,Brussels,
20389,BE,3,Charleroi,
20390,BE,1,Zwijndrecht,
20391,BE,9,Zwevegem,
20392,BE,8,Gent,
20393,BE,3,Soignies,
20394,BE,2,Zaventem,
20395,BE,1,Edegem,
20396,BE,1,Essen,
20397,BE,9,Tielt,
20398,BE,1,Herentals,
20399,BE,8,Wetteren,
20400,BE,2,Diegem,
20401,BE,11,Berchem,
20402,BE,1,Puurs,
20403,BE,9,Veurne,
20404,BE,1,Antwerpen,
20405,BE,1,Antwerp,
20406,BE,2,Waterloo,
20407,BE,6,Vaux,
20408,BE,8,Lokeren,
20409,BE,5,Koersel,
20410,BE,4,Liège,
20411,BE,3,Gosselies,
20412,BE,1,Boom,
20413,BE,1,Hoboken,
20414,BE,11,Evere,
20415,BE,12,Louvain-la-neuve,
20416,BE,8,Aalst,
20417,BE,5,Borgloon,
20418,BE,5,Baal,
20419,BE,1,Berg,
20420,BE,9,Deerlijk,
20421,BE,3,Mons,
20422,BE,3,Lessines,
20423,BE,2,Vilvoorde,
20424,BE,7,Saint-denis,
20425,BE,9,Oostende,
20426,BE,9,De Haan,
20427,BE,9,Brugge,
20428,BE,1,Schoten,
20429,BE,1,Kontich,
20430,BE,1,Turnhout,
20431,BE,9,Kuurne,
20432,BE,3,Forest,
20433,BE,8,Aalter,
20434,BE,3,Mouscron,
20435,BE,8,Merelbeke,
20436,BE,9,Wevelgem,
20437,BE,9,Poperinge,
20438,BE,2,Heverlee,
20439,BE,5,Sint-truiden,
20440,BE,2,Kessel-lo,
20441,BE,2,Nivelles,
20442,BE,3,Lodelinsart,
20443,BE,3,Roux,
20444,BE,11,Brussel,
20445,BE,2,Zellik,
20446,BE,9,Zeebrugge,
20447,BE,2,Hoeilaart,
20448,BE,8,Gand,
20449,BE,2,Rotselaar,
20450,BE,5,Genk,
20451,BE,5,Hasselt,
20452,BE,3,Seneffe,
20453,BE,7,Moustier,
20454,BE,6,Athus,
20455,BE,2,Vilvorde,
20456,BE,1,Bornem,
20457,BE,1,Mechelen,
20458,BE,9,Damme,
20459,BE,11,Anderlecht,
20460,BE,2,Vlezenbeek,
20461,BE,2,Grimbergen,
20462,BE,2,Winksele,
20463,BE,8,Temse,
20464,BE,2,Parc,
20465,BE,2,Wauthier-braine,
20466,BE,2,Stock,
20467,BE,7,Champion,
20468,BE,8,Holland,
20469,BE,2,Aarschot,
20470,BE,1,Geel,
20471,BE,1,Wilrijk,
20472,BE,2,Londerzeel,
20473,BE,2,Machelen,
20474,BE,9,Kortrijk,
20475,BE,2,Wauthier,
20476,BE,8,Oudenaarde,
20477,BE,2,Kraainem,
20478,BE,3,Familleureux,
20479,BE,4,Verviers,
20480,BE,8,Lochristi,
20481,BE,1,Sint-katelijne-waver,
20482,BE,9,Moorsele,
20483,BE,9,Oostrozebeke,
20484,BE,3,Mark,
20485,BE,1,Willebroek,
20486,BE,8,Zwijnaarde,
20487,BE,2,Nossegem,
20488,BE,1,Deurne,
20489,BE,2,Groot-bijgaarden,
20490,BE,1,Duffel,
20491,BE,7,Namen,
20492,BE,8,Sint-denijs-westrem,
20493,BE,9,Ardooie,
20494,BE,1,Aartselaar,
20495,BE,7,Namur,
20496,BE,5,Dilsen,
20497,BE,2,Diest,
20498,BE,2,La Hulpe,
20499,BE,1,Westmalle,
20500,BE,6,Ster,
20501,BE,2,Halle,
20502,BE,4,Bullingen,
20503,BE,4,Seraing,
20504,BE,9,Koksijde,
20505,BE,2,Tremelo,
20506,BE,3,Enghien,
20507,BE,4,Chaudfontaine,
20508,BE,2,Elsene,
20509,BE,4,Thys,
20510,BE,8,Sint-niklaas,
20511,BE,8,Eeklo,
20512,BE,9,Roeselare,
20513,BE,4,Welkenraedt,
20514,BE,3,Comines,
20515,BE,5,Tessenderlo,
20516,BE,1,Wommelgem,
20517,BE,8,Erembodegem,
20518,BE,8,Nazareth,
20519,BE,3,Tournai,
20520,BE,6,Bourg,
20521,BE,2,Rhode-saint-genèse,
20522,BE,6,Champs,
20523,BE,2,Tervuren,
20524,BE,8,Haute,
20525,BE,2,Meise,
20526,BE,2,Rhode,
20527,BE,3,Royaume,
20528,BE,12,Louvain,
20529,BE,8,Ghent,
20530,BE,6,Arlon,
20531,BE,7,Gembloux,
20532,BE,5,Diepenbeek,
20533,BE,4,Limburg,
20534,BE,7,Godinne,
20535,BE,1,Reet,
20536,BE,9,Hooglede,
20537,BE,9,Jabbeke,
20538,BE,8,Dendermonde,
20539,BE,9,Izegem,
20540,BE,2,Overijse,
20541,BE,1,Mortsel,
20542,BE,8,Drongen,
20543,BE,8,Zottegem,
20544,BE,9,Heidelberg,
20545,BE,2,Tubize,
20546,BE,4,Alleur,
20547,BE,9,Harelbeke,
20548,BE,3,Heule,
20549,BE,8,Deinze,
20550,BE,8,Zele,
20551,BE,7,Maison,
20552,BE,8,Hofstade,
20553,BE,8,Esch,
20554,BE,5,Herk,
20555,BE,5,Zelem,
20556,BE,2,Melsbroeck,
20557,BE,5,Houthalen,
20558,BE,8,Ninove,
20559,BE,4,Herstal,
20560,BE,1,Balen,
20561,BE,4,Angleur,
20562,BE,9,Knokke-heist,
20563,BE,1,Rumst,
20564,BE,9,Ieper,
20565,BE,9,Menen,
20566,BE,2,Bourgeois,
20567,BE,8,Kalken,
20568,BE,8,Maldegem,
20569,BE,8,Knesselare,
20570,BE,7,Bosquet,
20571,BE,1,Schelle,
20572,BE,4,Eupen,
20573,BE,1,Ekeren,
20574,BE,9,America,
20575,BE,2,Sint-stevens-woluwe,
20576,BE,4,Wanze,
20577,BE,1,Westerlo,
20578,BE,2,Hoegaarden,
20579,BE,3,Haine-saint-paul,
20580,BE,2,Landen,
20581,BE,1,Goor,
20582,BE,8,Kieldrecht,
20583,BE,2,Kortenberg,
20584,BE,8,Evergem,
20585,BE,1,Olen,
20586,BE,2,Wezembeek-oppem,
20587,BE,8,Star,
20588,BE,5,Beringen,
20589,BE,5,Lummen,
20590,BE,2,Wilsele,
20591,BE,1,Weert,
20592,BE,5,Tongeren,
20593,BE,2,Rixensart,
20594,BE,8,Vrasene,
20595,BE,8,Eeckhout,
20596,BE,9,Canada,
20597,BE,2,Haasrode,
20598,BE,1,Haag,
20599,BE,2,Wemmel,
20600,BE,8,Hundelgem,
20601,BE,8,Moorsel,
20602,BE,2,Herent,
20603,BE,5,Halen,
20604,BE,2,Tienen,
20605,BE,4,Ramet,
20606,BE,9,Staden,
20607,BE,2,Liedekerke,
20608,BE,3,Tertre,
20609,BE,1,Arendonk,
20610,BE,6,Notre Dame,
20611,BE,2,Keerbergen,
20612,BE,8,Laarne,
20613,BE,8,Wondelgem,
20614,BE,2,Ohain,
20615,BE,1,Lichtaart,
20616,BE,2,Chaumont-gistoux,
20617,BE,5,Lommel,
20618,BE,5,Peer,
20619,BE,4,Milmort,
20620,BE,9,Wervik,
20621,BE,9,Sint-denijs,
20622,BE,11,Oudergem,
20623,BE,1,Ruisbroek,
20624,BE,9,Wielsbeke,
20625,BE,9,Oostkamp,
20626,BE,2,Dilbeek,
20627,BE,3,Mariemont,
20628,BE,8,Lembeke,
20629,BE,5,Haren,
20630,BE,9,Bellegem,
20631,BE,1,Hoogstraten,
20632,BE,8,Lebbeke,
20633,BE,8,Oostakker,
20634,BE,3,Chaussée,
20635,BE,1,Grobbendonk,
20636,BE,9,Gits,
20637,BE,2,Sint-jans-molenbeek,
20638,BE,8,Westrem,
20639,BE,2,Saintes,
20640,BE,1,Brasschaat,
20641,BE,4,Harzé,
20642,BE,8,Melle,
20643,BE,2,Sterrebeek,
20644,BE,8,Heusden,
20645,BE,9,Handzame,
20646,BE,2,Boutersem,
20647,BE,5,Neerpelt,
20648,BE,2,Kampenhout,
20649,BE,1,Zandhoven,
20650,BE,4,Battice,
20651,BE,1,Grand,
20652,BE,7,Tarcienne,
20653,BE,5,Lanaken,
20654,BE,6,Chiny,
20655,BE,10,Wavre,
20656,BE,8,Borsbeke,
20657,BE,1,Beerse,
20658,BE,3,Fleurus,
20659,BE,8,Teirlinck,
20660,BE,1,Leest,
20661,BE,5,Zonhoven,
20662,BE,6,Aubange,
20663,BE,9,Torhout,
20664,BE,9,Waregem,
20665,BE,2,Ternat,
20666,BE,1,Booischot,
20667,BE,8,Mariakerke,
20668,BE,2,Bierges,
20669,BE,1,Borgerhout,
20670,BE,5,Wellen,
20671,BE,3,Kain,
20672,BE,8,Stekene,
20673,BE,2,Jodoigne,
20674,BE,3,Quaregnon,
20675,BE,2,Asse,
20676,BE,8,Buggenhout,
20677,BE,7,Corbion,
20678,BE,5,Opglabbeek,
20679,BE,6,Bastogne,
20680,BE,4,Barchon,
20681,BE,6,Hondelange,
20682,BE,3,Bailleul,
20683,BE,6,Florenville,
20684,BE,4,Blegny,
20685,BE,1,Kalmthout,
20686,BE,4,Housse,
20687,BE,2,Drogenbos,
20688,BE,3,Jumet,
20689,BE,6,Hollogne,
20690,BE,3,Gilly,
20691,BE,7,Neuville,
20692,BE,2,Meensel-kiezegem,
20693,BE,8,Dijk,
20694,BE,11,Schaarbeek,
20695,BE,8,Kruibeke,
20696,BE,2,Genval,
20697,BE,8,Kallo,
20698,BE,1,Dessel,
20699,BE,4,Trois Ponts,
20700,BE,2,Sint-pieters-leeuw,
20701,BE,3,Jardin,
20702,BE,4,Magnée,
20703,BE,2,Colinet,
20704,BE,2,Holsbeek,
20705,BE,2,Marbais,
20706,BE,8,Erpe,
20707,BE,1,Schriek,
20708,BE,9,Heist,
20709,BE,2,Uccle,
20710,BE,3,Courcelles,
20711,BE,1,Waarloos,
20712,BE,4,Lontzen,
20713,BE,2,Wolvertem,
20714,BE,5,Hamont,
20715,BE,9,Desselgem,
20716,BE,2,Melsbroek,
20717,BE,4,Cour,
20718,BE,9,Westrozebeke,
20719,BE,4,Raeren,
20720,BE,2,Linkebeek,
20721,BE,5,Zutendaal,
20722,BE,1,Boechout,
20723,BE,7,Dion,
20724,BE,9,Nieuwkerke,
20725,BE,9,Pittem,
20726,BE,8,Oosterzele,
20727,BE,1,Lint,
20728,BE,1,Sint-amands,
20729,BE,1,Merksem,
20730,BE,7,Anton,
20731,BE,2,Langdorp,
20732,BE,2,Jérusalem,
20733,BE,4,Ensival,
20734,BE,5,Overpelt,
20735,BE,8,Sint-martens-latem,
20736,BE,2,Ottignies,
20737,BE,6,Beaulieu,
20738,BE,3,Sablon,
20739,BE,8,Waver,
20740,BE,3,Komen,
20741,BE,4,Héron,
20742,BE,9,De Brabander,
20743,BE,2,Averbode,
20744,BE,5,Stokkem,
20745,BE,2,Lubbeek,
20746,BE,4,Faimes,
20747,BE,5,Bocholt,
20748,BE,4,Vivegnis,
20749,BE,2,Woluwé-saint-lambert,
20750,BE,1,Kapellen,
20751,BE,2,Merchtem,
20752,BE,2,Alsemberg,
20753,BE,3,Dottignies,
20754,BE,1,Weelde,
20755,BE,4,Limbourg,
20756,BE,1,Tisselt,
20757,BE,5,Kinrooi,
20758,BE,9,Ooigem,
20759,BE,2,Veltem-beisem,
20760,BE,8,Gentbrugge,
20761,BE,2,Lennik,
20762,BE,2,Mollem,
20763,BE,5,Asch,
20764,BE,6,Post,
20765,BE,1,Oevel,
20766,BE,5,Leopoldsburg,
20767,BE,4,Herve,
20768,BE,5,Kermt,
20769,BE,9,Sijsele,
20770,BE,5,Bree,
20771,BE,5,Ryck,
20772,BE,1,Meer,
20773,BE,2,Steenokkerzeel,
20774,BE,3,Hornu,
20775,BE,7,Ciney,
20776,BE,8,Bossche,
20777,BE,1,Westmeerbeek,
20778,BE,2,Haacht,
20779,BE,8,De Wilde,
20780,BE,1,Winkel,
20781,BE,5,Kwaadmechelen,
20782,BE,3,Gaurain-ramecroix,
20783,BE,2,Beersel,
20784,BE,5,Bilzen,
20785,BE,6,Côré,
20786,BE,8,Schelde,
20787,BE,7,Fraire,
20788,BE,9,Zwevezele,
20789,BE,6,Saint-hubert,
20790,BE,9,Gullegem,
20791,BE,1,Itterbeek,
20792,BE,2,Le Logis,
20793,BE,5,Zolder,
20794,BE,9,Finance,
20795,BE,5,Hoeselt,
20796,BE,8,Melsele,
20797,BE,11,Ukkel,
20798,BE,2,Huizingen,
20799,BE,2,Sint-agatha-berchem,
20800,BE,2,Park,
20801,BE,1,Merksplas,
20802,BE,3,Estaimbourg,
20803,BE,8,Hool,
20804,BE,5,Herk-de-stad,
20805,BE,4,Engis,
20806,BE,3,Marais,
20807,BE,2,Bever,
20808,BE,2,Boortmeerbeek,
20809,BE,8,Doel,
20810,BE,8,Beveren,
20811,BE,8,Gavere,
20812,BE,4,Remicourt,
20813,BE,8,Velde,
20814,BE,11,Ixelles,
20815,BE,1,Lips,
20816,BE,5,Paal,
20817,BE,1,Breendonk,
20818,BE,8,Halewijn,
20819,BE,1,Putte,
20820,BE,1,Veerle,
20821,BE,1,Hulshout,
20822,BE,1,Meerle,
20823,BE,7,Andenne,
20824,BE,2,Wespelaar,
20825,BE,2,Begijnendijk,
20826,BE,2,Sint-genesius-rode,
20827,BE,8,Ronse,
20828,BE,9,Leeuw,
20829,BE,2,Glabbeek,
20830,BE,1,Oelegem,
20831,BE,1,Ravels,
20832,BE,2,Hever,
20833,BE,2,Zoutleeuw,
20834,BE,9,Loppem,
20835,BE,2,Rillaar,
20836,BE,8,Destelbergen,
20837,BE,8,De Pinte,
20838,BE,9,Wingene,
20839,BE,4,Drossart,
20840,BE,1,Heist-op-den-berg,
20841,BE,2,Elewijt,
20842,BE,1,Emblem,
20843,BE,9,Marke,
20844,BE,8,Sint Gillis,
20845,BE,2,Walhain,
20846,BE,1,Biest,
20847,BE,8,Ledeberg,
20848,BE,3,Dottenijs,
20849,BE,7,Rhisnes,
20850,BE,3,Manage,
20851,BE,9,Fort,
20852,BE,9,Ruddervoorde,
20853,BE,2,Bertem,
20854,BE,6,Néon,
20855,BE,9,Het Zoute,
20856,BE,3,Haut,
20857,BE,4,Argenteau,
20858,BE,3,Baudour,
20859,BE,1,Tielen,
20860,BE,1,Rijmenam,
20861,BE,7,Thon,
20862,BE,8,Ertvelde,
20863,BE,9,Helkijn,
20864,BE,3,Moeskroen,
20865,BE,1,Den Berg,
20866,BE,8,Meerbeke,
20867,BE,6,Libramont,
20868,BE,2,Beauvechain,
20869,BE,1,Nijlen,
20870,BE,3,Barry,
20871,BE,4,Glons,
20872,BE,7,Dinant,
20873,BE,4,Aubel,
20874,BE,2,Scherpenheuvel,
20875,BE,8,Elversele,
20876,BE,2,Perwez,
20877,BE,1,Schilde,
20878,BE,1,Vosselaar,
20879,BE,1,Eindhoven,
20880,BE,3,Godard,
20881,BE,5,Hechtel,
20882,BE,1,Wijnegem,
20883,BE,9,Ruiselede,
20884,BE,2,Peutie,
20885,BE,2,Rosières,
20886,BE,11,Koekelberg,
20887,BE,2,Kapelle-op-den-bos,
20888,BE,8,Laere,
20889,BE,11,Etterbeek,
20890,BE,5,Martenslinde,
20891,BE,2,Ittre,
20892,BE,2,Oud-heverlee,
20893,BE,11,Vorst,
20894,BE,9,Aalbeke,
20895,BE,5,Rekem,
20896,BE,3,Chêne,
20897,BE,4,Seilles,
20898,BE,6,Fontenoille,
20899,BE,1,Overheid,
20900,BE,4,José,
20901,BE,3,Marcinelle,
20902,BE,4,Bierset,
20903,BE,4,Visé,
20904,BE,4,La Ville,
20905,BE,1,Laer,
20906,BE,8,Linden,
20907,BE,2,Meerbeek,
20908,BE,9,Otegem,
20909,BE,2,Bunsbeek,
20910,BE,1,Eigen,
20911,BE,2,Boterstraat,
20912,BE,3,Roeulx,
20913,BE,9,Geluwe,
20914,BE,8,Sint-amandsberg,
20915,BE,4,Fontaine,
20916,BE,1,Dept,
20917,BE,9,Middelkerke,
20918,BE,3,Morlanwelz,
20919,BE,1,Bell,
20920,BE,1,Bosch,
20921,BE,2,Saint-roch,
20922,BE,3,Longtain,
20923,BE,6,La Justice,
20924,BE,5,Maaseik,
20925,BE,2,Hoste,
20926,BE,4,Buck,
20927,BE,4,Mortier,
20928,BE,11,Molenbeek,
20929,BE,5,Vink,
20930,BE,4,Java,
20931,BE,3,Ghislenghien,
20932,BE,8,Spiegel,
20933,BE,4,Lixhe,
20934,BE,9,Hoge,
20935,BE,9,Ingelmunster,
20936,BE,4,Beyne-heusay,
20937,BE,8,Desteldonk,
20938,BE,11,Jette,
20939,BE,2,Werchter,
20940,BE,6,Comté,
20941,BE,3,Belle,
20942,BE,8,Zonnegem,
20943,BE,4,Soumagne,
20944,BE,1,Steenweg,
20945,BE,8,Lede,
20946,BE,3,Louvière,
20947,BE,1,Rijkevorsel,
20948,BE,5,Maasmechelen,
20949,BE,8,Olsene,
20950,BE,1,Lille,
20951,BE,2,Everberg,
20952,BE,11,Bosvoorde,
20953,BE,7,Saint-pierre,
20954,BE,2,Schaerbeek,
20955,BE,8,Tenbos,
20956,BE,7,Fosse,
20957,BE,9,Sint Pieters,
20958,BE,9,Meulebeke,
20959,BE,2,Grez-doiceau,
20960,BE,1,Grobbendonck,
20961,BE,9,Varsenare,
20962,BE,3,Souvret,
20963,BE,8,Assenede,
20964,BE,2,Kobbegem,
20965,BE,2,Laken,
20966,BE,4,Malmédy,
20967,BE,4,Rovert,
20968,BE,4,Aywaille,
20969,BE,3,Frameries,
20970,BE,3,Brugelette,
20971,BE,5,Tessenderloo,
20972,BE,6,Tour,
20973,BE,3,La Louvière,
20974,BE,6,Messancy,
20975,BE,9,Zedelgem,
20976,BE,8,Singel,
20977,BE,2,Tervueren,
20978,BE,2,Lathuy,
20979,BE,9,Spiere,
20980,BE,7,Jambes,
20981,BE,2,Opwijk,
20982,BE,3,Burg,
20983,BE,1,Meerhout,
20984,BE,1,Westerloo,
20985,BE,8,Hamme,
20986,BE,8,Daal,
20987,BE,4,Boing,
20988,BE,7,Paradis,
20989,BE,1,Brecht,
20990,BE,4,Hill,
20991,BE,2,Auderghem,
20992,BE,2,Korbeek-lo,
20993,BE,3,Casteau,
20994,BE,7,Carré,
20995,BE,4,Villers,
20996,BE,4,Dison,
20997,BE,9,Sint-andries,
20998,BE,8,Denderleeuw,
20999,BE,5,Alken,
21000,BE,9,Eernegem,
21001,BE,5,Rijk,
21002,BE,6,Bellevue,
21003,BE,9,Kachtem,
21004,BE,1,Hulst,
21005,BE,2,Broeck,
21006,BE,2,Nieuwenrode,
21007,BE,6,Neufchâteau,
21008,BE,2,Waasmont,
21009,BE,9,Reninge,
21010,BE,7,Lives,
21011,BE,8,Rieme,
21012,BE,1,Eikevliet,
21013,BE,4,Wandre,
21014,BE,2,Vlierbeek,
21015,BE,4,Luik,
21016,BE,1,Borgeind,
21017,BE,3,Ollignies,
21018,BE,9,Blankenberge,
21019,BE,8,Nevele,
21020,BE,1,Rustoord,
21021,BE,4,Walhorn,
21022,BE,7,Naninne,
21023,BE,4,Stavelot,
21024,BE,3,Ramegnies-chin,
21025,BE,4,Villers-le-bouillet,
21026,BE,5,Stalen,
21027,BE,6,Virton,
21028,BE,3,Baileux,
21029,BE,2,La Plaine,
21030,BE,3,Marquain,
21031,BE,3,Forges,
21032,BE,2,Woluwé-saint-pierre,
21033,BE,1,Vorselaar,
21034,BE,6,Marche,
21035,BE,3,Tournay,
21036,BE,8,Busch,
21037,BE,9,Avelgem,
21038,BE,9,Werken,
21039,BE,4,Loncin,
21040,BE,4,Grétry,
21041,BE,4,Momalle,
21042,BE,4,Vottem,
21043,BE,4,Othée,
21044,BE,3,Ham-sur-heure,
21045,BE,1,Beurs,
21046,BE,1,Reeth,
21047,BE,9,Saint Pierre,
21048,BE,8,Beke,
21049,BE,8,Zelzate,
21050,BE,8,Triest,
21051,BE,6,Hallet,
21052,BE,3,Ploegsteert,
21053,BE,9,De Meiboom,
21054,BE,9,Esser,
21055,BE,6,Dolmen,
21056,BE,9,Anzegem,
21057,BE,4,Weissenbrüch,
21058,BE,3,Tourelle,
21059,BE,3,Ardennes,
21060,BE,7,Gedinne,
21061,BE,4,Chevron,
21062,BE,8,Penen,
21063,BE,2,Lambert,
21064,BE,4,Trooz,
21065,BE,1,Wezel,
21066,BE,2,Terlanen,
21067,BE,2,Haas,
21068,BE,8,Kruishoutem,
21069,BE,5,Laak,
21070,BE,6,Roy,
21071,BE,9,Steenbrugge,
21072,BE,7,Croix,
21073,BE,2,De Brug,
21074,BE,3,Constantin,
21075,BE,8,De Vloed,
21076,BE,4,Geer,
21077,BE,2,Wijgmaal,
21078,BE,2,De Mot,
21079,BE,3,Arquennes,
21080,BE,9,Gistel,
21081,BE,2,Bekkevoort,
21082,BE,4,Saint-gilles,
21083,BE,4,Embourg,
21084,BE,1,Wilmarsdonk,
21085,BE,9,Turkije,
21086,BE,1,Bonheiden,
21087,BE,3,Binche,
21088,BE,6,Barvaux,
21089,BE,7,Famenne,
21090,BE,4,Rocourt,
21091,BE,8,Wachtebeke,
21092,BE,3,Gozée,
21093,BE,2,Limal,
21094,BE,4,Hannut,
21095,BE,8,Haven,
21096,BE,3,Sart,
21097,BE,2,Gelrode,
21098,BE,8,Lust,
21099,BE,4,Fexhe,
21100,BE,4,Dolembreux,
21101,BE,1,Hombeek,
21102,BE,2,Molenbeek-saint-jean,
21103,BE,8,Bassevelde,
21104,BE,8,Poel,
21105,BE,8,Afsnee,
21106,BE,3,Herlaimont,
21107,BE,9,Diksmuide,
21108,BE,1,Hemiksem,
21109,BE,4,Tilleur,
21110,BE,8,Westhoek,
21111,BE,5,Ravenshout,
21112,BE,1,Itegem,
21113,BE,8,Geraardsbergen,
21114,BE,1,Dorp,
21115,BE,1,Veldhoven,
21116,BE,4,Hognoul,
21117,BE,4,Grivegnée,
21118,BE,8,Sinaai,
21119,BE,6,Jupille,
21120,BE,8,Haaltert,
21121,BE,4,Saint Georges,
21122,BE,4,Oupeye,
21123,BE,3,Feluy,
21124,BE,6,Champagne,
21125,BE,9,Nieuwpoort,
21126,BE,1,Kruis,
21127,BE,6,Borlon,
21128,BE,9,Knokke,
21129,BE,7,Mont,
21130,BE,2,Mont-saint-guibert,
21131,BE,3,Blaton,
21132,BE,4,Polleur,
21133,BE,3,Florent,
21134,BE,7,Florennes,
21135,BE,8,Lovendegem,
21136,BE,8,Linde,
21137,BE,1,Nieuwland,
21138,BE,1,Herenthout,
21139,BE,3,Bath,
21140,BE,7,Bouge,
21141,BE,1,Oostmalle,
21142,BE,9,Ingooigem,
21143,BE,2,Erps-kwerps,
21144,BE,7,Samson,
21145,BE,2,Rode,
21146,BE,3,Ghlin,
21147,BE,1,Kasterlee,
21148,BE,2,Duisburg,
21149,BE,1,Walcourt,
21150,BE,2,Gooik,
21151,BE,7,Belgrade,
21152,BE,7,Assesse,
21153,BE,4,Ougrée,
21154,BE,8,Herzele,
21155,BE,5,Kuringen,
21156,BE,1,Broechem,
21157,BE,8,Sint-gillis-waas,
21158,BE,9,Sint-kruis,
21159,BE,2,Braine-le-château,
21160,BE,1,Zandstraat,
21161,BE,1,Retie,
21162,BE,6,Marche-en-famenne,
21163,BE,3,Trazegnies,
21164,BE,9,Leffinge,
21165,BE,5,Nieuwerkerken,
21166,BE,5,Riemst,
21167,BE,7,Rochefort,
21168,BE,3,Luttre,
21169,BE,8,Sint-lievens-esse,
21170,BE,1,Hove,
21171,BE,3,Pont-à-celles,
21172,BE,5,Lanklaar,
21173,BE,8,Baasrode,
21174,BE,8,Nederzwijnaarde,
21175,BE,2,Kaggevinne,
21176,BE,8,Belsele,
21177,BE,4,Ovifat,
21178,BE,4,Amay,
21179,BE,3,Les Binches,
21180,BE,1,Zoersel,
21181,BE,8,Heine,
21182,BE,4,Malterie,
21183,BE,7,Isnes,
21184,BE,2,Communes,
21185,BE,3,Ligne,
21186,BE,1,Sluys,
21187,BE,2,Delle,
21188,BE,4,Awans,
21189,BE,4,Chênée,
21190,BE,8,Veldstraat,
21191,BE,3,Blandain,
21192,BE,4,La Chapelle,
21193,BE,7,Floreffe,
21194,BE,4,Boncelles,
21195,BE,4,Baelen,
21196,BE,4,Petit-rechain,
21197,BE,7,Jemeppe,
21198,BE,3,Heppignies,
21199,BE,4,Thimister,
21200,BE,2,Testelt,
21201,BE,3,Andrimont,
21202,BE,7,Maredsous,
21203,BE,3,Estaimpuis,
21204,BE,3,Ellezelles,
21205,BE,2,Genappe,
21206,BE,8,Berlare,
21207,BE,2,Pepingen,
21208,BE,3,Jurbise,
21209,BE,9,Dentergem,
21210,BE,1,Wuustwezel,
21211,BE,4,Saint-nicolas,
21212,BE,4,Waremme,
21213,BE,4,Oreye,
21214,BE,4,Fexhe-le-haut-clocher,
21215,BE,4,Donceel,
21216,BE,4,Wasseiges,
21217,BE,4,Crisnée,
21218,BE,4,Ans,
21219,BE,4,Bassenge,
21220,BE,2,Zemst,
21221,BE,3,Chièvres,
21222,BE,8,Zingem,
21223,BE,3,Anderlues,
21224,BE,2,Geetbets,
21225,BE,2,Villers-la-ville,
21226,BE,8,Haasdonk,
21227,BE,6,Vielsalm,
21228,BE,7,Yvoir,
21229,BE,6,Nassogne,
21230,BE,3,Thuin,
21231,BE,3,Beaumont,
21232,BE,4,Olne,
21233,BE,4,Juprelle,
21234,BE,1,Berlaar,
21235,BE,1,Oud-turnhout,
21236,BE,3,Farciennes,
21237,BE,4,Lincent,
21238,BE,4,Stoumont,
21239,BE,9,Ledegem,
21240,BE,9,Lichtervelde,
21241,BE,5,Kortessem,
21242,BE,8,Zulte,
21243,BE,8,Wortegem,
21244,BE,1,Stabroek,
21245,BE,5,Boorsem,
21246,BE,8,Boucle-saint Denis,
21247,BE,1,Herselt,
21248,BE,9,Kortemark,
21249,BE,5,Gingelom,
21250,BE,2,Messelbroek,
21251,BE,1,Mol,
21252,BE,3,Lobbes,
21253,BE,3,Chapelle-lez-herlaimont,
21254,BE,8,Sint-lievens-houtem,
21255,BE,9,Lendelede,
21256,BE,4,Esneux,
21257,BE,4,Nandrin,
21258,BE,2,Plancenoit,
21259,BE,7,Anhée,
21260,BE,6,Sainte-ode,
21261,BE,6,Libin,
21262,BE,6,Léglise,
21263,BE,6,Daverdisse,
21264,BE,6,Tellin,
21265,BE,3,Saint-ghislain,
21266,BE,3,Hensies,
21267,BE,3,Péruwelz,
21268,BE,3,Beloeil,
21269,BE,2,Neuville,
21270,BE,4,Verlaine,
21271,BE,4,Tinlot,
21272,BE,6,Tintigny,
21273,BE,6,Wellin,
21274,BE,6,Vaux-sur-sûre,
21275,BE,6,Saint-léger,
21276,BE,6,Hotton,
21277,BE,6,Habay,
21278,BE,7,Houyet,
21279,BE,8,Waarschoot,
21280,BE,1,Borsbeek,
21281,BE,1,Ranst,
21282,BE,3,Bernissart,
21283,BE,9,Moorslede,
21284,BE,3,Merbes-le-château,
21285,BE,3,Brunehaut,
21286,BE,3,Lens,
21287,BE,8,Zomergem,
21288,BE,3,Braine-le-comte,
21289,BE,3,Ath,
21290,BE,4,Neundorf,
21291,BE,4,Hamoir,
21292,BE,3,Silly,
21293,BE,6,Manhay,
21294,BE,4,Amel,
21295,BE,2,Huldenberg,
21296,BE,4,Spa,
21297,BE,4,Fléron,
21298,BE,6,Durbuy,
21299,BE,7,Hamois,
21300,BE,2,Wommersom,
21301,BE,8,Moerbeke,
21302,BE,9,Zuienkerke,
21303,BE,9,Oudenburg,
21304,BE,5,Zepperen,
21305,BE,5,Heers,
21306,BE,5,Meeuwen,
21307,BE,2,Strijtem,
21308,BE,9,Oedelem,
21309,BE,2,Galmaarden,
21310,BE,5,Gruitrode,
21311,BE,5,Leuth,
21312,BE,9,Koekelare,
21313,BE,9,Oostduinkerke,
21314,BE,9,De Panne,
21315,BE,8,Impe,
21316,BE,8,Serskamp,
21317,BE,8,Bavegem,
21318,BE,1,Koningshooikt,
21319,BE,9,Hulste,
21320,BE,9,Alveringem,
21321,BE,1,Niel,
21322,BE,4,Braives,
21323,BE,2,Bierbeek,
21324,BE,3,Châtelet,
21325,BE,2,Herne,
21326,BE,6,Attert,
21327,BE,4,Ferrières,
21328,BE,6,Bertrix,
21329,BE,3,Boussu,
21330,BE,3,Rumillies,
21331,BE,6,Martelange,
21332,BE,2,Kortenaken,
21333,BE,3,Colfontaine,
21334,BE,3,Dour,
21335,BE,3,Sirault,
21336,BE,6,Étalle,
21337,BE,6,Fauvillers,
21338,BE,8,Wichelen,
21339,BE,2,Chastre,
21340,BE,6,Tenneville,
21341,BE,3,Strépy-bracquegnies,
21342,BE,7,Profondeville,
21343,BE,5,Roesterberg,
21344,BE,9,Bredene,
21345,BE,9,Ostend,
21346,BE,7,Doische,
21347,BE,7,Ohey,
21348,BE,7,Beauraing,
21349,BE,9,Ichtegem,
21350,BE,9,Houthulst,
21351,BE,2,Court-saint-Étienne,
21352,BE,9,Stavele,
21353,BE,9,Westende,
21354,BE,4,Jalhay,
21355,BE,9,Woesten,
21356,BE,8,Burst,
21357,BE,4,Comblain-au-pont,
21358,BE,3,Mellet,
21359,BE,2,Incourt,
21360,BE,8,Zandbergen,
21361,BE,8,Voorde,
21362,BE,3,Flobecq,
21363,BE,7,Sombreffe,
21364,BE,3,Wadelincourt,
21365,BE,4,Huy,
21366,BE,7,Éghezée,
21367,BE,1,Oppuurs,
21368,BE,2,Malderen,
21369,BE,2,Brussegem,
21370,BE,8,Beervelde,
21371,BE,5,As,
21372,BE,8,Waasmunster,
21373,BE,5,Helchteren,
21374,BE,9,Beernem,
21375,BE,4,Awirs,
21376,BE,4,Saive,
21377,BE,3,Couillet,
21378,BE,3,Gerpinnes,
21379,BE,9,Zonnebeke,
21380,BE,9,Mesen,
21381,BE,7,Hastière,
21382,BE,4,Lierneux,
21383,BE,6,Ville,
21384,BE,6,Paliseul,
21385,BE,4,Sprimont,
21386,BE,7,Havelange,
21387,BE,6,Herbeumont,
21388,BE,3,Ville-sur-haine,
21389,BE,4,Butgenbach,
21390,BE,4,Marchin,
21391,BE,7,Mettet,
21392,BE,7,Cerfontaine,
21393,BE,3,Antoing,
21394,BE,3,Molenbaix,
21395,BE,3,Rumes,
21396,BE,4,Theux,
21397,BE,6,Gouvy,
21398,BE,4,Pepinster,
21399,BE,4,Tilff,
21400,BE,2,Bonlez,
21401,BE,6,Le Faubourg,
21402,BE,7,Wépion,
21403,BE,6,Habay-la-neuve,
21404,BE,7,Gesves,
21405,BE,1,Heffen,
21406,BE,2,Tildonk,
21407,BE,2,Dworp,
21408,BE,2,Lot,
21409,BE,8,Schorisse,
21410,BE,9,Wijtschate,
21411,BE,2,Zichem,
21412,BE,2,Tollembeek,
21413,BE,6,Champlon,
21414,BE,8,Kaprijke,
21415,BE,8,Vlierzele,
21416,BE,2,Strombeek-bever,
21417,BE,5,Achel,
21418,BE,8,Kerksken,
21419,BE,1,Wiekevorst,
21420,BE,8,Ursel,
21421,BE,1,Baarle-hertog,
21422,BE,1,Wortel,
21423,BE,4,Burdinne,
21424,BE,4,Berloz,
21425,BE,2,Braine-l'alleud,
21426,BE,3,Bois-de-lessines,
21427,BE,3,Evregnies,
21428,BE,7,Leuze,
21429,BE,3,Basècles,
21430,BE,7,La Croisette,
21431,BE,7,Oret,
21432,BE,7,Natoye,
21433,BE,4,Clavier,
21434,BE,7,Couvin,
21435,BE,3,Maurage,
21436,BE,4,Ouffet,
21437,BE,4,Retinne,
21438,BE,3,Ransart,
21439,BE,3,Beignée,
21440,BE,7,Velaine,
21441,BE,7,Tamines,
21442,BE,7,Falisolle,
21443,BE,3,Forchies-la-marche,
21444,BE,9,Sint-eloois-winkel,
21445,BE,4,Warzée,
21446,BE,7,Flawinne,
21447,BE,4,Waimes,
21448,BE,7,La Bruyère,
21449,BE,7,Thy-le-château,
21450,BE,2,Quenast,
21451,BE,3,Frasnes-lez-gosselies,
21452,BE,3,Pecq,
21453,BE,7,Tongrinne,
21454,BE,3,Quiévrain,
21455,BE,9,Kemmel,
21456,BE,9,Vichte,
21457,BE,3,Celles,
21458,BE,2,Teralfene,
21459,BE,1,Den Veind,
21460,BE,4,Reuland,
21461,BE,9,Passendale,
21462,BE,3,Tréquière,
21463,BE,7,Somzée,
21464,BE,7,Somme-leuze,
21465,BE,8,Deftinge,
21466,BE,3,Fontaine-valmont,
21467,BE,3,Nalinnes,
21468,BE,3,Bouffioulx,
21469,BE,5,Velm,
21470,BE,9,Sint-michiels,
21471,BE,8,Ham,
21472,BE,8,Landskouter,
21473,BE,1,Morkhoven,
21474,BE,1,Berendrecht,
21475,BE,8,Kemzeke,
21476,BE,8,Overmere,
21477,BE,8,Welle,
21478,BE,9,Koolkerke,
21479,BE,8,Oost-eecloo,
21480,BE,2,Steenhuffel,
21481,BE,8,Outer,
21482,BE,9,Reningelst,
21483,BE,2,Houtain-le-val,
21484,BE,3,Obourg,
21485,BE,2,Sclage,
21486,BE,6,Petite Somme,
21487,BE,3,Carnières,
21488,BE,7,Onhaye,
21489,BE,7,Wierde,
21490,BE,4,Rotheux,
21491,BE,5,Vucht,
21492,BE,5,Uikhoven,
21493,BE,5,Eksel,
21494,BE,5,Achter Den Kraanberg,
21495,BE,6,Bouillon,
21496,BE,3,Mourcourt,
21497,BE,3,Brasmenil,
21498,BE,3,Leval,
21499,BE,5,Neeroeteren,
21500,BE,5,De Broeken,
21501,BE,9,Arme Leut,
21502,BE,2,Blanden,
21503,BE,5,Vorsen,
21504,BE,3,Maubray,
21505,BE,3,Havré,
21506,BE,3,Templeuve,
21507,BE,8,Uitbergen,
21508,BE,8,Zaffelare,
21509,BE,2,De Zavelbemden,
21510,BE,2,Drieslinter,
21511,BE,6,Châtillon,
21512,BE,2,Ophain,
21513,BE,2,Tourinnes,
21514,BE,6,Houffalize,
21515,BE,8,Zulzeke,
21516,BE,8,Gijzegem,
21517,BE,8,Iddergem,
21518,BE,8,Sint-laureins,
21519,BE,1,Heezemeir Heide,
21520,BE,2,Limelette,
21521,BE,7,Philippeville,
21522,BE,3,Cuesmes,
21523,BE,3,Saint-vaast,
21524,BE,4,Anthisnes,
21525,BE,3,Jamioulx,
21526,BE,3,Châtelineau,
21527,BE,3,Mont-sur-marchienne,
21528,BE,7,Auvelais,
21529,BE,3,Leernes,
21530,BE,9,De Cappelle Weyden,
21531,BE,3,Thiméon,
21532,BE,3,Dergneau,
21533,BE,8,Sleidinge,
21534,BE,8,Sint-pauwels,
21535,BE,3,Montignies-saint-christophe,
21536,BE,9,Rollegem-kapelle,
21537,BE,4,Beaufays,
21538,BE,6,Bertogne,
21539,BE,4,Hermée,
21540,BE,3,Taintignies,
21541,BE,8,Nieuwkerken-waas,
21542,BE,3,Brye,
21543,BE,3,Marchienne-au-pont,
21544,BE,3,Monceau-sur-sambre,
21545,BE,3,Warneton,
21546,BE,5,Vliermaal,
21547,BE,5,Mechelen-aan-de-maas,
21548,BE,8,Brugge,
21549,BE,4,Francorchamps,
21550,BE,2,Sint-joris-weert,
21551,BE,2,Koningslo,
21552,BE,3,Houdeng-goegnies,
21553,BE,6,Rendeux,
21554,BE,7,Sovet,
21555,BE,1,Onze-lieve-vrouw-waver,
21556,BE,2,Lovenjoel,
21557,BE,9,Poelkapelle,
21558,BE,9,Sint-eloois-vijve,
21559,BE,5,Waltwilder,
21560,BE,2,Molenbeek-wersbeek,
21561,BE,6,Sensenruth,
21562,BE,8,Eeuwhoek,
21563,BE,8,Etikhove,
21564,BE,9,Oostvleteren,
21565,BE,8,Adegem,
21566,BE,8,Kluizen,
21567,BE,1,Peulis,
21568,BE,5,Nerem,
21569,BE,2,Neervelp,
21570,BE,8,Walem,
21571,BE,8,Appels,
21572,BE,8,Watervliet,
21573,BE,1,Poppel,
21574,BE,3,Thoricourt,
21575,BE,7,Petit Sart,
21576,BE,7,Liernu,
21577,BE,3,Spiennes,
21578,BE,6,Plainevaux,
21579,BE,3,Wagnelée,
21580,BE,3,Roselies,
21581,BE,3,Fontaine-l'eveque,
21582,BE,6,Suxy,
21583,BE,9,Moen,
21584,BE,5,Reppel,
21585,BE,2,Monceau De Berger,
21586,BE,9,Aartrijke,
21587,BE,6,Izel,
21588,BE,2,Tilly,
21589,BE,8,Mere,
21590,BE,2,Schepdaal,
21591,BE,2,Hekelgem,
21592,BE,8,De Klinge,
21593,BE,8,Nederhasselt,
21594,BE,4,Louveigné,
21595,BE,2,Glimes,
21596,BE,3,Gouy-lez-piéton,
21597,BE,3,Wanfercée-baulet,
21598,BE,3,Wangenies,
21599,BE,3,Landelies,
21600,BE,1,Hoevenen,
21601,BE,2,Neerijse,
21602,BE,8,Zegelsem,
21603,BE,6,Érezée,
21604,BE,3,Chemin Vert,
21605,BE,4,Honsfeld,
21606,BE,2,Louvain-la-neuve,
21607,BE,4,Fexhe-slins,
21608,BE,4,Warsage,
21609,BE,4,Bellaire,
21610,BE,4,Maldingen,
21611,BE,3,Marcq,
21612,BE,4,Plainevaux,
21613,BE,11,Ganshoren,
21614,BE,9,Assebroek,
21615,BE,2,Baal,
21616,BE,2,Pellenberg,
21617,BE,8,Oosteeklo,
21618,BE,8,Herdersem,
21619,BE,9,Beselare,
21620,BE,9,Proven,
21621,BE,9,Roesbrugge,
21622,BE,9,Wenduine,
21623,BE,4,Grüfflingen,
21624,BE,9,Loker,
21625,BE,2,Waanrode,
21626,BE,8,Munkzwalm,
21627,BE,5,Vechmaal,
21628,BE,9,Oostnieuwkerke,
21629,BE,2,Perk,
21630,BE,5,Stevoort,
21631,BE,3,Erbisoeul,
21632,BE,2,Wakkerzeel,
21633,BE,4,Hermalle-sous-huy,
21634,BE,7,Tillier,
21635,BE,4,Velroux,
21636,BE,3,Herseaux,
21637,BE,1,Houthem,
21638,BE,8,Oudegem,
21639,BE,2,Neder-over-heembeek,
21640,BE,8,Moortsele,
21641,BE,7,Vencimont,
21642,BE,7,Hingeon,
21643,BE,7,Saint-germain,
21644,BE,8,Huise,
21645,BE,3,Gibecq,
21646,BE,9,Vlamertinge,
21647,BE,2,Attenrode-wever,
21648,BE,9,Adinkerke,
21649,BE,2,Itterbeek,
21650,BE,8,Dikkelvenne,
21651,BE,8,Zarlardinge,
21652,BE,5,Kaulille,
21653,BE,2,Webbekom,
21654,BE,9,Hollebeke,
21655,BE,8,Oppem,
21656,BE,4,Haccourt,
21657,BE,4,Cheratte,
21658,BE,4,Melen,
21659,BE,3,Aiseau,
21660,BE,3,Chapelle,
21661,BE,1,Parwijs,
21662,BE,3,Gognie,
21663,BE,4,Hauset,
21664,BE,3,Virelles,
21665,BE,3,Hautrage,
21666,BE,6,Halanzy,
21667,BE,4,Acosse,
21668,BE,2,Céroux-mousty,
21669,BE,5,Beverlo,
21670,BE,2,Okselaar,
21671,BE,2,Kester,
21672,BE,8,Asper,
21673,BE,5,Opgrimbie,
21674,BE,2,Eppegem,
21675,BE,2,Weerde,
21676,BE,1,Kessel,
21677,BE,8,Oosthoek,
21678,BE,9,Rumbeke,
21679,BE,5,Schulen,
21680,BE,5,Heusden,
21681,BE,8,Okegem,
21682,BE,9,Zandvoorde,
21683,BE,2,Vissenaken,
21684,BE,1,Liezele,
21685,BE,8,Merendree,
21686,BE,8,Ronsele,
21687,BE,2,Leefdaal,
21688,BE,1,Olmen,
21689,BE,1,Meersel,
21690,BE,1,Minderhout,
21691,BE,9,Rollegem,
21692,BE,8,Petegem,
21693,BE,3,Néchin,
21694,BE,3,Neufvilles,
21695,BE,3,Bonne Haie,
21696,BE,3,Loverval,
21697,BE,3,Trivières,
21698,BE,4,Vaux-sous-chèvremont,
21699,BE,7,Monceau,
21700,BE,3,L'escaillere,
21701,BE,9,Ramskapelle,
21702,BE,2,Nieuwrode,
21703,BE,3,Barbençon,
21704,BE,8,Kerkem,
21705,BE,8,Steendorp,
21706,BE,9,Vlissegem,
21707,BE,3,Écaussinnes-lalaing,
21708,BE,7,Gourdinne,
21709,BE,3,Villers-perwin,
21710,BE,9,Langemark,
21711,BE,3,Brigande,
21712,BE,5,Grote-brogel,
21713,BE,1,Bouwel,
21714,BE,8,Rupelmonde,
21715,BE,4,Remouchamps,
21716,BE,7,Sart-bernard,
21717,BE,2,Haute Noucelle,
21718,BE,3,Froyennes,
21719,BE,3,Haine-saint-pierre,
21720,BE,4,Modave,
21721,BE,4,Fraipont,
21722,BE,6,Bleid,
21723,BE,3,Stambruges,
21724,BE,7,Biesme,
21725,BE,7,Spy,
21726,BE,8,Moerzeke,
21727,BE,2,Willebringen,
21728,BE,9,Kooigem,
21729,BE,8,Elst,
21730,BE,8,Bazel,
21731,BE,1,Burcht,
21732,BE,8,Denderhoutem,
21733,BE,8,Bambrugge,
21734,BE,3,Goutroux,
21735,BE,8,Wanzele,
21736,BE,9,Bavikhove,
21737,BE,7,Corroy-le-château,
21738,BE,3,Quevaucamps,
21739,BE,3,Thulin,
21740,BE,9,Moorseele,
21741,BE,5,Kerkhoven,
21742,BE,5,Kerkom,
21743,BE,4,Stembert,
21744,BE,5,Hoelbeek,
21745,BE,8,Eke,
21746,BE,8,Nokere,
21747,BE,9,Waardamme,
21748,BE,9,Westouter,
21749,BE,2,Korbeek-dijle,
21750,BE,3,Thieu,
21751,BE,9,Uitkerke,
21752,BE,2,Assent,
21753,BE,2,Vollezele,
21754,BE,5,Wijshagen,
21755,BE,1,Boekel,
21756,BE,2,Nederokkerzeel,
21757,BE,7,Sart-eustache,
21758,BE,3,Rance,
21759,BE,6,La Roche-en-ardenne,
21760,BE,5,Vlijtingen,
21761,BE,8,Smetlede,
21762,BE,8,Nukerke,
21763,BE,2,Ramsdonk,
21764,BE,9,Le Bizet,
21765,BE,3,Lamain,
21766,BE,2,Énines,
21767,BE,6,Les Fossés,
21768,BE,7,Upigny,
21769,BE,2,Lembeek,
21770,BE,1,Pulderbos,
21771,BE,1,Gierle,
21772,BE,5,Membruggen,
21773,BE,2,Sint-agatha-rode,
21774,BE,1,Schoorsche Heide,
21775,BE,3,Flénu,
21776,BE,3,Bracquegnies,
21777,BE,3,Haine,
21778,BE,8,Meerdonk,
21779,BE,7,Hanzinne,
21780,BE,3,Buissenal,
21781,BE,3,Frasnes,
21782,BE,4,Tavier,
21783,BE,2,Maransart,
21784,BE,8,Den Berg,
21785,BE,3,Presles,
21786,BE,3,Godarville,
21787,BE,9,Lissewege,
21788,BE,8,Eksaarde,
21789,BE,4,Andrimont,
21790,BE,9,Bissegem,
21791,BE,4,Plateau,
21792,BE,3,Bois,
21793,BE,3,Chimay,
21794,BE,3,Fayt-lez-manage,
21795,BE,3,Élouges,
21796,BE,5,Elen,
21797,BE,5,Geneut,
21798,BE,5,Borlo,
21799,BE,9,Woumen,
21800,BE,7,Bièvre,
21801,BE,3,Biercée,
21802,BE,8,Zeveneken,
21803,BE,5,Montenaken,
21804,BE,9,Dudzele,
21805,BE,9,Vladslo,
21806,BE,2,Schaffen,
21807,BE,6,Anlier,
21808,BE,8,Hansbeke,
21809,BE,4,Bombaye,
21810,BE,7,Grand-leez,
21811,BE,3,Popuelles,
21812,BE,3,Wasmes,
21813,BE,8,Deurle,
21814,BE,5,Wilderen,
21815,BE,4,Richelle,
21816,BE,6,Meix-le-tige,
21817,BE,4,Saint-georges,
21818,BE,6,Vance,
21819,BE,7,Sauvenière,
21820,BE,9,Lombardsijde,
21821,BE,2,Ottenburg,
21822,BE,1,Wechelderzande,
21823,BE,9,Veldegem,
21824,BE,3,Deux-acren,
21825,BE,3,Leuze,
21826,BE,6,Hachy,
21827,BE,6,Musson,
21828,BE,3,Henripont,
21829,BE,3,Nimy,
21830,BE,3,Pironchamps,
21831,BE,7,Presgaux,
21832,BE,2,Hamme-mille,
21833,BE,4,Recht,
21834,BE,4,Charneux,
21835,BE,1,Daussois,
21836,BE,7,Laneffe,
21837,BE,9,Zarren,
21838,BE,5,Lilo,
21839,BE,9,Koolskamp,
21840,BE,3,Ormeignies,
21841,BE,7,Bure,
21842,BE,7,Arbre,
21843,BE,2,Vossem,
21844,BE,6,Transinne,
21845,BE,8,Idegem,
21846,BE,9,Westkapelle,
21847,BE,1,Vremde,
21848,BE,8,Baardegem,
21849,BE,3,Petit-roeulx-lez-nivelles,
21850,BE,8,Pollare,
21851,BE,4,Slins,
21852,BE,7,Bioul,
21853,BE,6,Recogne,
21854,BE,7,Spontin,
21855,BE,5,Neerglabbeek,
21856,BE,1,Viersel,
21857,BE,5,Bolderberg,
21858,BE,7,Beuzet,
21859,BE,8,Boekauter,
21860,BE,7,Le Roux,
21861,BE,7,Saint-gérard,
21862,BE,2,Corroy-le-grand,
21863,BE,3,Jemappes,
21864,BE,5,Hees,
21865,BE,5,Veldwezelt,
21866,BE,4,Jemeppe,
21867,BE,5,Beverst,
21868,BE,2,Ophain-bois-seigneur-isaac,
21869,BE,3,Huissignies,
21870,BE,4,Tignée,
21871,BE,3,Erquelinnes,
21872,BE,7,Temploux,
21873,BE,9,Oekene,
21874,BE,1,Beerzel,
21875,BE,5,Guigoven,
21876,BE,8,Neigem,
21877,BE,1,Rymenam,
21878,BE,2,Wezemaal,
21879,BE,8,Schellebelle,
21880,BE,2,Nethen,
21881,BE,7,Meux,
21882,BE,3,Naast,
21883,BE,4,Queue-du-bois,
21884,BE,3,Strée,
21885,BE,2,Cortil-noirmont,
21886,BE,7,Clermont,
21887,BE,2,Noduwez,
21888,BE,4,Faymonville,
21889,BE,2,Opheylissem,
21890,BE,7,Hanzinelle,
21891,BE,4,Wegnez,
21892,BE,3,Havay,
21893,BE,7,Balâtre,
21894,BE,5,Spiekelspade,
21895,BE,5,Hoever Heide,
21896,BE,1,Blaasveld,
21897,BE,8,Sint-jan-in-eremo,
21898,BE,2,Betekom,
21899,BE,1,Heeze,
21900,BE,2,Mellery,
21901,BE,4,Hermalle-sous-argenteau,
21902,BE,4,Neudorf,
21903,BE,4,Couthuin,
21904,BE,4,Antheit,
21905,BE,5,Opheers,
21906,BE,9,Leke,
21907,BE,8,Bellem,
21908,BE,8,Overboelare,
21909,BE,2,Attenhoven,
21910,BE,2,Kersbeek,
21911,BE,5,Opoeteren,
21912,BE,1,Vlimmeren,
21913,BE,7,Vitrival,
21914,BE,8,Vlekkem,
21915,BE,3,Ciply,
21916,BE,3,Saint-symphorien,
21917,BE,5,Gellik,
21918,BE,5,Rosmeer,
21919,BE,8,Mullem,
21920,BE,9,Elverdinge,
21921,BE,3,Quévy-le-petit,
21922,BE,3,Rèves,
21923,BE,3,Havinnes,
21924,BE,3,Piéton,
21925,BE,6,Meix-devant-virton,
21926,BE,8,Grammene,
21927,BE,2,Humbeek,
21928,BE,5,Meldert,
21929,BE,8,Tielrode,
21930,BE,1,Walem,
21931,BE,9,Merkem,
21932,BE,2,Caturiaux,
21933,BE,7,Maillen,
21934,BE,6,Sterpenich,
21935,BE,7,Ligny,
21936,BE,7,Émines,
21937,BE,3,Steenkerque,
21938,BE,3,Obaix,
21939,BE,7,Bois-de-villers,
21940,BE,7,Lesve,
21941,BE,2,Orp-le-grand,
21942,BE,7,Sautour,
21943,BE,3,Macon,
21944,BE,4,Sankt-vith,
21945,BE,3,Thuillies,
21946,BE,4,Dalhem,
21947,BE,2,Rummen,
21948,BE,3,Graty,
21949,BE,4,Terwagne,
21950,BE,9,Heestert,
21951,BE,3,Genly,
21952,BE,4,Merdorp,
21953,BE,2,Gentinnes,
21954,BE,4,Membach,
21955,BE,3,Cour-sur-heure,
21956,BE,7,Winenne,
21957,BE,5,Kerniel,
21958,BE,8,Appelterre-eichem,
21959,BE,3,Viesville,
21960,BE,2,Sart-dames-avelines,
21961,BE,3,Wez-velvain,
21962,BE,11,Brussels,b -1050
21963,BE,3,La Hestre,
21964,BE,8,Balegem,
21965,BE,8,Landegem,
21966,BE,9,Houtave,
21967,BE,3,Boussoit,
21968,BE,5,Ophoven,
21969,BE,5,Kessenich,
21970,BE,7,Gougnies,
21971,BE,7,Vezin,
21972,BE,9,Tiegem,
21973,BE,3,Bersillies-l'abbaye,
21974,BE,3,Chapelle-à-oie,
21975,BE,4,Wanne,
21976,BE,6,Muno,
21977,BE,6,Dohan,
21978,BE,6,Rulles,
21979,BE,9,Egem,
21980,BE,9,Oeselgem,
21981,BE,3,Hellebecq,
21982,BE,7,Onoz,
21983,BE,7,Courrière,
21984,BE,6,Latour,
21985,BE,4,Xhoris,
21986,BE,7,Namêche,
21987,BE,7,Warnant,
21988,BE,7,Dave,
21989,BE,2,Piétrebais,
21990,BE,7,Mazy,
21991,BE,3,Donstiennes,
21992,BE,4,Mortroux,
21993,BE,2,Jauche,
21994,BE,9,Hertsberge,
21995,BE,3,Roucourt,
21996,BE,1,Loenhout,
21997,BE,3,Cambron-casteau,
21998,BE,8,Meldert,
21999,BE,8,Aaigem,
22000,BE,3,Boignée,
22001,BE,2,Hannonsart,
22002,BE,7,Bruyère,
22003,BE,4,Bas-oha,
22004,BE,4,Jehay,
22005,BE,4,Wonck,
22006,BE,4,Lantin,
22007,BE,7,Vedrin,
22008,BE,3,Pâturages,
22009,BE,3,Bas-warneton,
22010,BE,5,Wijchmaal,
22011,BE,2,Opprebais,
22012,BE,3,Bray,
22013,BE,3,Maisières,
22014,BE,8,Oordegem,
22015,BE,8,Zeveren,
22016,BE,2,Berchem-sainte-agathe,
22017,BE,8,Hermelgem,
22018,BE,8,Vinderhoute,
22019,BE,3,Leval-trahegnies,
22020,BE,9,Snellegem,
22021,BE,5,Kozen,
22022,BE,2,Neerlinter,
22023,BE,2,Molenstede,
22024,BE,5,Ellikom,
22025,BE,6,Haut-fays,
22026,BE,6,Neuvillers,
22027,BE,4,Poulseur,
22028,BE,3,Ressaix,
22029,BE,7,Mariembourg,
22030,BE,3,Vergnies,
22031,BE,2,Grootlo,
22032,BE,7,Cortil-wodon,
22033,BE,2,Kersbeek-miskom,
22034,BE,3,Waasten,
22035,BE,1,Housie,
22036,BE,4,Ayeneux,
22037,BE,4,Hermalle,
22038,BE,1,Tongerlo,
22039,BE,8,Scheldewindeke,
22040,BE,7,Surice,
22041,BE,7,Merlemont,
22042,BE,3,Mignault,
22043,BE,9,Watou,
22044,BE,9,Dadizele,
22045,BE,9,Aarsele,
22046,BE,7,Haversin,
22047,BE,6,Saint-vincent,
22048,BE,6,Rachecourt,
22049,BE,2,Mont-saint-andré,
22050,BE,7,Waillet,
22051,BE,6,Dampicourt,
22052,BE,6,Udange,
22053,BE,7,Franière,
22054,BE,7,Falaën,
22055,BE,2,Bousval,
22056,BE,7,Faulx,
22057,BE,3,Givry,
22058,BE,3,Escanaffles,
22059,BE,4,Racour,
22060,BE,4,Moresnet,
22061,BE,6,Ruette,
22062,BE,1,Zandvliet,
22063,BE,2,Loonbeek,
22064,BE,2,Watermael-boitsfort,
22065,BE,8,Schelderode,
22066,BE,1,Eindhout,
22067,BE,4,Berneau,
22068,BE,3,Houdeng-aimeries,
22069,BE,2,Perbais,
22070,BE,7,Boninne,
22071,BE,3,Estinnes-au-mont,
22072,BE,2,Lillois-witterzée,
22073,BE,2,Pecrot,
22074,BE,4,Kettenis,
22075,BE,6,Saint-mard,
22076,BE,4,Eben-emael,
22077,BE,4,Micheroux,
22078,BE,4,Wihogne,
22079,BE,3,Bienne-lez-happart,
22080,BE,3,Lambusart,
22081,BE,2,Sint-laureins-berchem,
22082,BE,2,Laeken,
22083,BE,8,Boekhoute,
22084,BE,2,Overhespen,
22085,BE,2,Oisquercq,
22086,BE,8,Welden,
22087,BE,8,Grembergen,
22088,BE,7,Roly,
22089,BE,5,Heppen,
22090,BE,3,Braffe,
22091,BE,3,Saint-sauveur,
22092,BE,7,Forville,
22093,BE,2,Huppaye,
22094,BE,7,Graide,
22095,BE,3,Harchies,
22096,BE,3,Aulnois,
22097,BE,3,Velaines,
22098,BE,3,Bon-secours,
22099,BE,3,Bury,
22100,BE,2,Saint-géry,
22101,BE,3,Villerot,
22102,BE,3,Wiers,
22103,BE,3,Acoz,
22104,BE,3,Oeudeghien,
22105,BE,3,Momignies,
22106,BE,3,Rongy,
22107,BE,7,Vierves,
22108,BE,7,Bothey,
22109,BE,2,Folx-les-caves,
22110,BE,4,Bolland,
22111,BE,7,Crupet,
22112,BE,6,Beho,
22113,BE,1,De Dreef,
22114,BE,4,La Calamine,
22115,BE,3,Ladeuze,
22116,BE,6,Tohogne,
22117,BE,4,Weywertz,
22118,BE,9,Outrijve,
22119,BE,5,Weert,
22120,BE,2,Mazenzele,
22121,BE,8,Heldergem,
22122,BE,4,Vinalmont,
22123,BE,4,Plombières,
22124,BE,3,Merbes-sainte-marie,
22125,BE,2,Jodoigne-souveraine,
22126,BE,2,Tangissart,
22127,BE,4,Hergenrath,
22128,BE,4,Montzen,
22129,BE,6,Les Bulles,
22130,BE,2,Essene,
22131,BE,9,De Klijte,
22132,BE,3,Gallaix,
22133,BE,3,Frasnes-lez-buissenal,
22134,BE,4,Clermont-sous-huy,
22135,BE,4,Henri-chapelle,
22136,BE,2,Lumay,
22137,BE,4,Houtain-saint-siméon,
22138,BE,1,Hingene,
22139,BE,2,Kortrijk-dutsel,
22140,BE,8,Opdorp,
22141,BE,3,Ramecroix,
22142,BE,4,Voroux-lez-liers,
22143,BE,6,Éthe,
22144,BE,2,Sint-pieters-woluwe,
22145,BE,3,Esplechin,
22146,BE,4,Hodeige,
22147,BE,5,Teuven,
22148,BE,5,Engelmanshoven,
22149,BE,4,Ampsin,
22150,BE,5,Stal,
22151,BE,6,Villers-sur-semois,
22152,BE,3,Erquennes,
22153,BE,3,Fayt-le-franc,
22154,BE,2,Neerhespen,
22155,BE,6,Sampont,
22156,BE,6,Wolkrange,
22157,BE,7,Marche-les-dames,
22158,BE,3,Waudrez,
22159,BE,6,Nadrin,
22160,BE,2,Doiceau,
22161,BE,3,Herchies,
22162,BE,3,Horrues,
22163,BE,6,Thiaumont,
22164,BE,3,Haulchin,
22165,BE,3,Molembaix,
22166,BE,7,Bovesse,
22167,BE,3,Isières,
22168,BE,2,Baulers,
22169,BE,5,Werm,
22170,BE,3,Péronnes-lez-binche,
22171,BE,7,Chastrès,
22172,BE,4,Viemme,
22173,BE,2,Oetingen,
22174,BE,1,Pijpelheide,
22175,BE,2,Vertrijk,
22176,BE,2,Kumtich,
22177,BE,7,Buzet,
22178,BE,6,Autelhaut,
22179,BE,4,Liers,
22180,BE,2,Schiplaken,
22181,BE,2,Nil-saint-vincent,
22182,BE,2,Mousty,
22183,BE,4,Sourbrodt,
22184,BE,4,Oudler,
22185,BE,7,Biesmerée,
22186,BE,7,Haltinne,
22187,BE,3,Wayaux,
22188,BE,2,Gimerée,
22189,BE,3,Rouveroy,
22190,BE,3,Bougnies,
22191,BE,3,Hennuyères,
22192,BE,9,Zerkegem,
22193,BE,5,Tongerlo,
22194,BE,4,Voroux,
22195,BE,2,Archennes,
22196,BE,3,Mesvin,
22197,BE,1,Houtem,
22198,BE,8,Sint-kruis-winkel,
22199,BE,7,Beez,
22200,BE,6,Hinter Dem Ewemt,
22201,BE,2,Ransberg,
22202,BE,5,Opitter,
22203,BE,5,Molenbeersel,
22204,BE,8,Denderbelle,
22205,BE,1,'s-gravenwezel,
22206,BE,6,Bovigny,
22207,BE,2,Overwinden,
22208,BE,6,Willancourt,
22209,BE,7,Soulme,
22210,BE,7,Lavaux-sainte-anne,
22211,BE,3,Hyon,
22212,BE,3,Gottignies,
22213,BE,6,Chavanne,
22214,BE,2,Grand-rosière,
22215,BE,6,Mussy-la-ville,
22216,BE,5,Dorne,
22217,BE,9,Boezinge,
22218,BE,2,Sint-katherina-lombeek,
22219,BE,9,Kaaskerke,
22220,BE,2,Glabais,
22221,BE,3,Thieusies,
22222,BE,3,Lanquesaint,
22223,BE,4,Limont,
22224,BE,3,Thumaide,
22225,BE,2,Malèves,
22226,BE,3,Obigies,
22227,BE,7,Willerzie,
22228,BE,7,Yves-gomezée,
22229,BE,7,Pry,
22230,BE,4,Grand-rechain,
22231,BE,2,Marilles,
22232,BE,9,Nieuwkapelle,
22233,BE,2,Jauchelette,
22234,BE,4,Crombach,
22235,BE,2,Bornival,
22236,BE,7,Moustier-sur-sambre,
22237,BE,3,Harmignies,
22238,BE,3,Lombise,
22239,BE,4,Ramelot,
22240,BE,7,Thy-le-bauduin,
22241,BE,6,Sohier,
22242,BE,5,Rotem,
22243,BE,8,Poeke,
22244,BE,3,Maulde,
22245,BE,2,Wange,
22246,BE,7,Sommière,
22247,BE,3,Thirimont,
22248,BE,8,Wieze,
22249,BE,6,Saint-médard,
22250,BE,6,Fratin,
22251,BE,4,Villers-le-temple,
22252,BE,6,Habergy,
22253,BE,2,Dion-le-mont,
22254,BE,3,Bouvignies,
22255,BE,7,Hanret,
22256,BE,5,Oostham,
22257,BE,2,Corbais,
22258,BE,3,Leers-nord,
22259,BE,7,Senzeille,
22260,BE,5,Gelinden,
22261,BE,5,Vroenhoven,
22262,BE,7,Pontillas,
22263,BE,6,Signeulx,
22264,BE,3,Saint-amand,
22265,BE,2,Binkom,
22266,BE,5,Widooie,
22267,BE,2,Linsmeau,
22268,BE,3,Marbisoux,
22269,BE,4,Haneffe,
22270,BE,3,Asquillies,
22271,BE,9,Stalhille,
22272,BE,8,Nederbrakel,
22273,BE,2,Bierghes,
22274,BE,3,Bellecourt,
22275,BE,8,Letterhoutem,
22276,BE,9,Keiem,
22277,BE,8,Sint-margriete,
22278,BE,9,Westkerke,
22279,BE,8,Woubrechtegem,
22280,BE,6,Weris,
22281,BE,8,Baarle,
22282,BE,4,Les Avins,
22283,BE,2,Heverle,
22284,BE,2,Grand-bigard,
22285,BE,1,Sint-job-in-'t-goor,
22286,BE,6,Toernich,
22287,BE,6,Valansart,
22288,BE,7,Cognelée,
22289,BE,6,Porcheresse,
22290,BE,6,Viville,
22291,BE,7,Durnal,
22292,BE,6,Mont,
22293,BE,5,Vliermaalroot,
22294,BE,2,Opvelp,
22295,BE,7,Oignies,
22296,BE,7,Suarlée,
22297,BE,6,Aye,
22298,BE,4,Neuville-en-condroz,
22299,BE,7,Arsimont,
22300,BE,7,Denée,
22301,BE,6,Straimont,
22302,BE,6,Bande,
22303,BE,3,Ronquières,
22304,BE,3,Meslin-l'eveque,
22305,BE,9,Bekegem,
22306,BE,8,Schendelbeke,
22307,BE,3,Bois De Villers,
22308,BE,7,Baillonville,
22309,BE,7,Chevetogne,
22310,BE,2,Sint-lambrechts-woluwe,
22311,BE,3,Mont-sainte-geneviève,
22312,BE,4,Évegnée-tignée,
22313,BE,3,Bruyelle,
22314,BE,4,Ernonheid,
22315,BE,4,Xhendelesse,
22316,BE,1,Houtvenne,
22317,BE,2,Heikruis,
22318,BE,6,Marcourt,
22319,BE,6,Louftémont,
22320,BE,3,Lesdain,
22321,BE,3,Bléharies,
22322,BE,3,Estinnes-au-val,
22323,BE,7,Han-sur-lesse,
22324,BE,2,Elingen,
22325,BE,9,Emelgem,
22326,BE,6,Remagne,
22327,BE,2,Sint-ulriks-kapelle,
22328,BE,6,Buzenol,
22329,BE,6,Tontelange,
22330,BE,3,Blaugies,
22331,BE,2,Beigem,
22332,BE,3,Orcq,
22333,BE,7,Rosée,
22334,BE,6,Deux Rys,
22335,BE,7,Sinsin,
22336,BE,8,Steenhuize-wijnhuize,
22337,BE,3,Petit-roeulx-lez-braine,
22338,BE,8,Winkel,
22339,BE,3,Hollain,
22340,BE,2,Rebecq-rognon,
22341,BE,3,Mainvault,
22342,BE,6,Mormont,
22343,BE,2,Leerbeek,
22344,BE,2,La Roche,
22345,BE,2,Hévillers,
22346,BE,6,Petit-thier,
22347,BE,4,Hombourg,
22348,BE,7,Villers-le-gambon,
22349,BE,9,Kanegem,
22350,BE,3,Wodecq,
22351,BE,7,Evelette,
22352,BE,2,Thorembais-saint-trond,
22353,BE,1,Lippelo,
22354,BE,8,Aspelare,
22355,BE,8,Denderwindeke,
22356,BE,3,Saint-maur,
22357,BE,9,Helchin,
22358,BE,3,Bourlers,
22359,BE,3,Chat,
22360,BE,2,Roux-miroir,
22361,BE,8,Wannegem-lede,
22362,BE,2,Stockel,
22363,BE,2,Borchtlombeek,
22364,BE,9,Wakken,
22365,BE,8,Nieuwenhove,
22366,BE,8,Waarbeke,
22367,BE,9,Zoutenaaie,
22368,BE,2,Maleizen,
22369,BE,8,Vurste,
22370,BE,8,Hillegem,
22371,BE,2,Oplinter,
22372,BE,4,Boirs,
22373,BE,4,Sarolay,
22374,BE,9,Pervijze,
22375,BE,7,Lonzée,
22376,BE,5,Munsterbilzen,
22377,BE,2,Wambeek,
22378,BE,3,Vacresse,
22379,BE,7,Loyers,
22380,BE,7,Ham-sur-sambre,
22381,BE,2,Gala,
22382,BE,3,Bois Bourdon,
22383,BE,7,Gelbressée,
22384,BE,7,Floriffoux,
22385,BE,3,Blaregnies,
22386,BE,9,Moerkerke,
22387,BE,9,Wulpen,
22388,BE,3,Thimougies,
22389,BE,3,Ville-pommeroeul,
22390,BE,8,Verrebroek,
22391,BE,3,Ellignies-sainte-anne,
22392,BE,3,Marche-lez-Écaussinnes,
22393,BE,3,Sivry,
22394,BE,7,Méan,
22395,BE,4,La Reid,
22396,BE,3,Guignies,
22397,BE,3,Wihéries,
22398,BE,4,Pont,
22399,BE,4,Eynatten,
22400,BE,4,Évegnée,
22401,BE,6,Wardin,
22402,BE,8,Ouwegem,
22403,BE,2,Hoeleden,
22404,BE,2,Kiezegem,
22405,BE,6,Chanly,
22406,BE,8,Sint-martens-leerne,
22407,BE,3,Roisin,
22408,BE,6,Houdemont,
22409,BE,2,Haut-ittre,
22410,BE,4,Trembleur,
22411,BE,7,Dorinne,
22412,BE,6,Septon,
22413,BE,2,Wezeren,
22414,BE,4,Saint-séverin,
22415,BE,4,Moha,
22416,BE,6,Sibret,
22417,BE,5,Gestel,
22418,BE,9,Klerken,
22419,BE,7,Achêne,
22420,BE,6,Bourdon,
22421,BE,4,Manderfeld,
22422,BE,2,Zétrud-lumay,
22423,BE,1,Sint-mariaburg,
22424,BE,7,Mozet,
22425,BE,3,Joncret,
22426,BE,7,Sart-saint-laurent,
22427,BE,3,Goegnies-chaussée,
22428,BE,4,Chanxhe,
22429,BE,3,Lompret,
22430,BE,3,Vaulx,
22431,BE,3,Blicquy,
22432,BE,8,Semmerzake,
22433,BE,4,Horion-hozémont,
22434,BE,8,Everbeek,
22435,BE,7,Waret-la-chaussée,
22436,BE,2,Relegem,
22437,BE,1,Ramsel,
22438,BE,9,Saint-georges,
22439,BE,6,Stockem,
22440,BE,7,Ernage,
22441,BE,2,Orbais,
22442,BE,4,Pailhe,
22443,BE,3,Lettelingen,
22444,BE,3,Pommeroeul,
22445,BE,3,Quévy-le-grand,
22446,BE,3,Vezon,
22447,BE,4,Gemmenich,
22448,BE,3,Vellereille-les-brayeux,
22449,BE,7,Schaltin,
22450,BE,3,Chapelle-à-wattines,
22451,BE,2,Buken,
22452,BE,8,Ruien,
22453,BE,4,Horion,
22454,BE,6,Thibessart,
22455,BE,3,Melles,
22456,BE,6,Hives,
22457,BE,3,Rosseignies,
22458,BE,6,Nobressart,
22459,BE,3,Pipaix,
22460,BE,7,Vresse,
22461,BE,4,Saint-remy,
22462,BE,7,Heure,
22463,BE,2,Monstreux,
22464,BE,1,Bevel,
22465,BE,2,Goetsenhoven,
22466,BE,6,Gomery,
22467,BE,7,Franc-waret,
22468,BE,3,Bassilly,
22469,BE,5,Zichen,
22470,BE,5,Wijer,
22471,BE,4,Soiron,
22472,BE,4,Ben-ahin,
22473,BE,4,Xhendremael,
22474,BE,4,Heure-le-romain,
22475,BE,7,Noville-les-bois,
22476,BE,8,Elsegem,
22477,BE,8,Waterland-oudeman,
22478,BE,1,Sint-antonius,
22479,BE,8,Viane,
22480,BE,3,Boussu-lez-walcourt,
22481,BE,7,Romedenne,
22482,BE,6,Jehonville,
22483,BE,7,Daussoulx,
22484,BE,9,Brielen,
22485,BE,2,Hakendover,
22486,BE,2,Virginal-samme,
22487,BE,3,Petit-enghien,
22488,BE,7,Aische-en-refail,
22489,BE,4,Grâce-berleur,
22490,BE,2,Blanmont,
22491,BE,3,Ragnies,
22492,BE,9,Nieuwmunster,
22493,BE,2,Faux,
22494,BE,3,Quartes,
22495,BE,8,Erondegem,
22496,BE,3,Pire,
22497,BE,4,Aineffe,
22498,BE,4,Tihange,
22499,BE,6,Dochamps,
22500,BE,7,Alle,
22501,BE,7,Brumagne,
22502,BE,6,Assenois,
22503,BE,3,Hacquegnies,
22504,BE,3,Warchin,
22505,BE,4,Voroux-goreux,
22506,BE,4,Fooz,
22507,BE,2,Sint-joris-winge,
22508,BE,5,Waterschei,
22509,BE,8,Sint-martens-lierde,
22510,BE,8,Bever,
22511,BE,2,Tielt,
22512,BE,8,Opbrakel,
22513,BE,2,Orsmaal-gussenhoven,
22514,BE,9,Leisele,
22515,BE,9,Heule,
22516,BE,8,Schoonaarde,
22517,BE,8,Roeselare,
22518,BE,2,Muizen,
22519,BE,2,Budingen,
22520,BE,2,Neerlanden,
22521,BE,5,Linkhout,
22522,BE,8,Sint-maria-latem,
22523,BE,7,Agimont,
22524,BE,1,Sint-lenaarts,
22525,BE,7,Mesnil-saint-blaise,
22526,BE,6,Sberchamps,
22527,BE,6,Sélange,
22528,BE,8,Bachte-maria-leerne,
22529,BE,5,Spalbeek,
22530,BE,5,Stokrooie,
22531,BE,5,Hoepertingen,
22532,BE,5,Veulen,
22533,BE,2,Hofstade,
22534,BE,2,Linden,
22535,BE,9,Bikschote,
22536,BE,2,Oudenaken,
22537,BE,7,Mornimont,
22538,BE,5,'s-herenelderen,
22539,BE,4,Neu-moresnet,
22540,BE,5,Kleine-brogel,
22541,BE,8,Middelburg,
22542,BE,8,Sint-kornelis-horebeke,
22543,BE,8,Mater,
22544,BE,3,Grandmetz,
22545,BE,3,Grandglise,
22546,BE,3,Hainin,
22547,BE,3,Mont-saint-aubert,
22548,BE,7,Pesche,
22549,BE,3,Saint-denis,
22550,BE,6,Cherain,
22551,BE,6,Ebly,
22552,BE,7,Marchovelette,
22553,BE,6,Longeau,
22554,BE,8,Eichem,
22555,BE,8,Lotenhulle,
22556,BE,3,Toutvent,
22557,BE,4,Bettincourt,
22558,BE,5,Loksbergen,
22559,BE,6,Rouvroy,
22560,BE,6,Heyd,
22561,BE,7,Maizeret,
22562,BE,7,Sclayn,
22563,BE,8,Vinkt,
22564,BE,3,Irchonwelz,
22565,BE,6,Grandhan,
22566,BE,4,Cras-avernas,
22567,BE,6,Charneux,
22568,BE,7,Houx,
22569,BE,6,Longueville,
22570,BE,7,Bossière,
22571,BE,7,Jeneffe,
22572,BE,7,Martouzin,
22573,BE,8,Zevergem,
22574,BE,2,Ruisbroek,
22575,BE,6,Corbion,
22576,BE,4,Haus,
22577,BE,7,Bruyères,
22578,BE,3,Anvaing,
22579,BE,5,Vijverbroek,
22580,BE,5,Mal,
22581,BE,9,Houthem,
22582,BE,5,Mouland,
22583,BE,6,Mellier,
22584,BE,4,Ham,
22585,BE,6,Pin,
22586,BE,5,Jeuk,
22587,BE,5,Rijkel,
22588,BE,7,Flavion,
22589,BE,3,Baugnies,
22590,BE,9,Sint-eloois,
22591,BE,4,Stockay,
22592,BE,5,Vreren,
22593,BE,2,Jandrain,
22594,BE,6,Torgny,
22595,BE,3,Howardries,
22596,BE,1,Massenhoven,
22597,BE,6,Chantemelle,
22598,BE,5,Winter,
22599,BE,7,Mazée,
22600,BE,6,Grand-halleux,
22601,BE,7,Resteigne,
22602,BE,8,Gijzenzele,
22603,BE,3,Audregnies,
22604,BE,3,Ecaussinnes-d'enghien,
22605,BE,5,Ordingen,
22606,BE,3,Gages,
22607,BE,8,Rekkem,
22608,BE,1,Mariekerke,
22609,BE,6,Marbehan,
22610,BE,1,Noorderwijk,
22611,BE,7,Saint-servais,
22612,BE,3,Pont-de-loup,
22613,BE,7,Lives-sur-meuse,
22614,BE,3,Luingne,
22615,BE,5,Eigenbilzen,
22616,BE,4,Goé,
22617,BE,3,Montignies-sur-sambre,
22618,BE,6,Hamipré,
22619,BE,3,Dampremy,
22620,BE,3,Montignies,
22621,BE,3,Montignies-le-tilleul,
22622,BE,3,Bois-d'haine,
22623,BE,7,Try Paris,
22624,BE,3,Fayt,
22625,BE,3,Wasmuel,
22626,BE,3,Biesme-sous-thuin,
22627,BE,9,Beerst,
22628,BE,1,Kalfort,
22629,BE,8,Massemen,
22630,BE,9,Klemskerke,
22631,BE,8,Ressegem,
22632,BE,9,Beveren,
22633,BE,6,Juseret,
22634,BE,9,Lauwe,
22635,BE,4,Flémalle-haute,
22636,BE,2,Buizingen,
22637,BE,3,Épinois,
22638,BE,6,Harsin,
22639,BE,1,Heide,
22640,BE,5,Binderveld,
22641,BE,2,Sint-martens-bodegem,
22642,BE,9,Gijverinkhove,
22643,BE,7,Lustin,
22644,BE,3,Houtaing,
22645,BE,8,Spaansch-kwartier,
22646,BE,2,Clabecq,
22647,BE,6,Hollange,
22648,BE,4,Huccorgne,
22649,BE,4,Montegnée,
22650,BE,4,Rouvreux,
22651,BE,4,Omal,
22652,BE,7,Malonne,
22653,BE,3,Trahegnies,
22654,BE,6,Flamierge,
22655,BE,4,Bressoux,
22656,BE,2,Baisy-thy,
22657,BE,3,Chercq,
22658,BE,3,Masnuy-saint-pierre,
22659,BE,9,Ballons,
22660,BE,7,Longchamps,
22661,BE,5,Romershoven,
22662,BE,5,Henis,
22663,BE,1,Terhagen,
22664,BE,8,Leeuwergem,
22665,BE,1,Aarle,
22666,BE,8,Moregem,
22667,BE,4,Sougné-remouchamps,
22668,BE,5,Berbroek,
22669,BE,8,Sint-blasius-boekel,
22670,BE,5,Niel-bij-as,
22671,BE,5,Wimmertingen,
22672,BE,7,Furnaux,
22673,BE,3,Cerfontaine,
22674,BE,2,Loupoigne,
22675,BE,9,Mai Cornet,
22676,BE,9,Geluveld,
22677,BE,9,Barakken,
22678,BE,9,Izenberge,
22679,BE,2,Tourinnes-la-grosse,
22680,BE,2,Autre-Église,
22681,BE,6,Arville,
22682,BE,7,Forzée,
22683,BE,7,Nismes,
22684,BE,2,Samme,
22685,BE,4,Hony,
22686,BE,6,Marloie,
22687,BE,4,Nidrum,
22688,BE,7,Morville,
22689,BE,2,Sint-gillis,
22690,BE,3,Velvain,
22691,BE,5,Smeermaas,
22692,BE,5,Kotem,
22693,BE,8,Astene,
22694,BE,1,Pulle,
22695,BE,1,Poederlee,
22696,BE,5,Voort,
22697,BE,2,Sint-pieters-rode,
22698,BE,3,Besonrieux,
22699,BE,3,Arbre,
22700,BE,4,Heusy,
22701,BE,7,Stave,
22702,BE,7,Pessoux,
22703,BE,7,Saint-aubin,
22704,BE,7,Morialmé,
22705,BE,5,Eisden,
22706,BE,7,Wavreille,
22707,BE,7,Achet,
22708,BE,6,Grandvoir,
22709,BE,4,Ville-en-hesbaye,
22710,BE,4,Cornesse,
22711,BE,1,Looi,
22712,BE,4,Im Grünenthal,
22713,BE,7,Gerin,
22714,BE,3,Eugies,
22715,BE,3,Fontenoy,
22716,BE,3,Tourpes,
22717,BE,3,Willaupuis,
22718,BE,3,Pâturage,
22719,BE,7,Villers-lez-heest,
22720,BE,3,Buzet,
22721,BE,4,Chaineux,
22722,BE,3,Chaussée-notre-dame-louvignies,
22723,BE,3,Wannebecq,
22724,BE,9,Ettelgem,
22725,BE,3,Buvrinnes,
22726,BE,3,Seloignes,
22727,BE,4,Abolens,
22728,BE,9,Wijnendale,
22729,BE,3,Péronnes,
22730,BE,3,Le Rieu,
22731,BE,3,Grand-reng,
22732,BE,3,Montignies-lez-lens,
22733,BE,3,Callenelle,
22734,BE,3,Strépy,
22735,BE,5,'s Gravenvoeren,
22736,BE,4,Tharoul,
22737,BE,7,Furfooz,
22738,BE,2,Bossut-gottechain,
22739,BE,6,Hampteau,
22740,BE,6,Longchamps,
22741,BE,6,Laherie,
22742,BE,5,Mechelen-bovelingen,
22743,BE,9,Kerkhove,
22744,BE,2,Saint-jean-geest,
22745,BE,4,Ouren,
22746,BE,2,Bogaarden,
22747,BE,8,Parike,
22748,BE,8,Mespelare,
22749,BE,3,Noirchain,
22750,BE,3,La Perche Rompue,
22751,BE,4,Les Waleffes,
22752,BE,6,Lischert,
22753,BE,2,Nodebais,
22754,BE,3,Labuissière,
22755,BE,2,L'ecluse,
22756,BE,7,Frasnes,
22757,BE,3,Attre,
22758,BE,5,Moelingen,
22759,BE,3,Le Planti,
22760,BE,7,Erpent,
22761,BE,7,Coutisse,
22762,BE,3,Hoves,
22763,BE,4,Vierset-barse,
22764,BE,4,Berleur,
22765,BE,2,Outgaarden,
22766,BE,6,Orgeo,
22767,BE,4,Hody,
22768,BE,6,Erneuville,
22769,BE,4,Villers-l'eveque,
22770,BE,3,Laplaigne,
22771,BE,3,Sars-la-buissière,
22772,BE,3,Maffle,
22773,BE,6,Lottert,
22774,BE,7,Saint-marc,
22775,BE,6,Samrée,
22776,BE,1,Gestel,
22777,BE,5,Heks,
22778,BE,5,Lozen,
22779,BE,9,Westvleteren,
22780,BE,9,Slijpe,
22781,BE,8,Velzeke-ruddershove,
22782,BE,2,Piétrain,
22783,BE,6,Heinsch,
22784,BE,2,Vieux-genappe,
22785,BE,5,Sint-martens-voeren,
22786,BE,7,Pondrôme,
22787,BE,6,Grapfontaine,
22788,BE,8,Nederboelare,
22789,BE,3,Sars-la-bruyère,
22790,BE,4,Fize-fontaine,
22791,BE,3,Lahamaide,
22792,BE,5,Guvelingen,
22793,BE,5,Klein-gelmen,
22794,BE,8,Zevekote,
22795,BE,3,Arc-ainières,
22796,BE,7,Petigny,
22797,BE,9,Sint-baafs-vijve,
22798,BE,4,Malscheid,
22799,BE,9,La Planche,
22800,BE,2,Vaalbeek,
22801,BE,5,Nieuwdorp,
22802,BE,8,Meilegem,
22803,BE,9,Esen,
22804,BE,8,Sint-antelinks,
22805,BE,8,Smeerebbe-vloerzegem,
22806,BE,4,Jupille,
22807,BE,7,Castillon,
22808,BE,6,Ochamps,
22809,BE,2,Dion-le-val,
22810,BE,7,Franchimont,
22811,BE,6,Boucandrie,
22812,BE,4,Meeffe,
22813,BE,2,Noville-sur-méhaigne,
22814,BE,7,Anthée,
22815,BE,5,Neerharen,
22816,BE,5,Muizen,
22817,BE,7,Bolinne,
22818,BE,3,Warcoing,
22819,BE,6,Guirsch,
22820,BE,6,On,
22821,BE,7,Silenrieux,
22822,BE,4,Hollogne-aux-pierres,
22823,BE,6,Lesterny,
22824,BE,7,Bierwart,
22825,BE,6,Jamoigne,
22826,BE,4,Heusay,
22827,BE,8,Hemelveerdegem,
22828,BE,4,Vyle-et-tharoul,
22829,BE,3,Calonne,
22830,BE,8,Eine,
22831,BE,3,Willemeau,
22832,BE,2,Couture-saint-germain,
22833,BE,4,Julémont,
22834,BE,7,Dhuy,
22835,BE,8,Sint-maria-oudenhove,
22836,BE,2,Boitsfort,
22837,BE,3,Sautin,
22838,BE,3,Saint-léger,
22839,BE,9,Saint-michel,
22840,BE,3,Merlin,
22841,BE,2,Mille,
22842,BE,8,Veldekens,
22843,BE,7,Chaumont,
22844,BE,4,Vieuxville,
22845,BE,3,Beauwelz,
22846,BE,6,Carlsbourg,
22847,BE,6,La Fays,
22848,BE,9,Waarmaarde,
22849,BE,4,Sippenaeken,
22850,BE,6,Masbourg,
22851,BE,6,Bonnert,
22852,BE,6,Hargimont,
22853,BE,7,Jemelle,
22854,BE,6,Volaiville,
22855,BE,4,Comblain-fairon,
22856,BE,7,Ermeton-sur-biert,
22857,BE,3,Marbaix,
22858,BE,2,Walshoutem,
22859,BE,8,Middelbourg,
22860,BE,9,Reeke,
22861,BE,6,Robelmont,
22862,BE,6,Bérisménil,
22863,BE,7,Romerée,
22864,BE,3,Boquet,
22865,BE,6,Frassem,
22866,BE,3,Gondregnies,
22867,BE,7,Warisoulx,
22868,BE,4,Sclessin,
22869,BE,7,Berzée,
22870,BE,1,Heindonk,
22871,BE,7,Aublain,
22872,BE,4,Bovenistier,
22873,BE,4,Nessonvaux,
22874,BE,4,Oleye,
22875,BE,2,Gottechain,
22876,BE,5,Maaselhoven,
22877,BE,3,La Bouverie,
22878,BE,3,La Houlette,
22879,BE,3,Solre-sur-sambre,
22880,BE,3,Erpion,
22881,BE,6,Bras,
22882,BE,7,Orchimont,
22883,BE,5,Koninksem,
22884,BE,3,Angreau,
22885,BE,7,Gochenée,
22886,BE,4,Walk,
22887,BE,2,Bautersem,
22888,BE,5,Abbaye De La Trappe,
22889,BE,8,Ruisbroek,
22890,BE,8,Grimminge,
22891,BE,2,Neerwinden,
22892,BE,7,Sorinnes,
22893,BE,7,Bonneville,
22894,BE,8,Meigem,
22895,BE,8,Geest,
22896,BE,6,Jemeppe,
22897,BE,2,Orsmaal,
22898,BE,2,Ways,
22899,BE,5,Honds Bosch,
22900,BE,9,Schuiferskapelle,
22901,BE,6,Waha,
22902,BE,5,Kortijs,
22903,BE,1,Kiel,
22904,BE,6,Longlier,
22905,BE,7,Leignon,
22906,BE,7,Emptinne,
22907,BE,7,Maibelle,
22908,BE,4,Robertville,
22909,BE,3,Aubechies,
22910,BE,8,Oombergen,
22911,BE,3,Mont-sainte-aldegonde,
22912,BE,3,Bucquoi,
22913,BE,8,Terhagen,
22914,BE,4,Lantremange,
22915,BE,4,Wansin,
22916,BE,3,Hérinnes,
22917,BE,7,La Redoute,
22918,BE,2,Lacroix,
22919,BE,2,Kellen,
22920,BE,9,Markegem,
22921,BE,5,Riet,
22922,BE,8,Bracht,
22923,BE,1,Gompel,
22924,BE,5,Exel,
22925,BE,1,Boschkant,
22926,BE,1,Hout,
22927,BE,1,Liefkenshoek,
22928,BE,9,Hooge,
22929,BE,7,Saint-joseph,
22930,BE,5,Raak,
22931,BE,5,Mall,
22932,BE,2,Sint-jozef,
22933,BE,1,Anvers,
22934,BE,7,Fronville,
22935,BE,8,Roosen,
22936,BE,6,Chantier,
22937,BE,1,List,
22938,BE,7,La Pologne,
22939,BE,1,Rooy,
22940,BE,8,De Ploeg,
22941,BE,1,Sept,
22942,BE,6,Lambermont,
22943,BE,1,Moor,
22944,BE,3,Roumont,
22945,BE,9,Vrede,
22946,BE,5,Schoonbeek,
22947,BE,9,Dranouter,
22948,BE,1,Pierstraat,
22949,BE,1,Meeren,
22950,BE,9,Marcke,
22951,BE,9,Saint Louis,
22952,BE,5,De Hees,
22953,BE,1,Regenboog,
22954,BE,1,Cauwenberg,
22955,BE,8,Parijs,
22956,BE,1,Bos,
22957,BE,2,Wijngaard,
22958,BE,8,Saint-laurent,
22959,BE,4,Klingels,
22960,BE,2,Assche,
22961,BE,3,Docherie,
22962,BE,3,Autreppe,
22963,BE,3,Macquenoise,
22964,BE,3,Cambron-saint-vincent,
22965,BE,2,Zuurbemde,
22966,BE,6,Journal,
22967,BE,8,Ophasselt,
22968,BE,7,Jamiolle,
22969,BE,9,Godshuis,
22970,BE,6,Offagne,
22971,BE,7,Ambly,
22972,BE,7,Naomé,
22973,BE,7,Nafraiture,
22974,BE,5,Rijkhoven,
22975,BE,8,Lo,
22976,BE,7,Taviers,
22977,BE,7,Soye,
22978,BE,4,Seny,
22979,BE,3,Quesnoy,
22980,BE,3,Monceau,
22981,BE,7,Moignelée,
22982,BE,7,Ave-et-auffe,
22983,BE,3,Nouvelles,
22984,BE,4,Outrelouxhe,
22985,BE,7,Thynes,
22986,BE,7,Chapois,
22987,BE,3,Pachy Aubraine,
22988,BE,3,Russeignies,
22989,BE,3,Beclers,
22990,BE,7,Villers-deux-Églises,
22991,BE,3,Angre,
22992,BE,4,Latinne,
22993,BE,6,Beleschecken,
22994,BE,3,Peissant,
22995,BE,6,Au Beulet,
22996,BE,7,Haut-le-wastia,
22997,BE,7,Rienne,
22998,BE,8,Kapelle,
22999,BE,4,Pousset,
23000,BE,7,Gonrieux,
23001,BE,6,Terme,
23002,BE,7,Grange,
23003,BE,9,Hoorn,
23004,BE,2,Pamel,
23005,BE,4,Rotheux-rimière,
23006,BE,6,Bercheux,
23007,BE,6,Tillet,
23008,BE,8,Gontrode,
23009,BE,8,Heurne,
23010,BE,2,Kapellen,
23011,BE,5,Eeler Weerd,
23012,BE,4,Ereffe,
23013,BE,5,Kruis,
23014,BE,5,Riksingen,
23015,BE,2,Attenrode,
23016,BE,4,Ambresin,
23017,BE,6,Nothomb,
23018,BE,6,Anloy,
23019,BE,3,Neer-waasten,
23020,BE,7,Rivière,
23021,BE,6,Rettigny,
23022,BE,3,Leers-et-fosteau,
23023,BE,7,Hun,
23024,BE,3,Villers-poterie,
23025,BE,7,Perwez,
23026,BE,7,Noiseux,
23027,BE,3,Baisieux,
23028,BE,6,Marenne,
23029,BE,7,Mehaigne,
23030,BE,6,Villance,
23031,BE,7,Brûly-de-pesche,
23032,BE,4,Lanaye,
23033,BE,3,Bauffe,
23034,BE,3,Erbaut,
23035,BE,7,Haillot,
23036,BE,7,Serinchamps,
23037,BE,7,Olloy-sur-viroin,
23038,BE,3,Camp,
23039,BE,6,Chenois,
23040,BE,3,Pottes,
23041,BE,4,Landenne,
23042,BE,4,Lorcé,
23043,BE,6,Malempré,
23044,BE,5,Ulbeek,
23045,BE,9,Moere,
23046,BE,6,Lamorteau,
23047,BE,6,Battincourt,
23048,BE,3,Ghoy,
23049,BE,6,Odeigne,
23050,BE,6,Bende,
23051,BE,7,Waulsort,
23052,BE,4,Ocquier,
23053,BE,6,Ortho,
23054,BE,5,Sint-huibrechts-lille,
23055,BE,8,Munte,
23056,BE,4,Brux,
23057,BE,9,Quevaucamp,
23058,BE,6,Sainte-marie-sur-semois,
23059,BE,6,Mogimont,
23060,BE,4,La Gleize,
23061,BE,4,Lens-saint-remy,
23062,BE,6,Vesqueville,
23063,BE,7,Miécret,
23064,BE,7,Boneffe,
23065,BE,4,Ligney,
23066,BE,3,Grandrieu,
23067,BE,2,Saint-josse-ten-noode,
23068,BE,5,Wintershoven,
23069,BE,4,Corswarem,
23070,BE,3,Amougies,
23071,BE,4,Vaux-et-borset,
23072,BE,2,Tombeek,
23073,BE,4,Thisnes,
23074,BE,7,Lisogne,
23075,BE,3,Villers-notre-dame,
23076,BE,9,Beau Voisinage,
23077,BE,3,Thieulain,
23078,BE,2,Dongelberg,
23079,BE,6,Fouches,
23080,BE,3,Athis,
23081,BE,2,Bellingen,
23082,BE,5,Leut,
23083,BE,4,Hollogne-sur-geer,
23084,BE,8,Sint-maria-lierde,
23085,BE,4,Warnant-dreye,
23086,BE,3,Papignies,
23087,BE,8,Zande,
23088,BE,2,Grazen,
23089,BE,4,Vieux-waleffe,
23090,BE,5,Kerkom-bij-sint-truiden,
23091,BE,9,Espierres,
23092,BE,9,Zuidschote,
23093,BE,4,Bilstain,
23094,BE,9,Gijzelbrechtegem,
23095,BE,3,Louvignies,
23096,BE,7,Purnode,
23097,BE,4,Bodegnée,
23098,BE,7,Vincon,
23099,BE,5,Sint-pieters-voeren,
23100,BE,7,Strasbourg,
23101,BE,4,Saint-vith,
23102,BE,6,Bellefontaine,
23103,BE,7,Villers-sur-lesse,
23104,BE,3,Rebaix,
23105,BE,6,Molinfaing,
23106,BE,3,Cordes,
23107,BE,6,Rollé,
23108,BE,4,Crenwick,
23109,BE,2,Ramillies-offus,
23110,BE,4,Werbomont,
23111,BE,6,Turpange,
23112,BE,6,Hodister,
23113,BE,6,Rossignol,
23114,BE,4,Marneffe,
23115,BE,3,Tongre-notre-dame,
23116,BE,7,Conneux,
23117,BE,7,Evrehailles,
23118,BE,7,Focant,
23119,BE,4,Dreye,
23120,BE,3,Salles,
23121,BE,2,Tourinnes-saint-lambert,
23122,BE,7,Grand-manil,
23123,BE,2,Bekkerzeel,
23124,BE,7,Fagnolle,
23125,BE,8,Melsen,
23126,BE,9,Petite Flandre,
23127,BE,3,Ostiches,
23128,BE,4,Fallais,
23129,BE,4,Born,
23130,BE,4,Comblain-la-tour,
23131,BE,6,Chassepierre,
23132,BE,7,Bohan,
23133,BE,7,Saint-martin,
23134,BE,7,Sosoye,
23135,BE,7,Celles,
23136,BE,5,Horpmaal,
23137,BE,5,Val-meer,
23138,BE,7,Les Tombes,
23139,BE,1,Gooreind,
23140,BE,7,Faubourg,
23141,BE,8,Bechem,
23142,BE,8,Poesele,
23143,BE,9,Sint-joris,
23144,BE,6,Vaux-lez-rosières,
23145,BE,6,Witry,
23146,BE,6,Lavacherie,
23147,BE,6,Rancimont,
23148,BE,9,Stasegem,
23149,BE,5,Sint-lambrechts-herk,
23150,BE,9,Breskens,
23151,BE,7,Blaimont,
23152,BE,3,Montbliart,
23153,BE,1,Wildert,
23154,BE,8,Ename,
23155,BE,5,Groot-gelmen,
23156,BE,9,Voormezele,
23157,BE,8,Ottergem,
23158,BE,7,Heer,
23159,BE,4,Waret-l'eveque,
23160,BE,3,Ere,
23161,BE,4,Bellevaux-ligneuville,
23162,BE,6,Hatrival,
23163,BE,3,Montroeul-sur-haine,
23164,BE,8,Erwetegem,
23165,BE,8,Kwatrecht,
23166,BE,4,Poucet,
23167,BE,2,Schoonderbuken,
23168,BE,9,Bizet,
23169,BE,4,Grand-axhe,
23170,BE,6,Bomal-sur-ourthe,
23171,BE,7,Belvaux,
23172,BE,6,Heinstert,
23173,BE,6,Gérouville,
23174,BE,7,Louette-saint-denis,
23175,BE,7,Hour,
23176,BE,7,Vodelée,
23177,BE,9,Westende-bad,
23178,BE,3,Vaudignies,
23179,BE,2,Sint-margriete-houtem,
23180,BE,7,Weillen,
23181,BE,7,Jamagne,
23182,BE,8,Schriek,
23183,BE,6,Rolé,
23184,BE,3,Lisbonne,
23185,BE,3,Stocq,
23186,BE,8,Frankrijkstraat,
23187,BE,2,Lat,
23188,BE,8,Basel,
23189,BE,6,Amberloup,
23190,BE,1,Nieuwstraat,
23191,BE,3,Pavé,
23192,BE,2,Watermaal-bosvoorde,
23193,BE,1,Kruisweg,
23194,BE,1,Breendonck,
23195,BE,2,Roodebeek,
23196,BE,1,Willebroeck,
23197,BE,2,Sint-martens,
23198,BE,8,Mendonk,
23199,BE,8,Brusselbaan,
23200,BE,5,Duras,
23201,BE,4,Nivelle,
23202,BE,9,Saint-jean,
23203,BE,1,Schoonbroek,
23204,BE,2,Engeland,
23205,BE,1,Pullaar,
23206,BE,8,Lindestraat,
23207,BE,1,Vijfhuizen,
23208,BE,7,Fairoul,
23209,BE,8,Volpenswege,
23210,BE,1,Madestraat,
23211,BE,8,Warande,
23212,BE,8,Kerkstraat,
23213,BE,4,Ciplet,
23214,BE,6,Morville,
23215,BE,3,Bouverie,
23216,BE,9,Bovekerke,
23217,BE,9,Heist-aan-zee,
23218,BE,2,Halle-booienhoven,
23219,BE,9,Roksem,
23220,BE,7,Serville,
23221,BE,7,Florée,
23222,BE,2,Meldert,
23223,BE,9,Krombeke,
23224,BE,6,Guerlange,
23225,BE,6,Forrières,
23226,BE,2,Wisbecq,
23227,BE,4,Heuseux,
23228,BE,9,Snaaskerke,
23229,BE,3,Ogy,
23230,BE,4,Ligneuville,
23231,BE,6,Freux,
23232,BE,3,Houthem,
23233,BE,4,Lavoir,
23234,BE,6,Botassart,
23235,BE,3,Warquignies,
23236,BE,3,La Glanerie,
23237,BE,4,Fumal,
23238,BE,3,Anseroeul,
23239,BE,6,Sugny,
23240,BE,2,Thines,
23241,BE,1,Zurenborg,
23242,BE,7,Vodecée,
23243,BE,7,Falmagne,
23244,BE,7,Bonsin,
23245,BE,6,Sart,
23246,BE,7,Corenne,
23247,BE,1,Bel,
23248,BE,7,Vaucelles,
23249,BE,9,Hoogstade,
23250,BE,6,Bomal,
23251,BE,2,Beert,
23252,BE,5,Mielen-boven-aalst,
23253,BE,5,Mettekoven,
23254,BE,4,Schönberg,
23255,BE,4,Heppenbach,
23256,BE,4,Hozémont,
23257,BE,3,Solre-saint-géry,
23258,BE,3,Villers-la-tour,
23259,BE,6,Vivy,
23260,BE,7,Le Mesnil,
23261,BE,7,Aisemont,
23262,BE,3,Leugnies,
23263,BE,3,Trieux,
23264,BE,9,Westhoek,
23265,BE,8,Doornzele,
23266,BE,1,Plein,
23267,BE,11,Bruxelles,
23268,BE,4,Barse,
23269,BE,4,Oteppe,
23270,BE,6,Gembes,
23271,BE,1,Bergen,
23272,BE,2,Woluwe-saint-etienne,
23273,BE,5,Meeswijk,
23274,BE,2,Gistoux,
23275,BE,8,Kwaremont,
23276,BE,9,Dikkebus,
23277,BE,9,Noordschote,
23278,BE,2,Herfelingen,
23279,BE,4,Pellaines,
23280,BE,2,Saint Martin,
23281,BE,4,Ehein,
23282,BE,7,Keumiée,
23283,BE,4,Basse-bodeux,
23284,BE,6,Arbrefontaine,
23285,BE,2,Jezus-eik,
23286,BE,6,Barnich,
23287,BE,3,Fauroeulx,
23288,BE,3,Rièzes,
23289,BE,9,Quevaucamps,
23290,BE,7,Dailly,
23291,BE,6,Chêne Al Pierre,
23292,BE,6,Werpin,
23293,BE,7,Sorinne-la-longue,
23294,BE,6,Poix,
23295,BE,7,Vonêche,
23296,BE,2,Wolfsdonk,
23297,BE,2,Oorbeek,
23298,BE,8,Wippelgem,
23299,BE,1,Brand,
23300,BE,6,Lacuisine,
23301,BE,3,Harveng,
23302,BE,9,Lampernisse,
23303,BE,4,Xhoffraix,
23304,BE,4,Villers-aux-tours,
23305,BE,8,Sint-denijs-boekel,
23306,BE,6,Humain,
23307,BE,7,Oizy,
23308,BE,8,Bottelare,
23309,BE,3,Moustier,
23310,BE,7,Anseremme,
23311,BE,4,Filot,
23312,BE,4,Borset,
23313,BE,4,Avennes,
23314,BE,6,Offaing,
23315,BE,3,Orroir,
23316,BE,3,Villers-saint-ghislain,
23317,BE,3,Onnezies,
23318,BE,6,Izier,
23319,BE,7,Boussu-en-fagne,
23320,BE,4,Avin,
23321,BE,6,Couvreux,
23322,BE,7,Custinne,
23323,BE,6,Hompré,
23324,BE,5,Diets-heur,
23325,BE,7,Wanlin,
23326,BE,7,Scoville,
23327,BE,5,Piringen,
23328,BE,7,Treignes,
23329,BE,4,Roloux,
23330,BE,3,Hameau,
23331,BE,4,Elsenborn,
23332,BE,3,Montignies-sur-roc,
23333,BE,3,Wattripont,
23334,BE,3,Montroeul-au-bois,
23335,BE,6,Tavigny,
23336,BE,6,Beausaint,
23337,BE,9,Avekapelle,
23338,BE,1,Zoerle-parwijs,
23339,BE,4,Paifve,
23340,BE,4,Flône,
23341,BE,6,Limerlé,
23342,BE,7,Conjoux,
23343,BE,4,Burnontige,
23344,BE,4,Rosoux-crenwick,
23345,BE,6,Metzert,
23346,BE,7,Goesnes,
23347,BE,6,Autelbas,
23348,BE,6,Vaux-chavanne,
23349,BE,7,Hogne,
23350,BE,5,Remersdaal,
23351,BE,4,Grand-hallet,
23352,BE,7,Braibant,
23353,BE,3,Gognies,
23354,BE,6,Termes,
23355,BE,6,Grandmenil,
23356,BE,7,Maredret,
23357,BE,3,Neufmaison,
23358,BE,3,Villers-saint-amand,
23359,BE,7,Javingue,
23360,BE,6,Mabompré,
23361,BE,7,Mohiville,
23362,BE,7,Porcheresse,
23363,BE,5,Donk,
23364,BE,4,Hannêche,
23365,BE,7,Goyet,
23366,BE,6,Bellevaux,
23367,BE,7,Bellefontaine,
23368,BE,6,Wibrin,
23369,BE,4,Moxhe,
23370,BE,2,Terlinden,
23371,BE,7,Houdremont,
23372,BE,4,Crehen,
23373,BE,6,Harre,
23374,BE,5,Fouron-le-comte,
23375,BE,4,Bois-et-borsu,
23376,BE,3,Hertain,
23377,BE,7,Gimnée,
23378,BE,6,Lomprez,
23379,BE,2,Thorembais-les-béguines,
23380,BE,6,Ucimont,
23381,BE,6,Fays-les-veneurs,
23382,BE,1,Brabant-putte,
23383,BE,6,Fays,
23384,BE,3,Renlies,
23385,BE,4,Chapon-seraing,
23386,BE,3,Briffoeil,
23387,BE,9,De Broeken,
23388,BE,7,Malvoisin,
23389,BE,4,Abée,
23390,BE,3,Robechies,
23391,BE,3,Monceau-imbrechies,
23392,BE,7,Dourbes,
23393,BE,7,Cul-des-sarts,
23394,BE,7,Flostoy,
23395,BE,7,Branchon,
23396,BE,6,Maissin,
23397,BE,7,Sorée,
23398,BE,6,Merny,
23399,BE,8,Paulatem,
23400,BE,8,Maarke-kerkem,
23401,BE,6,Fraiture,
23402,BE,6,Ourthe,
23403,BE,6,Azy,
23404,BE,1,Achterbos,
23405,BE,5,Sluizen,
23406,BE,5,Kleine-spouwen,
23407,BE,2,Bost,
23408,BE,1,Sint-jozef-olen,
23409,BE,6,Nimbermont,
23410,BE,7,Laforêt,
23411,BE,4,Jehay-bodegnée,
23412,BE,6,Rochehaut,
23413,BE,5,Fouron-saint-pierre,
23414,BE,8,Strijpen,
23415,BE,7,Sart-en-fagne,
23416,BE,7,Matagne-la-grande,
23417,BE,6,My,
23418,BE,9,Oostkerke,
23419,BE,6,Grune,
23420,BE,6,Marbay,
23421,BE,4,Banneux,
23422,BE,6,Montleban,
23423,BE,8,Roborst,
23424,BE,3,Jollain-merlin,
23425,BE,7,Falmignoul,
23426,BE,6,Auby,
23427,BE,7,Éprave,
23428,BE,7,Chairière,
23429,BE,3,Hantes-wihéries,
23430,BE,4,Herbesthal,
23431,BE,3,Moulbaix,
23432,BE,3,Vaulx-lez-tournai,
23433,BE,7,Labas,
23434,BE,4,Gomzé-andoumont,
23435,BE,2,Putkapel,
23436,BE,7,Hulsonniaux,
23437,BE,6,Noville,
23438,BE,7,Lesves,
23439,BE,7,Buissonville,
23440,BE,7,Hermeton-sur-meuse,
23441,BE,7,Soumoy,
23442,BE,7,Honnay,
23443,BE,7,Wiesme,
23444,BE,6,Halma,
23445,BE,9,Sint-lodewijk,
23446,BE,6,Morhet,
23447,BE,6,Les Hayons,
23448,BE,7,Hemptinne,
23449,BE,7,Scy,
23450,BE,5,Herderen,
23451,BE,2,Gussenhoven,
23452,BE,9,Abele,
23453,BE,9,Bulskamp,
23454,BE,4,Bra,
23455,BE,5,Berlingen,
23456,BE,7,Massembre,
23457,BE,6,Sivry,
23458,BE,4,Villers-le-peuplier,
23459,BE,4,Villettes,
23460,BE,5,Rutten,
23461,BE,6,Redu,
23462,BE,3,Froidmont,
23463,BE,4,Meyrode,
23464,BE,4,Remonval,
23465,BE,4,Wirtzfeld,
23466,BE,4,Blehen,
23467,BE,2,Neerheylissem,
23468,BE,9,Wilskerke,
23469,BE,5,Remersdael,
23470,BE,4,Krinkelt,
23471,BE,4,Hockai,
23472,BE,9,Sint-jan,
23473,BE,3,Castillon,
23474,BE,8,Gottem,
23475,BE,7,Les Différents,
23476,BE,4,Dommartin,
23477,BE,5,Brandven,
23478,BE,6,Poupehan,
23479,BE,2,Grand-rosière-hottomont,
23480,BE,7,Samart,
23481,BE,8,Rozebeke,
23482,BE,8,Nederzwalm-hermelgem,
23483,BE,8,Oostwinkel,
23484,BE,3,Bailièvre,
23485,BE,2,Sint-joost-ten-node,
23486,BE,4,Ellemelle,
23487,BE,3,Petit Hornu,
23488,BE,6,Saint-pierre,
23489,BE,7,Felenne,
23490,BE,8,Meerskant,
23491,BE,5,Gors-opleeuw,
23492,BE,5,Mopertingen,
23493,BE,8,Overslag,
23494,BE,2,Eliksem,
23495,BE,3,Maandag,
23496,BE,9,Stuivekenskerke,
23497,BE,2,Gaasbeek,
23498,BE,3,Esquelmes,
23499,BE,3,Grosage,
23500,BE,6,Sainte-cécile,
23501,BE,6,Bernimont,
23502,BE,5,Niel-bij-sint-truiden,
23503,BE,1,Pontfort,
23504,BE,9,Zwankendamme,
23505,BE,7,Vogenée,
23506,BE,4,Astenet,
23507,BE,3,Leval-chaudeville,
23508,BE,6,Amonines,
23509,BE,2,Jandrenouille,
23510,BE,7,Louette-saint-pierre,
23511,BE,2,Saint-remy-geest,
23512,BE,7,Maffe,
23513,BE,3,Rome,
23514,BE,9,Dronckaert,
23515,BE,6,Clerheid,
23516,BE,3,Vellereille-le-sec,
23517,BE,8,Wontergem,
23518,BE,8,Goeferdinge,
23519,BE,7,Baronville,
23520,BE,8,Michelbeke,
23521,BE,8,Prinsenstraat,
23522,BE,4,Bleret,
23523,BE,1,Lierre,
23524,BE,5,Lauw,
23525,BE,8,Vloerzegem,
23526,BE,6,Tailles,
23527,BE,7,Nettinne,
23528,BE,7,Graux,
23529,BE,7,Rognée,
23530,BE,4,Nonceveux,
23531,BE,3,Fourbechies,
23532,BE,6,Opont,
23533,BE,8,Melden,
23534,BE,3,Saint-remy,
23535,BE,2,Sart Mélin,
23536,BE,6,Villers-devant-orval,
23537,BE,6,Halleux,
23538,BE,8,Dikkele,
23539,BE,6,Bras-haut,
23540,BE,3,Flament,
23541,BE,3,Fouleng,
23542,BE,4,Feneur,
23543,BE,4,Cerexhe-heuseux,
23544,BE,4,Nurop,
23545,BE,4,Allmuhten,
23546,BE,6,Mirwart,
23547,BE,6,Traimont,
23548,BE,4,Bévercé,
23549,BE,4,Thommen,
23550,BE,8,Koewacht,
23551,BE,1,Oosterwijk,
23552,BE,1,Hoge Heide,
23553,BE,8,Rode Sluis,
23554,BE,9,Bruges,
23555,BE,5,Negenoord,
23556,BE,4,Roclenge-sur-geer,
23557,BE,8,Hoogkamerstraat,
23558,BE,7,Jallet,
23559,BE,4,Boëlhe,
23560,BE,4,Borlez,
23561,BE,7,Belair,
23562,BE,6,Neuperlé,
23563,BE,8,Sint-maria-horebeke,
23564,BE,6,Grupont,
23565,BE,9,Oeren,
23566,BE,7,Bouvignes-sur-meuse,
23567,BE,2,Jandrain-jandrenouille,
23568,BE,8,Duisbeke,
23569,BE,8,Baarstraat,
23570,BE,5,Eikelbos,
23571,BE,4,Cerexhe,
23572,BE,4,Amercoeur,
23573,BE,6,Soy,
23574,BE,9,Schore,
23575,BE,8,Appelhoek,
23576,BE,2,Kleine Hut,
23577,BE,8,Beirendries,
23578,BE,1,Hulsel,
23579,BE,2,Melkwezer,
23580,BE,7,Aische,
23581,BE,4,Lommersweiler,
23582,BE,6,Nollevaux,
23583,BE,6,Villers-la-bonne-eau,
23584,BE,12,Vilvoorde,
23585,BE,12,Vilvoorde,
23586,BE,12,Wemmel,
23587,BE,12,Vilvoorde,
23588,BE,12,Vilvoorde,
23589,BE,12,Vilvoorde,
23590,BE,12,Wemmel,
23591,BE,12,Wemmel,
23592,BE,12,Wemmel,
23593,BE,12,Vilvoorde,
23594,BE,12,Wemmel,
23595,BE,12,Vilvoorde,
23596,BE,4,Jeneffe,
23597,BE,6,Oppagne,
23598,BE,8,Baaigem,
23599,BE,12,Wemmel,
23600,BE,12,Vilvoorde,
23601,BE,3,Montroeul,
23602,BE,12,Wemmel,
23603,BE,6,Petit Han,
23604,BE,12,Vilvoorde,
23605,BE,4,Strée,
23606,BE,2,Wastines,
23607,BE,8,Nederename,
23608,BE,7,Patignies,
23609,BE,5,Zichen-zussen-bolder,
23610,BE,8,Ouden Doel,
23611,BE,3,Estaffers,
23612,BE,9,Kaster,
23613,BE,9,Belgiek,
23614,BE,4,Mürringen,
23615,BE,7,Mon Plaisir,
23616,BE,3,Croix-lez-rouveroy,
23617,BE,4,Broux,
23618,BE,6,Noirefontaine,
23619,BE,1,Beulk,
23620,BE,2,Bossuit,
23621,BE,9,Nieuwpoort-bad,
23622,BE,9,Eggewaartskapelle,
23623,BE,9,Meetkerke,
23624,BE,4,Yernée-fraineux,
23625,BE,6,Villers-sainte-gertrude,
23626,BE,3,Andoumont,
23627,BE,4,Bertrée,
23628,BE,5,Meer,
23629,BE,6,Hermanne,
23630,BE,8,Broeken,
23631,BE,8,Eigenstraat,
23632,BE,9,Noordveldhoek,
23633,BE,7,Barvaux-condroz,
23634,BE,6,Lignières,
23635,BE,1,Kapelleveld,
23636,BE,8,Daalmen,
23637,BE,2,Saussois,
23638,BE,8,Broekstraat,
23639,BE,7,Grand Bois,
23640,BE,2,Bois Le Duc,
23641,BE,7,Mont-gauthier,
23642,BE,3,Chenu,
23643,BE,8,Sijngel,
23644,BE,8,Hussevelde,
23645,BE,7,Rhion,
23646,BE,7,Biert L'abbe,
23647,BE,7,Namache,
23648,BE,2,Alsberg,
23649,BE,7,La Ramonerie,
23650,BE,2,La Hutte,
23651,BE,3,Sart à Rèves,
23652,BE,2,Hauwaert,
23653,BE,8,Hauwstraat,
23654,BE,3,Les Croisettes,
23655,BE,2,Piétremau,
23656,BE,2,Flamandes,
23657,BE,3,Sartine,
23658,BE,4,Avernas-le-bauduin,
23659,BE,4,Fraineux,
23660,BE,8,Daknam,
23661,BE,2,Ijzer,
23662,BE,4,Rocherath,
23663,BE,4,Darion,
23664,BE,7,Les Boscailles,
23665,BE,8,Holleken,
23666,BE,6,Wilogne,
23667,BE,6,Hologne,
23668,BE,7,Ciergnon,
23669,BE,2,Hanewijk,
23670,BE,6,Freylange,
23671,BE,5,Berg,
23672,BE,2,Limoges,
23673,BE,5,Singelbeek,
23674,BE,2,Beaumont,
23675,BE,5,Korspel,
23676,BE,6,Reckeler,
23677,BE,3,Harvang,
23678,BE,8,Lamont,
23679,BE,9,Boschhoek,
23680,BE,2,Doodbroek,
23681,BE,3,Bafenrieux,
23682,BE,3,Ghislage,
23683,BE,7,Daumont,
23684,BE,5,Geldershorsten,
23685,BE,3,Thieudonsart,
23686,BE,3,Les Six Cences,
23687,BE,3,Mont La Chapelle,
23688,BE,3,Bois De Couplet,
23689,BE,8,Schroversstraat,
23690,BE,4,Bienonsart,
23691,BE,7,Alnoir,
23692,BE,8,Ooike,
23693,BE,5,Tuilt,
23694,BE,7,Froidmont,
23695,BE,1,Broekstraat,
23696,BE,6,Lomré,
23697,BE,8,Sint-goriks-oudenhove,
23698,BE,4,Pontisse,
23699,BE,7,Hambraine,
23700,BE,7,Annevoie-rouillon,
23701,BE,5,Genoelselderen,
23702,BE,3,Fourcroix,
23703,BE,5,Boschhellerheide,
23704,BE,7,Le Rabot,
23705,BE,3,Les Quatre Sous,
23706,BE,2,La Bouvrée,
23707,BE,3,Petite Hollande,
23708,BE,5,Voorschoven,
23709,BE,2,Kleinen Haak,
23710,BE,8,Linkebeek,
23711,BE,2,Walsbergen,
23712,BE,3,Coquinette,
23713,BE,1,Meir,
23714,BE,7,Olloy,
23715,BE,7,Corroy,
23716,BE,8,Gentbos,
23717,BE,1,Stelen,
23718,BE,3,Les Trieux,
23719,BE,6,Gênes,
23720,BE,5,Rukkelingen-loon,
23721,BE,2,Ezemaal,
23722,BE,3,Vergne,
23723,BE,7,Brûly,
23724,BE,4,Lamontzée,
23725,BE,7,Membre,
23726,BE,6,Smuid,
23727,BE,8,Godveerdegem,
23728,BE,6,Harinsart,
23729,BE,6,Awenne,
23730,BE,4,Lens-saint-servais,
23731,BE,4,Lincé,
23732,BE,3,Le Séminaire,
23733,BE,6,Parette,
23734,BE,6,Dinez,
23735,BE,8,Kaster,
23736,BE,3,Carnoy,
23737,BE,2,Flohaye,
23738,BE,7,Alveaux,
23739,BE,8,Valkenberg,
23740,BE,5,Akkerstraat,
23741,BE,7,Raidit,
23742,BE,8,Heiveld,
23743,BE,2,Heyde,
23744,BE,2,Maison Du Roi,
23745,BE,3,La Warte,
23746,BE,8,Gucht,
23747,BE,8,Lemberge,
23748,BE,4,Surdents,
23749,BE,7,Andoy,
23750,BE,3,Ellignies,
23751,BE,7,Villers-en-fagne,
23752,BE,3,Martimont,
23753,BE,4,Rodt,
23754,BE,1,Grasheide,
23755,BE,6,Famenne,
23756,BE,7,Failon,
23757,BE,4,Froidthier,
23758,BE,3,Ferrière,
23759,BE,4,Trognée,
23760,BE,8,Bevere,
23761,BE,8,Gentstraat,
23762,BE,2,Nil Saint-vincent,
23763,BE,3,La Muche,
23764,BE,8,Heet,
23765,BE,3,Rouges Terres,
23766,BE,3,Les Pipettes,
23767,BE,7,Fond De Gay,
23768,BE,3,Croisissart,
23769,BE,5,Kunsel,
23770,BE,1,Allierscheheide,
23771,BE,3,Cocqueraumont,
23772,BE,6,Framont,
23773,BE,7,Feschaux,
23774,BE,4,Petit-hallet,
23775,BE,7,Petite-chapelle,
23776,BE,3,Forge-philippe,
23777,BE,4,Birkhahns Kopf,
23778,BE,5,Eben,
23779,BE,4,Tourinne,
23780,BE,7,Gozin,
23781,BE,8,Zwaantje,
23782,BE,1,Kruikeven,
23783,BE,5,Winnen,
23784,BE,5,Blankelaar,
23785,BE,6,Nisramont,
23786,BE,6,Filly,
23787,BE,3,Panottes,
23788,BE,7,La Sauvenière,
23789,BE,5,De Hutte,
23790,BE,5,Hogen,
23791,BE,5,De Warre,
23792,BE,3,Laugrenée,
23793,BE,2,Malplaquée,
23794,BE,2,Gulde Delle,
23795,BE,3,Marcienne-au-pont,
23796,BE,8,Onkerzele,
23797,BE,1,Limberg,
23798,BE,1,Ongelberg,
23799,BE,3,Montagne,
23800,BE,8,Smissenhoek,
23801,BE,6,Warmifontaine,
23802,BE,9,Mannekensvere,
23803,BE,1,Nieuwmoer,
23804,BE,5,Grote-spouwen,
23805,BE,4,Schoppen,
23806,BE,1,Molenstraat,
23807,BE,7,Matagne-la-petite,
23808,BE,3,La Croix,
23809,BE,8,Leenstraat,
23810,BE,8,Grotenberge,
23811,BE,8,Elslo,
23812,BE,4,Baronheid,
23813,BE,9,Tiendenberg,
23814,BE,1,Eerselingen,
23815,BE,3,Rourivet,
23816,BE,7,Molinia,
23817,BE,5,Reinkens Heide,
23818,BE,3,Malaise,
23819,BE,3,But,
23820,BE,6,Nives,
23821,BE,4,Awan,
23822,BE,1,Demer,
23823,BE,5,Gorsem,
23824,BE,7,Omezée,
23825,BE,4,Borsu,
23826,BE,4,Cointe,
23827,BE,6,Villers-la-loue,
23828,BE,8,Bentille,
23829,BE,4,La Salle,
23830,BE,6,Peau,
23831,BE,3,Les Pommiers,
23832,BE,8,Hasselhoek,
23833,BE,8,Klaarhaag,
23834,BE,3,Bouleng,
23835,BE,1,Heieinde,
23836,BE,8,Steenberg,
23837,BE,8,Kapellenberg,
23838,BE,7,Matignée,
23839,BE,6,Rossart,
23840,BE,7,Lessive,
23841,BE,8,Meersstraat,
23842,BE,2,Herbais,
23843,BE,2,Nil-saint-vincent-saint-martin,
23844,BE,4,Les Cours,
23845,BE,8,Sint-gillis-bij-dendermonde,
23846,BE,2,Miskom,
23847,BE,1,Keer,
23848,BE,1,Heiken,
23849,BE,5,Buvingen,
23850,BE,5,Millen,
23851,BE,6,Sure,
23852,BE,9,Rattekot,
23853,BE,2,Beisem,
23854,BE,9,Roesbrugge-haringe,
23855,BE,7,Biert Le Roi,
23856,BE,4,Brochepierre,
23857,BE,6,Fagne,
23858,BE,7,Fevie,
23859,BE,5,Herkenrode,
23860,BE,8,Eksterken,
23861,BE,7,Bois D'evoz,
23862,BE,6,Serpont,
23863,BE,2,Rodeberg,
23864,BE,5,Onder De Berg,
23865,BE,3,Canard,
23866,BE,8,Ascstraat,
23867,BE,5,Haaren,
23868,BE,1,Beel,
23869,BE,5,Zwartberg,
23870,BE,6,Melreux,
23871,BE,9,Beitem,
23872,BE,5,Heesveld,
23873,BE,7,Sorinne,
23874,BE,6,Buvange,
23875,BE,6,Grandcourt,
23876,BE,3,Meaurain,
23877,BE,6,Vecmont,
23878,BE,9,Lapscheure,
23879,BE,4,Bansions,
23880,BE,6,Fonteni,
23881,BE,4,Rouge Thier,
23882,BE,7,Strud,
23883,BE,5,Boekt,
23884,BE,7,Grande Erhope,
23885,BE,7,Lotria,
23886,BE,5,Egelplas,
23887,BE,3,Bucq,
23888,BE,6,Frahan,
23889,BE,1,Truitseinde,
23890,BE,7,Florivaux,
23891,BE,6,Sainte-marie,
23892,BE,8,Boucle-saint-blaise,
23893,BE,8,Overheet,
23894,BE,7,Faulx-les Tombes,
23895,BE,6,Laneuville,
23896,BE,5,Boekhout,
23897,BE,5,Hendrieken,
23898,BE,4,Solwaster,
23899,BE,7,Foy-notre-dame,
23900,BE,3,L'enfer,
23901,BE,7,Fond De Pique,
23902,BE,8,Lobos,
23903,BE,6,Petitvoir,
23904,BE,1,Luchtbal,
23905,BE,7,Haie Curie,
23906,BE,8,Hellestraat,
23907,BE,4,Florzé,
23908,BE,5,Mulk,
23909,BE,5,Schalkhoven,
23910,BE,9,Sint-pieters-kapelle,
23911,BE,1,Postel,
23912,BE,8,Beekstraat,
23913,BE,8,Kamvenhoek,
23914,BE,6,Pisserotte,
23915,BE,3,Le Trou,
23916,BE,8,Driestenbroek,
23917,BE,1,Leemputten,
23918,BE,6,Fourneau Saint-michel,
23919,BE,4,Odeur,
23920,BE,4,Gerardsbroich,
23921,BE,7,Longuir,
23922,BE,1,Lochtenberg,
23923,BE,2,Thorembisoul,
23924,BE,5,De Lindeman,
23925,BE,3,Berceau,
23926,BE,9,Nieucappelle,
23927,BE,5,Tervant,
23928,BE,1,Voortkapel,
23929,BE,3,Écaussines-lalaing,
23930,BE,7,Sclaigneaux,
23931,BE,3,Bois De Chin,
23932,BE,3,Grenfaux,
23933,BE,7,Salet,
23934,BE,9,Groenendaal,
23935,BE,7,Arton,
23936,BE,3,Carnois,
23937,BE,3,Bois De Steenkerque,
23938,BE,8,Driestegehucht,
23939,BE,3,Feite,
23940,BE,6,Moircy,
23941,BE,4,Libomont,
23942,BE,8,Poorterij,
23943,BE,6,Moyen,
23944,BE,2,Bruel,
23945,BE,7,Emeville,
23946,BE,3,Poirier,
23947,BE,8,Bijstierstraat,
23948,BE,6,Oneux,
23949,BE,1,Kimpelberg,
23950,BE,8,Meuleken,
23951,BE,1,Kattenberg,
23952,BE,6,Au Dela De L'eau,
23953,BE,2,Hedenge,
23954,BE,1,Mol Ter Neet,
23955,BE,4,Vert Buisson,
23956,BE,9,Driehoven,
23957,BE,7,Grandes Tombales,
23958,BE,8,Hoogstraat,
23959,BE,4,Fize-le-marsal,
23960,BE,3,Muidt,
23961,BE,9,Poelcappelle,
23962,BE,7,Bambois,
23963,BE,5,Hamal,
23964,BE,9,Spriethoek,
23965,BE,8,Schoevendries,
23966,BE,5,Leemhoutheide,
23967,BE,8,Hoging,
23968,BE,3,Delval,
23969,BE,7,Melroy,
23970,BE,3,Dansonspenne,
23971,BE,4,Chokier,
23972,BE,1,Heultje,
23973,BE,7,Chevenia,
23974,BE,7,Béolette,
23975,BE,7,Briquemont,
23976,BE,3,Daublain,
23977,BE,4,Altembroek,
23978,BE,4,Lambermont,
23979,BE,2,Beau Chêne,
23980,BE,6,Belloi,
23981,BE,3,Bourliquet,
23982,BE,7,Jannée,
23983,BE,1,Horendonck,
23984,BE,3,Herquegies,
23985,BE,3,Le Parc,
23986,BE,3,Long Aulnois,
23987,BE,1,Sainte-anne,
23988,BE,3,La Ferrière,
23989,BE,4,Iveldingen,
23990,BE,3,Claquedent,
23991,BE,5,Berkenbos,
23992,BE,6,Jenneville,
23993,BE,3,La Bretagne,
23994,BE,4,Renory,
23995,BE,4,Chauveheid,
23996,BE,4,Nivezé,
23997,BE,4,Jenneret,
23998,BE,8,Lozer,
23999,BE,8,Belzele,
24000,BE,3,Bomerée,
24001,BE,3,Le Casan,
24002,BE,6,Tintange,
24003,BE,2,Rofessart,
24004,BE,7,Finnevaux,
24005,BE,2,Patatestraat,
24006,BE,4,Hauts Sarts,
24007,BE,6,Guelff,
24008,BE,3,Bon Vouloir,
24009,BE,2,Sart Messire Guillaume,
24010,BE,7,Vieux-sautour,
24011,BE,7,Ville En Waret,
24012,BE,4,Chevrouheid,
24013,BE,3,Fond Martin,
24014,BE,3,Basse Gage,
24015,BE,7,Criptia,
24016,BE,4,Neufchâteau,
24017,BE,2,Sart Risbart,
24018,BE,6,Baranzy,
24019,BE,3,Gadin,
24020,BE,3,Dargis,
24021,BE,1,Malines,
24022,BE,9,Sint-idesbald,
24023,BE,4,Wanzoul,
24024,BE,1,Het Nieuwland,
24025,BE,6,Nivelet,
24026,BE,5,Eversel,
24027,BE,4,Kemexhe,
24028,BE,7,Awagne,
24029,BE,8,Smisstraat,
24030,BE,7,Baimont,
24031,BE,3,Mont Garni,
24032,BE,2,Winksele-delle,
24033,BE,9,Pollinkhove,
24034,BE,7,Trieu Des Sarts,
24035,BE,3,Brisée,
24036,BE,3,Savoie,
24037,BE,1,Most,
24038,BE,8,Nederwijk,
24039,BE,4,Deidenberg,
24040,BE,2,Lasne-chapelle-saint-lambert,
24041,BE,8,Meerhoutstraat,
24042,BE,8,Kastel,
24043,BE,2,Onze-lieve-vrouw-lombeek,
24044,BE,8,Veldeken,
24045,BE,5,Broekom,
24046,BE,5,Vliegeneinde,
24047,BE,5,Geistingen,
24048,BE,5,Runkelen,
24049,BE,1,Groenstraat,
24050,BE,6,Prouvy,
24051,BE,4,Kinkempois,
24052,BE,6,Grendel,
24053,BE,3,Ainières,
24054,BE,1,Oude Baan,
24055,BE,1,Waasdonk,
24056,BE,8,Hazelarenhoek,
24057,BE,8,Langestraat,
24058,BE,9,Klyte,
24059,BE,9,Aardappelhoek,
24060,BE,8,Leupegem,
24061,BE,1,Bremstraat,
24062,BE,1,Varendonk,
24063,BE,3,Ossogne,
24064,BE,5,Herbricht,
24065,BE,9,Haringe,
24066,BE,3,Vaulx-lez-chimay,
24067,BE,6,Fanzel,
24068,BE,8,Lebeke,
24069,BE,8,Eekstraat,
24070,BE,5,Bommershoven,
24071,BE,7,Havrenne,
24072,BE,8,Fort Rodenhuize,
24073,BE,3,Boissac,
24074,BE,8,Lichtervelde,
24075,BE,8,Nieuwpoort,
24076,BE,2,Montaigu,
24077,BE,4,Freloux,
24078,BE,2,Langstraat,
24079,BE,5,De Warande,
24080,BE,8,Lieferinge,
24081,BE,3,Les Montliaux,
24082,BE,1,Dreef,
24083,BE,8,Kleit,
24084,BE,8,Puivelde,
24085,BE,3,Saint-nicolas,
24086,BE,7,Navaugle,
24087,BE,5,Fouron-saint-martin,
24088,BE,7,Herbefays,
24089,BE,9,Oudekapelle,
24090,BE,7,Haie Du Postia,
24091,BE,6,Knop,
24092,BE,9,Den Haan,
24093,BE,2,Wever,
24094,BE,7,Mouzaive,
24095,BE,8,Bontinckstraat,
24096,BE,8,Elene,
24097,BE,7,Niverlée,
24098,BE,1,Larendries,
24099,BE,3,Noirchien,
24100,BE,9,Oostduinkerke-bad,
24101,BE,3,Ellignies-lez-frasnes,
24102,BE,4,Sart,
24103,BE,3,Twee Akren,
24104,BE,1,Schoten-heide-bad,
24105,BE,1,Steenbergen,
24106,BE,3,Donkerstraat,
24107,BE,4,Chaffours,
24108,BE,5,Voorshoven,
24109,BE,4,Fraiture,
24110,BE,4,Alster,
24111,BE,7,Sart D'avril,
24112,BE,7,Gendron,
24113,BE,5,Dormaal,
24114,BE,8,Jabeke,
24115,BE,8,Balgerhoeke,
24116,BE,9,Stalijzer,
24117,BE,2,Profondsart,
24118,BE,4,Seraing-le-château,
24119,BE,4,Wallerode,
24120,BE,6,Nevraumont,
24121,BE,1,De Kluis,
24122,BE,1,Maria-ter-heide,
24123,BE,4,Derrière Spa,
24124,BE,3,Enfer,
24125,BE,7,Namorimont,
24126,BE,2,Malèves-sainte-marie-wastines,
24127,BE,8,Oudenberg,
24128,BE,8,Hooirt,
24129,BE,9,Sint-rijkers,
24130,BE,8,Terdonk,
24131,BE,4,Regreny Champs,
24132,BE,1,Steenhoven,
24133,BE,5,Kesselt,
24134,BE,1,Bergom,
24135,BE,3,Sainte-anne,
24136,BE,7,Jambjoul,
24137,BE,4,Aldringen,
24138,BE,2,Schreiberg,
24139,BE,6,Ennal,
24140,BE,4,Duret,
24141,BE,6,Breuvanne,
24142,BE,4,Targnon,
24143,BE,7,Mourimont,
24144,BE,4,Bergilers,
24145,BE,3,Chênau,
24146,BE,4,Amblève,
24147,BE,2,Sint-kwintens-lennik,
24148,BE,2,Sint-martens-lennik,
24149,BE,8,Alost,
24150,BE,8,Grammont,
24151,BE,4,Soheit-tinlot,
24152,BE,2,Tirlemont,
24153,BE,5,Brustem,
24154,BE,1,Bouchout,
24155,BE,6,Laroche,
24156,BE,9,Duinbergen,
24157,BE,8,Vosselare,
24158,BE,3,Masnuy-saint-jean,
24159,BE,3,Mévergnies,
24160,BE,4,Le Tilleul,
24161,BE,4,Medell,
24162,BE,7,Haid,
24163,BE,4,Blier,
24164,BE,1,Hallaar,
24165,BE,4,Romsée,
24166,BE,5,Sint Truijen,
24167,BE,5,Tongres,
24168,BE,8,Renaix,
24169,BE,2,Biez,
24170,BE,1,Klein Willebroek,
24171,BE,4,Villers-saint-siméon,
24172,BE,6,Séviscourt,
24173,BE,9,Ostende,
24174,BE,8,Geeraardsbergen,
24175,BE,3,Doornik,
24176,BE,6,Habay-la-vieille,
24177,BE,9,Courtrai,
24178,BE,9,Wulvergem,
24179,BE,9,Coxyde,
24180,BE,9,Iper,
24181,BE,9,Roulers,
24182,BE,9,Menin,
24183,BE,9,Bossuit,
24184,BE,4,Comblain,
24185,BE,3,Morlanwelz-mariemont,
24186,BE,8,Atembeke,
24187,BE,4,Clefay,
24188,BE,3,Grandriaux,
24189,BE,2,Waanrodenhoek,
24190,BE,7,Lambaitienne,
24191,BE,6,Lorcy,
24192,BE,4,Flémalle-grande,
24193,BE,6,Differt,
24194,BE,3,Bruyères,
24195,BE,9,De Kroon,
24196,BE,5,Kanne,
24197,BE,4,Hannuit,
24198,BE,6,Waltzing,
24199,BE,3,Trou Barbet,
24200,BE,7,Tanton,
24201,BE,3,Lessen,
24202,BE,1,Heerle,
24203,BE,1,Opstal,
24204,BE,8,Volkegem,
24205,BE,1,Zonderschot,
24206,BE,4,Lige,
24207,BE,3,Vloesberg,
24208,BE,3,Bauche,
24209,BE,3,Les Fays,
24210,BE,6,Deiffelt,
24211,BE,4,Dolhain,
24212,BE,4,Goffontaine,
24213,BE,2,Galgstraat,
24214,BE,8,Roen,
24215,BE,8,Gaver,
24216,BE,9,La Panne,
24217,BE,6,Cugnon,
24218,BE,4,Lens-sur-geer,
24219,BE,12,Zaventem,
24220,BE,10,Tubize,
24221,BE,10,Braine-le-château,
24222,BE,12,Sint-pieters-leeuw,
24223,BE,12,Langdorp,
24224,BE,10,Thorembais-saint-trond,
24225,BE,10,Grez-doiceau,
24226,BE,12,Kortenaken,
24227,BE,12,Kraainem,
24228,BE,12,Hever,
24229,BE,10,Waterloo,
24230,BE,10,Lillois-witterzée,
24231,BE,12,Machelen,
24232,BE,10,Céroux-mousty,
24233,BE,12,Perk,
24234,BE,12,Schaffen,
24235,BE,11,Uccle,
24236,BE,10,Jodoigne,
24237,BE,12,Werchter,
24238,BE,12,Boutersem,
24239,BE,11,Watermael-boitsfort,
24240,BE,12,Liedekerke,
24241,BE,12,Asse,
24242,BE,12,Elewijt,
24243,BE,12,Averbode,
24244,BE,12,Kaggevinne,
24245,BE,10,Rixensart,
24246,BE,10,Baulers,
24247,BE,10,Incourt,
24248,BE,10,Perwez,
24249,BE,10,Nivelles,
24250,BE,12,Halle,
24251,BE,12,Elingen,
24252,BE,12,Rhode-saint-genèse,
24253,BE,12,Relegem,
24254,BE,12,Heverlee,
24255,BE,12,Meise,
24256,BE,12,Weerde,
24257,BE,12,Haasrode,
24258,BE,10,Ohain,
24259,BE,10,Bierges,
24260,BE,12,Drogenbos,
24261,BE,12,Lennik,
24262,BE,11,Laken,
24263,BE,10,Genval,
24264,BE,12,Dworp,
24265,BE,12,Kortenberg,
24266,BE,11,Sint-lambrechts-woluwe,
24267,BE,10,Braine-l'alleud,
24268,BE,10,Limelette,
24269,BE,10,Louvain-la-neuve,
24270,BE,10,Chaumont-gistoux,
24271,BE,10,Houtain-le-val,
24272,BE,12,Hoeleden,
24273,BE,12,Oud-heverlee,
24274,BE,12,Wespelaar,
24275,BE,12,Keerbergen,
24276,BE,12,Lubbeek,
24277,BE,12,Tielt,
24278,BE,12,Sint-joris-winge,
24279,BE,12,Bierbeek,
24280,BE,12,Aarschot,
24281,BE,12,Kessel-lo,
24282,BE,11,Strombeek-bever,
24283,BE,11,Schaerbeek,
24284,BE,12,Korbeek-lo,
24285,BE,12,Wilsele,
24286,BE,12,Nederokkerzeel,
24287,BE,12,Betekom,
24288,BE,12,Overijse,
24289,BE,12,Groot-bijgaarden,
24290,BE,12,Sint-stevens-woluwe,
24291,BE,10,Saintes,
24292,BE,12,Lembeek,
24293,BE,12,Diegem,
24294,BE,12,Nossegem,
24295,BE,12,Tervuren,
24296,BE,12,Hoeilaart,
24297,BE,12,Zellik,
24298,BE,12,Wezembeek-oppem,
24299,BE,12,Kersbeek,
24300,BE,12,Baal,
24301,BE,12,Glabbeek,
24302,BE,12,Zoutleeuw,
24303,BE,10,Court-saint-Étienne,
24304,BE,12,Hoegaarden,
24305,BE,12,Merchtem,
24306,BE,10,Marbais,
24307,BE,12,Geetbets,
24308,BE,10,Haut-ittre,
24309,BE,12,Tienen,
24310,BE,10,Orbais,
24311,BE,10,Chastre,
24312,BE,12,Gooik,
24313,BE,10,Profondsart,
24314,BE,12,Boortmeerbeek,
24315,BE,12,Londerzeel,
24316,BE,12,Malderen,
24317,BE,12,Steenhuffel,
24318,BE,12,Diest,
24319,BE,12,Opwijk,
24320,BE,12,Wolvertem,
24321,BE,11,Neder-over-heembeek,
24322,BE,12,Teralfene,
24323,BE,12,Kapelle-op-den-bos,
24324,BE,12,Galmaarden,
24325,BE,12,Bever,
24326,BE,12,Dilbeek,
24327,BE,12,Hekelgem,
24328,BE,12,Borchtlombeek,
24329,BE,12,Essene,
24330,BE,10,Autre-Église,
24331,BE,12,Kester,
24332,BE,12,Erps-kwerps,
24333,BE,12,Vlezenbeek,
24334,BE,12,Pamel,
24335,BE,12,Ternat,
24336,BE,12,Herent,
24337,BE,12,Molenstede,
24338,BE,12,Tirlemont,
24339,BE,12,Muizen,
24340,BE,12,Grimbergen,
24341,BE,12,Landen,
24342,BE,12,Wamont,
24343,BE,12,Linden,
24344,BE,12,Tremelo,
24345,BE,12,Vossem,
24346,BE,12,Wezemaal,
24347,BE,12,Ruisbroek,
24348,BE,12,Sint-genesius-rode,
24349,BE,12,Alsemberg,
24350,BE,11,Woluwé-saint-pierre,
24351,BE,12,Begijnendijk,
24352,BE,12,Beersel,
24353,BE,12,Linkebeek,
24354,BE,10,Humbeek,
24355,BE,12,Schepdaal,
24356,BE,12,Onze-lieve-vrouw-lombeek,
24357,BE,12,Sint-martens-lennik,
24358,BE,12,Strijtem,
24359,BE,12,Bertem,
24360,BE,12,Rotselaar,
24361,BE,12,Wambeek,
24362,BE,12,Oudenaken,
24363,BE,12,Lot,
24364,BE,12,Mollem,
24365,BE,12,Kobbegem,
24366,BE,12,Herne,
24367,BE,12,Buizingen,
24368,BE,12,Huizingen,
24369,BE,12,Duisburg,
24370,BE,12,Everberg,
24371,BE,12,Sterrebeek,
24372,BE,12,Sint-agatha-rode,
24373,BE,12,Meerbeek,
24374,BE,12,Huldenberg,
24375,BE,11,Sint-agatha-berchem,
24376,BE,12,Kampenhout,
24377,BE,12,Steenokkerzeel,
24378,BE,12,Lovenjoel,
24379,BE,11,Woluwé-saint-lambert,
24380,BE,12,Holsbeek,
24381,BE,12,Melsbroek,
24382,BE,12,Molenbeek-wersbeek,
24383,BE,11,Auderghem,
24384,BE,10,Ottignies,
24385,BE,12,Woluwe-saint-etienne,
24386,BE,12,Buken,
24387,BE,12,Hofstade,
24388,BE,12,Peutie,
24389,BE,12,Brussegem,
24390,BE,12,Beigem,
24391,BE,12,Eppegem,
24392,BE,12,Tollembeek,
24393,BE,12,Herfelingen,
24394,BE,12,Vollezele,
24395,BE,12,Pepingen,
24396,BE,12,Heikruis,
24397,BE,12,Wijgmaal,
24398,BE,12,Winksele,
24399,BE,11,Elsene,
24400,BE,12,Oplinter,
24401,BE,12,Goetsenhoven,
24402,BE,12,Zemst,
24403,BE,12,Haacht,
24404,BE,12,Veltem-beisem,
24405,BE,12,Tildonk,
24406,BE,12,Wange,
24407,BE,12,Brugge,
24408,BE,12,Leefdaal,
24409,BE,12,Pellenberg,
24410,BE,10,Marilles,
24411,BE,12,Scherpenheuvel,
24412,BE,12,Zichem,
24413,BE,12,Bunsbeek,
24414,BE,11,Boitsfort,
24415,BE,12,Neerlanden,
24416,BE,10,Bousval,
24417,BE,10,Hévillers,
24418,BE,12,Neerwinden,
24419,BE,12,Attenhoven,
24420,BE,12,Oetingen,
24421,BE,10,Loupoigne,
24422,BE,10,Ittre,
24423,BE,10,Baisy-thy,
24424,BE,10,Genappe,
24425,BE,10,Vieux-genappe,
24426,BE,10,Ways,
24427,BE,10,Nodebais,
24428,BE,10,Villers-la-ville,
24429,BE,10,Beauvechain,
24430,BE,10,Tourinnes,
24431,BE,10,Bonlez,
24432,BE,10,Corroy-le-grand,
24433,BE,10,Gottechain,
24434,BE,10,Hamme-mille,
24435,BE,10,Mellery,
24436,BE,10,Saint-géry,
24437,BE,10,Archennes,
24438,BE,11,Laeken,
24439,BE,10,Sart-dames-avelines,
24440,BE,10,Corbais,
24441,BE,10,Noville-sur-méhaigne,
24442,BE,12,Testelt,
24443,BE,12,Rhode,
24444,BE,12,Sint-margriete-houtem,
24445,BE,12,Ottenburg,
24446,BE,12,Itterbeek,
24447,BE,12,Rillaar,
24448,BE,12,Waanrode,
24449,BE,12,Gelrode,
24450,BE,12,Nieuwenrode,
24451,BE,12,Ramsdonk,
24452,BE,10,Glimes,
24453,BE,12,Blanden,
24454,BE,10,Orp-le-grand,
24455,BE,12,Kortrijk-dutsel,
24456,BE,12,Binkom,
24457,BE,12,Nieuwrode,
24458,BE,12,Sint-pieters-rode,
24459,BE,12,Meensel-kiezegem,
24460,BE,12,Bekkevoort,
24461,BE,12,Wommersom,
24462,BE,12,Attenrode-wever,
24463,BE,12,Neerhespen,
24464,BE,12,Rummen,
24465,BE,12,Budingen,
24466,BE,12,Attenrode,
24467,BE,12,Kersbeek-miskom,
24468,BE,12,Ransberg,
24469,BE,12,Walshoutem,
24470,BE,12,Léau,
24471,BE,12,Waasmont,
24472,BE,12,Orsmaal,
24473,BE,12,Ezemaal,
24474,BE,12,Assent,
24475,BE,12,Sint-joris-weert,
24476,BE,12,Vaalbeek,
24477,BE,12,Messelbroek,
24478,BE,12,Schoonderbuken,
24479,BE,12,Wezeren,
24480,BE,12,Neerlinter,
24481,BE,12,Webbekom,
24482,BE,12,Drieslinter,
24483,BE,12,Halle-booienhoven,
24484,BE,12,Schiplaken,
24485,BE,10,Jauchelette,
24486,BE,10,Biez,
24487,BE,10,Walhain,
24488,BE,10,Jauche,
24489,BE,10,Mont-saint-guibert,
24490,BE,10,La Hulpe,
24491,BE,10,Nethen,
24492,BE,10,Oisquercq,
24493,BE,10,Bierghes,
24494,BE,10,Bornival,
24495,BE,10,Quenast,
24496,BE,10,Énines,
24497,BE,10,Dion-le-val,
24498,BE,11,Saint-josse-ten-noode,
24499,BE,10,Limal,
24500,BE,10,Piétrain,
24501,BE,11,Molenbeek-saint-jean,
24502,BE,9,Hoeke,
24503,BE,12,Mazenzele,
24504,BE,10,Plancenoit,
24505,BE,10,Ophain,
24506,BE,10,Samme,
24507,BE,10,Tilly,
24508,BE,10,Tourinnes-la-grosse,
24509,BE,10,Gistoux,
24510,BE,10,La Roche,
24511,BE,10,Huppaye,
24512,BE,11,Stockel,
24513,BE,12,Egenhoven,
24514,BE,12,Vilvorde,
24515,BE,12,Neerijse,
24516,BE,11,Berchem-sainte-agathe,
24517,BE,12,Vissenaken,
24518,BE,12,Korbeek-dijle,
24519,BE,12,Hakendover,
24520,BE,12,Outgaarden,
24521,BE,12,Opvelp,
24522,BE,12,Kumtich,
24523,BE,12,Loonbeek,
24524,BE,12,Beisem,
24525,BE,12,Sint-ulriks-kapelle,
24526,BE,12,Grand-bigard,
24527,BE,12,Beert,
24528,BE,12,Leerbeek,
24529,BE,12,Bellingen,
24530,BE,12,Sint-katherina-lombeek,
24531,BE,12,Vertrijk,
24532,BE,10,Ophain-bois-seigneur-isaac,
24533,BE,12,Wolfsdonk,
24534,BE,10,Maransart,
24535,BE,12,Zétrud-lumay,
24536,BE,12,Sint-martens-bodegem,
24537,BE,12,Overhespen,
24538,BE,12,De Haan,
24539,BE,9,Jonkershove,
24540,BE,11,Jezus-eik,
24541,BE,12,Galgstraat,
24542,BE,11,Sint-jans-molenbeek,
24543,BE,10,Walhain-saint-paul,
24544,BE,10,Monstreux,
24545,BE,10,Wauthier-braine,
24546,BE,10,Rosières,
24547,BE,10,Nil-saint-vincent,
24548,BE,10,Piétrebais,
24549,BE,10,Noduwez,
24550,BE,10,Gentinnes,
24551,BE,12,Blaregem,
24552,BE,11,Sint-gillis,
24553,BE,10,Rebecq-rognon,
24554,BE,3,Humbeek,
24555,BE,10,Ramillies-offus,
24556,BE,12,Montaigu,
24557,BE,10,Saint-jean-geest,
24558,BE,10,Bossut-gottechain,
24559,BE,10,Lathuy,
24560,BE,12,Heverle,
24561,BE,10,Thines,
24562,BE,10,Blanmont,
24563,BE,10,Cortil-noirmont,
24564,BE,10,Dongelberg,
24565,BE,10,Couture-saint-germain,
24566,BE,10,Clabecq,
24567,BE,10,Tourinnes-saint-lambert,
24568,BE,10,Folx-les-caves,
24569,BE,10,Lambert,
24570,BE,10,Bourgeois,
24571,BE,10,Colinet,
24572,BE,11,Le Logis,
24573,BE,12,Parc,
24574,BE,12,Boterstraat,
24575,BE,12,Lat,
24576,BE,12,Park,
24577,BE,12,Hoste,
24578,BE,12,Vlierbeek,
24579,BE,10,Lacroix,
24580,BE,11,Kellen,
24581,BE,12,Haas,
24582,BE,12,De Mot,
24583,BE,10,Saint-gilles,
24584,BE,10,Wauthier,
24585,BE,12,Rode,
24586,BE,10,Communes,
24587,BE,12,Delle,
24588,BE,12,Bautersem,
24589,BE,12,Sint-jozef,
24590,BE,11,Broeck,
24591,BE,12,Wijngaard,
24592,BE,12,Assche,
24593,BE,12,Wever,
24594,BE,8,Huyskens,
24595,BE,6,Behême,
24596,BE,12,Kessel,
24597,BE,11,Haren,
24598,BE,10,Linsmeau,
24599,BE,12,Okselaar,
24600,BE,6,Auby-sur-semois,
24601,BE,12,Sint-laureins-berchem,
24602,BE,11,Sint-joost-ten-node,
24603,BE,12,Alsberg,
24604,BE,11,Watermaal-bosvoorde,
24605,BE,10,Bomal,
24606,BE,10,Opprebais,
24607,BE,12,Oorbeek,
24608,BE,9,Haaselbeekstraat,
24609,BE,10,Thorembais-les-béguines,
24610,BE,6,Radelange,
24611,BE,8,Ternat,
24612,BE,10,Virginal-samme,
24613,BE,10,Jandrenouille,
24614,BE,10,Les Belles Pierres,
24615,BE,12,Bost,
24616,BE,10,La Bruyère,
24617,BE,7,Mertenne,
24618,BE,11,Koningslo,
24619,BE,4,Gleixhe,
24620,BE,12,Glabbeek-zuurbemde,
24621,BE,4,Fosse,
24622,BE,10,Jodoigne-souveraine,
24623,BE,3,Ramegnies,
24624,BE,12,Sint-kwintens-lennik,
24625,BE,7,Hastière-lavaux,
24626,BE,10,Roux-miroir,
24627,BE,12,Grazen,
24628,BE,7,Chaleux,
24629,BE,3,Gibraltar,
24630,BE,12,Crainhem,
24631,BE,8,Steenbeekdries,
24632,BE,9,De Knok,
24633,BE,3,Haute Gage,
24634,BE,9,Lizerne,
24635,BE,7,Verdenne,
24636,BE,5,Lograaf,
24637,BE,9,Kwadebrug,
24638,BE,3,Bétissart,
24639,BE,5,Maastrichterheide,
24640,BE,10,Monceau De Berger,
24641,BE,12,Melkwezer,
24642,BE,12,Orsmaal-gussenhoven,
24643,BE,11,Sint-pieters-woluwe,
24644,BE,9,Messines,
24645,BE,10,Woutersbrakel,
24646,BE,3,Champ Du Bois,
24647,BE,9,Laten,
24648,BE,3,Cahot,
24649,BE,5,Kelbergen,
24650,BE,10,Neerheylissem,
24651,BE,12,Willebringen,
24652,BE,8,Smeistraat,
24653,BE,1,Seggen,
24654,BE,10,Gimerée,
24655,BE,12,Dutsel,
24656,BE,11,Sint-joost-ten-noode,
24657,BE,1,De Steenhoeven,
24658,BE,5,Weierbrug,
24659,BE,6,Beffe,
24660,BE,10,Dion-le-mont,
24661,BE,9,Den Hoorn,
24662,BE,4,Calbour,
24663,BE,3,Boucaut,
24664,BE,3,Andricourt,
24665,BE,1,Oorderen,
24666,BE,7,Phillippeville,
24667,BE,5,'s-gravenvoeren,
24668,BE,4,Lamine,
24669,BE,12,Leeuw-saint-pierre,
