locId,country,region,city,postcode
24686,BG,,,
24687,BG,42,Sofia,
24688,BG,61,Varna,
24689,BG,39,Burgas,
24690,BG,62,Tarnovo,
24691,BG,50,Pleven,
24692,BG,51,Plovdiv,
24693,BG,38,Blagoevgrad,
24694,BG,59,Stara Zagora,
24695,BG,43,Dimitrovgrad,
24696,BG,52,Razgrad,
24697,BG,46,Lovech,
24698,BG,50,Levski,
24699,BG,53,Rousse,
24700,BG,52,Balkan,
24701,BG,64,Vratca,
24702,BG,43,Svilengrad,
24703,BG,39,Pomorie,
24704,BG,43,Bulgarin,
24705,BG,41,Gabrovo,
24706,BG,58,Kostinbrod,
24707,BG,51,Saedinenie,
24708,BG,43,Haskovo,
24709,BG,42,Moderno Predgradie,
24710,BG,56,Sliven,
24711,BG,48,Pestera,
24712,BG,40,Dobrich,
24713,BG,59,Kazanlak,
24714,BG,45,Kyustendil,
24715,BG,57,Smolian,
24716,BG,48,Pazardjik,
24717,BG,49,Pernik,
24718,BG,65,Yambol,
24719,BG,63,Vidin,
24720,BG,62,Pavlikeni,
24721,BG,55,Silistra,
24722,BG,50,Belene,
24723,BG,40,Kavarna,
24724,BG,51,Assenovgrad,
24725,BG,39,Ustrem,
24726,BG,64,Vratsa,
24727,BG,58,Botevgrad,
24728,BG,33,Zlaten Rog,
24729,BG,58,Prolesha,
24730,BG,64,Kozloduj,
24731,BG,58,Pravec,
24732,BG,62,Svishtov,
24733,BG,51,Parchevich,
24734,BG,51,Arda,
24735,BG,61,Nikolaevska,
24736,BG,59,Radnevo,
24737,BG,62,Suhindol,
24738,BG,40,Balchik,
24739,BG,61,Sveti Naum,
24740,BG,61,Devnya,
24741,BG,52,Voden,
24742,BG,50,Dolna Mitropolia,
24743,BG,40,Tervel,
24744,BG,38,Petrich,
24745,BG,54,Shumen,
24746,BG,61,Kliment,
24747,BG,58,Pirin,
24748,BG,61,Kaloyan,
24749,BG,39,San Stefano,
24750,BG,55,Dulovo,
24751,BG,61,Voivoda,
24752,BG,52,Slatina,
24753,BG,43,Harmanli,
24754,BG,58,Ihtiman,
24755,BG,48,Velingrad,
24756,BG,46,Trojan,
24757,BG,46,Troyan,
24758,BG,47,Montana,
24759,BG,56,Nova Zagora,
24760,BG,41,Sevlievo,
24761,BG,51,Radinovo,
24762,BG,48,Panagyurishte,
24763,BG,48,Pazardzhik,
24764,BG,42,Bankya,
24765,BG,51,Shipka,
24766,BG,52,Martin,
24767,BG,38,Bansko,
24768,BG,61,Iskar,
24769,BG,47,Varshetz,
24770,BG,46,Vidima,
24771,BG,57,Smolyan,
24772,BG,61,Prespa,
24773,BG,51,Fabrika,
24774,BG,51,Karlovo,
24775,BG,51,Graf Ignatiev,
24776,BG,42,Sredets,
24777,BG,46,Konstantin,
24778,BG,45,Dupnica,
24779,BG,58,Pravets,
24780,BG,51,Asenovgrad,
24781,BG,46,Stefan Stambolov,
24782,BG,43,Most,
24783,BG,52,Simeonovo,
24784,BG,61,Stefan Karadja,
24785,BG,61,Pliska,
24786,BG,39,Sozopol,
24787,BG,39,Iglika,
24788,BG,50,Nikopol,
24789,BG,59,Chirpan,
24790,BG,58,Elin Pelin,
24791,BG,61,Beloslav,
24792,BG,44,Kurdzhali,
24793,BG,48,Panagiuriste,
24794,BG,48,Septemvri,
24795,BG,39,Zornitsa,
24796,BG,38,Sandanski,
24797,BG,52,Smirnenski,
24798,BG,60,Targovishte,
24799,BG,53,Byala,
24800,BG,61,Priselci,
24801,BG,38,Yakoruda,
24802,BG,61,Avren,
24803,BG,39,Kitka,
24804,BG,51,Trud,
24805,BG,61,Lozenec,
24806,BG,58,Ilinden,
24807,BG,61,Dolen Chiflik,
24808,BG,39,Nessebar,
24809,BG,51,Krichim,
24810,BG,51,Rakovski,
24811,BG,58,Bistrica,
24812,BG,44,Momchilgrad,
24813,BG,43,Maritsa,
24814,BG,39,Obzor,
24815,BG,58,Slivnitsa,
24816,BG,39,Ljulin,
24817,BG,39,Izgrev,
24818,BG,59,Gurkovo,
24819,BG,57,Devin,
24820,BG,39,Avramov,
24821,BG,48,Peshtera,
24822,BG,46,Dolna Oriahovica,
24823,BG,39,Sungurlare,
24824,BG,52,Isperih,
24825,BG,38,Kresna,
24826,BG,39,Aytos,
24827,BG,61,Krakra,
24828,BG,43,Ljubimetz,
24829,BG,46,Vladislav,
24830,BG,42,Novi Iskar,
24831,BG,58,Samokov,
24832,BG,62,Elena,
24833,BG,46,Resen,
24834,BG,62,Gorna Oriahovica,
24835,BG,57,Chepelare,
24836,BG,39,Markovo,
24837,BG,61,Neofit Rilski,
24838,BG,61,Vladislav Varnenchik,
24839,BG,60,Omurtag,
24840,BG,38,Simitli,
24841,BG,39,Svoboda,
24842,BG,40,Dobritch,
24843,BG,33,Sumer,
24844,BG,55,Tutrakan,
24845,BG,58,Vranya,
24846,BG,58,Kostenec,
24847,BG,45,Kjustendil,
24848,BG,43,Oriahovica,
24849,BG,38,Razlog,
24850,BG,57,Rudozem,
24851,BG,39,Malina,
24852,BG,58,Anton,
24853,BG,53,Borovo,
24854,BG,52,Sredna,
24855,BG,58,Chavdar,
24856,BG,42,Dolni Bogrov,
24857,BG,43,Rodopi,
24858,BG,43,Musachevo,
24859,BG,39,Samuilovo,
24860,BG,52,Vetren,
24861,BG,39,Sredec,
24862,BG,46,Chervena,
24863,BG,39,Sveti Vlas,
24864,BG,49,Tran,
24865,BG,61,Lyuben Karavelov,
24866,BG,39,Aitos,
24867,BG,43,Pepelishte,
24868,BG,63,Druzhba,
24869,BG,64,Kneja,
24870,BG,39,Karnobat,
24871,BG,52,Stefan Karadzha,
24872,BG,46,Shipkovo,
24873,BG,61,Telerik,
24874,BG,45,Bobovdol,
24875,BG,54,Sumen,
24876,BG,60,Opaka,
24877,BG,58,Kresna,
24878,BG,41,Drjanovo,
24879,BG,46,Debelec,
24880,BG,41,Trjavna,
24881,BG,46,Plackovci,
24882,BG,48,Pazardzik,
24883,BG,51,Perustica,
24884,BG,45,Rila,
24885,BG,52,Kubrat,
24886,BG,52,Zavet,
24887,BG,43,Topolovgrad,
24888,BG,43,Simeonovgrad,
24889,BG,64,Krivodol,
24890,BG,58,Dolna Banja,
24891,BG,52,Marten,
24892,BG,52,Kaya Makhle,
24893,BG,46,Jablanica,
24894,BG,48,Bracigovo,
24895,BG,51,Sadovo,
24896,BG,58,Svoge,
24897,BG,48,Belovo,
24898,BG,38,Gotse Delchev,
24899,BG,38,Jakoruda,
24900,BG,40,Dobric,
24901,BG,58,Godec,
24902,BG,39,Dragovo,
24903,BG,61,Provadija,
24904,BG,58,Kumbaska,
24905,BG,50,Pordim,
24906,BG,46,Lovec,
24907,BG,39,Kermen,
24908,BG,64,Roman,
24909,BG,52,Cherven,
24910,BG,38,Petric,
24911,BG,48,Panagjuriste,
24912,BG,39,Kameno,
24913,BG,65,Straldza,
24914,BG,39,Ajtos,
24915,BG,39,Brestovets,
24916,BG,49,Radomir,
24917,BG,58,Zlatica,
24918,BG,45,Kocerinovo,
24919,BG,45,Bobosevo,
24920,BG,51,Katunica,
24921,BG,51,Brezovo,
24922,BG,61,Ecrene,
24923,BG,64,Mezdra,
24924,BG,46,Armutlii,
24925,BG,62,Svistov,
24926,BG,46,Kilifarevo,
24927,BG,46,Sopot,
24928,BG,51,Klisura,
24929,BG,47,Lom,
24930,BG,44,Kardzhali,
24931,BG,58,Katsite,
24932,BG,58,Pirdop,
24933,BG,60,Popovo,
24934,BG,52,Rasboina,
24935,BG,43,Mericleri,
24936,BG,51,Hisar,
24937,BG,54,Kaspican,
24938,BG,61,Suvorovo,
24939,BG,61,Bjala,
24940,BG,39,Nesebar,
24941,BG,65,Elhovo,
24942,BG,59,Magliz,
24943,BG,55,Alfatar,
24944,BG,53,Vetovo,
24945,BG,53,Dve Mogili,
24946,BG,43,Ljubimec,
24947,BG,53,Bjala,
24948,BG,62,Ljaskovec,
24949,BG,46,Rabevo,
24950,BG,43,Sipka,
24951,BG,48,Strelca,
24952,BG,51,Laki,
24953,BG,57,Cepelare,
24954,BG,44,Momcilgrad,
24955,BG,39,Primorsko,
24956,BG,47,Berkovica,
24957,BG,42,Buhovo,
24958,BG,58,Koprivstica,
24959,BG,51,Kricim,
24960,BG,61,Novosel,
24961,BG,51,Kalofer,
24962,BG,61,Dibich,
24963,BG,52,Buinovo,
24964,BG,58,Dragoman,
24965,BG,42,Bankja,
24966,BG,51,Sarnitsa,
24967,BG,44,Kirkovo,
24968,BG,51,Dabene,
24969,BG,51,Hissar,
24970,BG,54,Veliki Preslav,
24971,BG,44,Krumovgrad,
24972,BG,58,Etropole,
24973,BG,46,Derikotkovtsi,
24974,BG,61,Dalgopol,
24975,BG,52,Marlen,
24976,BG,56,Kotel,
24977,BG,59,Cirpan,
24978,BG,46,Slavjanovo,
24979,BG,46,Lukovit,
24980,BG,39,Katunitsa,
24981,BG,61,Sahinlar,
24982,BG,58,Godech,
24983,BG,46,Angelov,
24984,BG,61,Dolni Chiflik,
24985,BG,61,Benkovski,
24986,BG,52,Prosena,
24987,BG,59,Galabovo,
24988,BG,57,Madan,
24989,BG,64,Kneza,
24990,BG,46,Teteven,
24991,BG,46,Peschterna,
24992,BG,33,Selanovci,
24993,BG,64,Orjahovo,
24994,BG,52,Kedi Yuren,
24995,BG,51,Adzhilare,
24996,BG,62,Tirnovo,
24997,BG,39,Atlii,
24998,BG,48,Rakitovo,
24999,BG,43,Akcha Kayryak,
25000,BG,62,Zlatarica,
25001,BG,46,Aladanlii,
25002,BG,54,Novi Pazar,
25003,BG,54,Kaolinovo,
25004,BG,58,Kolibi Kayrak,
25005,BG,61,Cernaoco,
25006,BG,39,Chanowo,
25007,BG,43,Shekhler,
25008,BG,47,Ravna,
25009,BG,46,Dushevski Kolibi,
25010,BG,51,Isperihovo,
25011,BG,39,Balgarovo,
25012,BG,52,Dolna Studena,
25013,BG,38,Belica,
25014,BG,52,Senovo,
25015,BG,61,Karajasadshi,
25016,BG,51,Vojvodinovo,
25017,BG,61,Aksakovo,
25018,BG,61,Rosica,
25019,BG,47,Chiprovtsi,
25020,BG,57,Smoljan,
25021,BG,39,Kabile,
25022,BG,46,Bulgarski Izvor,
25023,BG,46,Letnica,
25024,BG,58,Iskrec,
25025,BG,58,Kresna,
25026,BG,51,Stamboliyski,
25027,BG,57,Banite,
25028,BG,40,General-toshevo,
25029,BG,46,Drenta,
25030,BG,46,Obnova,
25031,BG,39,Shivachevo,
25032,BG,43,Gurkovo,
25033,BG,62,Strazica,
25034,BG,46,Galata,
25035,BG,33,Selanovtsi,
25036,BG,58,Batanovci,
25037,BG,58,Cherniche,
25038,BG,61,Maria Luiza,
25039,BG,51,Belozem,
25040,BG,51,Stroevo,
25041,BG,50,Cherven Bryag,
25042,BG,62,Gorna Orekhovitsa,
25043,BG,33,Krumovo,
25044,BG,51,Kuklen,
25045,BG,39,Carevo,
25046,BG,43,Harmanly,
25047,BG,39,Tzarevo,
25048,BG,51,Byaga,
25049,BG,43,Biser,
25050,BG,58,Zhizhevo,
25051,BG,56,Tvardica,
25052,BG,63,Belogradcik,
25053,BG,39,Vlas,
25054,BG,52,Babuk,
25055,BG,62,Polski Trambesh,
25056,BG,49,Breznik,
25057,BG,52,Samuil,
25058,BG,58,Samoranovo,
25059,BG,63,Gramada,
25060,BG,42,Lozen,
25061,BG,58,Borovets,
25062,BG,39,Ravda,
25063,BG,52,Kalipetrovo,
25064,BG,61,Spasovo,
25065,BG,51,Tsaratsovo,
25066,BG,58,Rupite,
25067,BG,43,Ivajlovgrad,
25068,BG,48,Batak,
25069,BG,58,Krupnik,
25070,BG,57,Zlatograd,
25071,BG,39,Ahtopol,
25072,BG,52,Vodica,
25073,BG,39,Bania,
25074,BG,58,Dobrinishte,
25075,BG,53,Slivo Pole,
25076,BG,42,Dolni Lozen,
25077,BG,58,Bozhurishte,
25078,BG,61,Kranevo,
25079,BG,46,Oreshak,
25080,BG,51,Dorkovo,
25081,BG,39,Kableshkovo,
25082,BG,58,Mirkovo,
25083,BG,47,Varshets,
25084,BG,58,Saparevo,
25085,BG,38,Gabrene,
25086,BG,33,Butan,
25087,BG,51,Voivodinovo,
25088,BG,51,Purvomai,
25089,BG,44,Ardino,
25090,BG,61,Veselin,
25091,BG,46,Samovodene,
25092,BG,51,Cheshnegirovo,
25093,BG,58,Sklave,
25094,BG,60,Turgovishte,
25095,BG,43,Sheinovo,
25096,BG,58,Gara Bov,
25097,BG,58,Litakovo,
25098,BG,39,Banevo,
25099,BG,59,Pavel,
25100,BG,51,Rogosh,
25101,BG,51,Kostievo,
25102,BG,51,Pavelsko,
25103,BG,58,Marikostinovo,
25104,BG,58,Levunovo,
25105,BG,52,Kardam,
25106,BG,45,Nevestino,
25107,BG,46,Malchika,
25108,BG,64,Byala Slatina,
25109,BG,58,Slashten,
25110,BG,46,Ribaritsa,
25111,BG,33,Dolna Kremena,
25112,BG,46,Trastenik,
25113,BG,46,Cherkovitsa,
25114,BG,46,Dolni,
25115,BG,61,Madara,
25116,BG,46,Apriltsi,
25117,BG,52,Seidol,
25118,BG,61,Vetrino,
25119,BG,33,Dolno Linevo,
25120,BG,42,Mramor,
25121,BG,33,Gavril Genovo,
25122,BG,61,Kipra,
25123,BG,61,Momchil,
25124,BG,51,Manole,
25125,BG,51,Skutare,
25126,BG,61,Ezerovo,
25127,BG,58,Vrachesh,
25128,BG,63,Bregovo,
25129,BG,46,Dolni Lukovit,
25130,BG,39,Veliko,
25131,BG,39,Debelt,
25132,BG,51,Govedare,
25133,BG,59,Banya,
25134,BG,51,Anevo,
25135,BG,43,Madjarovo,
25136,BG,52,Cherkovna,
25137,BG,46,Sadovec,
25138,BG,46,Dermanci,
25139,BG,51,Kurtovo Konare,
25140,BG,58,Aldomirovci,
25141,BG,33,Tarnava,
25142,BG,58,Slivnitza,
25143,BG,60,Antonovo,
25144,BG,62,Turnovo,
25145,BG,52,Krasen,
25146,BG,39,Sarafovo,
25147,BG,58,Dushantsi,
25148,BG,58,Vakarel,
25149,BG,58,Breznitsa,
25150,BG,58,Poleto,
25151,BG,61,Mirovtsi,
25152,BG,39,Bezmer,
25153,BG,51,Calapica,
25154,BG,39,Veselinovo,
25155,BG,52,Brestovitsa,
25156,BG,51,Brestovica,
25157,BG,52,Lovsko,
25158,BG,52,Aydemir,
25159,BG,46,Muselievo,
25160,BG,51,Manolsko Konare,
25161,BG,46,Ablanica,
25162,BG,46,Bukovlak,
25163,BG,58,Gara Elin Pelin,
25164,BG,61,Oborischte,
25165,BG,52,Tsar Kaloyan,
25166,BG,46,Vrabevo,
25167,BG,51,Pishtigovo,
25168,BG,43,Dalboki,
25169,BG,58,Ribnovo,
25170,BG,51,Gradat,
25171,BG,42,Gorni Bogrov,
25172,BG,58,Koprivlen,
25173,BG,52,Kolarovo,
25174,BG,51,Grashevo,
25175,BG,61,Zhitnitsa,
25176,BG,38,Strumyani,
25177,BG,58,Dolno Kamarci,
25178,BG,58,Dren,
25179,BG,51,Backovo,
25180,BG,51,Brestnik,
25181,BG,46,Radanovo,
25182,BG,51,Hristo-danovo,
25183,BG,52,Profesor-ishirkovo,
25184,BG,46,Polikraiste,
25185,BG,58,Bagrentsi,
25186,BG,39,Trapoklovo,
25187,BG,39,Nikola,
25188,BG,43,Martino,
25189,BG,33,Krushovitsa,
25190,BG,39,Varvara,
25191,BG,58,Debren,
25192,BG,52,Loznitsa,
25193,BG,54,Kaspichan,
25194,BG,58,Karnalovo,
25195,BG,58,Govedartsi,
25196,BG,46,Ioglav,
25197,BG,61,Oborishte,
25198,BG,43,Bogomilovo,
25199,BG,63,Novo Selo,
25200,BG,63,Dimovo,
25201,BG,52,Popkralevo,
25202,BG,51,Belashtitsa,
25203,BG,46,Byala Cherkva,
25204,BG,51,Malo Konare,
25205,BG,58,Divotino,
25206,BG,33,Malorad,
25207,BG,46,Toros,
25208,BG,50,Dolni Dabnik,
25209,BG,33,Zgorigrad,
25210,BG,43,Tulovo,
25211,BG,58,Kostenets,
25212,BG,51,Banja,
25213,BG,58,Chelopech,
25214,BG,46,Pchelishte,
25215,BG,58,Novi-han,
25216,BG,46,Kozarevec,
25217,BG,58,Musomishta,
25218,BG,58,Gorna Malina,
25219,BG,61,Obrochishte,
25220,BG,51,Popinci,
25221,BG,58,Vaklinovo,
25222,BG,33,Zverino,
25223,BG,43,Krun,
25224,BG,52,Pirgovo,
25225,BG,46,Rodina,
25226,BG,52,Sandrovo,
25227,BG,52,Tetovo,
25228,BG,52,Brestovene,
25229,BG,52,Nikolovo,
25230,BG,52,Ravno,
25231,BG,43,Gorski Izvor,
25232,BG,55,Glavinitsa,
25233,BG,57,Borino,
25234,BG,51,Kostandovo,
25235,BG,51,Yoakim-gruevo,
25236,BG,51,Dolen,
25237,BG,51,Popovica,
25238,BG,63,Kula,
25239,BG,51,Sinitovo,
25240,BG,47,Vurshets,
25241,BG,58,Struma,
25242,BG,39,Roza,
25243,BG,39,Malomir,
25244,BG,58,Mikrevo,
25245,BG,46,Arbanassi,
25246,BG,48,Lesichovo,
25247,BG,46,Gradniza,
25248,BG,52,Starmen,
25249,BG,46,Prisovo,
25250,BG,39,Slavyantsi,
25251,BG,51,Dimitrievo,
25252,BG,58,Trudovets,
25253,BG,39,Prosenik,
25254,BG,46,Totleben,
25255,BG,38,Skrat,
25256,BG,42,Bistritsa,
25257,BG,58,Murgash,
25258,BG,52,Osikovo,
25259,BG,58,Kavrakirovo,
25260,BG,62,Polski Trumbesh,
25261,BG,39,Karageorgievo,
25262,BG,43,Gruevo,
25263,BG,57,Nedelino,
25264,BG,51,Taran,
25265,BG,51,Izbegli,
25266,BG,58,Cherven Breg,
25267,BG,46,Daveri,
25268,BG,58,Marchevo,
25269,BG,51,Zlatitrap,
25270,BG,43,Osetenovo,
25271,BG,39,Srem,
25272,BG,62,Zlataritsa,
25273,BG,41,Dryanovo,
25274,BG,58,Kraishte,
25275,BG,43,Mishevsko,
25276,BG,51,Cherven,
25277,BG,58,Bania,
25278,BG,58,Bistritsa,
25279,BG,52,Belovets,
25280,BG,58,Musachevo,
25281,BG,51,Varvara,
25282,BG,46,Bukovluk,
25283,BG,51,Banya,
25284,BG,51,Oborishte,
25285,BG,51,Krumovo,
25286,BG,51,Markovo,
25287,BG,58,Dryanovo,
25288,BG,39,Kiten,
25289,BG,33,Razgrad,
25290,BG,51,Karavelovo,
25291,BG,51,Semchinovo,
25292,BG,43,Elhovo,
25293,BG,39,Chernomorets,
25294,BG,51,Vetren,
25295,BG,33,Banica,
25296,BG,43,Kasnakovo,
25297,BG,58,Krushovitsa,
25298,BG,39,General-toshevo,
25299,BG,58,Dabnitsa,
25300,BG,52,Staro Selo,
25301,BG,51,Tsar Kaloyan,
25302,BG,39,Tervel,
25303,BG,49,Zemen,
25304,BG,51,Apriltsi,
25305,BG,38,Padesh,
25306,BG,52,Blagoevo,
25307,BG,64,Knezha,
25308,BG,39,Granitsa,
25309,BG,51,Drangovo,
25310,BG,44,Djebel,
25311,BG,33,Madan,
25312,BG,46,Vardim,
25313,BG,38,Leshko,
25314,BG,57,Dospat,
25315,BG,43,Kran,
25316,BG,42,Pancharevo,
25317,BG,51,Kaloyanovo,
25318,BG,42,Benkovski,
25319,BG,46,Draganovo,
25320,BG,51,Brestovitza,
25321,BG,47,Pokrayna,
25322,BG,44,Dzhebel,
25323,BG,46,Kojnare,
25324,BG,58,Kolarovo,
25325,BG,51,Ivan-vazovo,
25326,BG,58,Kostenetz,
25327,BG,51,Startsevo,
25328,BG,51,Barutin,
25329,BG,58,Klisura,
25330,BG,58,Breznica,
25331,BG,51,Aleko-konstantinovo,
25332,BG,46,Kirchevo,
25333,BG,46,Ledenik,
25334,BG,61,Kochmar,
25335,BG,58,Dragichevo,
25336,BG,39,Ravadinovo,
25337,BG,39,Malko Tarnovo,
25338,BG,39,Topolchane,
25339,BG,51,Karnare,
25340,BG,33,Gromschin,
25341,BG,46,Mladen,
25342,BG,43,Bagra,
25343,BG,51,Flavia,
25344,BG,52,Veselina,
25345,BG,52,Novo Selo,
25346,BG,51,Slatina,
25347,BG,46,Polikraishte,
25348,BG,51,Branipole,
25349,BG,51,Ioakim Gruevo,
25350,BG,43,Varbovo,
25351,BG,40,Sabla,
25352,BG,33,Gromshin,
25353,BG,42,Pasarel,
25354,BG,61,Partizani,
25355,BG,46,Glava,
25356,BG,51,Buta,
25357,BG,58,Rebrovo,
25358,BG,43,Ploska Mogila,
25359,BG,33,Melyane,
25360,BG,46,Lesidren,
25361,BG,51,Tsalapitsa,
25362,BG,51,Pamidovo,
25363,BG,51,Dinkata,
25364,BG,52,Svetlen,
25365,BG,46,Debnevo,
25366,BG,51,Yagodina,
25367,BG,58,Muletarovo,
25368,BG,39,Kamenets,
25369,BG,39,Lesovo,
25370,BG,61,Karapelit,
25371,BG,42,Bojana,
25372,BG,61,Topoli,
25373,BG,46,Ugarcin,
25374,BG,58,Mesta,
25375,BG,39,Sokolovo,
25376,BG,54,Smyadovo,
25377,BG,45,Sapareva Banya,
25378,BG,58,Novo Delchevo,
25379,BG,58,Dolno Osenovo,
25380,BG,51,Sveta Petka,
25381,BG,39,Cherno More,
25382,BG,52,Krivina,
25383,BG,43,Sofilari,
25384,BG,51,Ustina,
25385,BG,58,Odranitsa,
25386,BG,58,Dolna Gradeshnitsa,
25387,BG,58,Gyuredzhiya,
25388,BG,58,Redina,
25389,BG,58,Petartsch,
25390,BG,58,Slivica,
25391,BG,58,Golemo Buchino,
25392,BG,46,Akandzhilari,
25393,BG,46,Bela Reka,
25394,BG,51,Bega,
25395,BG,43,Aydomush,
25396,BG,47,Smoljanovci,
25397,BG,58,Klissura,
25398,BG,58,Simewiza,
25399,BG,58,Koino,
25400,BG,43,Golema Detelina,
25401,BG,43,Gledachevo,
25402,BG,43,Pandakliy,
25403,BG,59,Bratya Daskalovi,
25404,BG,39,Bela-cheshliya,
25405,BG,58,Krainitsi,
25406,BG,42,Rayko Daskalovo,
25407,BG,52,Ostrets,
25408,BG,43,Car Asparuh,
25409,BG,61,Kilicadi,
25410,BG,43,Lewa Reka,
25411,BG,61,Endzhe K'oy,
25412,BG,43,Bosduganowo,
25413,BG,58,Kovanluk,
25414,BG,61,Bunarli,
25415,BG,39,Kara-mandzha,
25416,BG,51,Ayrene,
25417,BG,58,Stefanovo,
25418,BG,33,Beli Breg,
25419,BG,43,Gorno Gyusovo,
25420,BG,43,Gurbetita,
25421,BG,61,Esenitsa,
25422,BG,51,Derekioy,
25423,BG,54,Varbitsa,
25424,BG,58,Cherakowo,
25425,BG,51,Kadievo,
25426,BG,51,Novo-selo,
25427,BG,39,Chadshi Marinowo,
25428,BG,39,Demirdzheli,
25429,BG,58,Boeritsa,
25430,BG,39,Baa Tarla,
25431,BG,58,Vikhren,
25432,BG,61,Cuiungiuc,
25433,BG,39,Koyun Bunar,
25434,BG,58,Belega,
25435,BG,42,Gorni Pasarel,
25436,BG,58,Ribnik,
25437,BG,58,Schipotschane,
25438,BG,46,Pravda,
25439,BG,42,Celopecene,
25440,BG,46,Beli Osim,
25441,BG,33,Borisovo,
25442,BG,61,Burdarevo,
25443,BG,58,Debeli Lag,
25444,BG,46,Devetak,
25445,BG,51,Dolna-machala,
25446,BG,46,Balgarene,
25447,BG,58,Stoudéna,
25448,BG,33,Dolno-orizovo,
25449,BG,58,Bjelica,
25450,BG,46,Balvan,
25451,BG,61,Kabiyuk,
25452,BG,61,Giuller,
25453,BG,43,Asukurovo,
25454,BG,58,Ovchartsi,
25455,BG,58,Manastir Sveti Ivan Rilski,
25456,BG,39,Erduvanlii,
25457,BG,46,Evkovtsu,
25458,BG,53,Ruse,
25459,BG,58,Golema Rakovitsa,
25460,BG,42,Obelja,
25461,BG,51,Sestrimo,
25462,BG,51,Kalojanovo,
25463,BG,43,Cherna Gora,
25464,BG,43,Idirlie,
25465,BG,51,Bachkovski Manastir,
25466,BG,58,Velkovtsi,
25467,BG,61,Belibe,
25468,BG,58,Jarlowo,
25469,BG,33,Glojéne,
25470,BG,33,Ostrov,
25471,BG,43,Cherni Rid,
25472,BG,51,Davidkovo,
25473,BG,43,Chakalarovo,
25474,BG,39,Sborishte,
25475,BG,61,Yasenkovo,
25476,BG,39,Razdel,
25477,BG,33,Tsarevets,
25478,BG,46,Kamenec,
25479,BG,61,Chernook,
25480,BG,58,Belopoptsi,
25481,BG,52,Endzhek'oy,
25482,BG,46,Bochot,
25483,BG,51,Drenovo,
25484,BG,58,Ogoja,
25485,BG,43,Khadzhiolari,
25486,BG,58,Cekancevo,
25487,BG,58,Bosnek,
25488,BG,46,Jaworez,
25489,BG,43,Duralii,
25490,BG,39,Tersiisko,
25491,BG,51,Doganovo-konare,
25492,BG,46,Boshenzite,
25493,BG,39,Marafta,
25494,BG,43,Kurtolen,
25495,BG,43,Byulyudzhak,
25496,BG,43,Filevo,
25497,BG,42,Machla Plana,
25498,BG,46,Jantra,
25499,BG,61,Arabadzhi,
25500,BG,51,Patalenica,
25501,BG,51,Rachmanlü,
25502,BG,33,Kravoder,
25503,BG,46,Dyugenite,
25504,BG,61,Canakcie,
25505,BG,51,Sitovo,
25506,BG,43,Khamurzus,
25507,BG,39,Korten,
25508,BG,58,Tsarichina,
25509,BG,61,Duvan Yuvasa,
25510,BG,43,Obruchishte,
25511,BG,46,Karaisen,
25512,BG,50,Dolna Mitropolija,
25513,BG,52,Novgrad,
25514,BG,51,Radilovo,
25515,BG,52,Ticha,
25516,BG,46,Oresh,
25517,BG,58,Porominovo,
25518,BG,63,Boinica,
25519,BG,42,Podgumer,
25520,BG,52,Tetevo,
25521,BG,47,Bukovets,
25522,BG,46,Kruschuna,
25523,BG,51,Trifil,
25524,BG,46,Ogoryel'tsu,
25525,BG,58,Makotsevo,
25526,BG,43,Zhultika,
25527,BG,51,Debar,
25528,BG,46,Knyaz Simeonovo,
25529,BG,51,Slokutschene,
25530,BG,51,Slavovitsa,
25531,BG,51,Adzhiliy,
25532,BG,58,Makhala Yarebkovitsa,
25533,BG,39,Kyumyurdzhi Chiflik,
25534,BG,58,Gradevo,
25535,BG,58,Alag'ozitsa,
25536,BG,46,Dobrodan,
25537,BG,39,Kuru Dere,
25538,BG,52,Posabina,
25539,BG,52,Ashakikabda,
25540,BG,52,Musa Baba Teke,
25541,BG,51,Adzar,
25542,BG,51,Aivadzhik,
25543,BG,51,Belosem,
25544,BG,42,Krivina,
25545,BG,51,Demirdzhiler,
25546,BG,61,Chadshi Bairam,
25547,BG,61,Chodshakioi,
25548,BG,42,Vladaya,
25549,BG,46,Obedinenie,
25550,BG,39,Kladara,
25551,BG,46,Glogovo,
25552,BG,64,Borovan,
25553,BG,52,Yarebitsa,
25554,BG,52,Voditsa,
25555,BG,52,Apaz Makhle,
25556,BG,33,Cerovene,
25557,BG,43,Kara Bunar,
25558,BG,51,Uzunovo,
25559,BG,46,Agatovo,
25560,BG,63,Vurtop,
25561,BG,46,Mogilata,
25562,BG,65,Jambol,
25563,BG,52,Chilnov,
25564,BG,58,Slokutschane,
25565,BG,61,Provadia,
25566,BG,46,Marafelutsu,
25567,BG,46,Dekov,
25568,BG,46,Riben,
25569,BG,43,Stambolovo,
25570,BG,51,Plovdivtsi,
25571,BG,58,Raduil,
25572,BG,47,Pokraina,
25573,BG,58,Eleshnitsa,
25574,BG,58,Ploski,
25575,BG,39,Burgudzhi,
25576,BG,43,Miladinovo,
25577,BG,43,Malko Kadievo,
25578,BG,52,Ceid-ali-facâ,
25579,BG,46,Gostilica,
25580,BG,46,Rechowzite,
25581,BG,51,Benkovski,
25582,BG,52,Batemberg,
25583,BG,51,Moskovets,
25584,BG,58,Dolni Okol,
25585,BG,58,Dolna-kosniza,
25586,BG,58,Kopriven,
25587,BG,58,Starchevo,
25588,BG,51,Glavatar,
25589,BG,43,Dolno Sachrane,
25590,BG,61,Istaccilar,
25591,BG,39,Krastina,
25592,BG,58,Dospei Machla,
25593,BG,42,Kazichene,
25594,BG,42,Kazichane,
25595,BG,39,Krushevo,
25596,BG,51,Kutela,
25597,BG,46,Peshterna,
25598,BG,51,Topolovo,
25599,BG,51,Draginovo,
25600,BG,58,Aprilovo,
25601,BG,61,Memish-sofular,
25602,BG,58,Radui,
25603,BG,33,Ignatievo,
25604,BG,46,Butovo,
25605,BG,43,Sorgunlii,
25606,BG,58,Rasnik,
25607,BG,61,Conac Cuiungiuc,
25608,BG,46,Balgarski Iswor,
25609,BG,46,Gorsko-kosov,
25610,BG,58,Samuilovo,
25611,BG,38,Satovcha,
25612,BG,61,Vinitsa,
25613,BG,58,Burdo,
25614,BG,51,Lyubcha,
25615,BG,39,Tenevo,
25616,BG,51,Hisarya,
25617,BG,58,Katuntsi,
25618,BG,52,Vazovo,
25619,BG,61,Staevci,
25620,BG,46,Krushuna,
25621,BG,46,Gradina,
25622,BG,46,Glojene,
25623,BG,58,Barakovo,
25624,BG,39,Mokren,
25625,BG,43,Kazanka,
25626,BG,58,Slokoshtitsa,
25627,BG,51,Karabunar,
25628,BG,39,Krumovo Gradishte,
25629,BG,43,Matsa,
25630,BG,52,Cervena Voda,
25631,BG,47,Gorna Luka,
25632,BG,33,Krapets,
25633,BG,58,Tserovo,
25634,BG,58,Osenovlag,
25635,BG,58,Potop,
25636,BG,58,Kolibi Usukovetskiya,
25637,BG,51,Karamush,
25638,BG,58,Lipnica,
25639,BG,39,Dobromir,
25640,BG,51,Beykioy,
25641,BG,58,Deljan,
25642,BG,61,Asparukhovo,
25643,BG,46,Borima,
25644,BG,39,Djinovo,
25645,BG,46,Kestambol,
25646,BG,39,Daskotna,
25647,BG,51,Dorutlii,
25648,BG,51,Gorno Vurshilo,
25649,BG,52,Alexandria,
25650,BG,58,Dolna Banya,
25651,BG,58,Resilovo,
25652,BG,52,Dyankovo,
25653,BG,47,Brusartsi,
25654,BG,51,Mechka,
25655,BG,47,Vinarovo,
25656,BG,51,Momina Klisura,
25657,BG,39,Lozarevo,
25658,BG,61,Branichevo,
25659,BG,46,Rakita,
25660,BG,46,Polikrayshte,
25661,BG,62,Trnovo,
25662,BG,39,Ruen,
25663,BG,61,Opanec,
25664,BG,61,Deniskioi,
25665,BG,52,Chotanza,
25666,BG,52,Kovachevets,
25667,BG,39,Gyubel Kurfalii,
25668,BG,61,Endze,
25669,BG,39,Biokiordira,
25670,BG,46,Daben,
25671,BG,61,Karabash Makhle,
25672,BG,61,Dovruklu,
25673,BG,52,Boaz Kesen,
25674,BG,52,Sekulovo,
25675,BG,52,Garvan-cioara,
25676,BG,46,Pisarevo,
25677,BG,58,Litakobo,
25678,BG,61,Dobrogled,
25679,BG,43,Dolno-sahrane,
25680,BG,58,Krainizi,
25681,BG,44,Kircaali,
25682,BG,58,Bov,
25683,BG,51,Kapitan-dimitrievo,
25684,BG,51,Choba,
25685,BG,61,Rogachevo,
25686,BG,52,Bradvari,
25687,BG,60,Trgovishte,
25688,BG,52,Atmageaua-tatareasca,
25689,BG,51,Iswor,
25690,BG,58,Lashniza,
25691,BG,43,Strelets,
25692,BG,58,Perimkiöj,
25693,BG,39,Kayryak-k'oy,
25694,BG,61,Dobri Voynikovo,
25695,BG,42,Gradska Chast,
25696,BG,43,Slatoustowo,
25697,BG,52,Ostritsa,
25698,BG,51,Bata,
25699,BG,51,Graf Ignatievo,
25700,BG,61,Durankulak,
25701,BG,58,Melnik,
25702,BG,39,Nedyalsko,
25703,BG,44,Kirdjalü,
25704,BG,46,Nikolaevo,
25705,BG,46,Evlogievo,
25706,BG,61,Krasimir,
25707,BG,61,Medovets,
25708,BG,52,Boshitschen,
25709,BG,63,Akcar,
25710,BG,58,Kaschina,
25711,BG,52,Mechka,
25712,BG,43,Jarebiza,
25713,BG,33,Gusanci,
25714,BG,51,Kavak Dere,
25715,BG,51,Medeni Polyani,
25716,BG,61,Gebeje,
25717,BG,46,Barkatsch,
25718,BG,52,Selenik,
25719,BG,39,General Toschewo,
25720,BG,58,Tadzhilar,
25721,BG,39,Komare,
25722,BG,51,Popovitsa,
25723,BG,43,Ovoshtnik,
25724,BG,46,Kaleica,
25725,BG,51,Rozino,
25726,BG,46,Samovdeni,
25727,BG,33,Zamfirovo,
25728,BG,58,Nowo Selo,
25729,BG,46,Chotniza,
25730,BG,61,Polyatsite,
25731,BG,52,Koprivec,
25732,BG,43,Sar Yurt,
25733,BG,61,Bliznatsi,
25734,BG,43,Voynik Makhle,
25735,BG,38,Suchostrel,
25736,BG,46,Zgalevo,
25737,BG,33,Beli Izvor,
25738,BG,58,Stob,
25739,BG,43,Orizovo,
25740,BG,43,Golemo Selo,
25741,BG,43,Gluhar,
25742,BG,52,Batin,
25743,BG,39,Kadar Fakli,
25744,BG,52,Eserce,
25745,BG,52,Krasech,
25746,BG,52,Siahlar,
25747,BG,58,Svidnya,
25748,BG,33,Tri Kladentsi,
25749,BG,39,Eni Makhle,
25750,BG,61,Shitniza,
25751,BG,44,Kirjali,
25752,BG,58,Bogolin,
25753,BG,43,Partizanin,
25754,BG,51,Muldava,
25755,BG,46,Kozar Belene,
25756,BG,43,Kadur Meschit,
25757,BG,46,Karaivantsi,
25758,BG,52,Hyusenche,
25759,BG,38,Garmen,
25760,BG,58,Bachevo,
25761,BG,39,Zaychar,
25762,BG,58,Polena,
25763,BG,58,Studena,
25764,BG,61,Dzaferli,
25765,BG,61,Brestak,
25766,BG,52,Khadzhi Kamber Makhle,
25767,BG,58,Kochan,
25768,BG,52,Podayva,
25769,BG,39,Antim I,
25770,BG,61,Bulanluk,
25771,BG,58,Kolibi Tsenova,
25772,BG,61,Asikovo,
25773,BG,42,Marchaevo,
25774,BG,43,Malko,
25775,BG,58,Novo Leski,
25776,BG,51,Tserovo,
25777,BG,46,Kozlovets,
25778,BG,52,Staro Selishte,
25779,BG,51,Razvalini Slatina,
25780,BG,46,Lisen,
25781,BG,46,Dobromirka,
25782,BG,58,Brezhani,
25783,BG,58,Gorno Draglishte,
25784,BG,42,Dragalevtsi,
25785,BG,52,Batishnitsa,
25786,BG,46,Ljutazi,
25787,BG,61,Nenovo,
25788,BG,39,Iumrukkioy,
25789,BG,52,Akchelar,
25790,BG,52,Pepelina,
25791,BG,51,Kochevo,
25792,BG,52,Iliyno,
25793,BG,58,Pokrovnik,
25794,BG,51,Pobit Kamuk,
25795,BG,61,Besh-tepe,
25796,BG,52,Eski Makhle,
25797,BG,46,Beljakowez,
25798,BG,43,Ivaylovgrad,
25799,BG,61,Petleshkovo,
25800,BG,58,Laskarevo,
25801,BG,39,Sedlarevo,
25802,BG,61,Bodnjanci,
25803,BG,52,Ljubitschewo,
25804,BG,58,K'oseva,
25805,BG,51,Maritsa,
25806,BG,52,Enimahle,
25807,BG,43,Kyumyurdzhii,
25808,BG,52,Koscharna,
25809,BG,46,Kosharitsa,
25810,BG,58,Nikolichevtsi,
25811,BG,51,Borovina,
25812,BG,58,Filipovci,
25813,BG,61,Zlatina,
25814,BG,58,Osikovo,
25815,BG,58,Dolistovo,
25816,BG,46,Milkovitsa,
25817,BG,39,Gavrailovo,
25818,BG,52,Alekovo,
25819,BG,46,Bozhuritsa,
25820,BG,52,Malko Vranovo,
25821,BG,46,Byala Reka,
25822,BG,52,Nova Cherna,
25823,BG,61,Kasaschko-selo,
25824,BG,61,Vladislavovo,
25825,BG,52,Kalugerene,
25826,BG,33,Byal Izvor,
25827,BG,58,Konarsko,
25828,BG,46,Kapinovo,
25829,BG,51,Dolni Voden,
25830,BG,58,Skravena,
25831,BG,43,Pshenichevo,
25832,BG,33,Gaganica,
25833,BG,58,Piperkov Chiflik,
25834,BG,44,Kurdzali,
25835,BG,52,Ezerche,
25836,BG,52,Chernik,
25837,BG,52,Yudelnik,
25838,BG,46,Kakrina,
25839,BG,43,Pamukchi,
25840,BG,42,Gorublene,
25841,BG,39,Chukarka,
25842,BG,42,Lokorsko,
25843,BG,52,Oven,
25844,BG,52,Pravda,
25845,BG,51,Krastava,
25846,BG,52,Bisertsi,
25847,BG,39,Bilka,
25848,BG,52,Topchii,
25849,BG,51,Bostina,
25850,BG,46,Golyamo Yalare,
25851,BG,51,Chuchur,
25852,BG,33,Borovtsi,
25853,BG,58,Duschanzi,
25854,BG,51,Slati Trap,
25855,BG,43,Dervent,
25856,BG,46,Yoglav,
25857,BG,61,Ceair Arman,
25858,BG,58,Djakovo,
25859,BG,46,Zlatna Panega,
25860,BG,51,Kozanovo,
25861,BG,47,Vrshets,
25862,BG,33,Manastirishte,
25863,BG,58,Vlado Trichkov,
25864,BG,61,Lopushna,
25865,BG,58,Vulkosel,
25866,BG,43,Orozovo,
25867,BG,51,Izvor,
25868,BG,52,Tochilari,
25869,BG,58,Usoyka,
25870,BG,45,Newestino,
25871,BG,58,Liljatsch,
25872,BG,58,Tavalichevo,
25873,BG,51,Baradakioy,
25874,BG,58,Baba,
25875,BG,33,Ljutadshik,
25876,BG,46,Arbanasi,
25877,BG,56,Tvarditza,
25878,BG,42,Stara Vrazhdebna,
25879,BG,39,Rosen,
25880,BG,52,Osenec,
25881,BG,58,Yabulkovo,
25882,BG,58,Godlevo,
25883,BG,33,Saraevo,
25884,BG,51,Konush,
25885,BG,43,Zmeiovo,
25886,BG,51,Dolnoslav,
25887,BG,51,Alami Dere,
25888,BG,61,Tervel,
25889,BG,51,Sopot,
25890,BG,51,Gradina,
25891,BG,46,Tsarevets,
25892,BG,52,Moravka,
25893,BG,58,Kulata,
25894,BG,43,Lovech,
25895,BG,51,Srednogortsi,
25896,BG,46,Binaya,
25897,BG,46,Oresch,
25898,BG,46,Kirkova Makhla,
25899,BG,61,Caralez,
25900,BG,46,Gostilitsa,
25901,BG,39,Laka,
25902,BG,58,Gabra,
25903,BG,33,Altimir,
25904,BG,51,Voyvodinovo,
25905,BG,51,Momina Klissura,
25906,BG,33,Botevo,
25907,BG,46,Apriltzi,
25908,BG,42,Boyana,
25909,BG,53,Ivanovo,
25910,BG,43,Mineralni Bani,
25911,BG,33,Chiren,
25912,BG,46,Gradishte,
25913,BG,52,Drenovec,
25914,BG,52,Babuc,
25915,BG,33,Slatina,
25916,BG,42,Malo Buchino,
25917,BG,43,Elchovo,
25918,BG,52,Glodzhevo,
25919,BG,42,Kvartal Nadezhda,
25920,BG,43,Dzebil-oglar,
25921,BG,43,Aleksandrovo,
25922,BG,61,Polkovnik-savovo,
25923,BG,52,Adakiöj,
25924,BG,61,Loznica,
25925,BG,62,Strazhitsa,
25926,BG,39,Tranak,
25927,BG,44,Exrdzhali,
25928,BG,51,Sokolitsa,
25929,BG,61,Goritsa,
25930,BG,52,Glavan,
25931,BG,46,Lepitsa,
25932,BG,58,Dolno Uino,
25933,BG,61,Dis Budak,
25934,BG,51,Boschulja,
25935,BG,51,Boljarzi,
25936,BG,51,Koklen,
25937,BG,51,Konusch,
25938,BG,51,Alikochovo,
25939,BG,43,Baba Makhle,
25940,BG,46,Trustenik,
25941,BG,46,Slatina,
25942,BG,47,Berkovitsa,
25943,BG,40,Shabla,
25944,BG,48,Strelcha,
25945,BG,46,Koynare,
25946,BG,45,Bobov Dol,
25947,BG,42,Sofiya,
25948,BG,63,Belogradchik,
25949,BG,51,Perushtitsa,
25950,BG,38,Belitsa,
25951,BG,38,Belitza,
25952,BG,47,Berkovitza,
25953,BG,52,Draganovets,
25954,BG,43,Byal Izvor,
25955,BG,44,Momchigrad,
25956,BG,46,Yablanitsa,
25957,BG,39,Tsarevo,
25958,BG,41,Tryavna,
25959,BG,42,Bankia,
25960,BG,46,Podem,
25961,BG,42,Novi Iskur,
25962,BG,58,Dolna Bania,
25963,BG,43,Merichleri,
25964,BG,46,Aleksandrovo,
25965,BG,58,Zlatitsa,
25966,BG,43,Lyubimetz,
25967,BG,39,Botevo,
25968,BG,59,Nikolaevo,
25969,BG,59,Maglizh,
25970,BG,43,Glavan,
25971,BG,43,Shipka,
25972,BG,62,Lyaskovets,
25973,BG,43,Lyubimets,
25974,BG,65,Iambol,
25975,BG,46,Pavel,
25976,BG,62,Lyaskovetz,
25977,BG,46,Debelets,
25978,BG,46,Debelez,
25979,BG,45,Boboshevo,
25980,BG,42,Nova Vrazhdebna,
25981,BG,43,Chiflik Makhle,
25982,BG,43,Pirinchlii,
25983,BG,43,Kushlata,
25984,BG,51,Miryantsi,
25985,BG,46,Burya,
25986,BG,61,Pristoe,
25987,BG,61,Troitsa,
25988,BG,46,Varbitsa,
25989,BG,62,Strajitza,
25990,BG,46,Ribarica,
25991,BG,64,Krivdol,
25992,BG,46,Vishovgrad,
25993,BG,33,Rasovo,
25994,BG,46,Stefan Stambolovo,
25995,BG,62,Svisclov,
25996,BG,51,Suedinenie,
25997,BG,61,Dabovik,
25998,BG,61,Dragoevo,
25999,BG,58,Drumochar,
26000,BG,46,Mechka,
26001,BG,61,Ceairlighiol,
26002,BG,41,Sewliewo,
26003,BG,39,Zhelyu Voyvoda,
26004,BG,58,Ablanitsa,
26005,BG,47,Chorokalina,
26006,BG,58,Chwostjane,
26007,BG,58,Pravetz,
26008,BG,52,Paisievo,
26009,BG,51,Narechenski Bani,
26010,BG,46,Shiyakovo,
26011,BG,51,Chernichevo,
26012,BG,43,Batkanlii,
26013,BG,52,Bryag,
26014,BG,46,Gorna-mitropolia,
26015,BG,58,Razliv,
26016,BG,46,Dolna-lipnica,
26017,BG,52,Babovo,
26018,BG,51,Voynyagovo,
26019,BG,45,Dupnitza,
26020,BG,43,Maslinovo,
26021,BG,46,Gorsko Kalugerovo,
26022,BG,61,Perifaci,
26023,BG,61,Goren Chiflik,
26024,BG,43,Kozlevo,
26025,BG,58,Klenovik,
26026,BG,39,Nesebur,
26027,BG,33,Vlasatitsa,
26028,BG,61,Provadiya,
26029,BG,43,Granit,
26030,BG,39,Zlatari,
26031,BG,61,Zmeevo,
26032,BG,51,Kliment,
26033,BG,41,Gabrowo,
26034,BG,46,Lovnidol,
26035,BG,61,Bucureni,
26036,BG,58,Kornitsa,
26037,BG,51,Trilistnik,
26038,BG,61,Celino,
26039,BG,52,Barbino,
26040,BG,51,Aygur K'oy,
26041,BG,51,Bojanzi,
26042,BG,58,Gulubova Makhala,
26043,BG,52,Dimitar Petkowo,
26044,BG,52,Kestenevo,
26045,BG,46,Nikjup,
26046,BG,51,Tsatsarovtsi,
26047,BG,45,Kocherinovo,
26048,BG,51,Abdulare,
26049,BG,51,Bogdanitsa,
26050,BG,51,Ashiklare,
26051,BG,46,Jasen,
26052,BG,47,Yakimovo,
26053,BG,46,Novo Selo,
26054,BG,61,Byala,
26055,BG,52,Deremahle,
26056,BG,61,Komarevo,
26057,BG,58,Lesnovo,
26058,BG,58,Ravno Pole,
26059,BG,61,Tsonevo,
26060,BG,39,Kara Bair,
26061,BG,61,Bluskovo,
26062,BG,58,Bojurishe,
26063,BG,58,Bukovo,
26064,BG,56,Tvarditsa,
26065,BG,61,Dobroplodno,
26066,BG,42,Ivanyane,
26067,BG,52,Zaraevo,
26068,BG,51,Kalekovets,
26069,BG,51,Starosel,
26070,BG,51,Bogoridovo,
26071,BG,43,Aladaalii,
26072,BG,46,Vabel,
26073,BG,58,Sarantsi,
26074,BG,47,Rakitnitsa,
26075,BG,64,Bela Slatina,
26076,BG,43,Ivailovgrad,
26077,BG,46,Koinare,
