locId,country,region,city,postcode
26340,BR,,,
26341,BR,27,São Paulo,
26342,BR,21,Rio De Janeiro,
26343,BR,27,Salto,
26344,BR,23,Porto Alegre,
26345,BR,15,Belo Horizonte,
26346,BR,30,Recife,
26347,BR,27,Taubaté,
26348,BR,27,Suzano,
26349,BR,18,Londrina,
26350,BR,8,Serra,
26351,BR,15,Uberlândia,
26352,BR,18,Curitiba,
26353,BR,27,Mairiporã,
26354,BR,27,Campinas,
26355,BR,15,Contagem,
26356,BR,4,Manaus,
26357,BR,27,Buenos Aires,
26358,BR,7,Brasília,
26359,BR,27,Rio Claro,
26360,BR,18,Pato Branco,
26361,BR,27,Hortolândia,
26362,BR,11,Glória,
26363,BR,5,Montes,
26364,BR,11,Fortaleza,
26365,BR,31,Paranã,
26366,BR,11,São Luiz,
26367,BR,29,Caldas Novas,
26368,BR,26,Chapecó,
26369,BR,27,Piracicaba,
26370,BR,27,Jundiaí,
26371,BR,26,Florianópolis,
26372,BR,27,Marília,
26373,BR,27,Atibaia,
26374,BR,5,Paulo Afonso,
26375,BR,3,São Paulo,
26376,BR,18,Ponta Grossa,
26377,BR,17,João Pessoa,
26378,BR,21,Petrópolis,
26379,BR,27,São José Dos Campos,
26380,BR,17,Campina Grande,
26381,BR,16,Belém,
26382,BR,23,Santa Maria,
26383,BR,21,Niterói,
26384,BR,5,Salvador,
26385,BR,8,Vitória,
26386,BR,15,Viçosa,
26387,BR,13,São Luís,
26388,BR,1,Mercês,
26389,BR,24,Cacoal,
26390,BR,18,Francisco Beltrão,
26391,BR,18,Castro,
26392,BR,22,Santo Antônio,
26393,BR,18,Maringá,
26394,BR,18,Umuarama,
26395,BR,18,Foz Do Iguaçu,
26396,BR,26,Brusque,
26397,BR,26,Blumenau,
26398,BR,26,Rio Do Sul,
26399,BR,27,Valinhos,
26400,BR,26,Itajaí,
26401,BR,15,Juiz De Fora,
26402,BR,14,Rondonópolis,
26403,BR,14,Cuiabá,
26404,BR,30,Paulista,
26405,BR,23,Santa Cruz Do Sul,
26406,BR,29,Goiânia,
26407,BR,2,Maceió,
26408,BR,24,Vilhena,
26409,BR,24,Pôrto Velho,
26410,BR,1,Rio Branco,
26411,BR,23,Pelotas,
26412,BR,24,Ariquemes,
26413,BR,23,Novo Hamburgo,
26414,BR,27,Botafogo,
26415,BR,23,Caxias Do Sul,
26416,BR,18,Sarandi,
26417,BR,23,Taquara,
26418,BR,23,Três De Maio,
26419,BR,23,Cachoeirinha,
26420,BR,23,Dois Irmãos,
26421,BR,23,Taquari,
26422,BR,23,Ijuí,
26423,BR,23,Tôrres,
26424,BR,26,Curitibanos,
26425,BR,26,Jaraguá Do Sul,
26426,BR,18,Campo Mourão,
26427,BR,18,Cascavel,
26428,BR,15,Pinhais,
26429,BR,26,Nova Xavantina,
26430,BR,11,Campo Grande,
26431,BR,21,Seropédica,
26432,BR,5,Camaçari,
26433,BR,5,Feira De Santana,
26434,BR,6,Sobral,
26435,BR,29,Silvânia,
26436,BR,15,Ouro Prêto,
26437,BR,15,Alfenas,
26438,BR,15,Governador Valadares,
26439,BR,15,Lavras,
26440,BR,15,Leopoldina,
26441,BR,23,Rio Grande,
26442,BR,26,Tubarão,
26443,BR,26,Videira,
26444,BR,27,Presidente Prudente,
26445,BR,27,Lorena,
26446,BR,27,Jacareí,
26447,BR,27,Itapetininga,
26448,BR,27,São Carlos,
26449,BR,13,São Bernardo,
26450,BR,27,Guarulhos,
26451,BR,22,Natal,
26452,BR,20,Teresina,
26453,BR,18,Medianeira,
26454,BR,18,Matelândia,
26455,BR,30,Ludgéro,
26456,BR,26,Timbó,
26457,BR,26,Indaial,
26458,BR,27,Nova Veneza,
26459,BR,18,Rondon,
26460,BR,18,Mandaguari,
26461,BR,27,Cotia,
26462,BR,20,Parnaíba,
26463,BR,18,Cianorte,
26464,BR,18,Nova Esperança,
26465,BR,18,São José Dos Pinhais,
26466,BR,18,Apucarana,
26467,BR,11,Bela Vista,
26468,BR,27,Sapèzal,
26469,BR,13,Imperatriz,
26470,BR,15,Passa Quatro,
26471,BR,21,Araruama,
26472,BR,21,Rio Das Ostras,
26473,BR,21,Nova Friburgo,
26474,BR,13,Centro,
26475,BR,23,São Borja,
26476,BR,23,Passo Fundo,
26477,BR,23,Getúlio Vargas,
26478,BR,23,Santo Ângelo,
26479,BR,23,Veranópolis,
26480,BR,23,Santa Rosa,
26481,BR,23,Lajeado,
26482,BR,23,Gravataí,
26483,BR,23,Cruz Alta,
26484,BR,23,Uruguaiana,
26485,BR,23,Bento Gonçalves,
26486,BR,26,Caçador,
26487,BR,23,Sapiranga,
26488,BR,15,Guilhermino,
26489,BR,27,Mogi Das Cruzes,
26490,BR,11,Nova,
26491,BR,27,Bauru,
26492,BR,27,Santos,
26493,BR,15,Pará De Minas,
26494,BR,26,Joinville,
26495,BR,27,Assis,
26496,BR,16,João,
26497,BR,27,Santa Ernestina,
26498,BR,27,Borborema,
26499,BR,27,Teodoro Sampaio,
26500,BR,18,Cambará,
26501,BR,27,Santa Fé Do Sul,
26502,BR,27,Tatuí,
26503,BR,27,Sumaré,
26504,BR,27,Limeira,
26505,BR,27,São Pedro,
26506,BR,27,Sorocaba,
26507,BR,27,Aguaí,
26508,BR,27,Andradina,
26509,BR,27,Osasco,
26510,BR,27,Jaguariúna,
26511,BR,30,São João,
26512,BR,27,Tanabi,
26513,BR,11,Anastácio,
26514,BR,27,Santo André,
26515,BR,27,Diadema,
26516,BR,27,São Vicente,
26517,BR,27,Indaiatuba,
26518,BR,27,Cerquilho,
26519,BR,27,Promissão,
26520,BR,27,Tarumã,
26521,BR,27,Itararé,
26522,BR,27,Cruzeiro,
26523,BR,27,Barueri,
26524,BR,27,Mauá,
26525,BR,21,São Gonçalo,
26526,BR,21,São Pedro Da Aldeia,
26527,BR,15,Três Pontas,
26528,BR,15,Pouso Alegre,
26529,BR,15,Monte Carmelo,
26530,BR,15,Campo Belo,
26531,BR,21,Saquarema,
26532,BR,6,Pereiro,
26533,BR,21,Volta Redonda,
26534,BR,21,Duque De Caxias,
26535,BR,15,Almenara,
26536,BR,21,Vassouras,
26537,BR,30,Limoeiro,
26538,BR,27,Santa Isabel,
26539,BR,18,Loanda,
26540,BR,27,Santa Terezinha,
26541,BR,21,Cabo Frio,
26542,BR,21,Flamengo,
26543,BR,23,Júlio De Castilhos,
26544,BR,27,Descalvado,
26545,BR,27,Ribeirão Prêto,
26546,BR,27,Ribeirão Pires,
26547,BR,27,Bastos,
26548,BR,27,Ilha Solteira,
26549,BR,27,Pindorama,
26550,BR,15,Pirapora,
26551,BR,27,Rio Preto,
26552,BR,27,Carapicuíba,
26553,BR,27,Americana,
26554,BR,27,Avaré,
26555,BR,27,Conchas,
26556,BR,27,Jarinu,
26557,BR,27,Presidente Venceslau,
26558,BR,27,Amparo,
26559,BR,27,Orindiúva,
26560,BR,27,Araraquara,
26561,BR,27,Caconde,
26562,BR,27,Pedreira,
26563,BR,27,Mococa,
26564,BR,27,Miracatu,
26565,BR,17,Barros,
26566,BR,27,Barrinha,
26567,BR,27,Guapiaçu,
26568,BR,25,Boa Vista,
26569,BR,27,Pôrto Ferreira,
26570,BR,27,Fernandópolis,
26571,BR,27,Barra Bonita,
26572,BR,27,Pinhal,
26573,BR,27,Castilho,
26574,BR,27,Piraju,
26575,BR,27,Itápolis,
26576,BR,27,Catanduva,
26577,BR,27,Ibirá,
26578,BR,27,Lins,
26579,BR,27,Sabino,
26580,BR,27,Potirendaba,
26581,BR,27,Nhandeara,
26582,BR,27,Sertãozinho,
26583,BR,27,Penápolis,
26584,BR,27,Piacatu,
26585,BR,30,Ribeirão,
26586,BR,27,Monte Mor,
26587,BR,27,Cândido Mota,
26588,BR,27,Fartura,
26589,BR,27,Valparaíso,
26590,BR,18,Palmeira,
26591,BR,27,Itaquaquecetuba,
26592,BR,27,Primavera,
26593,BR,27,Franco Da Rocha,
26594,BR,27,Itariri,
26595,BR,27,Jandira,
26596,BR,23,Canoas,
26597,BR,27,Guararema,
26598,BR,26,São José,
26599,BR,15,Paiva,
26600,BR,11,Guaçu,
26601,BR,27,Maracaí,
26602,BR,11,Três Lagoas,
26603,BR,27,Jaboticabal,
26604,BR,8,Araguaia,
26605,BR,15,Oliveira,
26606,BR,27,Conchal,
26607,BR,27,Garça,
26608,BR,27,Nova Odessa,
26609,BR,27,São Caetano Do Sul,
26610,BR,27,Barretos,
26611,BR,27,Dias,
26612,BR,27,Caieiras,
26613,BR,27,Campo,
26614,BR,21,Nova Iguaçu,
26615,BR,15,Nova Lima,
26616,BR,15,Santa Luzia,
26617,BR,27,Artur Nogueira,
26618,BR,14,Barra Do Garças,
26619,BR,23,Cachoeira Do Sul,
26620,BR,23,Nova Bassano,
26621,BR,18,Carambeí,
26622,BR,18,Lobato,
26623,BR,17,Araruna,
26624,BR,18,Paranavaí,
26625,BR,22,Iguaçu,
26626,BR,18,Dois Vizinhos,
26627,BR,31,Palmas,
26628,BR,6,Cândido,
26629,BR,11,Dourados,
26630,BR,29,Anápolis,
26631,BR,29,Catalão,
26632,BR,2,Pessoa,
26633,BR,3,Macapá,
26634,BR,6,Araripe,
26635,BR,28,Aracaju,
26636,BR,27,Socorro,
26637,BR,22,Mossoró,
26638,BR,16,Castanhal,
26639,BR,8,Cariacica,
26640,BR,21,Cachoeiro,
26641,BR,30,Garanhuns,
26642,BR,21,Mendes,
26643,BR,8,Vila Velha,
26644,BR,15,Poços De Caldas,
26645,BR,15,Boa Esperança,
26646,BR,15,São João Nepomuceno,
26647,BR,8,Linhares,
26648,BR,8,Pancas,
26649,BR,15,Baependi,
26650,BR,27,São Sebastião,
26651,BR,4,Júlia,
26652,BR,15,Conselheiro Lafaiete,
26653,BR,30,Mirim,
26654,BR,21,Macaé,
26655,BR,17,Solânea,
26656,BR,20,Simões,
26657,BR,8,Iconha,
26658,BR,8,Colatina,
26659,BR,5,Freitas,
26660,BR,6,Juazeiro Do Norte,
26661,BR,6,Tabuleiro Do Norte,
26662,BR,15,Elói Mendes,
26663,BR,21,Itaguaí,
26664,BR,15,Uberaba,
26665,BR,15,Montes Claros,
26666,BR,30,Arcoverde,
26667,BR,30,Salgueiro,
26668,BR,27,Itapevi,
26669,BR,5,Ilhéus,
26670,BR,6,Itapipoca,
26671,BR,20,Picos,
26672,BR,21,Campos,
26673,BR,24,Canário,
26674,BR,17,Monteiro,
26675,BR,21,Itatiaia,
26676,BR,21,Rio Bonito,
26677,BR,4,Pádua,
26678,BR,27,Cajamar,
26679,BR,22,Guamaré,
26680,BR,30,Olinda,
26681,BR,30,Petrolina,
26682,BR,30,Belo Jardim,
26683,BR,15,Betim,
26684,BR,5,Itabuna,
26685,BR,30,Araripina,
26686,BR,30,Ipojuca,
26687,BR,15,Vespasiano,
26688,BR,5,Amazônia,
26689,BR,14,Várzea Grande,
26690,BR,11,São Félix,
26691,BR,30,Jaboatão,
26692,BR,15,Itabira,
26693,BR,21,Itaperuna,
26694,BR,20,Bom Jesus,
26695,BR,15,Itaúna,
26696,BR,15,Formiga,
26697,BR,21,Natividade,
26698,BR,13,Timon,
26699,BR,15,Pedro Leopoldo,
26700,BR,8,São Mateus,
26701,BR,5,Valença,
26702,BR,11,Caetano,
26703,BR,27,Ibitinga,
26704,BR,27,Araçatuba,
26705,BR,27,Piedade,
26706,BR,27,Bertioga,
26707,BR,27,Nova Granada,
26708,BR,27,São Roque,
26709,BR,27,Birigui,
26710,BR,23,Vasconcelos,
26711,BR,27,Itapira,
26712,BR,27,Monte Aprazível,
26713,BR,27,Martinópolis,
26714,BR,27,Icém,
26715,BR,27,Cubatão,
26716,BR,27,Guarujá,
26717,BR,27,Ourinhos,
26718,BR,27,Paulínia,
26719,BR,27,General Salgado,
26720,BR,15,Santa Bárbara,
26721,BR,27,Iperó,
26722,BR,27,Vinhedo,
26723,BR,27,Tremembé,
26724,BR,27,Mirandópolis,
26725,BR,21,Barra Mansa,
26726,BR,15,Patos De Minas,
26727,BR,21,Piabetá,
26728,BR,27,Bariri,
26729,BR,27,Botucatu,
26730,BR,5,Itupeva,
26731,BR,27,Apiaí,
26732,BR,27,Bilac,
26733,BR,28,São Cristóvão,
26734,BR,15,Itajubá,
26735,BR,15,Rio Pomba,
26736,BR,6,Maracanaú,
26737,BR,13,Balsas,
26738,BR,13,Caxias,
26739,BR,13,Codó,
26740,BR,22,Parnamirim,
26741,BR,15,Coronel Fabriciano,
26742,BR,15,Justinópolis,
26743,BR,13,Pinheiro,
26744,BR,5,Barreiras,
26745,BR,2,Penedo,
26746,BR,23,Sapucaia,
26747,BR,8,Ibiraçu,
26748,BR,6,Tianguá,
26749,BR,5,Pôrto Seguro,
26750,BR,15,Itinga,
26751,BR,17,Cabedelo,
26752,BR,27,Embu,
26753,BR,21,Anchieta,
26754,BR,1,Ceará,
26755,BR,27,Pindamonhangaba,
26756,BR,23,Farroupilha,
26757,BR,23,Gramado,
26758,BR,23,Erechim,
26759,BR,23,Flores Da Cunha,
26760,BR,27,Paraí,
26761,BR,26,São Bento Do Sul,
26762,BR,16,Santarém,
26763,BR,16,Ananindeua,
26764,BR,16,Marabá,
26765,BR,15,São Francisco,
26766,BR,15,Prata,
26767,BR,27,Araras,
26768,BR,27,Cabreúva,
26769,BR,27,Cordeirópolis,
26770,BR,27,Simonsen,
26771,BR,5,Santo Amaro,
26772,BR,27,Luiz Antonio,
26773,BR,23,Teutônia,
26774,BR,22,Bom Princípio,
26775,BR,23,São Leopoldo,
26776,BR,23,Espumoso,
26777,BR,11,Eldorado,
26778,BR,23,Tapes,
26779,BR,11,Santa,
26780,BR,29,Ceres,
26781,BR,23,Maria,
26782,BR,27,Ipeúna,
26783,BR,27,Boituva,
26784,BR,26,Rio Negrinho,
26785,BR,4,Tefé,
26786,BR,25,Caracaraí,
26787,BR,5,Santana,
26788,BR,18,Piraquara,
26789,BR,31,Gurupi,
26790,BR,11,Rio Verde,
26791,BR,20,Cocal,
26792,BR,27,Matão,
26793,BR,27,Nova Europa,
26794,BR,23,Sananduva,
26795,BR,23,Marau,
26796,BR,27,Guaratinguetá,
26797,BR,16,Carajás,
26798,BR,16,Paragominas,
26799,BR,27,Rancharia,
26800,BR,27,Luís Antônio,
26801,BR,27,Monte Alto,
26802,BR,23,Portão,
26803,BR,20,Barras,
26804,BR,18,Itaperuçu,
26805,BR,15,Tiradentes,
26806,BR,26,Benedito Novo,
26807,BR,27,Votuporanga,
26808,BR,27,José Bonifácio,
26809,BR,15,Machado,
26810,BR,6,Horizonte,
26811,BR,27,Pompéia,
26812,BR,26,Lages,
26813,BR,18,Arapoti,
26814,BR,27,Leme,
26815,BR,27,Pirassununga,
26816,BR,5,Serrinha,
26817,BR,23,Carlos Barbosa,
26818,BR,27,Pôrto Feliz,
26819,BR,29,Iporá,
26820,BR,31,Araguaína,
26821,BR,30,Pedra,
26822,BR,15,Ponte Nova,
26823,BR,15,Ibirité,
26824,BR,8,Santa Teresa,
26825,BR,8,Itapemirim,
26826,BR,21,Resende,
26827,BR,8,Aracruz,
26828,BR,8,Domingos Martins,
26829,BR,15,Muzambinho,
26830,BR,15,Perdões,
26831,BR,15,Divinópolis,
26832,BR,15,Sete Lagoas,
26833,BR,22,Macau,
26834,BR,21,Magé,
26835,BR,23,Garibaldi,
26836,BR,21,Mangaratiba,
26837,BR,18,Campo Largo,
26838,BR,28,Quissamã,
26839,BR,21,Teresópolis,
26840,BR,5,Barra,
26841,BR,21,Barra Do Piraí,
26842,BR,27,Guararapes,
26843,BR,6,Vila Rica,
26844,BR,5,Estrada,
26845,BR,26,São Miguel Do Oeste,
26846,BR,26,Joaçaba,
26847,BR,26,Imbituba,
26848,BR,26,Concórdia,
26849,BR,26,Mondaí,
26850,BR,27,Cunha,
26851,BR,18,Catanduvas,
26852,BR,23,Santiago,
26853,BR,23,Chuí,
26854,BR,23,Jaguarão,
26855,BR,23,Arroio Do Meio,
26856,BR,17,Boqueirão,
26857,BR,23,Palmeira Das Missões,
26858,BR,23,Tapejara,
26859,BR,23,Aratiba,
26860,BR,23,Caràzinho,
26861,BR,26,Maravilha,
26862,BR,23,Parobé,
26863,BR,11,Turvo,
26864,BR,26,Araranguá,
26865,BR,26,São Francisco Do Sul,
26866,BR,26,Abelardo Luz,
26867,BR,29,Uruaçu,
26868,BR,29,Jataí,
26869,BR,29,Goiatuba,
26870,BR,11,Camapuã,
26871,BR,7,Brasilândia,
26872,BR,11,Miranda,
26873,BR,11,Caarapó,
26874,BR,11,Itaporã,
26875,BR,11,Sidrolândia,
26876,BR,11,Amambaí,
26877,BR,21,Mato Grosso,
26878,BR,11,Jatei,
26879,BR,11,Ponta Porã,
26880,BR,18,Astorga,
26881,BR,27,Guaíra,
26882,BR,18,Barbosa Ferraz,
26883,BR,18,Irati,
26884,BR,29,Rubiataba,
26885,BR,7,Ceilândia,
26886,BR,5,Sobradinho,
26887,BR,29,Luziânia,
26888,BR,22,Cidade,
26889,BR,27,Caçapava,
26890,BR,27,Soares,
26891,BR,23,Guaporé,
26892,BR,27,Pinheirinho,
26893,BR,26,Criciúma,
26894,BR,27,Charqueada,
26895,BR,18,Colombo,
26896,BR,27,Dracena,
26897,BR,27,Itajobi,
26898,BR,23,Dom Pedrito,
26899,BR,23,Igrejinha,
26900,BR,23,Esteio,
26901,BR,23,Não-me-toque,
26902,BR,30,Flores,
26903,BR,23,Campo Bom,
26904,BR,23,Panambi,
26905,BR,23,Soledade,
26906,BR,23,São Marcos,
26907,BR,27,San Paulo,
26908,BR,18,Reis,
26909,BR,27,Rio Das Pedras,
26910,BR,11,Santa Tereza,
26911,BR,5,Calçada,
26912,BR,15,Três Corações,
26913,BR,21,Ingàzeira,
26914,BR,11,Rancho,
26915,BR,18,Faxinal,
26916,BR,18,Paranaguá,
26917,BR,11,Corumbá,
26918,BR,15,Bocaiúva,
26919,BR,27,Agua Clará,
26920,BR,31,Alvorada,
26921,BR,27,Adamantina,
26922,BR,6,Joaquim,
26923,BR,26,Biguaçu,
26924,BR,27,Franca,
26925,BR,27,Jardinópolis,
26926,BR,27,Mairinque,
26927,BR,27,Camargo,
26928,BR,27,Jales,
26929,BR,26,Joinvile,
26930,BR,23,Samuel,
26931,BR,27,Itatiba,
26932,BR,27,Arujá,
26933,BR,27,Dois Córregos,
26934,BR,21,Realengo,
26935,BR,21,Guadalupe,
26936,BR,14,Alta Floresta,
26937,BR,5,Avenida,
26938,BR,15,Barroso,
26939,BR,15,Matozinhos,
26940,BR,15,Cidade Industrial,
26941,BR,23,Frederico Westphalen,
26942,BR,26,Tijucas,
26943,BR,26,Laguna,
26944,BR,27,Santa Fé,
26945,BR,18,Engenheiro Beltrão,
26946,BR,27,Roberto,
26947,BR,18,Lapa,
26948,BR,18,Mandirituba,
26949,BR,29,Formosa,
26950,BR,8,Alegre,
26951,BR,26,Ibirama,
26952,BR,26,Pomerode,
26953,BR,5,Barracão,
26954,BR,26,Saudades,
26955,BR,26,Ponte Serrada,
26956,BR,26,Camboriú,
26957,BR,26,Braço Do Norte,
26958,BR,23,Triunfo,
26959,BR,15,Varginha,
26960,BR,15,Arcos,
26961,BR,15,Alpinópolis,
26962,BR,18,Bandeirantes,
26963,BR,18,Céu Azul,
26964,BR,18,Guarapuava,
26965,BR,18,Pinhão,
26966,BR,18,Matinhos,
26967,BR,15,João Monlevade,
26968,BR,6,Água Verde,
26969,BR,28,Laranjeiras,
26970,BR,18,Marialva,
26971,BR,18,Ivaiporã,
26972,BR,13,Itaguará,
26973,BR,18,Mangueirinha,
26974,BR,15,Caeté,
26975,BR,15,Curvelo,
26976,BR,15,Passos,
26977,BR,15,Campanha,
26978,BR,15,Guaxupé,
26979,BR,15,Sapucaí,
26980,BR,15,Raul Soares,
26981,BR,15,Belo Oriente,
26982,BR,15,Salinas,
26983,BR,15,Diamantina,
26984,BR,15,Patrocínio,
26985,BR,15,Mantena,
26986,BR,15,Paracatu,
26987,BR,15,Ipatinga,
26988,BR,15,Januária,
26989,BR,15,Itaú De Minas,
26990,BR,15,Lambari,
26991,BR,15,Muriaé,
26992,BR,15,Bom Despacho,
26993,BR,17,Baixo,
26994,BR,15,Lagoa Da Prata,
26995,BR,15,Itamonte,
26996,BR,27,Caraguatatuba,
26997,BR,21,Belford Roxo,
26998,BR,21,Miracema,
26999,BR,16,Barcarena,
27000,BR,11,Paraíso,
27001,BR,8,Viana,
27002,BR,7,Núcleo Bandeirante,
27003,BR,23,São Gabriel,
27004,BR,11,Aquidauana,
27005,BR,25,Antônio,
27006,BR,11,Rio Brilhante,
27007,BR,31,Tocantinópolis,
27008,BR,29,Cristalina,
27009,BR,18,Cornélio Procópio,
27010,BR,18,Jacarèzinho,
27011,BR,26,Morro Da Fumaça,
27012,BR,26,Major,
27013,BR,15,Lagoa Santa,
27014,BR,15,Caxambu,
27015,BR,15,Aiuruoca,
27016,BR,15,Mutum,
27017,BR,15,Cláudio,
27018,BR,15,Carangola,
27019,BR,15,Sacramento,
27020,BR,15,Janaúba,
27021,BR,15,São Lourenço,
27022,BR,15,Itanhandu,
27023,BR,15,Dores Do Indaiá,
27024,BR,30,Serafina,
27025,BR,23,São Luiz Gonzaga,
27026,BR,18,Telêmaco Borba,
27027,BR,18,Rolândia,
27028,BR,18,Jandaia Do Sul,
27029,BR,18,Ibaiti,
27030,BR,18,Andirá,
27031,BR,18,Assaí,
27032,BR,18,Sertanópolis,
27033,BR,18,Arapongas,
27034,BR,22,Ubirata,
27035,BR,21,Portela,
27036,BR,8,Castelo,
27037,BR,18,São Miguel Do Iguaçu,
27038,BR,18,Clevelândia,
27039,BR,18,Guaraniaçu,
27040,BR,13,Santa Helena,
27041,BR,27,Planalto,
27042,BR,27,Tupã,
27043,BR,27,Louveira,
27044,BR,27,Paulo De Faria,
27045,BR,15,Quinzinho,
27046,BR,27,Votorantim,
27047,BR,27,São Simão,
27048,BR,27,Praia Grande,
27049,BR,27,Américo Brasiliense,
27050,BR,27,Santa Gertrudes,
27051,BR,27,Águas De Lindóia,
27052,BR,27,Cravinhos,
27053,BR,13,Guimarães,
27054,BR,15,Camanducaia,
27055,BR,27,Presidente Bernardes,
27056,BR,30,José,
27057,BR,27,Itanhaém,
27058,BR,27,Gonçalves,
27059,BR,27,Morungaba,
27060,BR,27,Agudos,
27061,BR,23,Estrêla,
27062,BR,27,Cosmópolis,
27063,BR,27,Juquitiba,
27064,BR,27,Pitangueiras,
27065,BR,27,Pereira Barreto,
27066,BR,27,Mongaguá,
27067,BR,18,Washington Luiz,
27068,BR,27,Braúna,
27069,BR,27,Palmital,
27070,BR,27,Santa Adélia,
27071,BR,27,Serrana,
27072,BR,27,Buri,
27073,BR,27,Iepê,
27074,BR,27,Capão Bonito,
27075,BR,27,Bebedouro,
27076,BR,15,Extrema,
27077,BR,27,Pedregulho,
27078,BR,27,Pontal,
27079,BR,27,Registro,
27080,BR,27,Cafelândia,
27081,BR,27,Sagres,
27082,BR,5,Prado,
27083,BR,2,Marituba,
27084,BR,16,Tucumã,
27085,BR,22,João Pedro,
27086,BR,27,Pardinho,
27087,BR,27,Lucélia,
27088,BR,6,Redenção,
27089,BR,16,Altamira,
27090,BR,16,Itaituba,
27091,BR,16,Bragança,
27092,BR,4,Parintins,
27093,BR,16,Capanema,
27094,BR,5,Bento,
27095,BR,23,Vacaria,
27096,BR,23,Canela,
27097,BR,6,Cruz,
27098,BR,24,Presidente,
27099,BR,5,Itamaraju,
27100,BR,30,Custódia,
27101,BR,15,Timóteo,
27102,BR,25,Bonfim,
27103,BR,15,Paraopeba,
27104,BR,2,Pilar,
27105,BR,30,Luís,
27106,BR,13,Santa Inês,
27107,BR,15,Nova Era,
27108,BR,30,Lúzia,
27109,BR,26,Antônio Carlos,
27110,BR,27,Osvaldo Cruz,
27111,BR,27,Cedral,
27112,BR,27,Taquaritinga,
27113,BR,27,Brasil,
27114,BR,27,São Manuel,
27115,BR,27,Pederneiras,
27116,BR,27,Goulart,
27117,BR,27,Regente Feijó,
27118,BR,27,Motuca,
27119,BR,27,Presidente Epitácio,
27120,BR,27,Cajuru,
27121,BR,27,Olímpia,
27122,BR,27,Guariba,
27123,BR,27,Brodowski,
27124,BR,27,Batatais,
27125,BR,4,São Bernado,
27126,BR,23,Alves,
27127,BR,17,Bayeux,
27128,BR,26,Gaspar,
27129,BR,27,Bom Retiro,
27130,BR,26,Canoinhas,
27131,BR,15,São João Del Rei,
27132,BR,27,Porangaba,
27133,BR,28,Capela,
27134,BR,27,Ibiúna,
27135,BR,6,Diogo,
27136,BR,20,André,
27137,BR,16,Gurgel,
27138,BR,23,Montenegro,
27139,BR,27,Rui Barbosa,
27140,BR,31,Taguatinga,
27141,BR,27,Tietê,
27142,BR,16,Monte Dourado,
27143,BR,23,Bagé,
27144,BR,2,Satuba,
27145,BR,23,Ibirubá,
27146,BR,5,Livramento,
27147,BR,11,Chapada,
27148,BR,27,Onda Verde,
27149,BR,27,Ariranha,
27150,BR,21,Arraial Do Cabo,
27151,BR,15,Bicas,
27152,BR,5,Jaguarari,
27153,BR,27,Uchoa,
27154,BR,11,Conceição,
27155,BR,27,Nogueira,
27156,BR,15,Juatuba,
27157,BR,21,Carmo,
27158,BR,26,Irani,
27159,BR,26,Xanxerê,
27160,BR,26,Capinzal,
27161,BR,27,Pinhalzinho,
27162,BR,26,Mafra,
27163,BR,15,Coromandel,
27164,BR,15,Araxá,
27165,BR,15,Sêrro,
27166,BR,15,Bambuí,
27167,BR,15,Unaí,
27168,BR,5,Ipiaú,
27169,BR,21,Itaboraí,
27170,BR,21,Maricá,
27171,BR,21,Meriti,
27172,BR,21,Itaocara,
27173,BR,21,São Fidélis,
27174,BR,15,Arinos,
27175,BR,21,Iguaba Grande,
27176,BR,5,Irecê,
27177,BR,5,Conceição Do Coité,
27178,BR,5,Jequié,
27179,BR,21,Rio Vermelho,
27180,BR,27,Arraial,
27181,BR,5,Alagoinhas,
27182,BR,27,Conquista,
27183,BR,17,Teixeira,
27184,BR,5,Nazaré,
27185,BR,30,Caruaru,
27186,BR,5,Brumado,
27187,BR,5,Itapetinga,
27188,BR,11,Magalhães,
27189,BR,17,Angelica,
27190,BR,5,Guanambi,
27191,BR,29,Itumbiara,
27192,BR,15,Nova Serrana,
27193,BR,11,Espírito Santo,
27194,BR,27,Coqueiros,
27195,BR,23,Tramandaí,
27196,BR,23,Giruá,
27197,BR,8,Industrial,
27198,BR,23,Camaquã,
27199,BR,23,Venâncio Aires,
27200,BR,30,Moraes,
27201,BR,5,Água Quente,
27202,BR,29,Inhumas,
27203,BR,22,Santa Cruz,
27204,BR,27,Itapuí,
27205,BR,27,Tenente,
27206,BR,23,Sete De Setembro,
27207,BR,27,Mogi-mirim,
27208,BR,23,Erval Grande,
27209,BR,18,Toledo,
27210,BR,15,Topázio,
27211,BR,27,Araçariguama,
27212,BR,27,Santa Branca,
27213,BR,27,Vargem Grande Do Sul,
27214,BR,27,Taquarituba,
27215,BR,22,São Miguel,
27216,BR,5,Gabriel,
27217,BR,27,Pinheiros,
27218,BR,2,Arapiraca,
27219,BR,11,Naviraí,
27220,BR,17,Patos,
27221,BR,8,Carapina,
27222,BR,13,Colinas,
27223,BR,28,Lagarto,
27224,BR,1,Brasiléia,
27225,BR,8,Marataízes,
27226,BR,24,Pimenta Bueno,
27227,BR,13,Bacabal,
27228,BR,24,Ji-paraná,
27229,BR,5,Pereira,
27230,BR,29,Trindade,
27231,BR,27,Guará,
27232,BR,23,Rio Pardo,
27233,BR,16,Benevides,
27234,BR,16,Tucuruí,
27235,BR,5,Ângelo,
27236,BR,16,Breves,
27237,BR,3,Oiapoque,
27238,BR,4,Tabatinga,
27239,BR,30,Igarassu,
27240,BR,4,Bôca Do Acre,
27241,BR,4,Itacoatiara,
27242,BR,4,Iranduba,
27243,BR,15,Caratinga,
27244,BR,30,Bezerros,
27245,BR,17,Santa Rita,
27246,BR,15,Itabirito,
27247,BR,26,São Joaquim,
27248,BR,15,Mariana,
27249,BR,15,Teófilo Otoni,
27250,BR,5,Cachoeira,
27251,BR,27,Bofete,
27252,BR,15,Manhuaçu,
27253,BR,15,Matias Barbosa,
27254,BR,15,Cataguases,
27255,BR,15,Cataguazes,
27256,BR,15,Barbacena,
27257,BR,17,Itaporanga,
27258,BR,5,Miguel Calmon,
27259,BR,21,Quatis,
27260,BR,22,Redonda,
27261,BR,21,Pôrto Real,
27262,BR,21,Três Rios,
27263,BR,21,São João De Meriti,
27264,BR,27,Mirassol,
27265,BR,27,Iracemápolis,
27266,BR,5,Bernardo,
27267,BR,5,Pedro,
27268,BR,25,Coelho,
27269,BR,2,Jundiá,
27270,BR,23,Alegrete,
27271,BR,23,Osório,
27272,BR,27,Neves,
27273,BR,26,Içara,
27274,BR,26,Garopaba,
27275,BR,26,Nereu Ramos,
27276,BR,26,Penha,
27277,BR,26,Navegantes,
27278,BR,26,Palhoça,
27279,BR,26,Guaramirim,
27280,BR,2,Marechal Deodoro,
27281,BR,26,Bombinhas,
27282,BR,27,João Marques,
27283,BR,27,Capivari,
27284,BR,26,Forquilhinha,
27285,BR,26,Santa Cecília,
27286,BR,26,Porto Belo,
27287,BR,23,Guaíba,
27288,BR,22,Santo Cristo,
27289,BR,23,Tupandi,
27290,BR,23,Horizontina,
27291,BR,11,Piratini,
27292,BR,23,Encantado,
27293,BR,23,Santa Clara Do Sul,
27294,BR,25,Tapera,
27295,BR,4,Estação,
27296,BR,23,Cêrro Largo,
27297,BR,23,Santo Augusto,
27298,BR,5,Vera Cruz,
27299,BR,20,Pôrto,
27300,BR,30,Escada,
27301,BR,30,Goiana,
27302,BR,30,Palmares,
27303,BR,27,Agostinho,
27304,BR,30,Timbaúba,
27305,BR,5,Santo,
27306,BR,30,Abreu E Lima,
27307,BR,30,Cabo,
27308,BR,30,Canhotinho,
27309,BR,30,Carpina,
27310,BR,22,Macaíba,
27311,BR,27,Pradópolis,
27312,BR,5,Campina,
27313,BR,18,Cambira,
27314,BR,18,Araucária,
27315,BR,27,Café,
27316,BR,18,Ibiporã,
27317,BR,18,Cambé,
27318,BR,18,Almirante Tamandaré,
27319,BR,15,Heliodora,
27320,BR,15,Andradas,
27321,BR,15,Ribeirão Das Neves,
27322,BR,15,Ouro Branco,
27323,BR,15,Brumadinho,
27324,BR,15,Sabará,
27325,BR,23,Taquaraçu,
27326,BR,5,Ventura,
27327,BR,24,Pirapetinga,
27328,BR,15,Alterosa,
27329,BR,22,Bandeirante,
27330,BR,4,Humaitá,
27331,BR,31,Porto Nacional,
27332,BR,7,Planaltina,
27333,BR,27,Quadra,
27334,BR,14,Diamantino,
27335,BR,14,Pontes E Lacerda,
27336,BR,14,Cáceres,
27337,BR,6,Quixadá,
27338,BR,6,Crato,
27339,BR,6,Caucaia,
27340,BR,6,Pacajus,
27341,BR,6,Aracati,
27342,BR,1,Maranguape,
27343,BR,27,Brotas,
27344,BR,28,Itabaianinha,
27345,BR,28,Estância,
27346,BR,5,Amargosa,
27347,BR,5,Juàzeiro,
27348,BR,5,Jacobina,
27349,BR,23,Zona,
27350,BR,5,Candeias,
27351,BR,28,Itabaiana,
27352,BR,27,Itaipu,
27353,BR,8,Companhia,
27354,BR,15,Carmópolis De Minas,
27355,BR,21,Angra Dos Reis,
27356,BR,18,Paranacity,
27357,BR,22,Tangará,
27358,BR,11,Perdizes,
27359,BR,25,Consolação,
27360,BR,14,Jaciara,
27361,BR,27,Pirapòzinho,
27362,BR,27,Oscar Bressane,
27363,BR,6,Iguatu,
27364,BR,2,Rio Largo,
27365,BR,16,Francisco,
27366,BR,20,Campo Maior,
27367,BR,22,Eduardo Gomes,
27368,BR,31,Fontoura,
27369,BR,23,Lagoa Vermelha,
27370,BR,27,Guatapará,
27371,BR,5,Benedito,
27372,BR,21,Cambuci,
27373,BR,27,São Jorge,
27374,BR,18,Coronel Vivida,
27375,BR,15,Ipanema,
27376,BR,18,Moreira Sales,
27377,BR,26,Pôrto União,
27378,BR,17,Guarabira,
27379,BR,6,Canindé,
27380,BR,14,Aripuanã,
27381,BR,2,Santana Do Ipanema,
27382,BR,15,Rio Novo,
27383,BR,6,Barbalha,
27384,BR,5,Maragogipe,
27385,BR,8,Pernambuco,
27386,BR,21,Madureira,
27387,BR,8,Guarapari,
27388,BR,30,Sairé,
27389,BR,2,Nossa Senhora,
27390,BR,22,Taborda,
27391,BR,18,Primeiro De Maio,
27392,BR,22,Amazonas,
27393,BR,5,Banco,
27394,BR,27,Santa Catarina,
27395,BR,16,Castell,
27396,BR,1,Minas Gerais,
27397,BR,5,Comércio,
27398,BR,1,Emprêsa,
27399,BR,5,Bahia,
27400,BR,27,Caramuru,
27401,BR,21,Norte,
27402,BR,27,Mista,
27403,BR,20,União,
27404,BR,20,Floriano,
27405,BR,20,Corrente,
27406,BR,21,Rio,
27407,BR,27,Várzea Paulista,
27408,BR,27,São José Do Rio Prêto,
27409,BR,27,Rio Grande Da Serra,
27410,BR,26,Luís Alves,
27411,BR,27,São Bernardo Do Campo,
27412,BR,27,Francisco Morato,
27413,BR,21,Piraí,
27414,BR,5,Catu,
27415,BR,27,Lençóis Paulista,
27416,BR,29,Campo Limpo,
27417,BR,7,Gama,
27418,BR,23,Charqueadas,
27419,BR,23,Tupanciretã,
27420,BR,23,Estância Velha,
27421,BR,18,Mandaguaçu,
27422,BR,18,Jussara,
27423,BR,18,Tapejara,
27424,BR,18,Imbituva,
27425,BR,18,Pitanga,
27426,BR,26,Schroeder,
27427,BR,26,Itapema,
27428,BR,26,Laurentino,
27429,BR,24,Ouro Prêto Do Oeste,
27430,BR,5,Vitória Da Conquista,
27431,BR,5,Cruz Das Almas,
27432,BR,17,Sapé,
27433,BR,2,São Miguel Dos Campos,
27434,BR,15,Esmeraldas,
27435,BR,22,Caraúbas,
27436,BR,22,Upanema,
27437,BR,13,São José De Ribamar,
27438,BR,21,Nilópolis,
27439,BR,21,Queimados,
27440,BR,21,Japeri,
27441,BR,5,São Francisco Do Conde,
27442,BR,5,Madre De Deus,
27443,BR,5,São Gonçalo Dos Campos,
27444,BR,5,São Sebastião Do Passé,
27445,BR,17,Aroeiras,
27446,BR,17,Gurinhém,
27447,BR,5,Maraú,
27448,BR,5,Camamu,
27449,BR,11,Paranaíba,
27450,BR,15,Santa Juliana,
27451,BR,15,Tapuirama,
27452,BR,15,Monte Alegre De Minas,
27453,BR,15,Tupaciguara,
27454,BR,15,Centralina,
27455,BR,27,Ubatuba,
27456,BR,6,Quixeramobim,
27457,BR,5,Muritiba,
27458,BR,15,São Gonçalo Do Sapucaí,
27459,BR,22,Arês,
27460,BR,27,Monte Azul Paulista,
27461,BR,27,Ferraz De Vasconcelos,
27462,BR,27,Moji Das Cruzes,
27463,BR,27,Poá,
27464,BR,27,Elias Fausto,
27465,BR,27,Novo Horizonte,
27466,BR,27,Pirapora Do Bom Jesus,
27467,BR,27,Santana De Parnaíba,
27468,BR,27,Bom Jesus Dos Perdões,
27469,BR,21,Tanguá,
27470,BR,17,Sousa,
27471,BR,28,Nossa Senhora Das Dores,
27472,BR,22,Jardim Do Seridó,
27473,BR,17,Santa Luzia,
27474,BR,17,Nova Floresta,
27475,BR,15,Barão De Cocais,
27476,BR,21,Silva Jardim,
27477,BR,21,Cachoeiras De Macacu,
27478,BR,21,Guapimirim,
27479,BR,23,Viamão,
27480,BR,15,Grão Mogol,
27481,BR,27,Bragança Paulista,
27482,BR,2,São Luís Do Quitunde,
27483,BR,30,Itapissuma,
27484,BR,17,Caaporã,
27485,BR,5,Entre Rios,
27486,BR,15,Congonhas,
27487,BR,15,Senhora Do Carmo,
27488,BR,15,Turvo,
27489,BR,28,Campo Do Brito,
27490,BR,2,Delmiro Gouveia,
27491,BR,23,Antônio Bastos,
27492,BR,23,Candelária,
27493,BR,26,Seara,
27494,BR,26,Santo Antônio Do Pinhal,
27495,BR,18,Realeza,
27496,BR,27,São João Da Boa Vista,
27497,BR,15,Conceição Das Alagoas,
27498,BR,27,São Joaquim Da Barra,
27499,BR,27,Orlândia,
27500,BR,27,Miguelópolis,
27501,BR,27,Ipuã,
27502,BR,27,Morro Agudo,
27503,BR,27,Ituverava,
27504,BR,17,Picuí,
27505,BR,6,Amontada,
27506,BR,27,Taboão Da Serra,
27507,BR,27,Jaú,
27508,BR,27,Pirajuí,
27509,BR,27,Auriflama,
27510,BR,27,Duartina,
27511,BR,27,Buritama,
27512,BR,27,Macatuba,
27513,BR,2,Major Isidoro,
27514,BR,2,Coruripe,
27515,BR,27,Araçoiaba Da Serra,
27516,BR,28,Tobias Barreto,
27517,BR,27,Ribeirão Bonito,
27518,BR,30,Camaragibe,
27519,BR,30,Moreno,
27520,BR,27,Bady Bassitt,
27521,BR,27,Mogi-guaçu,
27522,BR,27,Capela Do Alto,
27523,BR,27,Ilhabela,
27524,BR,27,Peruíbe,
27525,BR,27,Itu,
27526,BR,27,Embu-guaçu,
27527,BR,27,Itapecerica Da Serra,
27528,BR,27,Itatinga,
27529,BR,27,Serra Negra,
27530,BR,27,Guaiçara,
27531,BR,27,Ipaussú,
27532,BR,29,Itapirapuã,
27533,BR,7,Brazlândia,
27534,BR,18,Santo Antônio Da Platina,
27535,BR,26,Rio Dos Cedros,
27536,BR,26,Orleans,
27537,BR,26,Barra Velha,
27538,BR,26,São João Batista,
27539,BR,23,Cidreira,
27540,BR,23,Butiá,
27541,BR,23,Quaraí,
27542,BR,14,Laranjeiras,
27543,BR,13,Carolina,
27544,BR,24,Jaru,
27545,BR,24,Nova Vida,
27546,BR,29,Petrolina De Goiás,
27547,BR,18,Antonina,
27548,BR,18,Cruzeiro Do Oeste,
27549,BR,18,Ampère,
27550,BR,18,Paiçandu,
27551,BR,18,Castelo,
27552,BR,5,Santo Antônio De Jesus,
27553,BR,18,União Da Victoria,
27554,BR,18,Palotina,
27555,BR,18,Itaiacoca,
27556,BR,26,Santo Amaro Da Imperatriz,
27557,BR,14,Rosário Oeste,
27558,BR,29,Itaberaí,
27559,BR,29,Ipameri,
27560,BR,14,Chapada Dos Guimarães,
27561,BR,29,Porangatu,
27562,BR,29,Goiás,
27563,BR,29,Anicuns,
27564,BR,18,Cidade Gaúcha,
27565,BR,15,São Sebastião Do Paraíso,
27566,BR,15,Santana Do Paraíso,
27567,BR,15,Guiricema,
27568,BR,17,São Bento,
27569,BR,17,Cajàzeiras,
27570,BR,15,Campos Gerais,
27571,BR,13,Coroatá,
27572,BR,27,Campos Do Jordão,
27573,BR,15,Paraisópolis,
27574,BR,21,Casimiro De Abreu,
27575,BR,21,Miguel Pereira,
27576,BR,18,Palmitalzinho,
27577,BR,27,Ocauçu,
27578,BR,27,Santa Cruz Do Rio Pardo,
27579,BR,27,Casa Branca,
27580,BR,27,Aparecida,
27581,BR,27,Moji-mirim,
27582,BR,27,Cachoeira Paulista,
27583,BR,15,Jacutinga,
27584,BR,16,Moju,
27585,BR,15,Visconde Do Rio Branco,
27586,BR,21,Bom Jesus Do Itabapoana,
27587,BR,15,Taiobeiras,
27588,BR,15,Minas Novas,
27589,BR,15,Resplendor,
27590,BR,27,Espirito Santo Do Pinhal,
27591,BR,27,Chavantes,
27592,BR,27,Lavínia,
27593,BR,27,Tupi Paulista,
27594,BR,27,São José Do Rio Pardo,
27595,BR,27,Ibaté,
27596,BR,23,Ivoti,
27597,BR,27,Santo Antônio De Posse,
27598,BR,27,Neves Paulista,
27599,BR,29,Goianira,
27600,BR,24,Tira Fogo,
27601,BR,23,Bom Retiro Do Sul,
27602,BR,18,Laranjeiras Do Sul,
27603,BR,20,Mombaça,
27604,BR,28,Malhador,
27605,BR,22,Apodi,
27606,BR,2,União Dos Palmares,
27607,BR,6,Tauá,
27608,BR,6,Icapuí,
27609,BR,6,Varjota,
27610,BR,5,Itajuípe,
27611,BR,22,Parelhas,
27612,BR,17,Mari,
27613,BR,2,Anadia,
27614,BR,8,São José Do Calçado,
27615,BR,15,Ibitiúra,
27616,BR,30,Vitória De Santo Antão,
27617,BR,2,Presidente Dutra,
27618,BR,5,Venda Nova,
27619,BR,17,Itatuba,
27620,BR,4,Manacapuru,
27621,BR,22,Pau Dos Ferros,
27622,BR,5,Pojuca,
27623,BR,8,Cachoeiro De Itapemirim,
27624,BR,8,Muqui,
27625,BR,15,Harmonia,
27626,BR,27,Laranjal,
27627,BR,5,Tapiramutá,
27628,BR,5,Senhor Do Bonfim,
27629,BR,8,Camburi,
27630,BR,15,João Pinheiro,
27631,BR,27,Álvares Machado,
27632,BR,27,Mariápolis,
27633,BR,26,Santanna,
27634,BR,29,Senador Canedo,
27635,BR,29,Morrinhos,
27636,BR,29,Jaraguá,
27637,BR,18,Guaratuba,
27638,BR,15,Santa Rita Do Sapucaí,
27639,BR,27,Laranjal Paulista,
27640,BR,27,Sarapuí,
27641,BR,21,Magno,
27642,BR,26,Três Barras,
27643,BR,15,Santos Dumont,
27644,BR,8,Barra De São Francisco,
27645,BR,15,Abaeté,
27646,BR,15,Santo Antônio Do Monte,
27647,BR,18,Santa Cruz,
27648,BR,15,Inhapim,
27649,BR,23,Ouro Fino,
27650,BR,15,Botelhos,
27651,BR,15,Paraguaçu,
27652,BR,15,Igarapé,
27653,BR,15,Sarzedo,
27654,BR,30,São José Do Egito,
27655,BR,28,Salgado,
27656,BR,28,Maruim,
27657,BR,15,Cambuí,
27658,BR,15,Araguari,
27659,BR,15,São Gotardo,
27660,BR,15,Luz,
27661,BR,15,Mateus Leme,
27662,BR,23,Nova Prata,
27663,BR,23,Plano Alto,
27664,BR,23,Itaqui,
27665,BR,18,Capão,
27666,BR,23,Ronda Alta,
27667,BR,15,Miguel,
27668,BR,27,Poloni,
27669,BR,27,Paranapanema,
27670,BR,27,Bonfim Paulista,
27671,BR,27,Agulha,
27672,BR,27,Quatá,
27673,BR,27,Itaquera,
27674,BR,15,Borda Da Mata,
27675,BR,27,Colina,
27676,BR,27,Vista Alegre Do Alto,
27677,BR,5,Itarantim,
27678,BR,5,Medeiros Neto,
27679,BR,26,Luiz Alves,
27680,BR,8,Alfredo Chaves,
27681,BR,8,Iúna,
27682,BR,15,Itambacuri,
27683,BR,8,Marechal Floriano,
27684,BR,5,Barra Da Estiva,
27685,BR,13,Laranjeiras Ii,
27686,BR,6,Beberibe,
27687,BR,6,Várzea Alegre,
27688,BR,16,Igarapé-miri,
27689,BR,6,Camocim,
27690,BR,30,João Alfredo,
27691,BR,22,Açu,
27692,BR,20,Inhuma,
27693,BR,5,Saubara,
27694,BR,15,Pedra Azul,
27695,BR,21,Parati,
27696,BR,5,Itapecerica,
27697,BR,5,Seabra,
27698,BR,22,Coité,
27699,BR,5,Itaberaba,
27700,BR,5,Moreré,
27701,BR,5,Esplanada,
27702,BR,5,Gandu,
27703,BR,2,Passo De Camaragibe,
27704,BR,5,Biritinga,
27705,BR,5,Bom Jesus Da Lapa,
27706,BR,21,Cantagalo,
27707,BR,27,Biritiba-mirim,
27708,BR,27,Juquiá,
27709,BR,15,Romeu,
27710,BR,15,Frutal,
27711,BR,15,Ronã,
27712,BR,15,Serra Do Salitre,
27713,BR,27,Boa Esperança Do Sul,
27714,BR,8,Piúma,
27715,BR,22,Extremóz,
27716,BR,16,Santa Isabel Do Pará,
27717,BR,8,Marilândia,
27718,BR,23,Nova Petrópolis,
27719,BR,13,Coelho Neto,
27720,BR,30,Lagoa Do Itaenga,
27721,BR,30,Joaquim Nabuco,
27722,BR,30,Lajedo,
27723,BR,30,Sertânia,
27724,BR,15,Soledade De Minas,
27725,BR,15,São Joaquim De Bicas,
27726,BR,15,Piuí,
27727,BR,15,São Domingos Do Prata,
27728,BR,1,Cruzeiro Do Sul,
27729,BR,6,Cedro,
27730,BR,6,Itapagé,
27731,BR,18,Icaraíma,
27732,BR,18,Quatro Barras,
27733,BR,18,Florestópolis,
27734,BR,23,São Sebastião Do Caí,
27735,BR,30,Buíque,
27736,BR,30,Ibimirim,
27737,BR,15,Eugenópolis,
27738,BR,27,Angatuba,
27739,BR,27,Itapeva,
27740,BR,27,Severínia,
27741,BR,23,São Pedro Do Sul,
27742,BR,23,Rolante,
27743,BR,18,Reserva,
27744,BR,18,Peabiru,
27745,BR,29,Piracanjuba,
27746,BR,26,Dionísio Cerqueira,
27747,BR,26,Corupá,
27748,BR,29,Hidrolândia,
27749,BR,29,Goianésia,
27750,BR,23,São Sepé,
27751,BR,27,Tambaú,
27752,BR,21,São Martinho,
27753,BR,18,Curiúva,
27754,BR,18,Marechal Cândido Rondon,
27755,BR,26,Sombrio,
27756,BR,26,Urussanga,
27757,BR,23,Pinhal Da Serra,
27758,BR,11,Capão Bonito,
27759,BR,14,Bocaina,
27760,BR,23,Constantina,
27761,BR,18,Jaguariaíva,
27762,BR,18,Indianópolis,
27763,BR,21,Engenheiro Paulo De Frontin,
27764,BR,27,Igarapava,
27765,BR,5,Ibirataia,
27766,BR,15,Montezuma,
27767,BR,30,Tabira,
27768,BR,20,Canto Do Buriti,
27769,BR,21,Carapebus,
27770,BR,5,Jacaraci,
27771,BR,5,Urandi,
27772,BR,5,Iraquara,
27773,BR,6,Marco,
27774,BR,5,Mundo Novo,
27775,BR,30,Surubim,
27776,BR,5,Canavieiras,
27777,BR,30,Catende,
27778,BR,11,Costa Rica,
27779,BR,29,Nerópolis,
27780,BR,29,Goianápolis,
27781,BR,23,Santana Do Livramento,
27782,BR,24,Rolim De Moura,
27783,BR,26,Ribeirão Do Ouro,
27784,BR,26,Ituporanga,
27785,BR,13,Pôrto Franco,
27786,BR,11,Antônio João,
27787,BR,18,Ribeirão Do Pinhal,
27788,BR,23,Santa Vitória Do Palmar,
27789,BR,23,Três Passos,
27790,BR,27,Cardoso,
27791,BR,27,Freguesia Do O,
27792,BR,27,Santa Cruz Das Palmeiras,
27793,BR,27,Paraguaçu Paulista,
27794,BR,27,Urupês,
27795,BR,21,Saco Fora,
27796,BR,6,Aquiraz,
27797,BR,6,São Gonçalo Do Amarante,
27798,BR,5,Ibirapuã,
27799,BR,5,Cascata,
27800,BR,24,Guajará-mirim,
27801,BR,18,Alto Piquiri,
27802,BR,5,Iguaí,
27803,BR,26,Ilhota,
27804,BR,26,Itapiranga,
27805,BR,20,Fronteiras,
27806,BR,5,Goiabeira,
27807,BR,20,Valença Do Piauí,
27808,BR,22,Canguaretama,
27809,BR,30,Bandara,
27810,BR,30,Pombos,
27811,BR,5,Ibicuí,
27812,BR,5,Plataforma,
27813,BR,26,São Lourenço Do Oeste,
27814,BR,11,Rio Verde De Mato Grosso,
27815,BR,23,Caçapava Do Sul,
27816,BR,23,Rosário Do Sul,
27817,BR,23,Capão Da Canoa,
27818,BR,23,Aguas Do Pardo,
27819,BR,5,Conceição Do Almeida,
27820,BR,15,Nanuque,
27821,BR,28,Arauá,
27822,BR,5,Trancoso,
27823,BR,5,Jitaúna,
27824,BR,2,Batalha,
27825,BR,28,Nossa Senhora Do Socorro,
27826,BR,22,Acari,
27827,BR,22,Tibaú Do Sul,
27828,BR,22,São Gonçalo Do Amarante,
27829,BR,17,Alhandra,
27830,BR,13,Alcântara,
27831,BR,29,Pontalina,
27832,BR,16,Conceição Do Araguaia,
27833,BR,11,Cassilândia,
27834,BR,29,Guapó,
27835,BR,18,Rio Azul,
27836,BR,18,Morretes,
27837,BR,23,São Jerônimo,
27838,BR,23,Passo Do Sobrado,
27839,BR,26,Itaiópolis,
27840,BR,27,Paraibuna,
27841,BR,27,Panorama,
27842,BR,27,Santa Rosa De Viterbo,
27843,BR,27,Itirapina,
27844,BR,30,Gravatá,
27845,BR,5,Santa Cruz Cabrália,
27846,BR,4,Maués,
27847,BR,15,Uru,
27848,BR,15,Carmo Da Mata,
27849,BR,5,Poções,
27850,BR,5,Itagi,
27851,BR,30,Chã Grande,
27852,BR,30,São Caitano,
27853,BR,21,Bom Jardim,
27854,BR,15,São João De Manteninha,
27855,BR,15,Cambuquira,
27856,BR,15,Rio Cartente,
27857,BR,15,Carmo Do Rio Claro,
27858,BR,15,Campestre,
27859,BR,15,Ubá,
27860,BR,15,Pitangui,
27861,BR,15,Conceição Do Turvo,
27862,BR,5,Ibipeba,
27863,BR,22,Brejinho,
27864,BR,6,Russas,
27865,BR,22,Currais Novos,
27866,BR,18,Iporã,
27867,BR,18,Pugas De Cima,
27868,BR,18,Guaporema,
27869,BR,23,Evangelista,
27870,BR,23,Sarandi,
27871,BR,23,Passo Do Guaçu Boi,
27872,BR,23,Cacequi,
27873,BR,11,Terenos,
27874,BR,29,Caiapônia,
27875,BR,29,Bela Vista De Goiás,
27876,BR,26,Campos Novos,
27877,BR,27,Piratininga,
27878,BR,27,Santa Bárbara D'oeste,
27879,BR,27,Invernada,
27880,BR,27,Santa Bárbara Do Oeste,
27881,BR,27,Luiziânia,
27882,BR,27,Júlio Mesquita,
27883,BR,17,Areia,
27884,BR,15,Carmo Da Cachoeira,
27885,BR,8,Mantenópolis,
27886,BR,27,Moji-guaçu,
27887,BR,15,Carandaí,
27888,BR,15,Matipó,
27889,BR,15,Bom Jesus Do Galho,
27890,BR,15,Além Paraíba,
27891,BR,8,Santa Leopoldina,
27892,BR,8,Nova Venécia,
27893,BR,8,Fundão,
27894,BR,8,Jerônimo Monteiro,
27895,BR,8,Itarana,
27896,BR,17,Alagoa Grande,
27897,BR,30,Itamaracá,
27898,BR,17,Cruz Do Espírito Santo,
27899,BR,28,Areia Branca,
27900,BR,11,Riacho Do Garimpo,
27901,BR,29,Pirenópolis,
27902,BR,18,Silvestre,
27903,BR,18,Prudentópolis,
27904,BR,27,Pariquera-açu,
27905,BR,27,Santo Anastácio,
27906,BR,6,Fortaleza,
27907,BR,22,Redonda,
27908,BR,8,Conceição Do Castelo,
27909,BR,22,Riacho Fundo,
27910,BR,18,Tibagi,
27911,BR,29,Abadiânia,
27912,BR,22,Jucurutu,
27913,BR,22,Caicó,
27914,BR,15,Ituiutaba,
27915,BR,15,Teixeiras,
27916,BR,15,Santo Antônio Do Amparo,
27917,BR,28,Nossa Senhora Da Glória,
27918,BR,17,Natuba,
27919,BR,17,Cuité,
27920,BR,8,Muniz Freire,
27921,BR,26,Araquari,
27922,BR,6,Acaraú,
27923,BR,27,Bernardino De Campos,
27924,BR,27,Cerqueira César,
27925,BR,17,Uiraúna,
27926,BR,22,José Da Penha,
27927,BR,13,Galiléia,
27928,BR,17,Pilar,
27929,BR,18,Bituruna,
27930,BR,18,São Mateus Do Sul,
27931,BR,20,Pedreiras,
27932,BR,13,Barra Do Corda,
27933,BR,15,Itapecerica,
27934,BR,15,Olímpio De Freitas,
27935,BR,27,Monções,
27936,BR,27,Santa Barbara D'oeste,
27937,BR,27,Álvaro De Carvalho,
27938,BR,29,Pires Do Rio,
27939,BR,2,Ibateguara,
27940,BR,18,Nova Aurora,
27941,BR,15,Nepomuceno,
27942,BR,15,Jaboticatubas,
27943,BR,15,Guanhães,
27944,BR,23,São Lourenço Do Sul,
27945,BR,23,Oeste,
27946,BR,5,Paripiranga,
27947,BR,8,Ibatiba,
27948,BR,23,Minas,
27949,BR,16,Santa Maria Do Pará,
27950,BR,27,Santa Izabel,
27951,BR,5,Ponta Da Cruz,
27952,BR,5,Mata De São João,
27953,BR,15,Lima Duarte,
27954,BR,18,Itapejara,
27955,BR,27,Pilar Do Sul,
27956,BR,18,Terra Roxa,
27957,BR,18,Garuva,
27958,BR,23,Canguçu,
27959,BR,23,Barra Do Ribeiro,
27960,BR,18,Alto Paraná,
27961,BR,21,Armação Dos Búzios,
27962,BR,5,Alcobaça,
27963,BR,5,Japira,
27964,BR,5,Itaparica,
27965,BR,18,Caroveira,
27966,BR,18,Campina Grande Do Sul,
27967,BR,5,Iguá,
27968,BR,18,Terra Boa,
27969,BR,17,Itabaiana,
27970,BR,29,Quirinópolis,
27971,BR,23,André Machado,
27972,BR,5,Pasto Da Mata,
27973,BR,5,Lajedão,
27974,BR,5,Conde,
27975,BR,5,Rio Real,
27976,BR,2,Igaci,
27977,BR,17,Cacimba De Dentro,
27978,BR,5,Mucuri,
27979,BR,23,Silêncio,
27980,BR,29,Padre Bernardo,
27981,BR,28,Japaratuba,
27982,BR,15,Santa Cruz Do Mónte Alverne,
27983,BR,17,Alagoa Nova,
27984,BR,21,Paraíba Do Sul,
27985,BR,23,Arroio Grande,
27986,BR,18,Floraí,
27987,BR,27,Arealva,
27988,BR,27,Natividade Da Serra,
27989,BR,25,Pacheco,
27990,BR,21,Carrapato,
27991,BR,18,Cruz Machado,
27992,BR,26,Otacílio Costa,
27993,BR,14,Nobres,
27994,BR,6,Pacatuba,
27995,BR,21,Paracambi,
27996,BR,30,Serra Talhada,
27997,BR,5,Coração De Maria,
27998,BR,8,Vargem Alta,
27999,BR,15,Bela Cruz,
28000,BR,17,Rio Tinto,
28001,BR,26,Xaxim,
28002,BR,6,Itaitinga,
28003,BR,15,Presidente Olegário,
28004,BR,15,Peregrino,
28005,BR,27,Altinópolis,
28006,BR,27,Junqueirópolis,
28007,BR,27,Viradouro,
28008,BR,15,Conselheiro Pena,
28009,BR,8,Águas Claras,
28010,BR,30,Araçoiaba,
28011,BR,30,São Lourenço Da Mata,
28012,BR,23,Pinheiro Machado,
28013,BR,13,Chapadão,
28014,BR,15,Espera Feliz,
28015,BR,6,Senador Pompeu,
28016,BR,21,Pinheiral,
28017,BR,5,Nova Viçosa,
28018,BR,27,Pirangi,
28019,BR,22,Canudos,
28020,BR,6,Boa Viagem,
28021,BR,6,Tamboril,
28022,BR,6,Independência,
28023,BR,5,Areial,
28024,BR,15,São João Do Oriente,
28025,BR,27,Cesário Lange,
28026,BR,5,Seguro,
28027,BR,15,Piraúba,
28028,BR,15,Tiros,
28029,BR,18,Jataìzinho,
28030,BR,15,Conceição Do Rio Verde,
28031,BR,27,Bananal,
28032,BR,8,Mimoso Do Sul,
28033,BR,16,São Miguel Do Guamá,
28034,BR,5,Aratuba,
28035,BR,5,Coaraci,
28036,BR,15,Ubaporanga,
28037,BR,6,Caririaçu,
28038,BR,15,Conceição Do Mato Dentro,
28039,BR,24,São Sebastião,
28040,BR,1,Senador Guiomard,
28041,BR,20,Brasa,
28042,BR,18,Wenceslau Braz,
28043,BR,26,Itá,
28044,BR,29,Santa Helena De Goiás,
28045,BR,11,Maracaju,
28046,BR,21,Copacabana,
28047,BR,6,Ipu,
28048,BR,5,Barra Do Pote,
28049,BR,27,Mesquita,
28050,BR,11,Campo Verde,
28051,BR,26,Correia Pinto,
28052,BR,11,Campanário,
28053,BR,1,Tarauacá,
28054,BR,5,Una,
28055,BR,29,Itapuranga,
28056,BR,27,Iguape,
28057,BR,15,Central De Minas,
28058,BR,29,Montividiu,
28059,BR,29,Rio Verde,
28060,BR,27,Ribeirão Branco,
28061,BR,29,Areião,
28062,BR,29,Caçu,
28063,BR,23,Faxinal Do Soturno,
28064,BR,23,Nova Palma,
28065,BR,27,São Miguel Paulista,
28066,BR,5,Pará,
28067,BR,21,Areal,
28068,BR,21,Macuco,
28069,BR,5,Inhambupe,
28070,BR,21,Itabapoana,
28071,BR,23,General Câmara,
28072,BR,18,São José Da Boa Vista,
28073,BR,18,Diamante,
28074,BR,26,Ascurra,
28075,BR,29,Americano Do Brasil,
28076,BR,11,Fortaleza,
28077,BR,15,Itapagipe,
28078,BR,15,Capinópolis,
28079,BR,8,Itaguaçu,
28080,BR,15,Brasópolis,
28081,BR,6,Morada Nova,
28082,BR,27,Piracaia,
28083,BR,27,Herculândia,
28084,BR,28,Propriá,
28085,BR,21,Mesquita,
28086,BR,22,Jaçanã,
28087,BR,28,Simão Dias,
28088,BR,15,Itueta,
28089,BR,15,Sabinópolis,
28090,BR,26,Frias,
28091,BR,26,Imaruí,
28092,BR,26,Ouro,
28093,BR,14,Primavera,
28094,BR,21,Engenho De Dentro,
28095,BR,15,Carmo Do Paranaíba,
28096,BR,17,Pedra Lavrada,
28097,BR,5,Casa Nova,
28098,BR,15,Tarumirim,
28099,BR,15,Amarantina,
28100,BR,27,Roseira,
28101,BR,27,Santa Cândida,
28102,BR,27,Rio Afonso,
28103,BR,27,Floreal,
28104,BR,27,São Bento Do Sapucaí,
28105,BR,23,Três Coroas,
28106,BR,14,Sapèzal,
28107,BR,18,Ângulo,
28108,BR,18,Terra Rica,
28109,BR,18,Santa Fé,
28110,BR,29,Orizona,
28111,BR,11,Jardim,
28112,BR,17,Mamanguape,
28113,BR,16,Soure,
28114,BR,13,Chapadinha,
28115,BR,21,Sana,
28116,BR,27,Turiúba,
28117,BR,27,Pedra Bela,
28118,BR,21,Cardoso Moreira,
28119,BR,15,Caldas,
28120,BR,27,Tarabaí,
28121,BR,27,Santa Lúcia,
28122,BR,23,Santo Antônio Da Patrulha,
28123,BR,22,Felipe Guerra,
28124,BR,5,Belmonte,
28125,BR,30,Mirandiba,
28126,BR,30,São José Da Coroa Grande,
28127,BR,15,Aricanduva,
28128,BR,17,Areial,
28129,BR,20,Piripiri,
28130,BR,5,Dias D'avila,
28131,BR,21,Quissamã,
28132,BR,21,Deodoro,
28133,BR,29,Posse,
28134,BR,15,Santana Do Jacaré,
28135,BR,15,Bandeira Do Sul,
28136,BR,30,Bom Conselho,
28137,BR,30,Tuparetama,
28138,BR,28,Caiçara,
28139,BR,30,Petrolândia,
28140,BR,15,Perdizes,
28141,BR,23,Roque Gonzales,
28142,BR,8,Anchieta,
28143,BR,15,Tombos,
28144,BR,5,Buerarema,
28145,BR,21,Bangu,
28146,BR,20,Água Branca,
28147,BR,21,Iguaçu,
28148,BR,5,Caetité,
28149,BR,15,Carmo Do Cajuru,
28150,BR,13,Pindaré-mirim,
28151,BR,15,Piranguinho,
28152,BR,6,Uruburetama,
28153,BR,6,Carnaubal,
28154,BR,18,Francisco Alves,
28155,BR,5,Fátima,
28156,BR,15,Itamarandiba,
28157,BR,30,Ouricuri,
28158,BR,27,São Lourenço Da Serra,
28159,BR,29,Nazário,
28160,BR,29,Caturaí,
28161,BR,18,Joaquim Távora,
28162,BR,5,Maracás,
28163,BR,20,Oeiras,
28164,BR,5,Ruy Barbosa,
28165,BR,29,Cabeceiras,
28166,BR,31,Paraíso Do Tocantins,
28167,BR,22,Porto Do Mangue,
28168,BR,18,Ipiranga,
28169,BR,27,Lindóia,
28170,BR,27,Cananéia,
28171,BR,30,Pesqueira,
28172,BR,14,Guiratinga,
28173,BR,18,Colorado,
28174,BR,23,Tapera,
28175,BR,26,Palmitos,
28176,BR,5,Paripe,
28177,BR,27,Mineiros Do Tietê,
28178,BR,14,Mato Grosso,
28179,BR,24,Rondônia,
28180,BR,23,Cotiporã,
28181,BR,23,Arroio Dos Ratos,
28182,BR,29,Niquelândia,
28183,BR,15,Sobrália,
28184,BR,8,Rio Novo Do Sul,
28185,BR,8,Cristal,
28186,BR,28,Umbaúba,
28187,BR,20,São Raimundo Nonato,
28188,BR,5,Apuarema,
28189,BR,5,Mascote,
28190,BR,29,Palmeiras De Goiás,
28191,BR,23,Antônio Prado,
28192,BR,23,Piratini,
28193,BR,18,Cândido De Abreu,
28194,BR,23,Agudo,
28195,BR,22,Três Marias,
28196,BR,27,Nuporanga,
28197,BR,21,Ramos,
28198,BR,17,Arara,
28199,BR,15,Açucena,
28200,BR,15,Carmo De Minas,
28201,BR,15,Monte Verde,
28202,BR,8,Baixo Guandu,
28203,BR,23,Casca,
28204,BR,26,Pouso Redondo,
28205,BR,26,Garuva,
28206,BR,26,Piçarras,
28207,BR,26,Nova Trento,
28208,BR,27,Pacaembu,
28209,BR,28,Muribeca,
28210,BR,6,Meruoca,
28211,BR,6,Aurora,
28212,BR,16,Vicente,
28213,BR,22,Nísia Floresta,
28214,BR,27,Várzea,
28215,BR,22,Recanto,
28216,BR,31,Babaçulândia,
28217,BR,23,Progresso,
28218,BR,16,Nova Timboteua,
28219,BR,27,Saltinho,
28220,BR,27,Salto De Pirapora,
28221,BR,26,Armazém,
28222,BR,5,Ubaitaba,
28223,BR,22,Areia Branca,
28224,BR,15,Perdigão,
28225,BR,27,Iacanga,
28226,BR,26,Botuverá,
28227,BR,15,Bueno Brandão,
28228,BR,27,Paraíso,
28229,BR,4,Borba,
28230,BR,18,Pinhalão,
28231,BR,26,Siderópolis,
28232,BR,15,Santana De Cataguases,
28233,BR,27,Guareí,
28234,BR,14,Campo Novo,
28235,BR,14,Arenápolis,
28236,BR,5,Canudos,
28237,BR,30,Feira Nova,
28238,BR,15,Capitólio,
28239,BR,22,Cruzeta,
28240,BR,28,Pôrto Da Fôlha,
28241,BR,18,São Carlos Do Ivaí,
28242,BR,23,Capão Grande,
28243,BR,23,Morro Reuter,
28244,BR,15,Turmalina,
28245,BR,1,Progresso,
28246,BR,15,Antônio Carlos,
28247,BR,2,Campo Alegre,
28248,BR,5,Ipirá,
28249,BR,5,Ibotirama,
28250,BR,16,Tracuateua,
28251,BR,18,Pontal Do Paraná,
28252,BR,27,Sales Oliveira,
28253,BR,5,Itambé,
28254,BR,6,Crateús,
28255,BR,29,Aporé,
28256,BR,23,Planalto,
28257,BR,16,Cachoeira Do Arari,
28258,BR,23,Restinga Sêca,
28259,BR,15,Serra Dos Aimorés,
28260,BR,16,Belterra,
28261,BR,26,Rodeio,
28262,BR,27,Piquete,
28263,BR,5,Bomfim,
28264,BR,18,Porecatu,
28265,BR,23,Cândido Godói,
28266,BR,26,Taió,
28267,BR,27,Gavião Peixoto,
28268,BR,27,Salto Grande,
28269,BR,6,Eusébio,
28270,BR,29,Bonfinópolis,
28271,BR,18,Corbélia,
28272,BR,6,Inhuporanga,
28273,BR,23,Pântano Grande,
28274,BR,27,Igaraçu Do Tietê,
28275,BR,15,Munhoz,
28276,BR,22,Tibau,
28277,BR,15,Nova Ponte,
28278,BR,27,São Francisco Xavier,
28279,BR,5,Ibicaraí,
28280,BR,15,Iturama,
28281,BR,6,Itarema,
28282,BR,27,Guaraçaí,
28283,BR,15,Araponga,
28284,BR,15,Periquito,
28285,BR,13,Novo,
28286,BR,22,Pedro Velho,
28287,BR,26,Iomerê,
28288,BR,29,Aragarças,
28289,BR,15,Luisburgo,
28290,BR,27,Santa Mercedes,
28291,BR,6,Trairi,
28292,BR,30,Brejo Da Madre De Deus,
28293,BR,17,Queimadas,
28294,BR,30,Cupira,
28295,BR,15,Brejaúba,
28296,BR,27,Coroados,
28297,BR,15,Entre Rios De Minas,
28298,BR,15,Rodeiro,
28299,BR,6,Solonópole,
28300,BR,6,Jericoacoara,
28301,BR,29,Piranhas,
28302,BR,5,Ibititá,
28303,BR,11,Bonito,
28304,BR,15,Buritizeiro,
28305,BR,18,Chopinzinho,
28306,BR,26,Gravatal,
28307,BR,23,São Francisco De Paula,
28308,BR,11,Laguna,
28309,BR,15,Espinosa,
28310,BR,23,São Francisco De Assis,
28311,BR,14,Itiquira,
28312,BR,18,Centenário Do Sul,
28313,BR,8,Bom Jesus Do Norte,
28314,BR,18,Rio Negro,
28315,BR,16,Abaetetuba,
28316,BR,13,Mirinzal,
28317,BR,6,Ubajara,
28318,BR,30,Bom Jardim,
28319,BR,21,Leblon,
28320,BR,15,Virginópolis,
28321,BR,28,Santo Amaro Das Brotas,
28322,BR,29,São Luís De Montes Belos,
28323,BR,1,Sena Madureira,
28324,BR,18,Nova Londrina,
28325,BR,27,Santo Antônio Do Pinhal,
28326,BR,15,São João Evangelista,
28327,BR,27,Patrocínio Paulista,
28328,BR,8,Guaçuí,
28329,BR,13,Urbano Santos,
28330,BR,29,Aragoiânia,
28331,BR,27,Samambaia,
28332,BR,15,Inconfidentes,
28333,BR,27,Cosmorama,
28334,BR,6,Rio Verde De Mato Grosso,
28335,BR,30,Parnamirim,
28336,BR,5,Riachão Do Jacuípe,
28337,BR,15,Santa Vitória,
28338,BR,15,Carrancas,
28339,BR,27,Guaianazes,
28340,BR,27,Santa Rita Do Passa Quatro,
28341,BR,21,Arcádia,
28342,BR,5,Lajes,
28343,BR,30,Lagoa Do Carro,
28344,BR,22,Baraúna,
28345,BR,21,Pilares,
28346,BR,2,Inhapi,
28347,BR,15,Dom Caváti,
28348,BR,15,Cassiano,
28349,BR,27,Iacri,
28350,BR,22,Alexandria,
28351,BR,30,São José Do Belmonte,
28352,BR,2,Cajueiro,
28353,BR,26,Jaborá,
28354,BR,18,Terezina,
28355,BR,8,Rio De Janeiro,
28356,BR,15,Passa Tempo,
28357,BR,23,Terra De Areia,
28358,BR,15,Abre Campo,
28359,BR,5,Barra Funda,
28360,BR,27,Areiópolis,
28361,BR,5,Itacaré,
28362,BR,27,Águas De São Pedro,
28363,BR,23,Encruzilhada Do Sul,
28364,BR,18,Sabáudia,
28365,BR,21,Jacarepaguá,
28366,BR,11,Rochedo,
28367,BR,29,Mineiros,
28368,BR,27,Populina,
28369,BR,6,Jaguaruana,
28370,BR,5,Caravelas,
28371,BR,26,Grão Pará,
28372,BR,26,Jaguaruna,
28373,BR,29,Leopoldo De Bulhões,
28374,BR,29,Rio Verde De Mato Grosso,
28375,BR,29,Edéia,
28376,BR,23,Seberi,
28377,BR,15,Jampruca,
28378,BR,5,Alto,
28379,BR,26,São Bonifácio,
28380,BR,15,Catas Altas,
28381,BR,15,Guimarânia,
28382,BR,18,Tomasina,
28383,BR,23,Capão Do Leão,
28384,BR,14,Barra Do Bugres,
28385,BR,26,Piratuba,
28386,BR,27,Serra Azul,
28387,BR,15,Palma,
28388,BR,18,Pato Bragado,
28389,BR,18,Santa Mariana,
28390,BR,27,São Miguel Arcanjo,
28391,BR,13,Estreito,
28392,BR,18,Campina Da Lagoa,
28393,BR,5,Camassary,
28394,BR,30,Caetés,
28395,BR,6,Limoeiro Do Norte,
28396,BR,18,Palmas,
28397,BR,15,Vazante,
28398,BR,27,Mirante Do Paranapanema,
28399,BR,15,Itanhomi,
28400,BR,15,Itapiruna,
28401,BR,21,Lumiar,
28402,BR,22,João Câmara,
28403,BR,11,Invernadinha,
28404,BR,27,Dourado,
28405,BR,14,Nova Alvorada,
28406,BR,24,Cujubim,
28407,BR,18,Verê,
28408,BR,15,Monte Sião,
28409,BR,15,Abadia Dos Dourados,
28410,BR,27,Rifaina,
28411,BR,27,Itobi,
28412,BR,5,Santa Maria Da Vitória,
28413,BR,15,Pedrinópolis,
28414,BR,8,João Neiva,
28415,BR,15,Pôrto Velho,
28416,BR,26,Alfredo Wagner,
28417,BR,23,Vila Flores,
28418,BR,18,São Pedro Do Ivaí,
28419,BR,15,Capelinha,
28420,BR,26,Jacinto Machado,
28421,BR,18,Cêrro Azul,
28422,BR,27,Pires,
28423,BR,6,Icó,
28424,BR,18,Sengés,
28425,BR,18,Alvorada Do Sul,
28426,BR,29,Brazabrantes,
28427,BR,30,Venceslau,
28428,BR,4,Novo Airão,
28429,BR,18,Carlópolis,
28430,BR,7,Paranoá,
28431,BR,21,São João Da Barra,
28432,BR,31,Xambioá,
28433,BR,23,Catuípe,
28434,BR,27,Saúde,
28435,BR,18,Leópolis,
28436,BR,15,Pocrane,
28437,BR,15,Recreio,
28438,BR,27,Lourdes,
28439,BR,27,Guarantã,
28440,BR,28,Boquim,
28441,BR,18,Segrêdo,
28442,BR,26,Herciliópolis,
28443,BR,26,Herval,
28444,BR,18,Guapirama,
28445,BR,18,Barra Do Jacaré,
28446,BR,27,Ribeirão Corrente,
28447,BR,2,Coqueiro Sêco,
28448,BR,15,Lagoa Dourada,
28449,BR,15,Araçuaí,
28450,BR,15,Pratápolis,
28451,BR,2,Palmeira Dos Índios,
28452,BR,5,Corumbá De Goiás,
28453,BR,22,São Tomé,
28454,BR,30,Toritama,
28455,BR,27,Cajati,
28456,BR,18,Altônia,
28457,BR,18,Campo Magro,
28458,BR,31,Campos Lindos,
28459,BR,31,Ananás,
28460,BR,5,Mirangaba,
28461,BR,15,Cordisburgo,
28462,BR,27,Ribeira,
28463,BR,27,Nantes,
28464,BR,15,Monte Azul,
28465,BR,18,Lupionópolis,
28466,BR,15,Aimorés,
28467,BR,6,Alferes,
28468,BR,20,Cariré,
28469,BR,20,Uruçuí,
28470,BR,16,Salinópolis,
28471,BR,30,Rio Formoso,
28472,BR,5,Itaetê,
28473,BR,5,Lapão,
28474,BR,5,Floresta Azul,
28475,BR,30,Santa Maria Da Boa Vista,
28476,BR,20,Esperantina,
28477,BR,6,Brejo Santo,
28478,BR,22,São Paulo Do Potengi,
28479,BR,5,Itagibá,
28480,BR,23,Estância Mimosa,
28481,BR,11,Coxim,
28482,BR,15,Monte Santo De Minas,
28483,BR,21,Botafogo,
28484,BR,23,Machadinho,
28485,BR,31,Guaraí,
28486,BR,26,Bom Retiro,
28487,BR,18,Doutor Camargo,
28488,BR,27,Jaguari,
28489,BR,13,Pio Xii,
28490,BR,27,Caiuá,
28491,BR,5,Capim Grosso,
28492,BR,26,Presidente Getúlio,
28493,BR,31,Colinas Do Tocantins,
28494,BR,6,Granja,
28495,BR,5,Grande,
28496,BR,18,Mamborê,
28497,BR,29,Cachoeira Dourada,
28498,BR,27,Mendonça,
28499,BR,21,Xerém,
28500,BR,27,Riacho Grande,
28501,BR,26,São José Do Cedro,
28502,BR,15,Rio Paranaíba,
28503,BR,27,Jurucê,
28504,BR,27,Pedro De Toledo,
28505,BR,5,Santo Estêvão,
28506,BR,27,Bom Fim,
28507,BR,28,Barra Dos Coqueiros,
28508,BR,27,Jacupiranga,
28509,BR,27,Tejupá,
28510,BR,29,Britânia,
28511,BR,13,Lago Da Pedra,
28512,BR,21,Pendotiba,
28513,BR,17,Riachão Do Bacamarte,
28514,BR,15,Bandeira,
28515,BR,15,Joaíma,
28516,BR,18,Grandes Rios,
28517,BR,15,Rio Piracicaba,
28518,BR,27,Sud Mennucci,
28519,BR,27,Avanhandava,
28520,BR,15,Ferros,
28521,BR,5,Maiquinique,
28522,BR,21,Porciúncula,
28523,BR,21,Goitacazes,
28524,BR,21,Cordeiro,
28525,BR,5,Ituberá,
28526,BR,21,Coelho Da Rocha,
28527,BR,23,Barra Do Rio Azul,
28528,BR,15,Iapu,
28529,BR,15,Volta Grande,
28530,BR,27,Tabapuã,
28531,BR,26,Pinhalzinho,
28532,BR,18,Rio Branco Do Sul,
28533,BR,29,Mossâmedes,
28534,BR,5,Cícero Dantas,
28535,BR,5,Sento Sé,
28536,BR,5,Morro Do Chapéu,
28537,BR,27,Palma,
28538,BR,30,Vertentes,
28539,BR,26,Trombudo Central,
28540,BR,26,Canelinha,
28541,BR,26,Turvo,
28542,BR,23,Fontoura Xavier,
28543,BR,6,Canoa Quebrada,
28544,BR,23,Santa Clara,
28545,BR,18,Goio-erê,
28546,BR,16,Cametá,
28547,BR,16,Óbidos,
28548,BR,15,Maria Da Fé,
28549,BR,5,Conceição Da Feira,
28550,BR,27,Parelheiros,
28551,BR,22,Ponta Negra,
28552,BR,30,Itaquitinga,
28553,BR,27,Quintana,
28554,BR,15,Raposos,
28555,BR,27,Clementina,
28556,BR,30,Orocó,
28557,BR,17,Massaranduba,
28558,BR,27,Rincão,
28559,BR,15,Miraí,
28560,BR,26,Arroio Do Silva,
28561,BR,18,Uraí,
28562,BR,31,Serranópolis,
28563,BR,6,Ceará,
28564,BR,16,São Vincente,
28565,BR,27,Lagôa,
28566,BR,22,Goianinha,
28567,BR,27,Valentim Gentil,
28568,BR,18,Paulo Frontin,
28569,BR,15,Ipuiúna,
28570,BR,15,Ibiraci,
28571,BR,30,Paraíba,
28572,BR,18,Marumbi,
28573,BR,21,Piratininga,
28574,BR,11,Pedro Gomes,
28575,BR,27,Urânia,
28576,BR,30,Santa Cruz Do Capibaribe,
28577,BR,17,Pedras De Fogo,
28578,BR,15,Gouveia,
28579,BR,15,Ibiá,
28580,BR,6,Viçosa Do Ceará,
28581,BR,5,Correntina,
28582,BR,31,Almas,
28583,BR,26,Apiúna,
28584,BR,26,Coronel Freitas,
28585,BR,27,São Sebastião Da Grama,
28586,BR,14,Novo Mundo,
28587,BR,23,Feliz,
28588,BR,18,Pôrto Rico,
28589,BR,18,Nossa Senhora Das Graças,
28590,BR,8,Ecoporanga,
28591,BR,29,Paraúna,
28592,BR,31,Pedro Afonso,
28593,BR,18,Balsa Nova,
28594,BR,26,Quilombo,
28595,BR,27,Palmeiras,
28596,BR,22,Nova Cruz,
28597,BR,6,Pindoretama,
28598,BR,23,Alpestre,
28599,BR,23,Manoel Viana,
28600,BR,23,Toropi,
28601,BR,26,Rio Do Campo,
28602,BR,27,Itaí,
28603,BR,21,Jacaré,
28604,BR,8,Montanha,
28605,BR,15,Rio Acima,
28606,BR,22,São José De Mipibu,
28607,BR,5,Jaguaquara,
28608,BR,15,Papagaios,
28609,BR,15,Moema,
28610,BR,2,Bôca Da Mata,
28611,BR,27,Irapuã,
28612,BR,21,Santa Maria Madalena,
28613,BR,30,Quipapá,
28614,BR,5,Ubatã,
28615,BR,26,Morro Grande,
28616,BR,18,Jaguapitã,
28617,BR,23,São José Do Norte,
28618,BR,18,Candói,
28619,BR,18,Paraíso Do Norte,
28620,BR,15,Campos Altos,
28621,BR,15,Campo Florido,
28622,BR,15,Campina Verde,
28623,BR,27,Aramina,
28624,BR,27,Torrinha,
28625,BR,17,Manaíra,
28626,BR,14,Acorizal,
28627,BR,2,Coité Do Nóia,
28628,BR,2,Feira Grande,
28629,BR,23,Putinga,
28630,BR,30,Itapetim,
28631,BR,16,Bujaru,
28632,BR,20,Castelo Do Piauí,
28633,BR,8,Caparaó,
28634,BR,21,Branco,
28635,BR,26,Pedras Grandes,
28636,BR,23,Campo Novo,
28637,BR,15,Estrêla Do Sul,
28638,BR,20,José De Freitas,
28639,BR,18,Iretama,
28640,BR,30,Barreiros,
28641,BR,18,São Jorge Do Ivaí,
28642,BR,27,Lavrinhas,
28643,BR,6,Jaguaretama,
28644,BR,23,Guarani Das Missões,
28645,BR,15,Várzea Da Palma,
28646,BR,18,Santo Antônio Do Paraiso,
28647,BR,21,Itaipuaçu,
28648,BR,21,Gávea,
28649,BR,11,Ladário,
28650,BR,26,Pinheiro Prêto,
28651,BR,27,Guzolândia,
28652,BR,21,Tijuca,
28653,BR,23,Palmares Do Sul,
28654,BR,6,Caldas,
28655,BR,23,Arambaré,
28656,BR,23,Barra Do Quaraí,
28657,BR,29,Vianópolis,
28658,BR,31,Fortaleza Do Tabocão,
28659,BR,29,Hidrolina,
28660,BR,26,Papanduva,
28661,BR,21,Comendador Levy Gasparian,
28662,BR,6,Maranguape,
28663,BR,15,Japaraíba,
28664,BR,8,Conceição Da Barra,
28665,BR,11,Campo,
28666,BR,27,Analândia,
28667,BR,4,Hamburgo,
28668,BR,4,Coari,
28669,BR,21,Duas Barras,
28670,BR,21,Santo Antônio De Pádua,
28671,BR,15,Chile,
28672,BR,5,Wagner,
28673,BR,17,Alagoinha,
28674,BR,27,Arcadas,
28675,BR,28,Canindé De São Francisco,
28676,BR,28,Carira,
28677,BR,6,Quixeré,
28678,BR,5,Itapoã,
28679,BR,18,Bela Vista Do Paraíso,
28680,BR,15,Conceição Dos Ouros,
28681,BR,15,Iguatama,
28682,BR,22,Pendências,
28683,BR,15,Arceburgo,
28684,BR,6,Jaguaribe,
28685,BR,5,Adustina,
28686,BR,23,Lavras Do Sul,
28687,BR,29,Amorinópolis,
28688,BR,18,Piraí Do Sul,
28689,BR,17,Tavares,
28690,BR,17,Juàzeirinho,
28691,BR,20,Itaueira,
28692,BR,20,Altos,
28693,BR,27,Bento De Abreu,
28694,BR,6,Santa Quitéria,
28695,BR,17,Pombal,
28696,BR,23,Paraí,
28697,BR,5,Baixa Grande,
28698,BR,6,Groaíras,
28699,BR,5,Paramirim,
28700,BR,15,Dores De Campos,
28701,BR,15,Azurita,
28702,BR,27,Santo Antônio Do Jardim,
28703,BR,29,Joviânia,
28704,BR,23,Marcelino Ramos,
28705,BR,17,Princesa Isabel,
28706,BR,5,Piritiba,
28707,BR,27,Sete Barras,
28708,BR,29,Santa Rita Do Araguaia,
28709,BR,30,Vicência,
28710,BR,26,Guarda,
28711,BR,6,Ipueiras,
28712,BR,27,Oriente,
28713,BR,17,Cachoeira Dos Índios,
28714,BR,15,Tocantins,
28715,BR,21,Irajá,
28716,BR,26,Vidal Ramos,
28717,BR,23,Selbach,
28718,BR,27,Rafard,
28719,BR,4,Lábrea,
28720,BR,5,Itapé,
28721,BR,27,Fernão,
28722,BR,15,Canápolis,
28723,BR,6,Irauçuba,
28724,BR,27,Anhembi,
28725,BR,26,Faxinal Dos Guedes,
28726,BR,15,Ribeirão Vermelho,
28727,BR,15,Pedralva,
28728,BR,15,Curral De Dentro,
28729,BR,27,Dobrada,
28730,BR,27,Estiva,
28731,BR,26,Ibiam,
28732,BR,4,Novo Aripuanã,
28733,BR,30,Camocim De São Félix,
28734,BR,15,Resende Costa,
28735,BR,15,Nova Resende,
28736,BR,5,Mucugê,
28737,BR,5,Canarana,
28738,BR,14,Araguaiana,
28739,BR,26,Urubici,
28740,BR,4,Barcelos,
28741,BR,15,Gonzaga,
28742,BR,27,Taiuva,
28743,BR,15,Ervália,
28744,BR,15,Pompeu,
28745,BR,5,Itanhém,
28746,BR,29,Marzagão,
28747,BR,17,São João Do Rio Do Peixe,
28748,BR,13,Santa Luzia,
28749,BR,15,Poço Fundo,
28750,BR,27,Guaianases,
28751,BR,6,São João Do Jaguaribe,
28752,BR,27,Parapuã,
28753,BR,30,Serrita,
28754,BR,17,Puxinanã,
28755,BR,15,Ibiracatu,
28756,BR,15,Belo Vale,
28757,BR,27,Jambeiro,
28758,BR,26,Campo Belo Do Sul,
28759,BR,11,Nioaque,
28760,BR,18,Tijucas Do Sul,
28761,BR,5,Cafarnaum,
28762,BR,15,Vermelho Novo,
28763,BR,15,Rio Pardo De Minas,
28764,BR,5,Uibaí,
28765,BR,22,Itaú,
28766,BR,5,Jucurucu,
28767,BR,18,Santana Do Itararé,
28768,BR,27,São Pedro Do Turvo,
28769,BR,21,Vila Militar,
28770,BR,1,Xapuri,
28771,BR,27,Tapiratiba,
28772,BR,27,Boracéia,
28773,BR,23,Jaguari,
28774,BR,31,Cariri Do Tocantins,
28775,BR,11,Paranhos,
28776,BR,7,Sobradinho,
28777,BR,24,Rio Branco,
28778,BR,18,Pôrto Amazonas,
28779,BR,31,Aliança Do Tocantins,
28780,BR,14,São José,
28781,BR,15,Afonso,
28782,BR,5,Salinas Da Margarida,
28783,BR,15,Salvador,
28784,BR,15,Astolfo Dutra,
28785,BR,18,São João Do Caiuá,
28786,BR,26,Campo Alegre,
28787,BR,27,Santana,
28788,BR,15,Cachoeira Dourada,
28789,BR,5,Itaguaçu,
28790,BR,27,Santa Barbara,
28791,BR,7,Guará,
28792,BR,30,Riacho Das Almas,
28793,BR,30,Xexéu,
28794,BR,21,Valença,
28795,BR,24,Presidente Médici,
28796,BR,18,Floresta,
28797,BR,23,Paulo Bento,
28798,BR,27,Ribeirão,
28799,BR,20,Cascavel,
28800,BR,15,Brás,
28801,BR,30,Bonito,
28802,BR,30,São Caetano,
28803,BR,5,Recife,
28804,BR,23,Cruzeiro Do Sul,
28805,BR,18,Santa Helena,
28806,BR,26,Sangão,
28807,BR,26,Rio Fortuna,
28808,BR,17,Juru,
28809,BR,17,Coremas,
28810,BR,13,Vargem Grande,
28811,BR,27,Divinolândia,
28812,BR,15,Cristais,
28813,BR,16,Vigia,
28814,BR,21,Sapucaia,
28815,BR,5,Ibiassucê,
28816,BR,31,Fortaleza,
28817,BR,15,Jambeiro,
28818,BR,29,Aurilândia,
28819,BR,23,Àrvorezinha,
28820,BR,18,Guaíra,
28821,BR,14,Santo Antônio Do Leverger,
28822,BR,6,Acopiara,
28823,BR,27,Cajobi,
28824,BR,15,Teófilo,
28825,BR,28,Itabi,
28826,BR,21,Trajano De Morais,
28827,BR,31,Salvador,
28828,BR,15,Guapé,
28829,BR,23,Santo Cristo,
28830,BR,23,Alvorada,
28831,BR,27,Taguaí,
28832,BR,22,São Paulo,
28833,BR,26,Cunha,
28834,BR,26,Rio Negro,
28835,BR,5,Ribeira Do Pombal,
28836,BR,2,Colônia Leopoldina,
28837,BR,5,Uauá,
28838,BR,5,Irará,
28839,BR,5,Valente,
28840,BR,5,Pau D'arco,
28841,BR,15,Pimenta,
28842,BR,15,Entre Fôlhas,
28843,BR,1,Feijó,
28844,BR,13,Marco,
28845,BR,5,Guaratinga,
28846,BR,18,Mundo Novo,
28847,BR,18,Capanema,
28848,BR,23,Eugênio De Castro,
28849,BR,14,Rio Claro,
28850,BR,14,Mutum,
28851,BR,17,São Paulo,
28852,BR,24,Teixeirópolis,
28853,BR,6,Capistrano,
28854,BR,17,Destêrro,
28855,BR,11,Bandeirantes,
28856,BR,23,Candiota,
28857,BR,23,Quinze De Novembro,
28858,BR,22,Morada,
28859,BR,29,Rialma,
28860,BR,11,Rio Negro,
28861,BR,18,Jardim Alegre,
28862,BR,26,Campo Erê,
28863,BR,29,Crixás,
28864,BR,18,São João,
28865,BR,4,Apuí,
28866,BR,26,Cocal,
28867,BR,18,Siqueira Campos,
28868,BR,23,Riozinho,
28869,BR,18,Contenda,
28870,BR,21,Méier,
28871,BR,18,Santo Antônio Do Sudoeste,
28872,BR,2,Dois Riachos,
28873,BR,18,Tuneiras Do Oeste,
28874,BR,21,Espírito Santo,
28875,BR,15,Cachoeira Do Campo,
28876,BR,31,Ipueiras,
28877,BR,17,São Miguel De Taipu,
28878,BR,23,Campos Borges,
28879,BR,15,Serra,
28880,BR,21,Horizonte,
28881,BR,31,Colméia,
28882,BR,14,Nova Olímpia,
28883,BR,16,Santana,
28884,BR,22,São João Do Sabugi,
28885,BR,20,Centro,
28886,BR,5,Glória,
28887,BR,13,São Luiz,
28888,BR,5,Flamengo,
28889,BR,14,Lagoa,
28890,BR,23,Santa Terezinha,
28891,BR,18,Iguaçu,
28892,BR,5,São Félix,
28893,BR,23,Bom Princípio,
28894,BR,4,Vila Rica,
28895,BR,18,Turvo,
28896,BR,18,Santa Tereza,
28897,BR,14,Paraíso,
28898,BR,5,Antônio,
28899,BR,29,José,
28900,BR,8,Espírito Santo,
28901,BR,13,Pinheiros,
28902,BR,18,Coelho,
28903,BR,15,Neves,
28904,BR,30,Agostinho,
28905,BR,17,Campina,
28906,BR,29,Bandeirante,
28907,BR,30,Pernambuco,
28908,BR,5,Amazonas,
28909,BR,16,Coari,
28910,BR,20,Itaperu,
28911,BR,21,Cabuçu,
28912,BR,24,Belém,
28913,BR,23,Vila Elza,
28914,BR,21,Conceição De Macabu,
28915,BR,14,João Pinheiro,
28916,BR,26,Capìvari,
28917,BR,18,Ouro Verde,
28918,BR,15,Galiléia,
28919,BR,27,Pedrinhas,
28920,BR,27,Alegre,
28921,BR,16,Recife,
28922,BR,26,Lauro Müller,
28923,BR,23,Bossoroca,
28924,BR,27,Itaporanga,
28925,BR,23,São Vicente Do Sul,
28926,BR,15,Malacacheta,
28927,BR,27,Terra Roxa,
28928,BR,15,Sem Peixe,
28929,BR,14,Boa Vista,
28930,BR,4,Entre Rios,
28931,BR,27,Salesópolis,
28932,BR,21,Rio Das Flores,
28933,BR,6,Potengi,
28934,BR,22,São Miguel Do Gostoso,
28935,BR,15,Santo Antônio Do Grama,
28936,BR,15,Venda Nova,
28937,BR,30,Sanharó,
28938,BR,15,São José,
28939,BR,15,Ouro Fino,
28940,BR,18,Rebouças,
28941,BR,8,Santa Maria,
28942,BR,20,Batalha,
28943,BR,14,Laranjal,
28944,BR,23,Gaurama,
28945,BR,15,Pains,
28946,BR,6,Pires Ferreira,
28947,BR,6,Massapê,
28948,BR,22,Ceará-mirim,
28949,BR,30,Maraial,
28950,BR,18,Rio Branco,
28951,BR,6,Aracoiaba,
28952,BR,8,Valério,
28953,BR,21,Italva,
28954,BR,18,Mourão,
28955,BR,27,Medeiros Neto,
28956,BR,27,Tapiraí,
28957,BR,21,Rio Prêto,
28958,BR,23,Muçum,
28959,BR,2,Atalaia,
28960,BR,2,Flexeiras,
28961,BR,29,Serranópolis,
28962,BR,18,Tamboara,
28963,BR,26,Lebon Régis,
28964,BR,20,São Miguel Do Tapuio,
28965,BR,15,Confins,
28966,BR,6,Salvador,
28967,BR,15,Cruzília,
28968,BR,23,São Pedro,
28969,BR,27,Presidente Alves,
28970,BR,27,Pereiras,
28971,BR,27,Águas Da Prata,
28972,BR,5,Muniz Ferreira,
28973,BR,1,Alto Santo,
28974,BR,8,Paraná,
28975,BR,21,Santa Teresa,
28976,BR,27,Guaimbê,
28977,BR,17,Taperoá,
28978,BR,29,Buriti Alegre,
28979,BR,11,Jauru,
28980,BR,23,Nova Araçá,
28981,BR,5,Teixeira,
28982,BR,27,Fernando Prestes,
28983,BR,27,Cruzália,
28984,BR,18,São Sebastião Da Amoreira,
28985,BR,26,São Carlos,
28986,BR,21,Aguas Lindas,
28987,BR,15,Conceição Do Araxá,
28988,BR,15,Liberdade,
28989,BR,15,Coroaci,
28990,BR,15,Dôres,
28991,BR,15,Araporã,
28992,BR,8,Laranja Da Terra,
28993,BR,15,Coluna,
28994,BR,27,Dumont,
28995,BR,27,Catiguá,
28996,BR,15,Santa Margarida,
28997,BR,21,Icaraí,
28998,BR,23,Higienópolis,
28999,BR,14,Chaves,
29000,BR,26,São Martinho,
29001,BR,24,Manoel,
29002,BR,15,Cristina,
29003,BR,5,Ubaíra,
29004,BR,26,Lontras,
29005,BR,27,Vera Cruz,
29006,BR,30,Santo Agostinho,
29007,BR,27,Coronel Macedo,
29008,BR,26,Massaranduba,
29009,BR,18,Santo Antônio,
29010,BR,15,Setubinha,
29011,BR,30,Gameleira,
29012,BR,16,Ourém,
29013,BR,13,Pedreiras,
29014,BR,5,Moreno,
29015,BR,29,Santa Leopoldina,
29016,BR,11,Fazenda Boleri,
29017,BR,15,Piracema,
29018,BR,15,Inhaúma,
29019,BR,26,Luzerna,
29020,BR,24,São Carlos,
29021,BR,27,Canitar,
29022,BR,27,Paulicéia,
29023,BR,13,Paulo Ramos,
29024,BR,6,Catunda,
29025,BR,30,Itacuruba,
29026,BR,30,São Bento Do Una,
29027,BR,13,Vitória Do Mearim,
29028,BR,11,Campo Formoso,
29029,BR,8,Dores Do Rio Preto,
29030,BR,26,São Miguel,
29031,BR,23,Passo Raso,
29032,BR,18,São Jerônimo Da Serra,
29033,BR,27,Taquaral,
29034,BR,15,Buritis,
29035,BR,28,Poço Verde,
29036,BR,18,Quatiguá,
29037,BR,15,Minduri,
29038,BR,18,Mariluz,
29039,BR,13,Rosário,
29040,BR,6,Nôvo Oriente,
29041,BR,13,Esperantinópolis,
29042,BR,15,Caparaó,
29043,BR,5,Euclides Da Cunha,
29044,BR,5,Acajutiba,
29045,BR,5,Caatiba,
29046,BR,5,Xique-xique,
29047,BR,6,Banabuiú,
29048,BR,6,Hidrolândia,
29049,BR,15,Santa Maria Do Suaçuí,
29050,BR,30,Ipubi,
29051,BR,18,Medeiros,
29052,BR,20,Côcos,
29053,BR,5,Rio De Contas,
29054,BR,5,Côcos,
29055,BR,11,Pôrto Quijarro,
29056,BR,27,Platina,
29057,BR,15,Ipaba,
29058,BR,18,Marmeleiro,
29059,BR,2,Joaquim Gomes,
29060,BR,20,Escada,
29061,BR,8,Mucurici,
29062,BR,15,Guarda Mor,
29063,BR,27,Ribeirão Dos Índios,
29064,BR,16,Sobradinho,
29065,BR,27,Echaporã,
29066,BR,27,Jaci,
29067,BR,5,Curaçá,
29068,BR,27,Monte Castelo,
29069,BR,27,Monte Alegre Do Sul,
29070,BR,27,Itapirapuã,
29071,BR,16,Acará,
29072,BR,27,Estrêla,
29073,BR,21,Campo Grande,
29074,BR,14,Pôrto Velho,
29075,BR,18,Marilândia Do Sul,
29076,BR,23,Capivari,
29077,BR,23,Barão Do Triunfo,
29078,BR,15,São José Do Alegre,
29079,BR,11,Corguinho,
29080,BR,27,Manduri,
29081,BR,17,Mulungu,
29082,BR,21,Ipanema,
29083,BR,20,Guarabira,
29084,BR,28,Riachão Do Dantas,
29085,BR,28,Macambira,
29086,BR,15,Varzelândia,
29087,BR,6,Nova Russas,
29088,BR,18,Figueira,
29089,BR,5,Uruçuca,
29090,BR,15,Romaria,
29091,BR,17,Remígio,
29092,BR,22,Lagoa Nova,
29093,BR,13,Caridade,
29094,BR,6,Alcântaras,
29095,BR,21,Cascadura,
29096,BR,15,Faria Lemos,
29097,BR,6,Forquilha,
29098,BR,26,Nova Veneza,
29099,BR,26,Maracajá,
29100,BR,27,Santa Cruz Da Conceição,
29101,BR,22,Patu,
29102,BR,21,Pavuna,
29103,BR,27,Reginópolis,
29104,BR,18,Guairacá,
29105,BR,27,Getulina,
29106,BR,20,Acre,
29107,BR,15,Congonhal,
29108,BR,15,Cachoeira De Minas,
29109,BR,5,Santa Brígida,
29110,BR,23,Sobradinho,
29111,BR,18,Borrazópolis,
29112,BR,15,Bom Sucesso,
29113,BR,6,Pentecoste,
29114,BR,16,Jacareacanga,
29115,BR,15,Brazópolis,
29116,BR,11,Jacareí,
29117,BR,18,Sulina,
29118,BR,5,Nova Ibiá,
29119,BR,13,Grajaú,
29120,BR,27,Eldorado,
29121,BR,26,Angelina,
29122,BR,15,São José Do Goiabal,
29123,BR,4,Presidente Figueiredo,
29124,BR,5,Cansanção,
29125,BR,22,Rodolfo Fernandes,
29126,BR,15,Naque,
29127,BR,5,Jaíba,
29128,BR,22,Touros,
29129,BR,6,Milagres,
29130,BR,26,Tangará,
29131,BR,18,Querência,
29132,BR,21,Mambucaba,
29133,BR,4,Envira,
29134,BR,15,Itutinga,
29135,BR,20,Paes Landim,
29136,BR,16,Estreito,
29137,BR,15,Ataléia,
29138,BR,16,Tomé-açu,
29139,BR,15,Cássia,
29140,BR,26,Rio Maina,
29141,BR,14,General Carneiro,
29142,BR,27,Pratânia,
29143,BR,15,Descoberto,
29144,BR,15,Tumiritinga,
29145,BR,15,Carbonita,
29146,BR,27,Santo Expedito,
29147,BR,27,Alfredo Marcondes,
29148,BR,27,São Luiz Do Paraitinga,
29149,BR,27,Palestina,
29150,BR,27,Monteiro Lobato,
29151,BR,21,Itaipava,
29152,BR,26,Anchieta,
29153,BR,23,Itaara,
29154,BR,15,Leandro Ferreira,
29155,BR,27,Guaraci,
29156,BR,5,Mutuípe,
29157,BR,22,Major Sales,
29158,BR,6,Mauriti,
29159,BR,27,Inúbia Paulista,
29160,BR,27,Taciba,
29161,BR,27,Vicente De Carvalho,
29162,BR,29,Uruana,
29163,BR,15,Samambaia,
29164,BR,30,Tamandaré,
29165,BR,20,Ipiranga Do Piauí,
29166,BR,15,Prudente De Morais,
29167,BR,15,Delfim Moreira,
29168,BR,26,Guatambu,
29169,BR,26,Descanso,
29170,BR,27,Tuiuti,
29171,BR,2,São José Da Laje,
29172,BR,5,Lajinha,
29173,BR,15,Bom Repouso,
29174,BR,15,Capim Branco,
29175,BR,2,São José Da Tapera,
29176,BR,2,Messias,
29177,BR,15,Madre De Deus De Minas,
29178,BR,15,Pedra Dourada,
29179,BR,15,Santa Cruz De Salinas,
29180,BR,13,Bacurituba,
29181,BR,23,Salvador,
29182,BR,14,Pôrto Alegre,
29183,BR,26,José Boiteux,
29184,BR,5,Licínio De Almeida,
29185,BR,5,Caculé,
29186,BR,29,Itauçu,
29187,BR,27,Mirante,
29188,BR,5,Cumuruxatiba,
29189,BR,23,Viadutos,
29190,BR,13,Dom Pedro,
29191,BR,14,Alto Paraguai,
29192,BR,5,Sapeaçu,
29193,BR,27,Prado,
29194,BR,29,Itarumã,
29195,BR,27,Itaberá,
29196,BR,26,Lacerdópolis,
29197,BR,17,São José De Piranhas,
29198,BR,16,Juruti,
29199,BR,15,Martinho Campos,
29200,BR,5,Lençóis,
29201,BR,27,Vila Mariana,
29202,BR,23,Ciríaco,
29203,BR,21,Imbé,
29204,BR,23,Pareci Novo,
29205,BR,18,Campo Do Tenente,
29206,BR,17,Cuitegi,
29207,BR,30,Lagoa Grande,
29208,BR,22,Lajes,
29209,BR,15,Guaranésia,
29210,BR,5,Barra Do Rocha,
29211,BR,18,Imbaú,
29212,BR,15,Araújos,
29213,BR,15,Vargem Alegre,
29214,BR,18,Pranchita,
29215,BR,26,Erval Velho,
29216,BR,18,Santa Cecília Do Pavão,
29217,BR,18,Santa Isabel Do Ivaí,
29218,BR,18,Amaporã,
29219,BR,13,Centro Novo,
29220,BR,16,Maracanã,
29221,BR,5,Itapebi,
29222,BR,27,Sarutaiá,
29223,BR,27,São Lourenço Do Turvo,
29224,BR,5,Buritirama,
29225,BR,27,Glicério,
29226,BR,27,Macaubal,
29227,BR,31,Planalto,
29228,BR,15,Funilândia,
29229,BR,6,São Paulo,
29230,BR,15,Manhumirim,
29231,BR,15,Jequitinhonha,
29232,BR,15,Rubim,
29233,BR,5,Pilão Arcado,
29234,BR,15,Alto Rio Doce,
29235,BR,5,São Paulo,
29236,BR,5,Pindobaçu,
29237,BR,5,Itororó,
29238,BR,5,Pilar,
29239,BR,15,Poté,
29240,BR,16,Pinheiro,
29241,BR,23,Três Cachoeiras,
29242,BR,8,Alto Rio Novo,
29243,BR,21,São Francisco,
29244,BR,21,Gardênia Azul,
29245,BR,23,Maximiliano De Almeida,
29246,BR,28,Cristinápolis,
29247,BR,27,Ubirajara,
29248,BR,6,Santana Do Acaraú,
29249,BR,11,Três Marias,
29250,BR,17,Bananeiras,
29251,BR,20,Francisco Santos,
29252,BR,27,Barra Do Chapéu,
29253,BR,17,Ingá,
29254,BR,8,Celina,
29255,BR,8,Rive,
29256,BR,6,Belém,
29257,BR,15,Riacho Fundo,
29258,BR,22,Jardim De Piranhas,
29259,BR,15,Claros,
29260,BR,21,Vila São Luís,
29261,BR,15,Dores Do Turvo,
29262,BR,23,Ernestina,
29263,BR,18,Quinta Do Sol,
29264,BR,22,São José Do Campestre,
29265,BR,8,Afonso Cláudio,
29266,BR,6,Missão Velha,
29267,BR,15,Miradouro,
29268,BR,8,Rio Bananal,
29269,BR,28,Carmópolis,
29270,BR,18,Quatro Pontes,
29271,BR,27,Pratinha,
29272,BR,14,São Luis,
29273,BR,18,Ribeirão Claro,
29274,BR,15,Itacambira,
29275,BR,30,Condado,
29276,BR,27,Pirituba,
29277,BR,27,Cruz Das Posses,
29278,BR,15,Cana Verde,
29279,BR,30,Floresta,
29280,BR,6,Reriutaba,
29281,BR,6,Monsenhor Tabosa,
29282,BR,29,Presidente Dutra,
29283,BR,27,Timburi,
29284,BR,15,Porteirinha,
29285,BR,27,Indiana,
29286,BR,18,Cafelândia,
29287,BR,27,Taiaçu,
29288,BR,27,Rinópolis,
29289,BR,15,Corinto,
29290,BR,5,Crisópolis,
29291,BR,30,Tacaimbó,
29292,BR,24,Theobroma,
29293,BR,8,São Gabriel,
29294,BR,1,Plácido De Castro,
29295,BR,4,Atalaia Do Norte,
29296,BR,18,Califórnia,
29297,BR,26,Bela Vista Do Tôldo,
29298,BR,31,Presidente Kennedy,
29299,BR,20,Luís Correia,
29300,BR,5,Cidade,
29301,BR,6,Morrinhos,
29302,BR,2,Traipu,
29303,BR,24,Bom Jesus,
29304,BR,21,Itacuruçá,
29305,BR,16,São Geraldo Do Araguaia,
29306,BR,16,Oriximiná,
29307,BR,15,Mar De Espanha,
29308,BR,6,Quixelô,
29309,BR,31,Miracema Do Tocantins,
29310,BR,26,Paulo Lopes,
29311,BR,2,Viçosa,
29312,BR,4,Fortaleza,
29313,BR,29,Jussara,
29314,BR,15,Nova Módica,
29315,BR,27,João Ramalho,
29316,BR,27,Nazaré Paulista,
29317,BR,29,São Francisco,
29318,BR,21,Pechincha,
29319,BR,23,Sertão,
29320,BR,15,Quintinos,
29321,BR,15,Conceição Do Pará,
29322,BR,27,Avaí,
29323,BR,18,Sertaneja,
29324,BR,15,São Pedro Dos Ferros,
29325,BR,28,Itaporanga,
29326,BR,17,Catolé Do Rocha,
29327,BR,15,Alvinópolis,
29328,BR,11,Formosa,
29329,BR,26,Meleiro,
29330,BR,18,Itambaracá,
29331,BR,2,Belém,
29332,BR,15,Mata Verde,
29333,BR,5,Itiúba,
29334,BR,5,Igrapiúna,
29335,BR,27,Indiaporã,
29336,BR,23,Formigueiro,
29337,BR,15,Feliz,
29338,BR,27,Igaratá,
29339,BR,6,Choró,
29340,BR,26,Anitápolis,
29341,BR,15,Paula Cândido,
29342,BR,15,Fervedouro,
29343,BR,15,Biquinhas,
29344,BR,15,Argirita,
29345,BR,31,Itaguatins,
29346,BR,27,Palmares Paulista,
29347,BR,8,Jacaraípe,
29348,BR,14,Poxoreu,
29349,BR,18,Araruna,
29350,BR,22,Tirol,
29351,BR,31,Miranorte,
29352,BR,27,Joanópolis,
29353,BR,8,Barra Do Itapemirim,
29354,BR,23,Coxilha,
29355,BR,17,Lucena,
29356,BR,15,Peçanha,
29357,BR,15,Divisa Nova,
29358,BR,15,Coimbra,
29359,BR,15,Sapucaia,
29360,BR,21,Aperibé,
29361,BR,23,Itapoã,
29362,BR,27,Tôrre De Pedra,
29363,BR,23,Aceguá,
29364,BR,21,Vila Da Penha,
29365,BR,5,Peixoto,
29366,BR,15,Mirabela,
29367,BR,4,El Marco,
29368,BR,14,Nossa Senhora Do Livramento,
29369,BR,27,Macedônia,
29370,BR,31,Santo Antônio,
29371,BR,18,Guaravera,
29372,BR,27,Altair,
29373,BR,26,São Sebastião,
29374,BR,23,Ipé,
29375,BR,15,Igaratinga,
29376,BR,21,Vila California,
29377,BR,11,Cristal,
29378,BR,27,São Luís Do Paraitinga,
29379,BR,18,Congonhinhas,
29380,BR,30,Janga,
29381,BR,17,Sumé,
29382,BR,23,Brochier,
29383,BR,5,Recanto,
29384,BR,29,Cavalcante,
29385,BR,18,São João Do Triunfo,
29386,BR,28,Indiaroba,
29387,BR,30,Aliança,
29388,BR,21,Austin,
29389,BR,15,Ouro Verde De Minas,
29390,BR,27,Saudade,
29391,BR,27,Braz,
29392,BR,5,Progresso,
29393,BR,29,Itaguaru,
29394,BR,17,Lagoa Sêca,
29395,BR,27,Elisiário,
29396,BR,26,Guaraciaba,
29397,BR,15,Jós,
29398,BR,15,Estiva,
29399,BR,15,Frei Inocêncio,
29400,BR,30,Cumaru,
29401,BR,27,Santa Maria Da Serra,
29402,BR,23,Cêrro Grande,
29403,BR,27,Florínea,
29404,BR,18,Panema,
29405,BR,15,Delfinópolis,
29406,BR,27,Jaborandi,
29407,BR,23,Nova Pádua,
29408,BR,23,Picada,
29409,BR,15,Santa Rita De Caldas,
29410,BR,2,Piaçabuçu,
29411,BR,15,Carmo,
29412,BR,5,Iaçu,
29413,BR,27,Bomfim Paulista,
29414,BR,18,Água Boa,
29415,BR,5,Barro Alto,
29416,BR,15,Brasília De Minas,
29417,BR,15,Rio Casca,
29418,BR,21,Andrade,
29419,BR,30,Jataúba,
29420,BR,4,Florianópolis,
29421,BR,15,Claraval,
29422,BR,15,Marilac,
29423,BR,15,Bonfim,
29424,BR,27,Borebi,
29425,BR,27,Iaras,
29426,BR,27,Campo Limpo,
29427,BR,18,Nova Fátima,
29428,BR,15,Formoso,
29429,BR,15,Martins Soares,
29430,BR,13,São Bento,
29431,BR,5,Remanso,
29432,BR,27,São Benedito,
29433,BR,30,Belém De Maria,
29434,BR,15,Patrocínio Do Muriaé,
29435,BR,18,Paranagi,
29436,BR,4,São Gabriel Da Cachoeira,
29437,BR,4,Codajás,
29438,BR,13,Alto Parnaíba,
29439,BR,15,Cunhas,
29440,BR,29,Itajá,
29441,BR,15,São Tomás De Aquino,
29442,BR,21,Marechal Hermes,
29443,BR,15,Cuparaque,
29444,BR,5,São Desidério,
29445,BR,23,Condor,
29446,BR,6,Guaiuba,
29447,BR,21,Maceió,
29448,BR,14,Chapadão,
29449,BR,30,Belém De São Francisco,
29450,BR,23,Grande,
29451,BR,20,Pedro Ii,
29452,BR,18,Planaltina Do Paraná,
29453,BR,27,Cândido Rodrigues,
29454,BR,27,Ouro Verde,
29455,BR,5,Caldeirão Grande,
29456,BR,21,Santo Aleixo,
29457,BR,5,Brejões,
29458,BR,18,Mallet,
29459,BR,15,São José Do Divino,
29460,BR,5,Potiraguá,
29461,BR,6,Jardim,
29462,BR,27,Borá,
29463,BR,30,Amaraji,
29464,BR,24,Mamoré,
29465,BR,23,Tenente Portela,
29466,BR,15,Ubaí,
29467,BR,5,Jaguaripe,
29468,BR,27,Turmalina,
29469,BR,16,Belo Horizonte,
29470,BR,27,Nova Canaã,
29471,BR,27,Queluz,
29472,BR,28,Nossa Senhora De Lourdes,
29473,BR,23,Boa Vista Do Burica,
29474,BR,23,Ibiaçá,
29475,BR,15,Glaucilândia,
29476,BR,22,São Luís,
29477,BR,13,João Lisboa,
29478,BR,30,Águas Belas,
29479,BR,18,Virmond,
29480,BR,15,Caetanópolis,
29481,BR,23,Ibiraiaras,
29482,BR,17,Piancó,
29483,BR,4,Urucurituba,
29484,BR,13,Fortaleza Dos Nogueiras,
29485,BR,2,Girau Do Ponciano,
29486,BR,13,Brejo,
29487,BR,2,Chã Preta,
29488,BR,8,Ponta Da Fruta,
29489,BR,25,São Paulo,
29490,BR,14,Alto Araguaia,
29491,BR,5,Ema,
29492,BR,5,Santo André,
29493,BR,13,Cametá,
29494,BR,20,Sousa,
29495,BR,15,Maripá,
29496,BR,14,Rio Novo,
29497,BR,5,São Fidélis,
29498,BR,11,Limeira,
29499,BR,20,Santos,
29500,BR,14,São Vicente,
29501,BR,4,Praia Grande,
29502,BR,4,São Paulo,
29503,BR,5,França,
29504,BR,31,Natal,
29505,BR,15,Dourados,
29506,BR,16,Vitória,
29507,BR,13,Vila Velha,
29508,BR,13,Serra,
29509,BR,14,São Roque,
29510,BR,16,Santo André,
29511,BR,18,Jundiaí,
29512,BR,29,Campinas,
29513,BR,15,Bebedouro,
29514,BR,31,Morada Nova,
29515,BR,15,Prados,
29516,BR,14,Uberaba,
29517,BR,15,Piracicaba,
29518,BR,20,Rio Grande,
29519,BR,16,Mossoró,
29520,BR,15,Araguaia,
29521,BR,6,Maceió,
29522,BR,16,Igarapé-açu,
29523,BR,29,Montes Claros,
29524,BR,25,Condado,
29525,BR,18,Bom Sucesso,
29526,BR,14,Santa Maria,
29527,BR,30,Orobó,
29528,BR,4,Paranaguá,
29529,BR,4,Campo Grande,
29530,BR,15,Santa Maria De Itabira,
29531,BR,16,Pena,
29532,BR,14,Mundo Novo,
29533,BR,23,São José Do Ouro,
29534,BR,21,Rio Grande,
29535,BR,5,Cairu,
29536,BR,15,Itatiaiuçu,
29537,BR,27,Pongaí,
29538,BR,29,Barra,
29539,BR,29,Aracati,
29540,BR,15,Senador José Bento,
29541,BR,15,São José Da Barra,
29542,BR,15,Candeias,
29543,BR,14,Umuarama,
29544,BR,6,São Luís,
29545,BR,13,Itauna,
29546,BR,15,Conceição Da Barra,
29547,BR,30,Mata,
29548,BR,18,Rio Bom,
29549,BR,23,Cristal,
29550,BR,1,Mâncio Lima,
29551,BR,24,Cacaulândia,
29552,BR,6,França,
29553,BR,27,Campo Grande,
29554,BR,8,Paulista,
29555,BR,5,Serra Preta,
29556,BR,30,Lagoa,
29557,BR,24,Queimadas,
29558,BR,23,Silveira Martins,
29559,BR,14,Campo Grande,
29560,BR,15,Josenópolis,
29561,BR,16,São Bento,
29562,BR,15,Cabo Verde,
29563,BR,11,Santa Luzia,
29564,BR,30,Cabrobó,
29565,BR,5,Conceição,
29566,BR,8,Três Marias,
29567,BR,4,Pedreiras,
29568,BR,20,Belém,
29569,BR,27,Cristais,
29570,BR,15,Campos,
29571,BR,21,Santo Antônio,
29572,BR,16,Campo Largo,
29573,BR,23,Ibarama,
29574,BR,29,Divinópolis,
29575,BR,23,Dona Francisca,
29576,BR,18,Ivatuba,
29577,BR,16,Salvaterra,
29578,BR,16,Santa Helena,
29579,BR,16,Ponte Nova,
29580,BR,15,Salto,
29581,BR,5,Fortaleza,
29582,BR,5,Duque De Caxias,
29583,BR,2,Cotia,
29584,BR,23,Cambará,
29585,BR,29,Nova Aurora,
29586,BR,2,Ouricuri,
29587,BR,15,Lajinha,
29588,BR,13,Carutapera,
29589,BR,4,Redenção,
29590,BR,27,Ibirarema,
29591,BR,15,Pavão,
29592,BR,15,Itaguara,
29593,BR,30,Angelim,
29594,BR,15,Santa Rita,
29595,BR,8,Sagrada Família,
29596,BR,15,Serra Azul,
29597,BR,16,São Domingos Do Capim,
29598,BR,22,Campo Redondo,
29599,BR,29,Colinas,
29600,BR,5,Tucano,
29601,BR,26,Salvador,
29602,BR,5,Olindina,
29603,BR,5,América Dourada,
29604,BR,31,Barreiras,
29605,BR,5,Quixabeira,
29606,BR,16,Santa Inês,
29607,BR,6,São Benedito,
29608,BR,23,Crissiumal,
29609,BR,27,Ipojuca,
29610,BR,14,Teixeira,
29611,BR,23,Paraíso Do Sul,
29612,BR,20,Aguas Belas,
29613,BR,13,Trindade,
29614,BR,5,Boquira,
29615,BR,26,Água Doce,
29616,BR,30,Perpétuo Socorro,
29617,BR,30,São Joaquim Do Monte,
29618,BR,23,Rondinha,
29619,BR,3,Ponta Dos Índios,
29620,BR,2,Cupira,
29621,BR,15,Brejo Grande,
29622,BR,27,Tabatinga,
29623,BR,27,Tibiriça,
29624,BR,30,Camutanga,
29625,BR,13,Manaus,
29626,BR,16,Saudade,
29627,BR,6,Boa Vista,
29628,BR,16,Fortaleza,
29629,BR,27,Pedranópolis,
29630,BR,5,Anagé,
29631,BR,15,Pescador,
29632,BR,27,Buritizal,
29633,BR,26,Santa Rosa,
29634,BR,26,Trombudo,
29635,BR,14,Alto Garças,
29636,BR,15,Coração De Jesus,
29637,BR,22,Florânia,
29638,BR,5,Gonçalo,
29639,BR,15,São José Dos Campos,
29640,BR,15,Ibitira,
29641,BR,21,São João Do Paraíso,
29642,BR,6,Barro,
29643,BR,27,Varginha,
29644,BR,17,Pocinhos,
29645,BR,26,Romelândia,
29646,BR,15,Florestal,
29647,BR,21,San Antônio,
29648,BR,15,Iraí De Minas,
29649,BR,21,Sumidouro,
29650,BR,26,São João Do Sul,
29651,BR,27,Santo Antônio Da Alegria,
29652,BR,18,Platina,
29653,BR,15,Goianá,
29654,BR,15,Seritinga,
29655,BR,29,Varjão,
29656,BR,16,Laje,
29657,BR,27,Lucianópolis,
29658,BR,31,Aragominas,
29659,BR,15,Ibiaí,
29660,BR,15,Carmésia,
29661,BR,13,Carnaubeira,
29662,BR,16,Capitão Poço,
29663,BR,6,Itapiúna,
29664,BR,28,Mucambo,
29665,BR,6,Coreaú,
29666,BR,23,Fortaleza,
29667,BR,21,Engenho Da Rainha,
29668,BR,21,Gramacho,
29669,BR,23,Nonoai,
29670,BR,15,Das Flôres,
29671,BR,2,Pôrto Calvo,
29672,BR,13,Bequimão,
29673,BR,5,Andorinha,
29674,BR,5,Barra Do Mendes,
29675,BR,17,Zabelê,
29676,BR,22,Taipu,
29677,BR,23,Capela De Santana,
29678,BR,15,Itamogi,
29679,BR,15,Santana,
29680,BR,2,Poço Das Trincheiras,
29681,BR,15,Goiabeira,
29682,BR,20,São Julião,
29683,BR,27,Água Vermelha,
29684,BR,15,Carlos Chagas,
29685,BR,27,Salvador,
29686,BR,2,São Paulo,
29687,BR,4,Trombetas,
29688,BR,22,Alto Do Rodrigues,
29689,BR,15,Piauí,
29690,BR,23,Dom Feliciano,
29691,BR,5,Ichu,
29692,BR,5,Jiquiriçá,
29693,BR,20,Tucano,
29694,BR,15,Inimutaba,
29695,BR,23,São Jorge,
29696,BR,13,Cantanhede,
29697,BR,22,Galinhos,
29698,BR,23,Jacutinga,
29699,BR,15,Juàzeiro,
29700,BR,22,Antônio Martins,
29701,BR,30,Porteiras,
29702,BR,26,Cunha Porã,
29703,BR,18,Pirapó,
29704,BR,18,Tomazina,
29705,BR,15,Itamarati,
29706,BR,15,Palmeiras,
29707,BR,23,Roca Sales,
29708,BR,18,General Carneiro,
29709,BR,18,Mariópolis,
29710,BR,5,Mortugaba,
29711,BR,26,Bom Jardim Da Serra,
29712,BR,13,Nunes Freire,
29713,BR,23,Pejuçara,
29714,BR,15,Maravilhas,
29715,BR,6,Farias Brito,
29716,BR,23,Entre Ijuís,
29717,BR,27,Balbinos,
29718,BR,1,Assis Brasil,
29719,BR,30,Afogados Da Ingàzeira,
29720,BR,4,Niterói,
29721,BR,21,Belém,
29722,BR,22,Umarizal,
29723,BR,15,Planura,
29724,BR,27,Restinga,
29725,BR,18,Inácio Martins,
29726,BR,26,Catanduvas,
29727,BR,15,São Pedro Da União,
29728,BR,30,Candeias,
29729,BR,15,Paineiras,
29730,BR,23,Chapada,
29731,BR,23,Fortaleza Dos Valos,
29732,BR,27,Nova Independência,
29733,BR,27,Ibitiúva,
29734,BR,27,Sales,
29735,BR,23,São Vendelino,
29736,BR,15,Careaçu,
29737,BR,27,Espírito Santo Do Turvo,
29738,BR,21,São Miguel,
29739,BR,21,Vilar Dos Teles,
29740,BR,21,Suruí,
29741,BR,6,Bela Cruz,
29742,BR,4,Arroio Trinta,
29743,BR,15,São Vicente De Minas,
29744,BR,27,Cabrália Paulista,
29745,BR,21,Del Castilho,
29746,BR,29,Barro Alto,
29747,BR,18,Japurá,
29748,BR,18,Itambé,
29749,BR,8,Brejetuba,
29750,BR,5,Monte Alegre,
29751,BR,15,Mato Verde,
29752,BR,5,Chorrochó,
29753,BR,15,Eusébio,
29754,BR,6,Pedra Branca,
29755,BR,6,Saboeiro,
29756,BR,27,Pontalinda,
29757,BR,27,Adolfo,
29758,BR,17,Tacima,
29759,BR,23,Palmitinho,
29760,BR,2,Capela,
29761,BR,14,Belmonte,
29762,BR,5,Rodelas,
29763,BR,26,Rancho Queimado,
29764,BR,4,Nhamundá,
29765,BR,13,Nova Olinda,
29766,BR,28,Santa Rosa De Lima,
29767,BR,13,Nova York,
29768,BR,21,Praia,
29769,BR,22,Angicos,
29770,BR,27,Barbosa,
29771,BR,26,Doutor Pedrinho,
29772,BR,14,Orlando,
29773,BR,15,Brazilia,
29774,BR,15,Itacy,
29775,BR,22,Nova,
29776,BR,22,Boa-saúde,
29777,BR,18,Tamarana,
29778,BR,6,Orós,
29779,BR,26,São Domingos,
29780,BR,11,Monte Verde,
29781,BR,15,Areado,
29782,BR,15,Quartel Geral,
29783,BR,30,Nazaré Da Mata,
29784,BR,4,Careiro,
29785,BR,6,Palhano,
29786,BR,15,Divino,
29787,BR,5,Pau Brasil,
29788,BR,17,Pirpirituba,
29789,BR,23,Ajuricaba,
29790,BR,18,Adrianópolis,
29791,BR,28,Neópolis,
29792,BR,15,Pequeri,
29793,BR,15,Francisco Sá,
29794,BR,17,Junco Do Seridó,
29795,BR,15,Santana Do Garambéu,
29796,BR,6,Frecheirinha,
29797,BR,30,Passira,
29798,BR,15,Gonçalves,
29799,BR,5,Paratinga,
29800,BR,5,Carinhanha,
29801,BR,18,Agudos Do Sul,
29802,BR,15,Simonésia,
29803,BR,26,Treze Tílias,
29804,BR,21,São Luís Gonzaga,
29805,BR,4,Santa Isabel Do Rio Negro,
29806,BR,8,Boa Esperança,
29807,BR,23,Redentora,
29808,BR,15,São Simão,
29809,BR,31,Santa Rosa Do Tocantins,
29810,BR,16,Monte Alegre,
29811,BR,27,Gastão Vidigal,
29812,BR,27,Gabriel Monteiro,
29813,BR,5,Várzea Do Poço,
29814,BR,15,Felixlândia,
29815,BR,6,Guaraciaba Do Norte,
29816,BR,14,Poconé,
29817,BR,23,Jaquirana,
29818,BR,15,Novo Cruzeiro,
29819,BR,15,Conceição Da Aparecida,
29820,BR,31,São Francisco,
29821,BR,5,Passé,
29822,BR,27,Ubarana,
29823,BR,27,Anhumas,
29824,BR,15,Honório Bicalho,
29825,BR,23,Boqueirão Do Leão,
29826,BR,27,Arco Íris,
29827,BR,6,Choròzinho,
29828,BR,11,Ilha,
29829,BR,27,Estrela D'oeste,
29830,BR,21,Nilo Peçanha,
29831,BR,2,Água Branca,
29832,BR,15,Mercês,
29833,BR,15,São Gonçalo Do Pará,
29834,BR,4,Beruri,
29835,BR,20,Amarante,
29836,BR,20,Mina,
29837,BR,18,Ourizona,
29838,BR,6,Apuiarés,
29839,BR,26,Guarujá,
29840,BR,15,Piranga,
29841,BR,15,Águas Vermelhas,
29842,BR,15,Guarará,
29843,BR,15,Veríssimo,
29844,BR,16,Concórdia,
29845,BR,6,Agua Branca,
29846,BR,13,Marques,
29847,BR,26,Timbé,
29848,BR,4,Anamã,
29849,BR,31,Mangabeira,
29850,BR,15,Guidoval,
29851,BR,2,Eugênio,
29852,BR,15,Taquaraçu,
29853,BR,27,Riolândia,
29854,BR,13,Pirapemas,
29855,BR,27,Cândia,
29856,BR,27,Três Fronteiras,
29857,BR,24,Alto Alegre Dos Parecis,
29858,BR,15,Natércia,
29859,BR,15,Divisa,
29860,BR,17,Juarez Távora,
29861,BR,31,Bonito,
29862,BR,18,América,
29863,BR,6,Campos Sales,
29864,BR,22,São Francisco,
29865,BR,30,Timorante,
29866,BR,13,Itapecuru-mirim,
29867,BR,15,Indaiabira,
29868,BR,27,Gália,
29869,BR,18,Roncador,
29870,BR,31,Araguanã,
29871,BR,15,Olímpio Noronha,
29872,BR,18,Salto Do Itararé,
29873,BR,27,Termas De Ibirá,
29874,BR,13,Pôrto Grande,
29875,BR,6,Timbaúba,
29876,BR,23,Salto,
29877,BR,24,Philadelphia,
29878,BR,23,Santo Antônio,
29879,BR,15,Santana Da Vargem,
29880,BR,27,Queiroz,
29881,BR,6,Itaiçaba,
29882,BR,23,Vila Nova,
29883,BR,30,Agrestina,
29884,BR,15,Umburatiba,
29885,BR,22,Rio Do Fogo,
29886,BR,15,Itaobim,
29887,BR,15,Virgem Da Lapa,
29888,BR,15,Dona Euzébia,
29889,BR,21,Arrozal,
29890,BR,15,Dom Silvério,
29891,BR,6,Guaramiranga,
29892,BR,17,Marcação,
29893,BR,4,Amapá,
29894,BR,28,Gararu,
29895,BR,16,Augusto Correa,
29896,BR,15,Padre Paraíso,
29897,BR,17,Marizópolis,
29898,BR,27,Magda,
29899,BR,15,Crisólita,
29900,BR,22,Baía Formosa,
29901,BR,20,Olinda,
29902,BR,6,Ipaporanga,
29903,BR,14,Jacundá,
29904,BR,5,Coité,
29905,BR,27,Irapuru,
29906,BR,15,Guaraciaba,
29907,BR,18,Palmital,
29908,BR,22,Monte Alegre,
29909,BR,21,São Mateus,
29910,BR,30,Macaparana,
29911,BR,15,Vargem Grande,
29912,BR,29,Itapaci,
29913,BR,13,Pacoti,
29914,BR,30,Frei Miguelinho,
29915,BR,23,Caibaté,
29916,BR,15,Santana Do Deserto,
29917,BR,5,Araci,
29918,BR,16,Pernambuco,
29919,BR,27,Novais,
29920,BR,21,Agostinho Porto,
29921,BR,18,Campo Bonito,
29922,BR,15,Entre Rios,
29923,BR,15,Sobral Pinto,
29924,BR,1,Fronteira,
29925,BR,15,Cachoeira Do Pajeú,
29926,BR,27,Cabrália,
29927,BR,20,Fernando,
29928,BR,18,Conselheiro Mairinck,
29929,BR,5,São José Do Jacuípe,
29930,BR,17,Serra Branca,
29931,BR,23,Tucunduva,
29932,BR,27,Pavão,
29933,BR,23,Ilópolis,
29934,BR,2,Paulo Jacinto,
29935,BR,22,Maxaranguape,
29936,BR,27,Grama,
29937,BR,15,Águas Formosas,
29938,BR,15,Guarani,
29939,BR,15,Belem,
29940,BR,27,Alambari,
29941,BR,23,Canabarro,
29942,BR,18,Boa Ventura,
29943,BR,15,Jeceaba,
29944,BR,6,Paraipaba,
29945,BR,5,Santa Cruz Da Vitória,
29946,BR,17,Monte Horebe,
29947,BR,8,São Paulo,
29948,BR,30,Tacaratu,
29949,BR,13,Tuntum,
29950,BR,20,São Pedro Do Piauí,
29951,BR,15,Barra Mansa,
29952,BR,23,Peróla,
29953,BR,6,Jaguaribara,
29954,BR,15,Andrelândia,
29955,BR,15,Cristiano Otoni,
29956,BR,18,Ventania,
29957,BR,27,Corumbataí,
29958,BR,27,Engenheiro Schmidt,
29959,BR,27,São Gabriel,
29960,BR,28,Japoatã,
29961,BR,27,Caiabu,
29962,BR,15,Frei Gaspar,
29963,BR,5,Pintadas,
29964,BR,21,Barão De Juparanã,
29965,BR,27,São José Da Bela Vista,
29966,BR,27,Piquerobi,
29967,BR,30,Carnaíba,
29968,BR,21,Alcântara,
29969,BR,15,Barra Longa,
29970,BR,26,Anita Garibaldi,
29971,BR,15,Lagoa Formosa,
29972,BR,21,São Conrado,
29973,BR,21,Sepetiba,
29974,BR,18,Guamiranga,
29975,BR,15,Itabirinha,
29976,BR,28,Monte Alegre De Sergipe,
29977,BR,2,Maribondo,
29978,BR,15,Senhora Dos Remédios,
29979,BR,6,Baturité,
29980,BR,16,Barreira,
29981,BR,30,Ingàzeira,
29982,BR,27,Iparanga,
29983,BR,15,Belmiro Braga,
29984,BR,23,Alegria,
29985,BR,26,Alto Bela Vista,
29986,BR,5,Sátiro Dias,
29987,BR,8,Ribeirãozinho,
29988,BR,15,Mocambeiro,
29989,BR,4,Cairu,
29990,BR,18,Bocaiúva Do Sul,
29991,BR,5,Pindaí,
29992,BR,18,Piên,
29993,BR,2,Junqueiro,
29994,BR,27,Marapoama,
29995,BR,15,Ribeirão Prêto,
29996,BR,5,Roma,
29997,BR,21,Barra De São João,
29998,BR,21,Caju,
29999,BR,21,Padre Miguel,
30000,BR,15,Cocais,
30001,BR,14,Ribeirão,
30002,BR,1,Pôrto Acre,
30003,BR,8,Ibitirama,
30004,BR,23,Caiçara,
30005,BR,15,Brás Pires,
30006,BR,27,Jumirim,
30007,BR,21,Praça Seca,
30008,BR,5,Macarani,
30009,BR,4,São Pedro,
30010,BR,30,Ibirajuba,
30011,BR,17,Itapororoca,
30012,BR,18,Cantagalo,
30013,BR,11,Iguatemi,
30014,BR,15,Jequitibá,
30015,BR,22,Jericó,
30016,BR,2,Canapi,
30017,BR,20,São João Do Piauí,
30018,BR,27,Prata,
30019,BR,15,São Gonçalo Do Rio Abaixo,
30020,BR,29,Bom Jardim De Goiás,
30021,BR,18,Cafèzal,
30022,BR,26,Ipumirim,
30023,BR,18,Mercedes,
30024,BR,22,São José Do Seridó,
30025,BR,29,Cachoeira Alta,
30026,BR,27,Canas,
30027,BR,29,Corumbaíba,
30028,BR,29,Palminópolis,
30029,BR,23,Tuparendi,
30030,BR,22,Luís Gomes,
30031,BR,23,Glorinha,
30032,BR,15,Pinheiros,
30033,BR,8,Campo Grande,
30034,BR,21,Guia De Pacobaíba,
30035,BR,21,Vicente De Carvalho,
30036,BR,21,Barra Da São João,
30037,BR,21,Angelim,
30038,BR,18,São Sebastião Da Bela Vista,
30039,BR,21,Penha Circular,
30040,BR,26,Itaperiú,
30041,BR,6,Porteira,
30042,BR,21,Itaquira,
30043,BR,27,São João Novo,
30044,BR,21,Freguesia,
30045,BR,30,Coqueiral,
30046,BR,27,Corte Grande,
30047,BR,27,Ignacio Uchoa,
30048,BR,2,Barrinha Roteio,
30049,BR,23,Castilhos,
30050,BR,26,Itoupava Rega,
30051,BR,27,Sete Barracas,
30052,BR,21,Frade,
30053,BR,18,Vieiras,
30054,BR,18,Ipiraca,
30055,BR,27,Lapa,
30056,BR,30,Tejucopapo,
30057,BR,18,Cruzeiro,
30058,BR,6,Fazenda Ferrão,
30059,BR,11,Graça De Deus,
30060,BR,21,Cabussú,
30061,BR,2,Tabaco,
30062,BR,30,Ponte Das Carrolhos,
30063,BR,21,Suruhy,
30064,BR,15,Conceição Da Pedra,
30065,BR,8,Cramerim,
30066,BR,8,Caxixa,
30067,BR,5,Areia Da Teixeira,
30068,BR,26,Maçaranduba,
30069,BR,27,Ermida,
30070,BR,21,Araçá,
30071,BR,27,Vila Anastácio,
30072,BR,15,Rochedo De Minas,
30073,BR,8,Barra Do Triunfo,
30074,BR,23,Joaneta,
30075,BR,23,Gil,
30076,BR,23,Itapuca,
30077,BR,23,Rolador,
30078,BR,26,Ascuria,
30079,BR,26,Caieira,
30080,BR,18,Pôrto De Cima,
30081,BR,22,Vilar,
30082,BR,26,Massiambu Pequeno,
30083,BR,26,Arcoverde,
30084,BR,26,Coração De Jesus,
30085,BR,26,Barra Do Rio Do Cerro,
30086,BR,26,Belchior Baixo,
30087,BR,23,Berto Círio,
30088,BR,26,Marema,
30089,BR,26,Lajeado Grande,
30090,BR,23,Pesqueiro,
30091,BR,23,Marques De Sousa,
30092,BR,18,Erva,
30093,BR,5,Marcelo,
30094,BR,27,Caiubi,
30095,BR,21,Rio Manso,
30096,BR,21,Cocotá,
30097,BR,27,Cortado,
30098,BR,27,Capituva,
30099,BR,17,Juarez,
30100,BR,18,Ferraria,
30101,BR,23,Pouso Novo,
30102,BR,27,Três Cruzes,
30103,BR,27,Itupeva,
30104,BR,27,Nova Itapirema,
30105,BR,27,Barra Dourada,
30106,BR,23,Morro Dos Borges,
30107,BR,26,Aliança,
30108,BR,18,Três Córregos,
30109,BR,6,Sítio Serrote,
30110,BR,21,Embaúbas,
30111,BR,26,Neise Central,
30112,BR,23,Barreiro,
30113,BR,8,Laranjeira,
30114,BR,2,Bocca Da Maffa,
30115,BR,5,Ibicoara,
30116,BR,2,Pão De Açúcar,
30117,BR,15,Felício Dos Santos,
30118,BR,21,Bonsucesso,
30119,BR,15,Diogo De Vasconcelos,
30120,BR,22,Riacho Da Cruz,
30121,BR,22,Portalegre,
30122,BR,20,Beneditinos,
30123,BR,13,Parnarama,
30124,BR,13,São João Dos Patos,
30125,BR,18,Pôrto Vitória,
30126,BR,8,Matilde,
30127,BR,27,Bocaina,
30128,BR,27,Onda Branca,
30129,BR,20,Flor Da Serra,
30130,BR,18,Salgado Filho,
30131,BR,28,Pinhão,
30132,BR,21,Miguel Couto,
30133,BR,5,Maetinga,
30134,BR,5,Lajedo,
30135,BR,5,Irajuba,
30136,BR,15,Capetinga,
30137,BR,18,Riqueza,
30138,BR,6,Fortim,
30139,BR,15,São João Batista Do Glória,
30140,BR,14,Branco,
30141,BR,13,Miranda,
30142,BR,21,Rosário,
30143,BR,28,Siriri,
30144,BR,15,Santa Cruz,
30145,BR,27,Paulistânia,
30146,BR,28,Pacatuba,
30147,BR,15,Chapadão,
30148,BR,15,Coronel Murta,
30149,BR,8,Irupi,
30150,BR,15,Aguanil,
30151,BR,27,Nova Aliança,
30152,BR,15,Rio Prêto,
30153,BR,24,Belmont,
30154,BR,23,Caraá,
30155,BR,15,Jaguaraçu,
30156,BR,30,Taquaritinga Do Norte,
30157,BR,17,Triunfo,
30158,BR,15,Catiara,
30159,BR,21,Guaratiba,
30160,BR,8,Nova Almeida,
30161,BR,16,Boa União,
30162,BR,8,Caçaroca,
30163,BR,21,Itaí,
30164,BR,13,Arunta,
30165,BR,18,Tateco,
30166,BR,15,Acuruí,
30167,BR,27,Corumbatahy,
30168,BR,18,Lopeí,
30169,BR,8,Accioly,
30170,BR,26,Armação,
30171,BR,26,Ibicaré,
30172,BR,26,Itoupava,
30173,BR,5,Curral,
30174,BR,18,Garatuba,
30175,BR,30,Caracituba,
30176,BR,15,Iguaçu,
30177,BR,5,Araripe De Baixo,
30178,BR,18,Chapéu,
30179,BR,15,Caputira,
30180,BR,22,Baixio,
30181,BR,27,Alvinlândia,
30182,BR,23,Erval Sêco,
30183,BR,15,Morro Do Pilar,
30184,BR,2,Olho D'agua Das Flores,
30185,BR,23,São José Do Hortêncio,
30186,BR,5,Mairi,
30187,BR,15,Rio Manso,
30188,BR,15,São João Do Paraíso,
30189,BR,18,Querência Do Norte,
30190,BR,31,Araguaçu,
30191,BR,7,Braslândia,
30192,BR,27,Tupanci,
30193,BR,15,Silvianópolis,
30194,BR,15,Tapira,
30195,BR,15,Ilicinea,
30196,BR,2,Murici,
30197,BR,27,Campina Do Monte Alegre,
30198,BR,18,Vera Cruz,
30199,BR,29,Carmo Do Rio Verde,
30200,BR,28,Capitão,
30201,BR,15,Mendes Pimentel,
30202,BR,22,Janduís,
30203,BR,16,Santo Antônio Do Tauá,
30204,BR,15,Fernandes,
30205,BR,6,Ocara,
30206,BR,15,Rosário Da Limeira,
30207,BR,23,Vicente Dutra,
30208,BR,15,Luminárias,
30209,BR,30,Capoeiras,
30210,BR,2,Maragogi,
30211,BR,28,Barra,
30212,BR,5,Ponto Novo,
30213,BR,5,Sirinhaém,
30214,BR,23,Sede Nova,
30215,BR,11,Guia Lopes Da Laguna,
30216,BR,2,Taquarana,
30217,BR,26,Urupema,
30218,BR,18,Ivaí,
30219,BR,27,Perus,
30220,BR,15,Luzio,
30221,BR,27,Cajuru Do Sul,
30222,BR,27,Anselmos,
30223,BR,27,Frades,
30224,BR,27,Vale Formoso,
30225,BR,8,Jacupemba,
30226,BR,26,Garibaldi,
30227,BR,13,Altamira,
30228,BR,23,Azevedo,
30229,BR,5,Lagoa Funda,
30230,BR,21,Vera Cruz,
30231,BR,15,Santa Rita Durão,
30232,BR,23,Tamanduá,
30233,BR,23,Santa Maria Do Erval,
30234,BR,15,São João Da Serra Negra,
30235,BR,6,Ibicuitinga,
30236,BR,18,Abatiá,
30237,BR,5,Água Boa,
30238,BR,31,Nova Olinda,
30239,BR,11,Anaurilândia,
30240,BR,18,Farol,
30241,BR,27,Jaraguá,
30242,BR,15,Oratórios,
30243,BR,20,Arame,
30244,BR,5,Horizonte,
30245,BR,26,Matos Costa,
30246,BR,30,Lagoa Dos Gatos,
30247,BR,27,Marinópolis,
30248,BR,23,Cassino,
30249,BR,15,Gurinhatã,
30250,BR,27,Japão,
30251,BR,17,Barra De Santa Rosa,
30252,BR,24,Teotônio,
30253,BR,15,Jacinto,
30254,BR,14,Rodrigues,
30255,BR,27,Arandu,
30256,BR,27,Canaã,
30257,BR,28,Rosário Do Catete,
30258,BR,6,Paracuru,
30259,BR,5,Paulista,
30260,BR,29,Davinópolis,
30261,BR,15,Urucânia,
30262,BR,8,Novo Brasil,
30263,BR,23,Ararica,
30264,BR,21,Ipiabas,
30265,BR,23,Trindade,
30266,BR,2,Campestre,
30267,BR,23,Cordilheira,
30268,BR,15,Francisco Badaró,
30269,BR,16,Viseu,
30270,BR,21,Pati Do Alferes,
30271,BR,7,Santa Bárbara,
30272,BR,5,Itamoabo,
30273,BR,18,Fênix,
30274,BR,21,Correntezas,
30275,BR,30,Chã Da Alegria,
30276,BR,27,Tapinas,
30277,BR,15,Santa Efigênia,
30278,BR,27,Vila Bela Vista,
30279,BR,8,Conduru,
30280,BR,27,Argentina,
30281,BR,18,São Sylvestre,
30282,BR,26,Dedo Grosso,
30283,BR,21,São Franciso,
30284,BR,5,Neves,
30285,BR,18,Tupinambá,
30286,BR,23,Benfica,
30287,BR,15,Cachoeira Escura,
30288,BR,26,Itaquá,
30289,BR,21,Tomazinho,
30290,BR,22,Almino Afonso,
30291,BR,29,Jandaia,
30292,BR,22,Lagoa Salgada,
30293,BR,23,Barracão,
30294,BR,17,Santana Dos Garrotes,
30295,BR,27,Embaúba,
30296,BR,27,Colômbia,
30297,BR,5,Retirolândia,
30298,BR,6,Santana Do Cariri,
30299,BR,21,São Sebastião Do Alto,
30300,BR,18,Ortigueira,
30301,BR,27,Barra,
30302,BR,18,Sapopema,
30303,BR,15,Jordânia,
30304,BR,18,Vitória,
30305,BR,22,Grossos,
30306,BR,27,Ponta,
30307,BR,30,Palmeirina,
30308,BR,11,Ribas Do Rio Pardo,
30309,BR,15,Senador Amaral,
30310,BR,6,Messejana,
30311,BR,15,Morada Nova De Minas,
30312,BR,2,Pôrto Real Do Colégio,
30313,BR,2,Quebrângulo,
30314,BR,27,São José,
30315,BR,21,Marambaia,
30316,BR,5,Mapele,
30317,BR,5,Jeremoabo,
30318,BR,21,Santíssimo,
30319,BR,27,Baquirivu,
30320,BR,2,Jacaré Dos Homens,
30321,BR,27,Barreirinha,
30322,BR,14,Monjolo,
30323,BR,23,Otacilia Specia,
30324,BR,26,Barracão,
30325,BR,27,Campo Do Atanásio,
30326,BR,27,Antônio Pôrto Jataí,
30327,BR,27,Eugênio De Melo,
30328,BR,17,Divinópolis,
30329,BR,2,Capivara,
30330,BR,17,Paraíba,
30331,BR,27,Américo De Campos,
30332,BR,23,Arroio Do Tigre,
30333,BR,5,Monte Santo,
30334,BR,5,Cardeal Da Silva,
30335,BR,17,Bonito De Santa Fé,
30336,BR,15,Velha,
30337,BR,20,Alto Longá,
30338,BR,5,Gamboa,
30339,BR,26,Iporã,
30340,BR,27,Sebastianópolis Do Sul,
30341,BR,18,Xambrê,
30342,BR,18,Piem,
30343,BR,20,Itainópolis,
30344,BR,29,Aruanã,
30345,BR,31,Cristalândia,
30346,BR,27,Xavier,
30347,BR,18,Nova Granada,
30348,BR,27,Bom Jesus Da Terra Preta,
30349,BR,27,Cristai,
30350,BR,26,Limeira,
30351,BR,18,Cruzeiro Do Sul,
30352,BR,8,Nova Petropolis,
30353,BR,15,Lagamar,
30354,BR,13,Felisberto,
30355,BR,27,São José Do Barreiro,
30356,BR,30,Glória Do Goitá,
30357,BR,27,Lupércio,
30358,BR,8,Jetibá,
30359,BR,6,Aiuaba,
30360,BR,15,Simão Pereira,
30361,BR,15,São João Do Manhuaçu,
30362,BR,17,Mogeiro,
30363,BR,17,Jacaraú,
30364,BR,5,Irundiara,
30365,BR,24,Jacy Paraná,
30366,BR,16,Miritituba,
30367,BR,6,Martinópole,
30368,BR,5,Castro Alves,
30369,BR,27,Jeriquara,
30370,BR,5,Aramari,
30371,BR,5,Arataca,
30372,BR,16,Pôrto De Moz,
30373,BR,15,Rio Do Prado,
30374,BR,22,Ielmo Marinho,
30375,BR,15,Coqueiral,
30376,BR,5,Trancogo,
30377,BR,15,Matutina,
30378,BR,21,Tamoios,
30379,BR,23,Saldanha Marinho,
30380,BR,18,Perobal,
30381,BR,15,Coronel Pacheco,
30382,BR,16,São Félix Do Xingu,
30383,BR,15,Marliéria,
30384,BR,30,Calçado,
30385,BR,15,São João Do Manteninha,
30386,BR,15,Reduto,
30387,BR,28,Ribeirópolis,
30388,BR,22,Serra De São Bento,
30389,BR,22,São Rafael,
30390,BR,15,Antônio Pereira,
30391,BR,27,Maresias,
30392,BR,23,Santa Barbara Do Sul,
30393,BR,26,Salto,
30394,BR,20,Paulistana,
30395,BR,5,Antas,
30396,BR,11,Aparecida Do Taboado,
30397,BR,13,São Raimundo Das Mangabeiras,
30398,BR,27,Cumbica,
30399,BR,15,Machacalis,
30400,BR,30,Iguaraci,
30401,BR,4,Canutama,
30402,BR,24,Repartimento,
30403,BR,5,Volta Da Serra,
30404,BR,15,Sardoá,
30405,BR,23,Nova Esperança,
30406,BR,27,Areias,
30407,BR,27,Jardim Bela Vista,
30408,BR,5,Arembepe,
30409,BR,14,Barão De Melgaço,
30410,BR,16,Itupiranga,
30411,BR,5,Caboto,
30412,BR,21,Jardim Sete De Abril,
30413,BR,21,Córrego Da Luz,
30414,BR,6,Barreira Dos Vianas,
30415,BR,18,Umbará,
30416,BR,17,Cajá,
30417,BR,15,Covanca,
30418,BR,8,Lourival Nunes,
30419,BR,23,Forqueta,
30420,BR,15,Cajuri,
30421,BR,27,Areia Branca,
30422,BR,18,Vera Guarani,
30423,BR,18,Ribeirão Amarelo,
30424,BR,21,Lagarto,
30425,BR,18,Lagoa Verde,
30426,BR,23,Cafuipe,
30427,BR,8,Araçatiba,
30428,BR,15,Dom Joaquim,
30429,BR,15,Albertina,
30430,BR,8,Poranga,
30431,BR,4,Canudos,
30432,BR,21,Brás De Pina,
30433,BR,14,Nortelândia,
30434,BR,5,Barrocas,
30435,BR,5,Ponta Grossa,
30436,BR,5,Malhada,
30437,BR,28,Aquidabã,
30438,BR,15,Bom Jardim De Minas,
30439,BR,15,São Geraldo Da Piedade,
30440,BR,3,Mazagão,
30441,BR,27,Mogy Guassú,
30442,BR,15,Sapucaí-mirim,
30443,BR,16,Almeirim,
30444,BR,4,Acará,
30445,BR,29,Anhanguera,
30446,BR,27,Murutinga Do Sul,
30447,BR,15,Divino Das Laranjeiras,
30448,BR,17,São José,
30449,BR,16,Quatro Bôcas,
30450,BR,23,Barão De Cotegipe,
30451,BR,14,Livramento,
30452,BR,30,Santa Cruz Da Baixa Verde,
30453,BR,18,Teixeira Soares,
30454,BR,23,São Martinho,
30455,BR,22,Paraguá,
30456,BR,21,Conservatória,
30457,BR,26,Treviso,
30458,BR,27,Pontes Gestal,
30459,BR,18,Jundiaí Do Sul,
30460,BR,27,Santo Amaro,
30461,BR,27,Lambari De Baixo,
30462,BR,23,Capitão Bonito,
30463,BR,21,Campos Elyseos,
30464,BR,5,Caçabu,
30465,BR,23,Lomba Grande,
30466,BR,15,Guarany,
30467,BR,27,Brigadeiro Tobias,
30468,BR,26,Ambrósio,
30469,BR,13,Caieira,
30470,BR,18,Quinzópolis,
30471,BR,27,Ibiporanga,
30472,BR,22,Brasília,
30473,BR,23,Entre Rios,
30474,BR,21,Jamapará,
30475,BR,27,Sandovalina,
30476,BR,18,Marilena,
30477,BR,15,Pouso Alto,
30478,BR,21,Recreio Dos Bandeirantes,
30479,BR,27,Maristela,
30480,BR,18,Malé,
30481,BR,4,Novo Oriente,
30482,BR,28,Cedro De São João,
30483,BR,2,Santana Do Mundaú,
30484,BR,15,São Brás Do Suaçuí,
30485,BR,15,São João Da Lagoa,
30486,BR,5,Ouriçangas,
30487,BR,18,Vargem Bonita,
30488,BR,6,Tejuçuoca,
30489,BR,21,Bacaxá,
30490,BR,2,São Brás,
30491,BR,15,Santana De Patos,
30492,BR,15,Divisópolis,
30493,BR,26,Ipira,
30494,BR,26,São Pedro,
30495,BR,15,São Gonçalo,
30496,BR,13,Riachão,
30497,BR,18,Juranda,
30498,BR,15,Pirajuba,
30499,BR,21,Vargem Alegre,
30500,BR,4,Anori,
30501,BR,22,Tenente Ananias,
30502,BR,5,Ouro Branco,
30503,BR,22,Governador Dix-sept Rosado,
30504,BR,15,Manga,
30505,BR,21,Rocha Miranda,
30506,BR,2,Gerimatalha,
30507,BR,5,Cajàzeiras,
30508,BR,5,Buranhém,
30509,BR,21,Pôrto Das Caixas,
30510,BR,8,Guilherme Paster,
30511,BR,27,Bergamasco,
30512,BR,27,Parahybuna,
30513,BR,18,Coxilha Rica,
30514,BR,26,Subida,
30515,BR,26,Enseada De Brito,
30516,BR,15,Sousas,
30517,BR,18,Iroí,
30518,BR,16,Chapéu Virado,
30519,BR,23,Várzea Grande,
30520,BR,27,Iaci,
30521,BR,23,Nova Palmeira,
30522,BR,18,Pontal Do Itararé,
30523,BR,5,Nova Soure,
30524,BR,21,Maria Da Graça,
30525,BR,5,Palmas De Monte Alto,
30526,BR,21,Andaraí,
30527,BR,27,Álvares Florence,
30528,BR,18,Pôrto São José,
30529,BR,5,João Amaro,
30530,BR,27,Bárbara Do Oeste,
30531,BR,17,Nazarèzinho,
30532,BR,15,São Gonçalo Do Rio Das Pedras,
30533,BR,6,Ipaumirim,
30534,BR,14,Água Fria,
30535,BR,23,Harmonia,
30536,BR,29,Campinorte,
30537,BR,6,Pacoti,
30538,BR,23,São Valentim,
30539,BR,6,Moraújo,
30540,BR,23,Santana Da Boa Vista,
30541,BR,26,Macieira,
30542,BR,22,Bom Jesus,
30543,BR,23,Santana,
30544,BR,15,Felisburgo,
30545,BR,2,Lagoa Da Canoa,
30546,BR,5,Riacho De Santana,
30547,BR,27,Sergipe,
30548,BR,23,Mostardas,
30549,BR,27,Taquarivaí,
30550,BR,2,Itaporanga,
30551,BR,22,Ouro Branco,
30552,BR,21,Cacimbas,
30553,BR,13,Montes Altos,
30554,BR,15,Hematita,
30555,BR,23,Muliterno,
30556,BR,18,Gentil,
30557,BR,15,Jubaí,
30558,BR,15,Chonim,
30559,BR,15,Acaiaca,
30560,BR,16,Marau,
30561,BR,13,Bom Jesus,
30562,BR,11,Capitão,
30563,BR,23,Rosa,
30564,BR,17,Ouro Velho,
30565,BR,4,Benjamin Constant,
30566,BR,23,Áurea,
30567,BR,17,Santana De Mangueira,
30568,BR,21,Cordovil,
30569,BR,8,Guandó,
30570,BR,21,Tinguá,
30571,BR,21,Rio Claro,
30572,BR,27,Ribeirão Do Meio,
30573,BR,11,Fazenda Da Lagoinha,
30574,BR,8,Mata Limpa,
30575,BR,11,Véstea,
30576,BR,27,Guaiquica,
30577,BR,18,Paulo Pinto,
30578,BR,26,Guaporanga,
30579,BR,15,Barro Prêto,
30580,BR,26,Corveta,
30581,BR,21,Estrêla,
30582,BR,23,Morungava,
30583,BR,27,Pôrto Góis,
30584,BR,18,Aquidabã,
30585,BR,17,Caititu,
30586,BR,23,Chico Lunia,
30587,BR,27,Juritis,
30588,BR,4,Tucumã,
30589,BR,22,Poço Branco,
30590,BR,6,Arneiroz,
30591,BR,22,Lucrécia,
30592,BR,22,Francisco Dantas,
30593,BR,23,Ibirapuitã,
30594,BR,5,Brandão,
30595,BR,27,Mira Estrêla,
30596,BR,5,Lustosa,
30597,BR,8,Águia Branca,
30598,BR,5,Missões,
30599,BR,6,Jucás,
30600,BR,4,Autazes,
30601,BR,30,Frecheiras,
30602,BR,28,Borda Da Mata,
30603,BR,11,Porto Victoria,
30604,BR,6,Fazenda Pacova,
30605,BR,6,Fazenda Cadro,
30606,BR,17,Angico Tôrto,
30607,BR,23,Barrinha,
30608,BR,18,Mônica,
30609,BR,27,Bacuriti,
30610,BR,5,Macaúbas,
30611,BR,27,Ajapi,
30612,BR,21,Cosmos,
30613,BR,15,Casa Grande,
30614,BR,21,São José Do Ribeirão,
30615,BR,27,Santa Albertina,
30616,BR,16,Icoaraci,
30617,BR,27,Itirapuã,
30618,BR,23,Serafina Corêa,
30619,BR,13,Placas,
30620,BR,15,São Pedro Do Suaçuí,
30621,BR,18,Renascença,
30622,BR,21,Vila Valqueire,
30623,BR,5,Batinga,
30624,BR,22,Caiada,
30625,BR,21,Abarracamento,
30626,BR,27,Gramado,
30627,BR,26,Itapocu,
30628,BR,23,Barro Prêto,
30629,BR,28,Pirambu,
30630,BR,27,Itapura,
30631,BR,30,Jardim,
30632,BR,11,Juti,
30633,BR,27,Iporanga,
30634,BR,15,São José Da Varginha,
30635,BR,17,Duas Estradas,
30636,BR,17,Santa Terezinha,
30637,BR,28,Pôrto Das Cabras,
30638,BR,8,Barro Branco,
30639,BR,27,Duas Barras,
30640,BR,16,Baião,
30641,BR,8,Água Doce,
30642,BR,15,Córrego Fundo,
30643,BR,30,Soares,
30644,BR,31,Muricilândia,
30645,BR,15,Pedra Do Indaiá,
30646,BR,21,Japuíba,
30647,BR,27,Vila Velha,
30648,BR,31,Augustinópolis,
30649,BR,6,Cascavel,
30650,BR,24,Vale Do Paraíso,
30651,BR,24,Alto Alegre,
30652,BR,23,Herval,
30653,BR,21,Inhoaíba,
30654,BR,15,Cunha,
30655,BR,18,São Pedro Do Avaí,
30656,BR,22,Montanhas,
30657,BR,5,Condeúba,
30658,BR,27,Ipiguá,
30659,BR,5,Abaré,
30660,BR,23,Hulha Negra,
30661,BR,2,Francês,
30662,BR,5,Jauá,
30663,BR,14,Comodoro,
30664,BR,6,Iracema,
30665,BR,15,Palmópolis,
30666,BR,15,Leme Do Prado,
30667,BR,18,Lavras,
30668,BR,27,Fazenda Sobrado,
30669,BR,18,Areia Branca Dos Assis,
30670,BR,23,André Da Rocha,
30671,BR,28,Tomar Do Geru,
30672,BR,27,Milhã,
30673,BR,22,Croatá,
30674,BR,15,Medina,
30675,BR,27,Emilianópolis,
30676,BR,15,Ibertioga,
30677,BR,16,Moema,
30678,BR,15,Lajinha Do Mutum,
30679,BR,17,Jericó,
30680,BR,17,Esperança,
30681,BR,23,Nova Bréscia,
30682,BR,27,Brejo Alegre,
30683,BR,23,Santa Lúcia Do Piaí,
30684,BR,15,Botorobi,
30685,BR,27,Pari,
30686,BR,11,São Romão,
30687,BR,27,Liberdade,
30688,BR,29,São Domingos,
30689,BR,5,Varzedo,
30690,BR,27,Guachos,
30691,BR,8,Jacuí,
30692,BR,15,Riacho Dos Machados,
30693,BR,15,Piranguçu,
30694,BR,15,Rio Doce,
30695,BR,27,Nipoã,
30696,BR,6,Retiro Grande,
30697,BR,21,Subaio,
30698,BR,26,Têsto Salto,
30699,BR,26,Rio Do Júlio,
30700,BR,15,Passagem De Mariana,
30701,BR,5,Monte Gordo,
30702,BR,23,São João Da Urtiga,
30703,BR,11,Água Clara,
30704,BR,18,Santa Maria,
30705,BR,6,Mineirolândia,
30706,BR,2,Limoeiro De Anadia,
30707,BR,5,Itaquara,
30708,BR,28,Sapé,
30709,BR,21,Andrade Costa,
30710,BR,23,Guaicurus,
30711,BR,6,Graças,
30712,BR,13,Axixá,
30713,BR,29,Campos Belos,
30714,BR,18,Paula Freitas,
30715,BR,15,Toledo,
30716,BR,15,Ibituruna,
30717,BR,15,Rubelita,
30718,BR,15,Chonim De Baixo,
30719,BR,27,Reserva,
30720,BR,18,São João Do Piraí,
30721,BR,21,Ibitinema,
30722,BR,5,Barra Do Garcez,
30723,BR,6,Umirim,
30724,BR,2,São Sebastião,
30725,BR,27,Jardim São Nicolau,
30726,BR,25,Coqueiro,
30727,BR,21,Viana,
30728,BR,23,Paim Filho,
30729,BR,5,Aratuípe,
30730,BR,5,Itapitanga,
30731,BR,31,Araguatins,
30732,BR,30,Tracunhaém,
30733,BR,15,Lontra,
30734,BR,5,Abrantes,
30735,BR,30,Caraibeiras,
30736,BR,23,Galópolis,
30737,BR,5,Jaqueira,
30738,BR,5,Utinga,
30739,BR,18,Uniflor,
30740,BR,5,Central,
30741,BR,18,Campina,
30742,BR,21,Inhomirim,
30743,BR,6,Cruzeta,
30744,BR,22,Riachuelo,
30745,BR,5,Tanque Novo,
30746,BR,2,Igreja Nova,
30747,BR,15,Carneirinho,
30748,BR,8,Vítor Hugo,
30749,BR,8,Mariquioca,
30750,BR,18,Bandeira,
30751,BR,23,Arco Verde,
30752,BR,22,Várzea Nova,
30753,BR,15,Pedra Bonita,
30754,BR,4,Santo Inácio,
30755,BR,5,Cabeceira Grande,
30756,BR,23,Jóia,
30757,BR,21,Sete Pontes,
30758,BR,15,São Francisco De Paula,
30759,BR,30,Altinho,
30760,BR,8,São Domingos,
30761,BR,5,Ribeirão Do Largo,
30762,BR,21,Marapica,
30763,BR,21,Visconde De Itaboraí,
30764,BR,14,Poço Azul,
30765,BR,27,Praia Dos Namorados,
30766,BR,5,Itabaí,
30767,BR,30,Panelas,
30768,BR,31,Santa Fé Do Araguaia,
30769,BR,27,Jaciporã,
30770,BR,21,Rio Do Ouro,
30771,BR,13,Arari,
30772,BR,22,Marcelino Vieira,
30773,BR,30,Saloá,
30774,BR,22,São Pedro,
30775,BR,27,Jardim Da Saude,
30776,BR,5,Monte,
30777,BR,27,Santa Amélia,
30778,BR,30,Campos,
30779,BR,15,Cajuru,
30780,BR,27,Juquiratiba,
30781,BR,23,Serafim Correia,
30782,BR,28,Pedrinhas,
30783,BR,18,Colônia Cachoeira,
30784,BR,30,Exu,
30785,BR,27,Redenção Da Serra,
30786,BR,15,Monte Belo,
30787,BR,8,Pau Brasil,
30788,BR,26,Arraia,
30789,BR,26,Guarda Do Embaú,
30790,BR,15,Jatobá,
30791,BR,5,Ibitiara,
30792,BR,15,São João Da Mata,
30793,BR,15,Tauá,
30794,BR,6,Lavras Da Mangabeira,
30795,BR,6,Ibiapina,
30796,BR,24,Costa Marques,
30797,BR,15,Bom Jesus Do Amparo,
30798,BR,27,Pioneiros,
30799,BR,17,São Mamede,
30800,BR,5,Mar Grande,
30801,BR,14,Pôrto Esperidião,
30802,BR,23,Unistalda,
30803,BR,18,São Pedro,
30804,BR,23,Pinhal Grande,
30805,BR,5,Vitorino,
30806,BR,15,Botumirim,
30807,BR,21,Juturnaíba,
30808,BR,27,Bairro Do Jacu,
30809,BR,27,Pôrto Quebra-canoas,
30810,BR,5,Coronel,
30811,BR,23,Leão,
30812,BR,15,Santa Rita De Ouro Prêto,
30813,BR,18,Itaguajé,
30814,BR,15,Virgínia,
30815,BR,6,Assaré,
30816,BR,27,Cachoeirinha,
30817,BR,27,Frutal Do Campo,
30818,BR,16,Mocajuba,
30819,BR,21,Joá,
30820,BR,15,Salto Da Divisa,
30821,BR,21,Macabu,
30822,BR,24,Espigao D'oeste,
30823,BR,23,Pôrto Mauá,
30824,BR,30,Água Preta,
30825,BR,24,Coimbra,
30826,BR,26,Guamiranga,
30827,BR,27,Aparecida D'oeste,
30828,BR,30,Manari,
30829,BR,5,Serrolândia,
30830,BR,27,Paulópolis,
30831,BR,18,Espigão Alto,
30832,BR,27,Padre Nóbrega,
30833,BR,27,Boa Guaxinduba,
30834,BR,20,Isaías Coelho,
30835,BR,30,Itaíba,
30836,BR,18,Rancho Alegre,
30837,BR,15,Berilo,
30838,BR,6,Uruoca,
30839,BR,15,Joanésia,
30840,BR,27,Madalena,
30841,BR,22,Afonso Bezerra,
30842,BR,16,Portel,
30843,BR,29,Avelinópolis,
30844,BR,5,Barra De Caravelas,
30845,BR,15,Pântano,
30846,BR,18,Florestal,
30847,BR,27,Sousas,
30848,BR,30,Ponta De Pedras,
30849,BR,13,Angicos,
30850,BR,27,Estrêla Do Norte,
30851,BR,11,Tacuru,
30852,BR,5,Graça,
30853,BR,14,São Pedro Da Cipa,
30854,BR,18,Sao Jorge D'oeste,
30855,BR,15,Arapuá,
30856,BR,17,Capim,
30857,BR,27,Lusitânia,
30858,BR,28,Malhada Dos Bois,
30859,BR,15,Ladainha,
30860,BR,22,São Sebastião,
30861,BR,3,Serra Do Navio,
30862,BR,15,Santo Antônio Do Itambé,
30863,BR,23,Ubiretama,
30864,BR,18,Perola D'oeste,
30865,BR,21,Monjolo,
30866,BR,22,Vera Cruz,
30867,BR,27,Frades De Cima,
30868,BR,23,Camobi,
30869,BR,22,Sossêgo,
30870,BR,27,Óleo,
30871,BR,15,Bom Jesus Da Penha,
30872,BR,17,Tôrre,
30873,BR,11,Mauá,
30874,BR,22,Carnaúba Dos Dantas,
30875,BR,27,Guapiara,
30876,BR,5,Santo Antônio De Barcelona,
30877,BR,23,São João,
30878,BR,15,Dores De Guanhães,
30879,BR,13,Amarante Do Maranhão,
30880,BR,27,Vargem,
30881,BR,26,São Pedro De Alcântara,
30882,BR,13,Cândido Mendes,
30883,BR,16,Afuá,
30884,BR,27,Francisco Quirino,
30885,BR,26,Abdon Batista,
30886,BR,5,Formosa Do Rio Prêto,
30887,BR,15,São Geraldo Do Baixio,
30888,BR,15,Ribeiro,
30889,BR,22,Carnaúbais,
30890,BR,15,Itacarambi,
30891,BR,22,Ipanguaçu,
30892,BR,23,São Domingos Do Sul,
30893,BR,15,Bias Fortes,
30894,BR,15,Planalto,
30895,BR,21,Varre-sai,
30896,BR,5,Itapicuru,
30897,BR,15,Antunes,
30898,BR,11,Bálsamo,
30899,BR,2,Olivença,
30900,BR,17,Belém,
30901,BR,17,Bom Sucesso,
30902,BR,26,Iraceminha,
30903,BR,15,São Roque,
30904,BR,15,Senhora De Oliveira,
30905,BR,5,Pedra Bonita,
30906,BR,4,Silves,
30907,BR,15,São José Da Safira,
30908,BR,2,Agreste,
30909,BR,6,Parambu,
30910,BR,29,Bom Jesus,
30911,BR,29,Monte Alegre De Goiás,
30912,BR,15,Grupiara,
30913,BR,15,São Tiago,
30914,BR,23,Sinimbu,
30915,BR,28,Mateus,
30916,BR,15,Bela Vista,
30917,BR,6,Cariús,
30918,BR,15,Santo Antônio Do Jacinto,
30919,BR,18,Tatuquara,
30920,BR,6,Lagoa D'anta,
30921,BR,30,Cortês,
30922,BR,11,Bataiporã,
30923,BR,15,Campo Do Meio,
30924,BR,6,Chaval,
30925,BR,27,Flora Rica,
30926,BR,27,Mombuca,
30927,BR,15,Chalé,
30928,BR,28,Frei Paulo,
30929,BR,20,Piracuruca,
30930,BR,13,São Domingos Do Maranhão,
30931,BR,15,São Francisco De Sales,
30932,BR,15,São Sebastião Do Rio Verde,
30933,BR,22,Várzea,
30934,BR,29,Ouvidor,
30935,BR,26,Braço Do Trombudo,
30936,BR,8,Piaçu,
30937,BR,22,Santa Maria,
30938,BR,26,Witmarsum,
30939,BR,23,Esmeralda,
30940,BR,8,Guandu,
30941,BR,6,Mondubim,
30942,BR,27,Arapeí,
30943,BR,28,Riachuelo,
30944,BR,22,Martins,
30945,BR,15,Tabuleiro,
30946,BR,15,Itaverava,
30947,BR,27,Aldeia,
30948,BR,6,Milhã,
30949,BR,22,Serra Caiada,
30950,BR,15,Ipoema,
30951,BR,30,Cambucá,
30952,BR,15,Mota,
30953,BR,15,Senador Firmino,
30954,BR,15,Gramínea,
30955,BR,15,Alpercata,
30956,BR,21,Olinda,
30957,BR,15,Claro Dos Poções,
30958,BR,15,Jequeri,
30959,BR,5,Botuporã,
30960,BR,18,São José,
30961,BR,15,Cascalho Rico,
30962,BR,2,Palestina,
30963,BR,15,Tebas,
30964,BR,6,Santa Bárbara,
30965,BR,5,Itamari,
30966,BR,25,Nova Vida,
30967,BR,27,São João De Iracema,
30968,BR,17,Brejo Do Cruz,
30969,BR,4,Eirunepé,
30970,BR,15,Destêrro De Entre Rios,
30971,BR,21,Venturosa,
30972,BR,23,Quevedos,
30973,BR,17,Caturité,
30974,BR,28,Divina Pastôra,
30975,BR,15,São Miguel Do Anta,
30976,BR,15,São Sebastião Do Rio Prêto,
30977,BR,23,Nova Roma,
30978,BR,11,Laguna Carapã,
30979,BR,23,Tabaí,
30980,BR,27,Talhado,
30981,BR,27,Narandiba,
30982,BR,2,Piranhas,
30983,BR,11,São Domingo,
30984,BR,15,Juruaia,
30985,BR,18,Nova Aliança Do Ivaí,
30986,BR,27,Martim Francisco,
30987,BR,23,Rio Dos Índios,
30988,BR,13,Vitorino Freire,
30989,BR,14,Recreio,
30990,BR,6,Fiúza,
30991,BR,18,Bentópolis,
30992,BR,5,Lajedo Do Tabocal,
30993,BR,15,Chiador,
30994,BR,15,Realeza,
30995,BR,28,São Domingos,
30996,BR,26,Celso Ramos,
30997,BR,26,Cêrro Negro,
30998,BR,27,São João Das Duas Pontes,
30999,BR,20,Simplício Mendes,
31000,BR,15,Itapeva,
31001,BR,31,Axixá Do Tocantins,
31002,BR,2,Matriz De Camaragibe,
31003,BR,13,Salvador,
31004,BR,23,Barros Cassal,
31005,BR,15,Serra Da Saudade,
31006,BR,21,Inhôan,
31007,BR,23,Mata,
31008,BR,15,Dionísio,
31009,BR,13,São Mateus Do Maranhão,
31010,BR,23,São Miguel Das Missões,
31011,BR,31,Tocantínia,
31012,BR,18,Entre Rios,
31013,BR,27,São José Das Palmeiras,
31014,BR,13,Poção De Pedras,
31015,BR,11,Pôrto Murtinho,
31016,BR,27,Salmourão,
31017,BR,27,Egídio,
31018,BR,5,Várzea,
31019,BR,22,Encanto,
31020,BR,23,Iraí,
31021,BR,27,Poção,
31022,BR,15,São Domingos,
31023,BR,16,Senador José Porfírio,
31024,BR,5,Capela Do Alto Alegre,
31025,BR,15,Baldim,
31026,BR,15,Vieiras,
31027,BR,23,Independência,
31028,BR,18,Pérola Do Oeste,
31029,BR,22,Bento Fernandes,
31030,BR,20,Monsenhor Gil,
31031,BR,5,Pedrão,
31032,BR,23,Centenário,
31033,BR,15,Morro Do Ferro,
31034,BR,30,Jupi,
31035,BR,4,Carauari,
31036,BR,21,Baía Formosa,
31037,BR,15,Monsenhor Paulo,
31038,BR,13,Raposa,
31039,BR,15,Chonin,
31040,BR,18,Nazareno,
31041,BR,5,Gongogi,
31042,BR,13,Carnaíba,
31043,BR,21,Itaipu,
31044,BR,31,Aparecida Do Rio Negro,
31045,BR,26,Treze De Maio,
31046,BR,29,Araçu,
31047,BR,15,Santa Bárbara Do Monte Verde,
31048,BR,21,Pachecos,
31049,BR,23,Bom Jesus,
31050,BR,23,Fagundes Varela,
31051,BR,15,Piedade Dos Gerais,
31052,BR,29,Marilândia,
31053,BR,31,Santa Terezinha,
31054,BR,5,Jussari,
31055,BR,16,Mirasselvas,
31056,BR,5,Barro Prêto,
31057,BR,27,Guaianás,
31058,BR,27,Porto Feliz,
31059,BR,18,Jacarezinho,
31060,BR,21,Porto Real,
31061,BR,27,Bairro Marciana,
31062,BR,26,Palmital,
31063,BR,21,Vila Meriti,
31064,BR,27,Gopoúva,
31065,BR,27,Sítio Antônio G. Dias,
31066,BR,27,Vargem Grande Paulista,
31067,BR,18,Sítio João Da S. Passos,
31068,BR,21,Alto,
31069,BR,21,Vidigal,
31070,BR,18,Linha Floresta,
31071,BR,18,Sítio João D. De Oliveira,
31072,BR,27,Caucaia Do Alto,
31073,BR,27,Galo De Ouro,
31074,BR,27,Sítio Rancharia,
31075,BR,29,Malhada,
31076,BR,21,Acácias,
31077,BR,18,Bálsamo,
31078,BR,18,Santo Antônio Do Caiuá,
31079,BR,18,Pirapitinga,
31080,BR,26,Itinga Ii,
31081,BR,18,Sítio Jorge C. De Oliviera,
31082,BR,18,Sítio Vista Alegre,
31083,BR,26,Ribeirão Das Pedras,
31084,BR,23,Cacique Doble,
31085,BR,18,Sítio Leôncio Corsine,
31086,BR,27,Rubiácea,
31087,BR,31,Dianópolis,
31088,BR,27,Barreiro De Baixo,
31089,BR,18,Carioca,
31090,BR,27,Paraitinga,
31091,BR,27,Sapucaí-mirim,
31092,BR,27,Monjolinho,
31093,BR,11,Jaraguari,
31094,BR,21,Fábrica Das Chitas,
31095,BR,18,Maria Helena,
31096,BR,18,Sítio Zakicheski,
31097,BR,27,Éden,
31098,BR,23,Vila Maria,
31099,BR,18,Colonia Mallet,
31100,BR,26,São João,
31101,BR,18,Sítio João Souza,
31102,BR,31,Ponte Alta Do Tocantins,
31103,BR,23,Coronel Bicaco,
31104,BR,27,Guaçu,
31105,BR,18,Guaraqueçaba,
31106,BR,21,Cidade Alta,
31107,BR,24,Rodrigues Alves,
31108,BR,3,Ferreira Gomes,
31109,BR,21,Cariri,
31110,BR,21,Vaz Lobo,
31111,BR,21,Sete Ponte,
31112,BR,21,Jardim Do Saco,
31113,BR,26,Sítio José Hommilgin,
31114,BR,26,Curral Das Minas,
31115,BR,23,Mariana Pimentel,
31116,BR,27,Meridiano,
31117,BR,17,Olivedos,
31118,BR,15,Cruzeiro,
31119,BR,6,Palmácia,
31120,BR,30,Umbuzeiro,
31121,BR,29,São João,
31122,BR,5,Belém,
31123,BR,4,Ariquemes,
31124,BR,11,Palmeiras,
31125,BR,31,Bernardo Sayão,
31126,BR,18,Sítio João Pereira,
31127,BR,27,Light,
31128,BR,30,Ponte Dos Carvalhos,
31129,BR,6,Tururu,
31130,BR,5,Sítio Do Quinto,
31131,BR,22,Gostoso,
31132,BR,1,Castanheira,
31133,BR,27,Sarapui,
31134,BR,23,Barão,
31135,BR,2,Roteiro,
31136,BR,21,Terra Nova,
31137,BR,21,Centro,
31138,BR,27,Rio Verde De Mato Grosso,
31139,BR,15,Passagem,
31140,BR,27,Lambari,
31141,BR,6,São Luís Do Curu,
31142,BR,15,Campinas,
31143,BR,15,Amparo,
31144,BR,15,São Sebastião,
31145,BR,5,Santa Luz,
31146,BR,11,Pôrto Velho,
31147,BR,27,Bálsamo,
31148,BR,17,Soledade,
31149,BR,5,Nilo Peçanha,
31150,BR,5,Cabrália,
31151,BR,5,Várzea Nova,
31152,BR,16,Santa Maria Das Barreiras,
31153,BR,18,Santo Inácio,
31154,BR,4,Manaquiri,
31155,BR,13,Jenipapo,
31156,BR,21,Borel,
31157,BR,2,São Miguel Dos Milagres,
31158,BR,5,Comandante,
31159,BR,26,Barra Do Sul,
31160,BR,26,Novo Horizonte,
31161,BR,30,Vitória,
31162,BR,18,Faxinalzinho,
31163,BR,23,São Nicolau,
31164,BR,18,Jaboti,
31165,BR,5,Santa Inês,
31166,BR,15,São Sebastião Da Bela Vista,
31167,BR,6,Catarina,
31168,BR,23,Maratá,
31169,BR,21,Itanhangá,
31170,BR,30,Correntes,
31171,BR,15,Jesuânia,
31172,BR,4,Ipixuna,
31173,BR,27,Serra,
31174,BR,20,Angical Do Piauí,
31175,BR,11,Centenário,
31176,BR,5,Nova Canaã,
31177,BR,15,Serrania,
31178,BR,5,Matina,
31179,BR,15,Jacuí,
31180,BR,21,Barra Da Tijuca,
31181,BR,17,Conde,
31182,BR,30,Venturosa,
31183,BR,27,Cerejeiras,
31184,BR,31,Arraias,
31185,BR,27,Lutécia,
31186,BR,27,Vila Olímpia,
31187,BR,13,Luís Domingues,
31188,BR,27,Ilha,
31189,BR,5,Santa Bárbara,
31190,BR,30,Cachoeirinha,
31191,BR,5,Campo Formoso,
31192,BR,30,Bodocó,
31193,BR,16,Maiauatá,
31194,BR,27,Ribeirãozinho,
31195,BR,6,Graça,
31196,BR,18,Vera Cruz Do Oeste,
31197,BR,18,São Tomé,
31198,BR,30,Triunfo,
31199,BR,13,Bela Vista,
31200,BR,5,São Caetano,
31201,BR,21,Morro Do Alemão,
31202,BR,21,Porto Do Engenho Da Pedra,
31203,BR,27,Roseiral,
31204,BR,5,Moura,
31205,BR,6,Poranga,
31206,BR,16,Prainha,
31207,BR,26,Major Vieira,
31208,BR,5,José Gonçalves,
31209,BR,5,Macajuba,
31210,BR,29,Cumari,
31211,BR,30,Cacimbas,
31212,BR,21,Nova Brasília,
31213,BR,22,Paràzinho,
31214,BR,27,Sítio Dos Pilões,
31215,BR,6,Antonina Do Norte,
31216,BR,8,São Roque,
31217,BR,31,Dueré,
31218,BR,30,Brejão,
31219,BR,28,Poço Redondo,
31220,BR,5,Mangabeira,
31221,BR,23,Colorado,
31222,BR,2,Pôrto De Pedras,
31223,BR,5,Sítio Do Mato,
31224,BR,23,Campinas Do Sul,
31225,BR,21,Vila Isabel,
31226,BR,23,Chácara São João,
31227,BR,30,Primavera,
31228,BR,30,São Benedito,
31229,BR,27,Marcondésia,
31230,BR,29,Estrêla Do Norte,
31231,BR,6,Madalena,
31232,BR,16,Oeiras Do Pará,
31233,BR,23,Mormaço,
31234,BR,8,Itaúnas,
31235,BR,8,Apiacá,
31236,BR,17,Bonsucesso,
31237,BR,5,Pacatu,
31238,BR,6,Mundubim,
31239,BR,21,Vale Do Agrio,
31240,BR,6,Santa Luzia,
31241,BR,6,Tanque,
31242,BR,21,Batalha,
31243,BR,21,Tubiacanga,
31244,BR,21,Bananal,
31245,BR,21,Morro Das Moedas,
31246,BR,21,Vila Jacaré,
31247,BR,23,4a Légua,
31248,BR,5,Araticum,
31249,BR,21,Santana Dos Tiradentes,
31250,BR,27,Luisiânia,
31251,BR,15,Ressaca,
31252,BR,21,Jaconé,
31253,BR,30,Venda Grande,
31254,BR,18,Sítio José Serote,
31255,BR,15,Toledos,
31256,BR,15,Cobiça,
31257,BR,27,Bairro Jardim Novo Parelheiros,
31258,BR,18,Prata,
31259,BR,26,Alto Atafona,
31260,BR,26,Ponte Alta De Cima,
31261,BR,27,Lambari Do Meio,
31262,BR,15,Cocho De Água,
31263,BR,15,Xapetuba,
31264,BR,15,Avantiguara,
31265,BR,27,Sítio Dourinho,
31266,BR,27,Sítio Carione,
31267,BR,27,Lagoa Sêca,
31268,BR,15,Cruzeiro Da Fortaleza,
31269,BR,6,Miraíma,
31270,BR,23,Coronel Barros,
31271,BR,15,Carvalhos,
31272,BR,15,Santa Cruz Do Escalvado,
31273,BR,26,Ponte Alta Do Norte,
31274,BR,27,Trabiju,
31275,BR,15,Chapada,
31276,BR,5,Pé De Serra,
31277,BR,18,Kaloré,
31278,BR,18,Inajá,
31279,BR,15,Silveirânia,
31280,BR,13,Sítio Novo,
31281,BR,27,Pracinha,
31282,BR,27,Guapiranga,
31283,BR,6,Várzea,
31284,BR,23,Guabiju,
31285,BR,23,Araçá,
31286,BR,21,Abolição,
31287,BR,18,Sítio Pédro F. Gomes,
31288,BR,5,Queimadas,
31289,BR,29,Firminópolis,
31290,BR,5,Piraí Do Norte,
31291,BR,16,São Sebastião Da Boa Vista,
31292,BR,4,San José,
31293,BR,30,Sirinhaém,
31294,BR,5,Palmeiras,
31295,BR,3,Pôrto Grande,
31296,BR,18,Flórida,
31297,BR,27,Parque Do Lago,
31298,BR,13,Matões,
31299,BR,29,Índio,
31300,BR,26,Belchior Alto,
31301,BR,26,Pameranos,
31302,BR,15,André Resende,
31303,BR,23,Doutor Bozano,
31304,BR,18,Jumirim,
31305,BR,15,Silveira Carvalho,
31306,BR,17,Baía Da Traição,
31307,BR,8,São João De Petrópolis,
31308,BR,31,Formoso Do Araguaia,
31309,BR,22,João Dias,
31310,BR,30,Sertão,
31311,BR,18,Santa Cecília,
31312,BR,29,Três Ranchos,
31313,BR,27,Itaju,
31314,BR,21,Anil,
31315,BR,26,Encano Alto,
31316,BR,21,Bancários,
31317,BR,21,Vila Prota,
31318,BR,30,Quati,
31319,BR,16,Novo Acôrdo,
31320,BR,23,Tavares,
31321,BR,13,Santo Antônio Dos Lopes,
31322,BR,2,Mata Grande,
31323,BR,18,Porto Amazonas,
31324,BR,30,Guabiraba,
31325,BR,27,Bairro Da Serrinha,
31326,BR,22,Fernando Pedroza,
31327,BR,21,Vila Rosali,
31328,BR,6,Nova Floresta,
31329,BR,26,Salete,
31330,BR,5,Boa Hora,
31331,BR,15,Cachoeira Do Brumado,
31332,BR,29,Nova Veneza,
31333,BR,5,Caém,
31334,BR,5,Ituaçu,
31335,BR,21,Ingá,
31336,BR,15,Amparo Da Serra,
31337,BR,27,Vila Guedes,
31338,BR,6,Cantagalo,
31339,BR,21,Conjunto Seis De Novembro,
31340,BR,21,Porto Novo,
31341,BR,15,Chácara,
31342,BR,25,Olho D'agua,
31343,BR,30,Granito,
31344,BR,16,São João Do Araguaia,
31345,BR,27,Nova América,
31346,BR,21,Parada De Lucas,
31347,BR,6,Jaibaras,
31348,BR,21,Serrinha Do Mendanha,
31349,BR,21,Ribeira,
31350,BR,27,Batistini,
31351,BR,27,Sobrado Velho,
31352,BR,27,Paranapuá,
31353,BR,17,Garrotes,
31354,BR,26,Rio Das Antas,
31355,BR,16,Jacundá,
31356,BR,30,Ibiranga,
31357,BR,6,Tarrafas,
31358,BR,28,Itaporanga D'ajuda,
31359,BR,23,Amaral Ferrador,
31360,BR,13,Lagoa Grande,
31361,BR,23,São Paulo,
31362,BR,5,Lagoa Do Meio,
31363,BR,21,Vila Equitativa,
31364,BR,15,Piedade Do Paraopeba,
31365,BR,31,Filadélfia,
31366,BR,15,Correia De Almeida,
31367,BR,27,Rio Grande,
31368,BR,2,Ouro Branco,
31369,BR,25,Borges,
31370,BR,22,Pureza,
31371,BR,21,Itambi,
31372,BR,17,Juripiranga,
31373,BR,23,Três Arroios,
31374,BR,2,Açuarana,
31375,BR,23,Loteamento Vila Imperial,
31376,BR,21,Jardim Carioca,
31377,BR,15,Amianto,
31378,BR,18,Sítio João E. Ferri,
31379,BR,11,Brilhante,
31380,BR,23,Mont' Alverne,
31381,BR,2,Alagôas,
31382,BR,15,Alagoa,
31383,BR,27,Cerquilho Velho,
31384,BR,5,Terra Nova,
31385,BR,8,Bubu,
31386,BR,15,Icarai,
31387,BR,27,Nova Guataporanga,
31388,BR,30,Trindade,
31389,BR,15,Cataguarino,
31390,BR,31,Santa Tereza Do Tocantins,
31391,BR,17,Umbuzeiro,
31392,BR,22,Dix-sept Rosado,
31393,BR,21,Colégio,
31394,BR,18,Campo Comprido,
31395,BR,30,Tupanatinga,
31396,BR,26,13 De Maio,
31397,BR,27,Estação,
31398,BR,18,Alexandra,
31399,BR,5,Matões,
31400,BR,21,Sambaetiba,
31401,BR,29,Santo Antonio Do Olho D'agua,
31402,BR,27,Quinta Da Cantareira,
31403,BR,14,Fátima,
31404,BR,21,São Vicente De Paula,
31405,BR,6,Pacujá,
31406,BR,18,São Luiz Do Purunã,
31407,BR,27,Mirassolândia,
31408,BR,3,Amapá,
31409,BR,27,Rio Pequeno,
31410,BR,18,Nova União,
31411,BR,27,Santana Da Ponte Pensa,
31412,BR,17,Baraúna,
31413,BR,5,Santo Antônio,
31414,BR,15,Santana Dos Montes,
31415,BR,6,Jacaúna,
31416,BR,21,Cidade Nova,
31417,BR,29,Cachoeira De Goiás,
31418,BR,23,Pinheirinho,
31419,BR,22,Pedro Avelino,
31420,BR,18,Quitandinha,
31421,BR,29,Pilar De Goiás,
31422,BR,21,Ilha,
31423,BR,18,Vitorino,
31424,BR,23,Itapuã,
31425,BR,27,Monte Verde Paulista,
31426,BR,21,Posse Dos Coutinhos,
31427,BR,15,José Primo,
31428,BR,15,Tijuco,
31429,BR,8,Itaoca,
31430,BR,2,Riacho Do Mel,
31431,BR,31,Canela,
31432,BR,16,Aldeia Fichada,
31433,BR,18,Rio Bonito,
31434,BR,20,Monsenhor Hipólito,
31435,BR,27,Ribeirão Grande,
31436,BR,29,Mambaí,
31437,BR,23,Quatipi,
31438,BR,5,Boninal,
31439,BR,17,São João Do Cariri,
31440,BR,18,Pôrto Itacorá,
31441,BR,27,Parisi,
31442,BR,28,Pedra Mole,
31443,BR,15,Rio Vermelho,
31444,BR,22,Juruá,
31445,BR,26,Fragosos,
31446,BR,27,Zacarias,
31447,BR,15,Ermidinha,
31448,BR,16,Colônia Cocalinho,
31449,BR,15,Brígido,
31450,BR,30,Matapagipe,
31451,BR,26,Rio Rafael Braço Grande,
31452,BR,4,Friburgo,
31453,BR,5,Abaíra,
31454,BR,27,Rubinéia,
31455,BR,13,Monção,
31456,BR,23,Pôrto Xavier,
31457,BR,23,Ramada,
31458,BR,31,Itapiratins,
31459,BR,23,Doutor Maurício Cardoso,
31460,BR,27,São João,
31461,BR,18,Abranches,
31462,BR,15,Vale Do Sol,
31463,BR,21,Fazenda Da Bica,
31464,BR,15,Buriti Grande,
31465,BR,27,Sítio Nossa Senhora Do Carmo,
31466,BR,15,Ressaquinha,
31467,BR,27,Espigão,
31468,BR,8,Governador Lindenberg,
31469,BR,21,Taboas,
31470,BR,5,Guajeru,
31471,BR,23,Humaitá,
31472,BR,5,Piatã,
31473,BR,22,Equador,
31474,BR,23,Charrua,
31475,BR,22,Igapó,
31476,BR,23,São José Do Inhacorá,
31477,BR,27,Guarani D'oeste,
31478,BR,26,Caxambu,
31479,BR,26,Santa Cruz Do Timbó,
31480,BR,21,Curicica,
31481,BR,27,Jabaquara,
31482,BR,5,Heliópolis,
31483,BR,21,Santo Amaro De Campos,
31484,BR,5,Brejo Velho,
31485,BR,15,Medeiros,
31486,BR,4,Itaúba,
31487,BR,23,Chiapetta,
31488,BR,18,Paranapoema,
31489,BR,27,Silveiras,
31490,BR,17,Pitimbu,
31491,BR,17,Imaculada,
31492,BR,2,Cedro,
31493,BR,21,Parque Boa Ventura,
31494,BR,21,Cordeiros,
31495,BR,23,Catupi,
31496,BR,2,São Domingos,
31497,BR,23,Barro Vermelho,
31498,BR,30,Muçuroca,
31499,BR,23,Pôrto Batista,
31500,BR,27,Sítio São José,
31501,BR,22,Santana Do Matos,
31502,BR,18,Atuba,
31503,BR,22,Januário Cicco,
31504,BR,29,Damianópolis,
31505,BR,26,Paula,
31506,BR,27,Palmeira,
31507,BR,5,São Felipe,
31508,BR,6,Nova Olinda,
31509,BR,27,Saboó,
31510,BR,26,São José Do Cerrito,
31511,BR,17,Saco Do André,
31512,BR,5,Cacimba De Pedra,
31513,BR,26,General Daltro Filho,
31514,BR,26,Rodeio Chato,
31515,BR,15,Vargem Limpa,
31516,BR,5,Saúde,
31517,BR,27,Terra Preta,
31518,BR,27,Campina,
31519,BR,18,Marques,
31520,BR,21,Jardim Paraíso,
31521,BR,6,Macaraú,
31522,BR,8,Fortaleza,
31523,BR,29,Fazenda Nova,
31524,BR,31,Wanderlândia,
31525,BR,15,São Félix,
31526,BR,6,Jatobá,
31527,BR,26,Xapecó,
31528,BR,2,Minador Do Negrão,
31529,BR,21,Floresta Da Tijuca,
31530,BR,8,Ipê,
31531,BR,20,Matias Olímpio,
31532,BR,17,São João,
31533,BR,6,Croatá,
31534,BR,30,Ibiratinga,
31535,BR,23,Anta Gorda,
31536,BR,21,Lídice,
31537,BR,31,Monte Do Carmo,
31538,BR,31,Tupiratins,
31539,BR,18,Iguaraçu,
31540,BR,6,Barroquinha,
31541,BR,14,Bonfim,
31542,BR,14,Seringal Rio Verde,
31543,BR,26,10 De Novembro,
31544,BR,11,Lontra,
31545,BR,31,Pug Mill,
31546,BR,6,Carrapateira,
31547,BR,27,Villa Maria,
31548,BR,5,Ajuda,
31549,BR,15,Martinésia,
31550,BR,21,Cidade Dos Meninos,
31551,BR,26,Catuíra,
31552,BR,26,Sêrro,
31553,BR,15,São Thomé Das Lettras,
31554,BR,26,São João Do Itaperiú,
31555,BR,21,Frades,
31556,BR,18,Pirianito,
31557,BR,15,Jaime Ferreira,
31558,BR,11,Pôrto Guarani,
31559,BR,5,Batista,
31560,BR,18,Pinhais,
31561,BR,7,Taguatinga,
31562,BR,30,Pau D'alho,
31563,BR,30,Guararapes,
31564,BR,30,Conceição,
31565,BR,16,Santa Isabel,
31566,BR,18,Fazenda Rio Grande,
31567,BR,31,Boa Vista,
31568,BR,24,Mutum,
31569,BR,5,Magalhães,
31570,BR,23,Verde Mar,
31571,BR,15,Urucuia,
31572,BR,18,Santa Isabel,
31573,BR,17,Aparecida,
31574,BR,18,Esperança,
31575,BR,30,Jatobá,
31576,BR,8,Governador Lindemberg,
31577,BR,16,Macaúba,
31578,BR,4,Boa Vista,
31579,BR,17,Cachoeira,
31580,BR,16,Floresta,
31581,BR,30,Lagoa Do Ouro,
31582,BR,17,Maturé,
31583,BR,29,Água-limpa,
31584,BR,5,Jacuípe,
31585,BR,5,Itiruçu,
31586,BR,5,Andaraí,
31587,BR,23,Tigre,
31588,BR,15,Morada Nova,
31589,BR,17,Tapira,
31590,BR,27,Califórnia,
31591,BR,30,Ferreiros,
31592,BR,27,Redenção,
31593,BR,16,São Sebastião,
31594,BR,16,Cajuapara,
31595,BR,17,Conceição,
31596,BR,30,Itambé,
31597,BR,5,Encruzilhada,
31598,BR,24,Sêco Do Manduca,
31599,BR,30,Poção,
31600,BR,14,Aldeia Caiabi,
31601,BR,17,Santo André,
31602,BR,17,Paulista,
31603,BR,5,Estiva,
31604,BR,18,Pouso Alegre,
31605,BR,24,Barracão Do Liberato,
31606,BR,31,Santa Rosa,
31607,BR,14,Pedro Dantas,
31608,BR,24,Pôrto Bicentenário,
31609,BR,15,Macuco,
31610,BR,21,Chapadão,
31611,BR,15,José Goncalves,
31612,BR,13,Pastos Bons,
31613,BR,15,Água Comprida,
31614,BR,18,São Bento,
31615,BR,20,Abreu,
31616,BR,18,Criciúma,
31617,BR,23,Monte Belo,
31618,BR,27,Rodrigues,
31619,BR,18,Souza,
31620,BR,15,São Francisco Do Glória,
31621,BR,15,Nazareno,
31622,BR,23,Cochinho,
31623,BR,16,Maracajá,
31624,BR,16,Pôrto Do Cocaual,
31625,BR,13,Graça Aranha,
31626,BR,5,Secador,
31627,BR,5,Mata,
31628,BR,23,Itaúba,
31629,BR,14,Nova,
31630,BR,29,Turvânia,
31631,BR,5,Cascavel,
31632,BR,17,Mataraca,
31633,BR,17,Borborema,
31634,BR,17,Santa Teresinha,
31635,BR,16,Macapá,
31636,BR,6,Barreira,
31637,BR,27,Belo Horizonte,
31638,BR,25,Mecalineta,
31639,BR,27,Pouso Alegre,
31640,BR,6,Serpa,
31641,BR,22,Miraselva,
31642,BR,18,Três Barras,
31643,BR,21,Campinas,
31644,BR,26,Barra Do Veado,
31645,BR,18,Barracão,
31646,BR,30,Machados,
31647,BR,26,São Paulo,
31648,BR,5,Paraíso,
31649,BR,14,Pôrto Dos Gaúchos,
31650,BR,14,Santa Erica,
31651,BR,14,Lucas,
31652,BR,30,Alagoinha,
31653,BR,18,Colônia Pascal,
31654,BR,26,Barra Do Trombudo,
31655,BR,5,Canabrava,
31656,BR,30,Niteroi,
31657,BR,8,Lagoa,
31658,BR,11,Bataguaçu,
31659,BR,16,Ipixuna,
31660,BR,21,Barão,
31661,BR,2,Caboclo,
31662,BR,27,Núcleo Ibicatu,
31663,BR,27,Angico,
31664,BR,18,Salto,
31665,BR,5,Capanema,
31666,BR,26,Aguti,
31667,BR,21,Cavaru,
31668,BR,15,Fernão Dias,
31669,BR,2,Cacimbinhas,
31670,BR,15,São João Da Ponte,
31671,BR,20,Jaicós,
31672,BR,22,São Miguel De Touros,
31673,BR,2,Paripueira,
31674,BR,15,Santo Antônio Do Leite,
31675,BR,13,Viana,
31676,BR,15,Caiana,
31677,BR,5,Guarajúba,
31678,BR,21,Saúde,
31679,BR,29,Cristianópolis,
31680,BR,21,San Francisco,
31681,BR,27,Sítio Romansa,
31682,BR,21,Gaviões,
31683,BR,2,Pontos Brancos,
31684,BR,5,Maracujá,
31685,BR,5,Caldeirão Do Mato,
31686,BR,26,Calmom,
31687,BR,5,Casa Velha,
31688,BR,23,São Bernardo,
31689,BR,21,Poco D'anta,
31690,BR,27,Penha De França,
31691,BR,26,Mulde Central,
31692,BR,27,Caximba,
31693,BR,23,Santo Antão,
31694,BR,14,Pires,
31695,BR,30,Poco Fundo,
31696,BR,13,Passa Tempo,
31697,BR,5,Alagoas,
31698,BR,18,Freitas,
31699,BR,18,Águas Claras,
31700,BR,27,Piratuba,
31701,BR,18,União Da Vitória,
31702,BR,15,Modêlo,
31703,BR,26,Balneário,
31704,BR,5,Santa Terezinha,
31705,BR,27,São Caetano,
31706,BR,27,Santa Rita,
31707,BR,14,Paulista,
31708,BR,27,Parnaíba,
31709,BR,27,Jardim,
31710,BR,15,Monte Alegre,
31711,BR,27,Francisco Da Rocha,
31712,BR,27,São Bernardo,
31713,BR,27,Jundiaquara,
31714,BR,21,Búzios,
31715,BR,21,Campo Belo,
31716,BR,18,Eldorado,
31717,BR,30,Piedade,
31718,BR,16,Pará,
31719,BR,18,Boa Esperança,
31720,BR,5,Pataíba,
31721,BR,21,Campos Dos Goitacazes,
31722,BR,27,Ouro Fino,
31723,BR,30,Arrecife,
31724,BR,21,Caxias,
31725,BR,15,Severiano,
31726,BR,5,Feira,
31727,BR,17,Souza,
31728,BR,28,São Paulo,
31729,BR,23,Esperança,
31730,BR,30,Belém Do São Francisco,
31731,BR,6,Penha,
31732,BR,30,Afrânio,
31733,BR,27,Junqueira,
31734,BR,27,Monte Azul,
31735,BR,15,Lindolfo,
31736,BR,27,Bragança,
31737,BR,21,Lapa,
31738,BR,15,Olhos D'agua,
31739,BR,17,Santana,
31740,BR,22,Arez,
31741,BR,8,Aracê,
31742,BR,17,Baixio,
31743,BR,15,Orizânia,
31744,BR,31,Floresta,
31745,BR,13,Negro,
31746,BR,17,Várzea,
31747,BR,15,Patos,
31748,BR,23,Açapucaí,
31749,BR,4,Barra Do Rio Negro,
31750,BR,17,Mae D'agua,
31751,BR,22,Assu,
31752,BR,27,Nova Pátria,
31753,BR,28,Socorro,
31754,BR,15,Estrêla Dalva,
31755,BR,15,Fortaleza,
31756,BR,17,São José Dos Cordeiros,
31757,BR,22,Serra Branca,
31758,BR,17,Dona Inês,
31759,BR,17,Estrela,
31760,BR,15,Lafaiete,
31761,BR,26,São Lourenço,
31762,BR,21,Paraty,
31763,BR,16,Belem Do Pará,
31764,BR,5,Belo Campo,
31765,BR,21,Manuel Duarte,
31766,BR,21,São Sebastião,
31767,BR,27,Baragança,
31768,BR,13,Montevidéo,
31769,BR,5,Triunfo,
31770,BR,5,Branco,
31771,BR,23,Rodeio Bonito,
31772,BR,18,Porto Alegre,
31773,BR,8,Divino,
31774,BR,15,São Sebastião Paraíso,
31775,BR,15,Crucilândia,
31776,BR,21,Guarani,
31777,BR,5,Moreira,
31778,BR,27,Mogy Das Cruzes,
31779,BR,5,Itinga,
31780,BR,15,Monlevade,
31781,BR,15,Piau,
31782,BR,30,Várzea Alegre,
31783,BR,6,Borges,
31784,BR,30,Prata,
31785,BR,17,Condado,
31786,BR,23,Livramento,
31787,BR,2,São Miguel,
31788,BR,26,São Jorge,
31789,BR,18,Imbuia,
31790,BR,23,Caxias,
31791,BR,27,São Carlos Do Pinhal,
31792,BR,6,Itapajé,
31793,BR,5,Salgado,
31794,BR,29,Diorama,
31795,BR,16,São Geraldo,
31796,BR,20,Juazeiro,
31797,BR,13,Boa Hora,
31798,BR,15,Gloria,
31799,BR,26,Rio Sul,
31800,BR,20,Terezina,
31801,BR,13,Maranhão,
31802,BR,17,Santa Maria,
31803,BR,5,São Gonçalo,
31804,BR,21,Angra,
31805,BR,2,São Luiz Do Quitunde,
31806,BR,27,Monte Belo,
31807,BR,13,Jussara,
31808,BR,8,Jequitiba,
31809,BR,5,Tanquinho,
31810,BR,5,Iguaba,
31811,BR,27,Mata,
31812,BR,5,Corumbá,
31813,BR,23,São José,
31814,BR,21,Prata,
31815,BR,21,Morro Redondo,
31816,BR,15,Pará,
31817,BR,29,Bela Vista,
31818,BR,29,Palmeiras,
31819,BR,5,Vitória,
31820,BR,17,Livramento,
31821,BR,18,Porto Velho,
31822,BR,15,Bello Horizonte,
31823,BR,30,Boa Vista,
31824,BR,31,São Félix,
31825,BR,15,Taquarussú,
31826,BR,24,Velho,
31827,BR,27,Itapecerica,
31828,BR,15,Conceição,
31829,BR,15,Rio Branco,
31830,BR,15,Brasília,
31831,BR,20,Serra,
31832,BR,5,Ipitanga,
31833,BR,16,Abaeté,
31834,BR,16,São Luís,
31835,BR,15,Moeda,
31836,BR,24,Santa Cruz,
31837,BR,15,Cruz,
31838,BR,21,Jesuítas,
31839,BR,2,Tanque,
31840,BR,27,Ibiti,
31841,BR,15,Venda,
31842,BR,11,São José,
31843,BR,11,Dois Irmãos,
31844,BR,18,Foz Do Iguassú,
31845,BR,23,Caçapava,
31846,BR,21,Olaria,
31847,BR,23,Novo Hamburg,
31848,BR,23,São Miguel,
31849,BR,15,Roseira,
31850,BR,14,Vila Bela Da Santíssima Trindade,
31851,BR,26,Jaraguá,
31852,BR,14,Santa Rita Do Araguaia,
31853,BR,20,Palmeirais,
31854,BR,23,Palmeira,
31855,BR,14,Chapada,
31856,BR,8,Cachoeiro Do Itapemirim,
31857,BR,29,Moiporá,
31858,BR,30,Serra Grande,
31859,BR,27,Taiaçupeba,
31860,BR,21,Jardim Santa Helena,
31861,BR,27,Presidente Tibiriça,
31862,BR,21,Pousada Do Engenho,
31863,BR,5,Oiticeiro,
31864,BR,21,Angola,
31865,BR,15,Serranópolis,
31866,BR,27,Parque Manaca,
31867,BR,22,Caiçara,
31868,BR,6,Mucuripe,
31869,BR,5,Lobato,
31870,BR,18,Camargo,
31871,BR,20,Piçarra,
31872,BR,27,Pedra,
31873,BR,27,Jahú,
31874,BR,31,Arapoema,
31875,BR,17,Cabaceiras,
31876,BR,13,Ribamar,
31877,BR,13,Domingos,
31878,BR,27,Santo Antônio,
31879,BR,18,Lunardelli,
31880,BR,23,Rio Grande Do Sul,
31881,BR,26,Pirabeiraba,
31882,BR,26,Sao Miguel D'oeste,
31883,BR,27,Paraguaçu,
31884,BR,27,Ruilândia,
31885,BR,15,Joselândia,
31886,BR,18,Fortaleza,
31887,BR,23,Maçambará,
31888,BR,23,Bom Retiro,
31889,BR,21,Lagoinha,
31890,BR,14,Ponte Branca,
31891,BR,23,Formosa,
31892,BR,5,Maragojipe,
31893,BR,6,Fazenda Torto,
31894,BR,2,Recurso,
31895,BR,26,Arabutã,
31896,BR,2,Riacho Sêco,
31897,BR,23,Natal,
31898,BR,27,Barreiro,
31899,BR,15,Cata Branca,
31900,BR,15,Paiano,
31901,BR,21,Quiçamã,
31902,BR,27,Boa Chapeleira,
31903,BR,15,Piumhi,
31904,BR,5,São Luiz,
31905,BR,27,Arthur Nogueira,
31906,BR,20,Cocal Dos Alves,
31907,BR,5,Bonito,
31908,BR,20,Gameleiras,
31909,BR,15,Braúnas,
31910,BR,27,Tupi,
31911,BR,18,Cafeara,
31912,BR,6,Raposa,
31913,BR,29,São Félix,
31914,BR,15,Virgolândia,
31915,BR,30,Camarajibe,
31916,BR,18,Tamandaré,
31917,BR,18,Brasília,
31918,BR,20,Baixa Grande,
31919,BR,21,Itacurussá,
31920,BR,11,Lagoas,
31921,BR,22,Mangabeira,
31922,BR,23,Carlos Gomes,
31923,BR,21,Parque São Carlos,
31924,BR,15,Ponte Do Cigano,
31925,BR,23,Miraguaia,
31926,BR,18,Cruzeiro Do Norte,
31927,BR,27,Uru,
31928,BR,20,Fortaleza,
31929,BR,15,Matias Cardoso,
31930,BR,15,Santa Rosa,
31931,BR,6,Mucambo,
31932,BR,27,Barra Do Turvo,
31933,BR,30,Brejinho,
31934,BR,26,Mirim Doce,
31935,BR,15,Ricardo,
31936,BR,23,Boa Vista,
31937,BR,15,Camacho,
31938,BR,3,Itaúbal,
31939,BR,29,Nova América,
31940,BR,5,São Thomé,
31941,BR,15,Pôrto Firme,
31942,BR,6,Pecém,
31943,BR,15,Morro Vermelho,
31944,BR,13,Araioses,
31945,BR,11,Lagoa,
31946,BR,30,São Vicente Férrer,
31947,BR,26,Caràzinho,
31948,BR,5,Penha,
31949,BR,18,Sítio Valdir V. Da Silva,
31950,BR,21,Babi,
31951,BR,26,Bateia,
31952,BR,5,Ibiajara,
31953,BR,16,Anajás,
31954,BR,21,Sao Pedro D'aldeia,
31955,BR,20,Valença,
31956,BR,5,Iramaia,
31957,BR,13,Inês,
31958,BR,23,São Lourenço,
31959,BR,17,Cabrais,
31960,BR,29,Alto Paraíso De Goiás,
31961,BR,26,Águas De Chapecó,
31962,BR,15,Destêrro Do Melo,
31963,BR,18,Paraíso,
31964,BR,29,Serra Dourada,
31965,BR,31,Santa Maria,
31966,BR,5,Dom Basílio,
31967,BR,15,Itaipé,
31968,BR,15,Caraí,
31969,BR,27,Jacarehy,
31970,BR,3,Calçoene,
31971,BR,21,São Joao De Barra,
31972,BR,21,Olavo Bilac,
31973,BR,8,Guarapary,
31974,BR,23,Flôres,
31975,BR,6,Passagem,
31976,BR,27,Xiririca,
31977,BR,26,Forquilha,
31978,BR,29,Novo Brasil,
31979,BR,13,Icatu,
31980,BR,28,Moita Bonita,
31981,BR,23,Serafina Correia,
31982,BR,2,Alagoinhas,
31983,BR,16,Repartimento,
31984,BR,27,Pouso Alto,
31985,BR,13,Alto Alegre,
31986,BR,5,Iuiú,
31987,BR,4,Brasil,
31988,BR,29,Ribeirão,
31989,BR,28,Monte Alegre,
31990,BR,17,Ibiara,
31991,BR,20,Lobão,
31992,BR,22,Alegria,
31993,BR,23,Nova,
31994,BR,21,Itacoatiara,
31995,BR,27,Cuiabá,
31996,BR,27,Sítio Grande,
31997,BR,29,Córrego De Ouro,
31998,BR,27,Sítio Parracinha,
31999,BR,2,Jacaré,
32000,BR,18,Sítio Santa Luizia,
32001,BR,21,Bairro Caroba,
32002,BR,16,Engenho Araci,
32003,BR,27,Sítio Do Cunhado,
32004,BR,27,Nucleo São Vicente De Paulo,
32005,BR,5,Canabrava Da Cruz,
32006,BR,3,Daniel,
32007,BR,26,Iracema,
32008,BR,22,Bela Vista,
32009,BR,5,Alvorada,
32010,BR,15,Antônio Dias,
32011,BR,29,São José,
32012,BR,13,Barreirinhas,
32013,BR,21,Grussaí,
32014,BR,21,Rocha,
32015,BR,13,Timbiras,
32016,BR,23,Pinhal,
32017,BR,29,Damolândia,
32018,BR,13,Gonçalves Dias,
32019,BR,18,Vítor,
32020,BR,15,Pedra Do Anta,
32021,BR,23,São Cristovão,
32022,BR,31,Buriti Do Tocantins,
32023,BR,21,Grama,
32024,BR,5,Zumbi,
32025,BR,21,Inglesa,
32026,BR,23,Pinhalzinho,
32027,BR,15,Farias,
32028,BR,23,Pitangueiras,
32029,BR,29,São Simão,
32030,BR,20,Redenção,
32031,BR,17,Santa Helena,
32032,BR,2,Carneiros,
32033,BR,6,Altaneira,
32034,BR,17,Riacho Dos Cavalos,
32035,BR,27,Susano,
32036,BR,5,Eldorado,
32037,BR,30,Camela,
32038,BR,30,Canudos,
32039,BR,15,Cedro Do Abaeté,
32040,BR,18,Santa Bárbara,
32041,BR,26,São Francisco,
32042,BR,18,Santa Amélia,
32043,BR,23,Lagoão,
32044,BR,24,Parecis,
32045,BR,14,Leverger,
32046,BR,11,Rio Branco,
32047,BR,27,Jundiapeba,
32048,BR,30,Barro Prêto,
32049,BR,17,Sabugirana,
32050,BR,21,Jardim Marambaia,
32051,BR,27,Sítio Lagoa,
32052,BR,15,Claúdio Manoel,
32053,BR,15,Francisco,
32054,BR,2,Japaratinga,
32055,BR,4,Manáos,
32056,BR,27,Guarani,
32057,BR,6,Alto Santo,
32058,BR,27,Cordeiro,
32059,BR,2,Barra De São Miguel,
32060,BR,18,Aurora,
32061,BR,27,Santa Rosa,
32062,BR,6,General Sampaio,
32063,BR,28,Canindé,
32064,BR,15,Vargem Bonita,
32065,BR,21,Vila Muriqui,
32066,BR,31,Itacajá,
32067,BR,23,Mato Leitão,
32068,BR,30,Afogados,
32069,BR,15,Alvarenga,
32070,BR,6,Juliana,
32071,BR,22,São João De Sabugy,
32072,BR,26,Ibiã,
32073,BR,27,Vale Das Flores,
32074,BR,15,Bento Rodrigues,
32075,BR,21,Jardim América,
32076,BR,15,Cachoeira,
32077,BR,15,Ingaí,
32078,BR,5,Belo Horizonte,
32079,BR,22,Rafael Fernandes,
32080,BR,15,Conceição De Ipanema,
32081,BR,17,Brejo Dos Santos,
32082,BR,14,Cocalinho,
32083,BR,2,Monteirópolis,
32084,BR,5,Quijingue,
32085,BR,21,Cachambi,
32086,BR,22,Lagoa,
32087,BR,23,Segrêdo,
32088,BR,22,Riacho,
32089,BR,31,São Paulo,
32090,BR,27,Ferraz,
32091,BR,30,Barreto,
32092,BR,20,Dourado,
32093,BR,21,Morro Azul Do Tinguá,
32094,BR,27,Tupan,
32095,BR,30,Paranatama,
32096,BR,15,Capela Nova,
32097,BR,26,Saltinho,
32098,BR,30,Marcolândia,
32099,BR,21,Fragoso,
32100,BR,5,São Cosme,
32101,BR,21,Barão Do Guandu,
32102,BR,5,Lapa,
32103,BR,18,Santa Felicidade,
32104,BR,31,Riachinho,
32105,BR,2,Novo Lino,
32106,BR,15,Fruta De Leite,
32107,BR,8,Santa Isabel,
32108,BR,30,Massapê,
32109,BR,27,Boa Vista,
32110,BR,15,Luislândia,
32111,BR,26,Bombas,
32112,BR,17,Cubati,
32113,BR,8,Dário,
32114,BR,18,Pinhal,
32115,BR,15,Domingos,
32116,BR,21,Parque Esperança,
32117,BR,15,Itumirim,
32118,BR,6,Piquet Carneiro,
32119,BR,15,Ascenção,
32120,BR,5,Pati,
32121,BR,26,Pinheiral,
32122,BR,27,Barão De Geraldo,
32123,BR,15,Riacho,
32124,BR,17,Serra Redonda,
32125,BR,5,Aratu,
32126,BR,4,Cachoerinha,
32127,BR,18,Atalaia,
32128,BR,15,Santo Antônio,
32129,BR,27,Jurupema,
32130,BR,17,Gado Bravo,
32131,BR,11,Rosa,
32132,BR,14,Cangas,
32133,BR,27,Conceição,
32134,BR,20,Morros,
32135,BR,23,Caxius Do Sul,
32136,BR,31,Ponte Alta Do Bom Jesus,
32137,BR,18,Guaraci,
32138,BR,31,Mundo Novo,
32139,BR,20,Buriti Dos Lopes,
32140,BR,14,Capinzal,
32141,BR,17,Gurjão,
32142,BR,5,Riachinho,
32143,BR,23,Bajé,
32144,BR,6,Salitre,
32145,BR,18,Lagoa,
32146,BR,8,Santa Cruz,
32147,BR,5,Arraial,
32148,BR,27,Pirapora,
32149,BR,5,Rio Do Pires,
32150,BR,27,Guariroba,
32151,BR,22,Livramento,
32152,BR,6,Baixio,
32153,BR,22,Formosa,
32154,BR,5,Soure,
32155,BR,21,Bonfim,
32156,BR,16,Limoeiro Do Ajuru,
32157,BR,21,Vigário Geral,
32158,BR,17,São Francisco,
32159,BR,22,Piranhas,
32160,BR,20,Demerval Lobão,
32161,BR,20,Cristino Castro,
32162,BR,23,Alecrim,
32163,BR,6,Aruá,
32164,BR,15,Vargem,
32165,BR,21,Serra,
32166,BR,15,Sericita,
32167,BR,27,Marabá Paulista,
32168,BR,15,Ewbank,
32169,BR,5,Pitinga,
32170,BR,5,Praia Grande,
32171,BR,11,Caracol,
32172,BR,27,Macucos,
32173,BR,30,São Paulo,
32174,BR,17,Fagundes,
32175,BR,14,Sentinela,
32176,BR,14,Taquari,
32177,BR,22,Cruz,
32178,BR,31,Esperantina,
32179,BR,15,Jaboticaba,
32180,BR,6,Campos,
32181,BR,31,Pedra Preta,
32182,BR,15,Santo Afonso,
32183,BR,5,Pinaré,
32184,BR,21,Colônia Agricola Knust,
32185,BR,21,Bairro Chaperó,
32186,BR,27,Pirapitingui,
32187,BR,27,Stio Dois Irmos,
32188,BR,27,Mantiqueira,
32189,BR,21,Itacolomi,
32190,BR,21,Barão Do Iriri,
32191,BR,30,Volta Grande,
32192,BR,30,Luanda,
32193,BR,23,Brocheirs,
32194,BR,21,Córrego Sujo,
32195,BR,27,Sapèzeiro,
32196,BR,27,Geada,
32197,BR,6,Fazenda Retriano,
32198,BR,27,Membeca,
32199,BR,17,Araçagi,
32200,BR,17,Riacho Do Sítio,
32201,BR,18,Baixo Verê,
32202,BR,15,Jacarini,
32203,BR,22,Passagem Do Meio,
32204,BR,23,Taimbé,
32205,BR,5,Lagoa Da Canabrava,
32206,BR,27,Ferrão,
32207,BR,21,Cabiúnas,
32208,BR,14,Bom Sucesso,
32209,BR,27,Sítio Das Pedras De Ouru,
32210,BR,18,São Martinho,
32211,BR,26,Grota Funda,
32212,BR,13,Trajano,
32213,BR,15,Congonhas Do Norte,
32214,BR,5,Tupim,
32215,BR,20,Jacobina,
32216,BR,27,Lençóis,
32217,BR,15,Alagoas,
32218,BR,21,Pureza,
32219,BR,21,Chatuba,
32220,BR,5,Ibirapitanga,
32221,BR,18,São Luiz,
32222,BR,22,Tabuleiro Grande,
32223,BR,6,Senador Sá,
32224,BR,5,Dom Macedo Costa,
32225,BR,21,Itaúna,
32226,BR,23,Erebango,
32227,BR,31,Carmolândia,
32228,BR,23,Maquiné,
32229,BR,21,Serra Do Capim,
32230,BR,6,Fazenda Lagoa Do Mato,
32231,BR,30,Lapa,
32232,BR,27,Sítio Ernesto Roco,
32233,BR,27,Serra Alegre,
32234,BR,5,Maçaranduba,
32235,BR,22,Serra Bonita,
32236,BR,27,Patundova,
32237,BR,30,Pôrto Boi Só,
32238,BR,21,Serceira,
32239,BR,23,Porto Da Manga,
32240,BR,23,Santa Lucia Do Piaí,
32241,BR,15,Papa Milho,
32242,BR,23,Filipson,
32243,BR,18,Moises,
32244,BR,18,Santa Inês,
32245,BR,5,Ramalho,
32246,BR,2,Várzea Da Ema,
32247,BR,18,Pantanal,
32248,BR,29,Nazaria,
32249,BR,18,Jandaia,
32250,BR,27,Santa Cruz Da Esperança,
32251,BR,20,São Gonçalo Do Piauí,
32252,BR,5,Araçás,
32253,BR,27,Tabuão Da Serra,
32254,BR,17,Camalaú,
32255,BR,27,Igaraí,
32256,BR,21,São José De Ubá,
32257,BR,26,Meia Praia,
32258,BR,30,São Sebastião,
32259,BR,23,Dois Lajeados,
32260,BR,15,Calixto,
32261,BR,15,Sítio Boa Esperança,
32262,BR,22,Boa Sorte,
32263,BR,18,Sítio José P. Soezzeki,
32264,BR,5,Rufino Félix,
32265,BR,27,Sítio Sonho Azul,
32266,BR,30,Segundo,
32267,BR,15,Bugre,
32268,BR,22,Lagoa Redonda,
32269,BR,30,Jurema,
32270,BR,23,São Francisco,
32271,BR,20,Regeneração,
32272,BR,5,Redenção,
32273,BR,26,Dois Irmãos,
32274,BR,20,Jenipapo,
32275,BR,21,Ricardo De Albuquerque,
32276,BR,17,São Miguel,
32277,BR,20,Therezina,
32278,BR,5,Laranjeiras,
32279,BR,31,Maurilândia Do Tocantins,
32280,BR,6,Aracatiaçu,
32281,BR,13,Pacheco,
32282,BR,30,Macapá,
32283,BR,28,São Francisco,
32284,BR,13,Santa Bárbara,
32285,BR,15,Soledade,
32286,BR,15,Paraíso,
32287,BR,8,Paraíso,
32288,BR,8,Pôrto De Santana,
32289,BR,22,Espírito Santo,
32290,BR,29,Montevidéu,
32291,BR,27,Stio Alvorada,
32292,BR,18,Sítio Salmo 91,
32293,BR,27,Stio Do Carmo,
32294,BR,23,Contrato,
32295,BR,27,Major Prado,
32296,BR,18,Caramuru,
32297,BR,30,Rucinha,
32298,BR,27,Valdelândia,
32299,BR,17,Lagoa,
32300,BR,2,Limoeiro,
32301,BR,5,Arapiranga,
32302,BR,13,Campestre,
32303,BR,2,União,
32304,BR,15,Mato Grosso,
32305,BR,29,São Miguel Do Araguaia,
32306,BR,21,Santa Isabel Do Rio Prêto,
32307,BR,30,São Lourenço,
32308,BR,15,São Sebastião Da Vitória,
32309,BR,31,São Domingos,
32310,BR,23,Capão Bonito,
32311,BR,5,Fragoso,
32312,BR,26,Galvão,
32313,BR,30,Jucati,
32314,BR,16,Santa Maria De Belém Do Grão Pará,
32315,BR,30,Quixaba,
32316,BR,11,Brasil,
32317,BR,26,São Bento,
32318,BR,2,Maravilha,
32319,BR,27,Stio Homero Evangelista,
32320,BR,6,Itaiapaba,
32321,BR,5,Lagoa Queimada,
32322,BR,23,Campo Vicente,
32323,BR,27,Stio So Bento,
32324,BR,22,Vasto Horizonte,
32325,BR,22,Traíras,
32326,BR,29,Leopoldo Bulhões,
32327,BR,5,Manguinhos,
32328,BR,27,Capela De São Benedito,
32329,BR,27,Princesa D'oeste,
32330,BR,27,Pôrto Ribeiro,
32331,BR,27,Pilar,
32332,BR,5,Campinhos,
32333,BR,15,Monte Celeste,
32334,BR,27,Sao Joao Do Pau D'alho,
32335,BR,17,Malta,
32336,BR,13,São João Batista,
32337,BR,6,São Gabriel,
32338,BR,21,São Bernardo,
32339,BR,5,Contendas Do Sincorá,
32340,BR,18,Fernandes Pinheiro,
32341,BR,28,Ilha Das Flores,
32342,BR,8,Itaquari,
32343,BR,21,Cesário Alvim,
32344,BR,15,Tapera,
32345,BR,5,Rio Fundo,
32346,BR,5,Araras,
32347,BR,21,Imbiara,
32348,BR,15,Raposo,
32349,BR,27,Stio Pedro Morais,
32350,BR,18,Pinheiral De Baixo,
32351,BR,6,Pessoa Anta,
32352,BR,23,Emboaba,
32353,BR,15,Passa Dez,
32354,BR,15,São Sebastião Do Sacramento,
32355,BR,18,Atomia,
32356,BR,18,Pilão De Pedra,
32357,BR,23,Conceição,
32358,BR,18,Melissa,
32359,BR,29,Surubi,
32360,BR,17,Santa Cruz,
32361,BR,27,São Joaquim,
32362,BR,18,Alto Alegre,
32363,BR,15,Indianópolis,
32364,BR,22,Jandaíra,
32365,BR,29,Descoberto,
32366,BR,20,Lagoa,
32367,BR,27,Posse,
32368,BR,18,Lago,
32369,BR,5,Real,
32370,BR,5,João Pessoa,
32371,BR,29,Goiandira,
32372,BR,27,Monte Negro,
32373,BR,15,Casa Branca,
32374,BR,6,Limoeiro,
32375,BR,17,Água Branca,
32376,BR,17,Curema,
32377,BR,16,Vila Nova,
32378,BR,21,Governador Amaral Peixoto,
32379,BR,27,Sítio Juqueri-mirim,
32380,BR,6,Lagartixa,
32381,BR,2,Santa Efigênia,
32382,BR,27,Brioso,
32383,BR,22,São Pedro Cachoeira,
32384,BR,23,Tapera Queimada,
32385,BR,18,Bruno,
32386,BR,27,Sucuri,
32387,BR,15,Estêvão De Araújo,
32388,BR,11,Jônatas,
32389,BR,15,Belisário,
32390,BR,15,Estrêla Do Indaiá,
32391,BR,11,Terezinha,
32392,BR,6,Jati,
32393,BR,15,Espírito Santo Do Dourado,
32394,BR,29,São Francisco De Goiás,
32395,BR,27,Gertrudes,
32396,BR,23,Petrópolis,
32397,BR,5,Mirante,
32398,BR,26,Ponte Alta,
32399,BR,23,Desvio Rizzo,
32400,BR,22,Manoel Dias,
32401,BR,15,Beira Serra,
32402,BR,5,Flechas,
32403,BR,27,Fazenda Bom Fim,
32404,BR,6,Guedeslândia,
32405,BR,15,São Sebastião Do Soberbo,
32406,BR,15,Córrego Da Valéria,
32407,BR,27,Pião,
32408,BR,5,Laje,
32409,BR,8,Santo Agostinho,
32410,BR,13,Matinha,
32411,BR,8,São Gonçalo,
32412,BR,17,Sebastião,
32413,BR,17,Nova Olinda,
32414,BR,21,São João,
32415,BR,8,Conceição,
32416,BR,5,Candeal,
32417,BR,8,Materlândia,
32418,BR,21,Campinho,
32419,BR,27,Palmeira Do Oeste,
32420,BR,23,Pôrto Lucena,
32421,BR,15,Antônio Gonçalves,
32422,BR,5,Sobrado,
32423,BR,21,Bela Vista,
32424,BR,17,Bom Jesus,
32425,BR,17,Nova Palmeira,
32426,BR,17,Aguiar,
32427,BR,13,São José,
32428,BR,13,Anajatuba,
32429,BR,23,São Domingos,
32430,BR,16,Outeiro,
32431,BR,28,Cabaceira,
32432,BR,5,Salinas,
32433,BR,5,Tremedal,
32434,BR,23,Patrocínio,
32435,BR,26,Santo Amaro,
32436,BR,26,Forquilhas,
32437,BR,31,Sucupira,
32438,BR,15,Campanário,
32439,BR,17,Belém Do Brejo Do Cruz,
32440,BR,13,Roque,
32441,BR,4,São João,
32442,BR,15,Colônia,
32443,BR,8,Guaraná,
32444,BR,5,Cruz,
32445,BR,18,Nova América Da Colina,
32446,BR,6,Caridade,
