locId,country,region,city,postcode
32546,BY,,,
32547,BY,4,Minsk,
32548,BY,1,Brest,
32549,BY,1,Baranovichi,
32550,BY,7,Novopolotsk,
32551,BY,7,Vitebsk,
32552,BY,2,Gomel,
32553,BY,3,Grodno,
32554,BY,6,Mogilev,
32555,BY,2,Lenina,
32556,BY,2,Zhlobin,
32557,BY,7,Sloboda,
32558,BY,2,Mozyr,
32559,BY,2,Kirova,
32560,BY,7,Polotsk,
32561,BY,4,Bobruisk,
32562,BY,3,Gorka,
32563,BY,4,Gorodetskaya,
32564,BY,1,Kobryn,
32565,BY,1,Belolesye,
32566,BY,3,Navahrudak,
32567,BY,3,Slonim,
32568,BY,7,Gryada,
32569,BY,7,Sharylino,
32570,BY,7,Barsuchina,
32571,BY,7,Klimova,
32572,BY,7,Selyuty,
32573,BY,2,Zlobin,
32574,BY,2,Dedov Kurgan,
32575,BY,3,Ischolnyany,
32576,BY,3,Shchenets,
32577,BY,3,Hrodna,
32578,BY,4,Grebeneva,
32579,BY,4,Vilchitsy,
32580,BY,4,Zabavy,
32581,BY,6,Jejnarowicze,
32582,BY,3,Sheybakpol,
32583,BY,4,Gribovets,
32584,BY,4,Dosovichi,
32585,BY,1,Girmontovtse,
32586,BY,6,Borisov,
32587,BY,6,Salihorsk,
32588,BY,6,Petrovinka,
32589,BY,6,Guya,
32590,BY,6,Labunshchina,
32591,BY,2,Gavli,
32592,BY,3,Jeziory,
32593,BY,3,Masty,
32594,BY,3,Streltsy,
32595,BY,3,Striyevka,
32596,BY,1,Zabinka,
32597,BY,1,Ivanava,
32598,BY,1,Sventsitsa,
32599,BY,7,Dvorishche,
32600,BY,7,Pligovki,
32601,BY,7,Golubyye,
32602,BY,7,Orsha,
32603,BY,4,Lezhnevka,
32604,BY,4,Zbyshin,
32605,BY,4,Polykovichi,
32606,BY,4,Levkovshchina,
32607,BY,6,Gojzewo,
32608,BY,3,Bershty,
32609,BY,1,Drogichin,
32610,BY,7,Senno,
32611,BY,7,Shumilina,
32612,BY,7,Boboviki,
32613,BY,4,Broshka,
32614,BY,6,Prudishcha,
32615,BY,3,Semerenki,
32616,BY,3,Saltoniskis,
32617,BY,6,Gurnoviche,
32618,BY,6,Priluki,
32619,BY,1,Pinsk,
32620,BY,6,Novaya Gayna,
32621,BY,1,Volna,
32622,BY,1,Grudy,
32623,BY,1,Alekseyeviche,
32624,BY,1,Korechin,
32625,BY,1,Ivatsevichi,
32626,BY,7,Baranovskiye,
32627,BY,7,Krupenina,
32628,BY,7,Ostrovlyane,
32629,BY,7,Frolkovichi,
32630,BY,2,Zelënaya Sloboda,
32631,BY,3,Kostsenevo,
32632,BY,4,Lupolovo,
32633,BY,6,Galitsa,
32634,BY,3,Lida,
32635,BY,3,Zabloc,
32636,BY,4,Mezhisyatki,
32637,BY,2,Mnogoversh,
32638,BY,6,Kurnevichi,
32639,BY,6,Posëlok Novaya Zhizn,
32640,BY,6,Mgle,
32641,BY,6,Belaruch,
32642,BY,6,Zhodino,
32643,BY,6,Kosino,
32644,BY,7,Pukanovka Pervaya,
32645,BY,2,Sokol Vinogradov,
32646,BY,2,Gubichi,
32647,BY,3,Taneviche,
32648,BY,3,Lychkovtse,
32649,BY,7,Turzhets Pervyy,
32650,BY,7,Posëlok Staroye Selo,
32651,BY,7,Nikolayeva,
32652,BY,4,Babinka,
32653,BY,4,Romanovichi,
32654,BY,2,Luchina,
32655,BY,1,Bogushëvo,
32656,BY,7,Yazvino,
32657,BY,7,Shapechino,
32658,BY,4,Novoye Drazhno,
32659,BY,6,Yurova,
32660,BY,6,Chatyn,
32661,BY,2,Sheyka,
32662,BY,6,Pasiki,
32663,BY,6,Chervyaki,
32664,BY,1,Pruzhany,
32665,BY,6,Obcheye,
32666,BY,1,Darevnaya,
32667,BY,7,Fatynya,
32668,BY,7,Kordon,
32669,BY,2,Mazyr,
32670,BY,3,Dzekhtsyary,
32671,BY,4,Bolonovselets,
32672,BY,4,Krasnitsa Pervaya,
32673,BY,6,Radoshkoviche,
32674,BY,6,Rogovo,
32675,BY,6,Molodechno,
32676,BY,6,Novaya Usyazhka,
32677,BY,6,Latygovka,
32678,BY,6,Medukhovo,
32679,BY,6,Malyye Kolodezi,
32680,BY,6,Kamenets,
32681,BY,6,Kuflany,
32682,BY,6,Padonki,
32683,BY,6,Prisëlki,
32684,BY,3,Savalyuvka,
32685,BY,1,Patarnoviche,
32686,BY,7,Pisarevo,
32687,BY,7,Chernetskoye,
32688,BY,4,Samodumka,
32689,BY,4,Saltanovka,
32690,BY,1,Bobroviche,
32691,BY,7,Yushkovo,
32692,BY,4,Asipovichy,
32693,BY,6,Miasota,
32694,BY,6,Brodnya,
32695,BY,2,Vetka,
32696,BY,6,Stolbtsy,
32697,BY,6,Zabicze,
32698,BY,6,Migówka,
32699,BY,6,Gródki,
32700,BY,6,Zhdanoviche,
32701,BY,7,Gorodok,
32702,BY,2,Shirokaya,
32703,BY,1,Kobrin,
32704,BY,2,Lenin,
32705,BY,1,Baranavichy,
32706,BY,6,Lyuban,
32707,BY,1,Beloozersk,
32708,BY,7,Haradok,
32709,BY,7,Rechitsa,
32710,BY,3,Skidel,
32711,BY,6,Besyady,
32712,BY,6,Rudnia,
32713,BY,6,Naroch,
32714,BY,4,Staraya Trasna,
32715,BY,2,Rogachev,
32716,BY,7,Orekhovo,
32717,BY,7,Volcho,
32718,BY,4,Bortny,
32719,BY,3,Voronovo,
32720,BY,3,Svisloch,
32721,BY,6,Logoysk,
32722,BY,6,Kalinina,
32723,BY,7,Ushachi,
32724,BY,6,Savdenivichi,
32725,BY,7,Lepel,
32726,BY,7,Tolochin,
32727,BY,6,Slutsk,
32728,BY,4,Snytki,
32729,BY,7,Braslav,
32730,BY,1,Krinitsa,
32731,BY,6,Berezenka,
32732,BY,3,Ross,
32733,BY,4,Bykhov,
32734,BY,7,Gorbatichi,
32735,BY,7,Witebsk,
32736,BY,7,Zaruchevya,
32737,BY,6,Zaslavl,
32738,BY,6,Novy Dvur,
32739,BY,2,Zavod,
32740,BY,7,Zhivoloka,
32741,BY,2,Svetlogorsk,
32742,BY,6,Nesvizh,
32743,BY,4,Tatenka Vtoraya,
32744,BY,2,Kvoshch,
32745,BY,2,Zakrev,
32746,BY,3,Vawkavysk,
32747,BY,1,Berëza,
32748,BY,6,Kopyl,
32749,BY,6,Kleck,
32750,BY,3,Smorgon,
32751,BY,6,Ivenets,
32752,BY,3,Bolshoye Selo,
32753,BY,6,Daynova,
32754,BY,3,Golynka,
32755,BY,6,Dishchitsy,
32756,BY,7,Shumilino,
32757,BY,7,Chashniki,
32758,BY,7,Gorki,
32759,BY,6,Zhodzina,
32760,BY,6,Starobin,
32761,BY,6,Libushany,
32762,BY,6,Korma,
32763,BY,6,Kupaly,
32764,BY,4,Nesyata,
32765,BY,7,Vitsyebsk,
32766,BY,7,Berëzovka,
32767,BY,7,Novolukoml,
32768,BY,4,Belynichi,
32769,BY,4,Glusk,
32770,BY,6,Lenino,
32771,BY,3,Semënovka,
32772,BY,6,Tarasovo,
32773,BY,6,Kochkuny,
32774,BY,6,Dzerzhinsk,
32775,BY,2,Dobrush,
32776,BY,7,Barsuki,
32777,BY,2,Solovey,
32778,BY,7,Konstantinov,
32779,BY,7,Liozno,
32780,BY,7,Polatsk,
32781,BY,7,Vileyka,
32782,BY,6,Lebedev,
32783,BY,3,Berestovica,
32784,BY,6,Marina Gorka,
32785,BY,6,Smolevichi,
32786,BY,2,Koshelëv,
32787,BY,6,Volozhin,
32788,BY,6,Sokol,
32789,BY,2,Bobrovskiy,
32790,BY,6,Ilya,
32791,BY,4,Krichëv,
32792,BY,7,Pastavy,
32793,BY,3,Krasnoselskiy,
32794,BY,7,Farinovo,
32795,BY,7,Polozk,
32796,BY,3,Ostrovets,
32797,BY,1,Luninets,
32798,BY,4,Cherikov,
32799,BY,7,Rossony,
32800,BY,7,Disna,
32801,BY,7,Borovka,
32802,BY,4,Klichev,
32803,BY,4,Mogilew,
32804,BY,6,Krupki,
32805,BY,7,Zhabinka,
32806,BY,3,Berestovitsa,
32807,BY,6,Maladzyechna,
32808,BY,3,Rakovichi,
32809,BY,4,Bobruysk,
32810,BY,1,Osipovichi,
32811,BY,7,Cherven,
32812,BY,2,Marino,
32813,BY,7,Dokshitsy,
32814,BY,6,Sluzk,
32815,BY,4,Rogach,
32816,BY,6,Seredina,
32817,BY,4,Bolshoy,
32818,BY,7,Miory,
32819,BY,2,Zhitkovichi,
32820,BY,7,Yakubova,
32821,BY,1,Pervomayskaya,
32822,BY,7,Nova,
32823,BY,2,Kalinkovichi,
32824,BY,6,Barysaw,
32825,BY,3,Otminovo,
32826,BY,4,Horki,
32827,BY,7,Dubrovno,
32828,BY,1,Antopol,
32829,BY,7,Sharkovshchina,
32830,BY,3,Shchuchin,
32831,BY,3,Dyatlovo,
32832,BY,2,Medvedev,
32833,BY,2,Lyubov,
32834,BY,2,Zhdanova,
32835,BY,4,Lunacharskiy,
32836,BY,3,Lipnishki,
32837,BY,7,Baran,
32838,BY,6,Starye Dorogi,
32839,BY,6,Ratomka,
32840,BY,4,Dublin,
32841,BY,2,Mikashevichi,
32842,BY,1,Divin,
32843,BY,4,Kalinin,
32844,BY,1,Gusak,
32845,BY,1,Stolin,
32846,BY,2,Kopatkevichi,
32847,BY,7,Klimovichi,
32848,BY,4,Babruysk,
32849,BY,6,Pleshchenitsy,
32850,BY,1,Galevo,
32851,BY,1,Baranowitschi,
32852,BY,4,Aleksandrov,
32853,BY,4,Kuchin,
32854,BY,3,Krivichi,
32855,BY,6,Rozhin,
32856,BY,7,Morozova,
32857,BY,2,Malyshev,
32858,BY,1,Ivanovo,
32859,BY,4,Senitsa,
32860,BY,2,Kommunar,
32861,BY,4,Gatovo,
32862,BY,6,Uzda,
32863,BY,2,Radin,
32864,BY,2,Stepanov,
32865,BY,1,Kosice,
32866,BY,4,Kashin,
32867,BY,1,Kamenets,
32868,BY,4,Shklov,
32869,BY,3,Zhdanovichi,
32870,BY,2,Elsk,
32871,BY,2,Bragin,
32872,BY,4,Stantsiya,
32873,BY,7,Kommunarka,
32874,BY,7,Sanni,
32875,BY,4,Chavusi,
32876,BY,6,Koren,
32877,BY,7,Bobrik,
32878,BY,7,Postavy,
32879,BY,6,Chernova,
32880,BY,3,Osinovka,
32881,BY,7,Star,
32882,BY,4,Chausy,
32883,BY,2,Poselok,
32884,BY,6,Runets,
32885,BY,2,Streshin,
32886,BY,6,Bobr,
32887,BY,3,Shylvybur,
32888,BY,2,Mormal,
32889,BY,2,Grom,
32890,BY,6,Korolëv Stan,
32891,BY,6,Zhdanovicha,
32892,BY,7,Spasskoye,
32893,BY,6,Peresady,
32894,BY,6,Bolshoye Zaluzhye,
32895,BY,6,Aputok,
32896,BY,7,Pastushki,
32897,BY,6,Alesinovo,
32898,BY,7,Kozly,
32899,BY,7,Platerów,
32900,BY,7,Selo,
32901,BY,4,Knyazhitsy,
32902,BY,7,Glubokoye,
32903,BY,6,Melyanovo,
32904,BY,2,Khovkhla,
32905,BY,7,Glistinets,
32906,BY,6,Guta,
32907,BY,6,Vekshichi,
32908,BY,1,Litevske,
32909,BY,2,Lipov,
32910,BY,1,Mogilitsa,
32911,BY,7,Lonske,
32912,BY,2,Slavan,
32913,BY,6,Glinishche,
32914,BY,6,Sucha Góra,
32915,BY,1,Malech,
32916,BY,1,Malaryta,
32917,BY,2,Rechitsa,
32918,BY,4,Stan,
32919,BY,1,Ostrovo,
32920,BY,1,Travy,
32921,BY,7,Borovlyane,
32922,BY,6,Mastishche,
32923,BY,7,Lyakhovichi,
32924,BY,1,Kleyniki,
32925,BY,1,Klepachi,
32926,BY,6,Rakov,
32927,BY,2,Golovki,
32928,BY,1,Yeremiche,
32929,BY,7,Beshenkobichy,
32930,BY,7,Tishkova,
32931,BY,1,Malorita,
32932,BY,3,Novyy Dvur,
32933,BY,3,Berëzovka,
32934,BY,6,Bryanchitsy,
32935,BY,1,Oltush,
32936,BY,4,Putniki,
32937,BY,1,Rodzyalova,
32938,BY,1,Masevichi,
32939,BY,7,Korolëvo,
32940,BY,7,Novaya Derevnya,
32941,BY,6,Slobodapyrasheva,
32942,BY,6,Zhukovka,
32943,BY,1,Gantsevichi,
32944,BY,6,Minshany,
32945,BY,6,Stankovo,
32946,BY,4,Slavgorod,
32947,BY,6,Pucilów,
32948,BY,6,Golotsk,
32949,BY,2,Gay,
32950,BY,6,Khutor Smolnitsa,
32951,BY,7,Korolëva,
32952,BY,7,Beshenkovichi,
32953,BY,7,Navapolatsk,
32954,BY,6,Smalyavichy,
32955,BY,6,Prilepy,
32956,BY,6,Napalki,
32957,BY,7,Sosnitsa,
32958,BY,2,Rahachow,
32959,BY,6,Mikhanovichi,
32960,BY,2,Rudenets,
32961,BY,6,Ulanovshchina,
32962,BY,7,Adamova,
32963,BY,2,Shilovichi,
32964,BY,6,Usha,
32965,BY,7,Gomel,
32966,BY,6,Volodzki,
32967,BY,6,Volma,
32968,BY,4,Novopashkovo,
32969,BY,2,Saltanovka,
32970,BY,3,Derechin,
32971,BY,7,Polesie,
32972,BY,3,Omelenets,
32973,BY,4,Kolodishchi,
32974,BY,7,Ropna,
32975,BY,2,Bogdan,
32976,BY,2,Belev,
32977,BY,7,Novo,
32978,BY,7,Gorno,
32979,BY,4,Stolitsa,
32980,BY,7,Shishkova,
32981,BY,2,Gomza,
32982,BY,2,Ryzhkov,
32983,BY,1,Shilin,
32984,BY,4,Krivaya,
32985,BY,4,Kravtsov,
32986,BY,7,Monastyr,
32987,BY,1,Kosov,
32988,BY,2,Semak,
32989,BY,6,Sitniki,
32990,BY,7,Ostrov,
32991,BY,6,Lada,
32992,BY,6,Luban,
32993,BY,7,Belaya,
32994,BY,6,Krupitsa,
32995,BY,6,Niva,
32996,BY,7,Bogushëvsk,
32997,BY,6,Sosny,
32998,BY,6,Soligorsk,
32999,BY,1,Krynica,
33000,BY,3,Neman,
33001,BY,6,Kletsk,
33002,BY,2,Medved,
33003,BY,7,Berezino,
33004,BY,4,Silichi,
33005,BY,7,Dubki,
33006,BY,6,Dukora,
33007,BY,6,Myadel,
33008,BY,2,Dzerzhinskiy,
33009,BY,7,Posad,
33010,BY,4,Loza,
33011,BY,6,Shatsk,
33012,BY,2,Slovechno,
33013,BY,7,Stolbtsy,
33014,BY,2,Zaglyadye,
33015,BY,6,Vesëlovo,
33016,BY,4,Medvedeva,
33017,BY,7,Russkiy,
33018,BY,6,Ilia,
33019,BY,3,Ashmyany,
33020,BY,6,Zasvyatoye,
33021,BY,6,Lugovaya Sloboda,
33022,BY,2,Loyew,
33023,BY,7,Spartak,
33024,BY,2,Progress,
33025,BY,2,Novaya Kravtsovka,
33026,BY,6,Vysokiye Lyady,
33027,BY,7,Chizhovka,
33028,BY,6,Vodopoy,
33029,BY,3,Oshmyany,
33030,BY,2,Zarya,
33031,BY,3,Volkovysk,
33032,BY,2,Homel,
33033,BY,3,Bogdanov,
33034,BY,2,Raduga,
33035,BY,6,Igrushka,
33036,BY,4,Bolshoy Trostenets,
33037,BY,7,Babinichi,
33038,BY,3,Derechyn,
33039,BY,3,Novogrudok,
33040,BY,7,Polotskiy,
33041,BY,7,Polese,
33042,BY,7,Kriusha,
33043,BY,3,Indura,
33044,BY,3,Subotniki,
33045,BY,7,Podolsk,
33046,BY,4,Sava,
33047,BY,6,Derevno,
33048,BY,1,Batche,
33049,BY,2,Ivaki,
33050,BY,3,Kopciowka,
33051,BY,2,Sjabrowsk,
33052,BY,2,Step,
33053,BY,7,Buraya,
33054,BY,2,Lyubanskiy,
33055,BY,6,Ilich,
33056,BY,3,Wolkowysk,
33057,BY,7,Golet,
33058,BY,1,Maloryta,
33059,BY,3,Pervomayskiy,
33060,BY,3,Vorona,
