locId,country,region,city,postcode
73918,CH,,,
73919,CH,11,Ebikon,
73920,CH,23,Vevey,
73921,CH,23,Lausanne,
73922,CH,1,Zurzach,
73923,CH,1,Windisch,
73924,CH,1,Aarau,
73925,CH,23,Crissier,
73926,CH,6,Fribourg,
73927,CH,8,Glarus,
73928,CH,19,Weinfelden,
73929,CH,25,Zürich,
73930,CH,20,Lugano,
73931,CH,7,Geneva,
73932,CH,23,Ecublens,
73933,CH,4,Basel,
73934,CH,12,Bevaix,
73935,CH,24,Steinhausen,
73936,CH,7,Saconnex,
73937,CH,5,Zollikofen,
73938,CH,25,Schlieren,
73939,CH,5,Bern,
73940,CH,1,Oberglatt,
73941,CH,1,Otelfingen,
73942,CH,1,Läufelfingen,
73943,CH,25,Zumikon,
73944,CH,25,Uetikon Am See,
73945,CH,1,Baden,
73946,CH,15,Heerbrugg,
73947,CH,1,Mettmenstetten,
73948,CH,1,Wettingen,
73949,CH,11,Lucerne,
73950,CH,1,Kaiseraugst,
73951,CH,25,Zollikon,
73952,CH,20,Torre,
73953,CH,20,Tesserete,
73954,CH,12,Praz,
73955,CH,25,Feldmeilen,
73956,CH,20,Maggia,
73957,CH,23,Yverdon,
73958,CH,20,Chiasso,
73959,CH,21,Ringgenberg,
73960,CH,17,Goldau,
73961,CH,9,Chur,
73962,CH,7,Nyon,
73963,CH,7,Genève,
73964,CH,1,Reinach,
73965,CH,25,Bubikon,
73966,CH,7,Chambésy,
73967,CH,25,Thalwil,
73968,CH,23,Villars,
73969,CH,11,Weggis,
73970,CH,1,Birmensdorf,
73971,CH,16,Schaffhausen,
73972,CH,1,Brugg,
73973,CH,11,Luzern,
73974,CH,24,Baar,
73975,CH,5,Kerzers,
73976,CH,25,Wetzikon,
73977,CH,7,Soral,
73978,CH,25,Adliswil,
73979,CH,1,Rothrist,
73980,CH,12,Neuchâtel,
73981,CH,25,Hinwil,
73982,CH,23,Montagny,
73983,CH,2,Waldstatt,
73984,CH,1,Rheinfelden,
73985,CH,1,Schönenwerd,
73986,CH,6,La Roche,
73987,CH,1,Altishofen,
73988,CH,5,Berne,
73989,CH,25,Winterthur,
73990,CH,17,Schwyz,
73991,CH,14,Lignières,
73992,CH,1,Neuenhof,
73993,CH,1,Laufenburg,
73994,CH,11,Kriens,
73995,CH,1,Leibstadt,
73996,CH,5,Thun,
73997,CH,23,Renens,
73998,CH,3,Muttenz,
73999,CH,11,Emmen,
74000,CH,10,Lienz,
74001,CH,19,Steckborn,
74002,CH,20,Canobbio,
74003,CH,22,Montana,
74004,CH,12,Bellerive,
74005,CH,20,Giubiasco,
74006,CH,5,Biel,
74007,CH,15,Berneck,
74008,CH,23,Forel,
74009,CH,18,Corcelles,
74010,CH,9,Domat,
74011,CH,20,Manno,
74012,CH,22,Sion,
74013,CH,15,Amriswil,
74014,CH,7,Plan-les-ouates,
74015,CH,5,Lyss,
74016,CH,1,Langenthal,
74017,CH,15,Waldkirch,
74018,CH,19,Oberwangen,
74019,CH,25,Regensdorf,
74020,CH,11,Ruswil,
74021,CH,1,Lostorf,
74022,CH,4,Oberwil,
74023,CH,18,Zuchwil,
74024,CH,1,Olten,
74025,CH,26,Laufen,
74026,CH,3,Pratteln,
74027,CH,13,Stans,
74028,CH,23,Montreux,
74029,CH,22,Martigny,
74030,CH,26,Delémont,
74031,CH,1,Lenzburg,
74032,CH,25,Freienbach,
74033,CH,1,Affoltern,
74034,CH,25,Dietikon,
74035,CH,4,Allschwil,
74036,CH,16,Ramsen,
74037,CH,6,Avenches,
74038,CH,24,Cham,
74039,CH,2,Herisau,
74040,CH,14,Grindelwald,
74041,CH,3,Liestal,
74042,CH,3,Sissach,
74043,CH,24,Meierskappel,
74044,CH,14,Sarnen,
74045,CH,24,Rotkreuz,
74046,CH,2,Kirchberg,
74047,CH,1,Wohlen,
74048,CH,11,Wolhusen,
74049,CH,19,Bronschhofen,
74050,CH,5,Burgdorf,
74051,CH,20,Minusio,
74052,CH,18,Gerlafingen,
74053,CH,1,Stallikon,
74054,CH,15,Wittenbach,
74055,CH,25,Dietlikon,
74056,CH,25,Dübendorf,
74057,CH,25,Wallisellen,
74058,CH,18,Solothurn,
74059,CH,1,Suhr,
74060,CH,25,Kloten,
74061,CH,4,Riehen,
74062,CH,10,Appenzell,
74063,CH,11,Adligenswil,
74064,CH,20,Balerna,
74065,CH,10,Buchs,
74066,CH,9,Platz,
74067,CH,18,Bettlach,
74068,CH,20,Pregassona,
74069,CH,1,Zofingen,
74070,CH,7,Cern,
74071,CH,1,Frick,
74072,CH,7,Gland,
74073,CH,5,Kehrsatz,
74074,CH,23,Morges,
74075,CH,1,Aarburg,
74076,CH,14,Nidau,
74077,CH,25,Illnau,
74078,CH,7,Charmilles,
74079,CH,25,Kilchberg,
74080,CH,2,Flawil,
74081,CH,25,Opfikon,
74082,CH,2,Gossau,
74083,CH,25,Glattbrugg,
74084,CH,23,Fleurier,
74085,CH,5,Säge,
74086,CH,25,Oerlikon,
74087,CH,2,Andwil,
74088,CH,16,Feuerthalen,
74089,CH,1,Urdorf,
74090,CH,2,Degersheim,
74091,CH,1,Sursee,
74092,CH,1,Oberentfelden,
74093,CH,25,Brüttisellen,
74094,CH,12,Saint-blaise,
74095,CH,20,Gravesano,
74096,CH,24,Neuheim,
74097,CH,3,Aesch,
74098,CH,1,Niederweningen,
74099,CH,5,Ostermundigen,
74100,CH,25,Wangen,
74101,CH,10,Sennwald,
74102,CH,5,Grenchen,
74103,CH,5,Kirchdorf,
74104,CH,25,Meilen,
74105,CH,1,Oftringen,
74106,CH,23,Chavannes,
74107,CH,26,Chevenez,
74108,CH,5,Lengnau,
74109,CH,4,Münchenstein,
74110,CH,11,Horw,
74111,CH,5,Rubigen,
74112,CH,5,Bienne,
74113,CH,3,Frenkendorf,
74114,CH,7,Meyrin,
74115,CH,25,Uster,
74116,CH,16,Thayngen,
74117,CH,5,Schwarzenburg,
74118,CH,25,Rapperswil,
74119,CH,5,Langnau,
74120,CH,1,Merenschwand,
74121,CH,5,Thörishaus,
74122,CH,7,Thônex,
74123,CH,23,Leysin,
74124,CH,11,Menznau,
74125,CH,25,Volketswil,
74126,CH,25,Jona,
74127,CH,25,Altendorf,
74128,CH,24,Kuoni,
74129,CH,19,Aadorf,
74130,CH,22,Chemin,
74131,CH,4,Binningen,
74132,CH,20,Bellinzona,
74133,CH,11,Schachen,
74134,CH,23,Cossonay,
74135,CH,24,Schönenberg,
74136,CH,26,Moutier,
74137,CH,5,Liebefeld,
74138,CH,5,Gwatt,
74139,CH,11,Littau,
74140,CH,1,Hitzkirch,
74141,CH,23,Pully,
74142,CH,16,Beringen,
74143,CH,6,Villars-sur-glâne,
74144,CH,1,Grosswangen,
74145,CH,7,Bursins,
74146,CH,26,Liesberg,
74147,CH,25,Bassersdorf,
74148,CH,15,Kreuzlingen,
74149,CH,1,Herzogenbuchsee,
74150,CH,25,Sennhof,
74151,CH,7,Vernier,
74152,CH,18,Arch,
74153,CH,5,Amsoldingen,
74154,CH,20,Morbio Inferiore,
74155,CH,1,Möhlin,
74156,CH,10,Gams,
74157,CH,1,Holderbank,
74158,CH,12,La Chaux-de-fonds,
74159,CH,5,Ersigen,
74160,CH,7,Carouge,
74161,CH,5,Mauren,
74162,CH,7,Redoute,
74163,CH,15,Romanshorn,
74164,CH,4,Birsfelden,
74165,CH,23,Ollon,
74166,CH,5,Trubschachen,
74167,CH,12,La Chaux,
74168,CH,1,Dielsdorf,
74169,CH,1,Koblenz,
74170,CH,3,Dornach,
74171,CH,20,Melide,
74172,CH,19,Homburg,
74173,CH,25,Erlenbach,
74174,CH,7,Cointrin,
74175,CH,11,Küssnacht,
74176,CH,23,Monthey,
74177,CH,20,Quartino,
74178,CH,1,Uerkheim,
74179,CH,20,Cadempino,
74180,CH,20,Novazzano,
74181,CH,7,Genf,
74182,CH,1,Roggwil,
74183,CH,4,Therwil,
74184,CH,1,Turgi,
74185,CH,11,Sempach,
74186,CH,7,Presinge,
74187,CH,2,Niederuzwil,
74188,CH,24,Schindellegi,
74189,CH,1,Augst,
74190,CH,5,Pieterlen,
74191,CH,6,Cressier,
74192,CH,20,Sorengo,
74193,CH,20,Locarno,
74194,CH,14,Kerns,
74195,CH,1,Niederrohrdorf,
74196,CH,25,Pfäffikon,
74197,CH,1,Waldenburg,
74198,CH,1,Balsthal,
74199,CH,25,Effretikon,
74200,CH,20,Genestrerio,
74201,CH,20,Mendrisio,
74202,CH,1,Pfaffnau,
74203,CH,20,Caslano,
74204,CH,5,Spiez,
74205,CH,25,Maur,
74206,CH,5,Belp,
74207,CH,5,Lyssach,
74208,CH,1,Bonstetten,
74209,CH,12,Colombier,
74210,CH,25,Hombrechtikon,
74211,CH,11,Root,
74212,CH,11,Emmenbrücke,
74213,CH,7,Vaud,
74214,CH,18,Oberdorf,
74215,CH,7,Givrins,
74216,CH,7,Chêne-bourg,
74217,CH,9,Brienz,
74218,CH,22,Zermatt,
74219,CH,5,Gümligen,
74220,CH,7,Bernex,
74221,CH,11,Hochdorf,
74222,CH,7,Prangins,
74223,CH,1,Glattfelden,
74224,CH,22,Visp,
74225,CH,1,Bachenbülach,
74226,CH,6,Bösingen,
74227,CH,3,Bubendorf,
74228,CH,17,Einsiedeln,
74229,CH,19,Frauenfeld,
74230,CH,7,Le Grand-saconnex,
74231,CH,11,Entlebuch,
74232,CH,9,Bonaduz,
74233,CH,5,Hasle-rüegsau,
74234,CH,19,Stein Am Rhein,
74235,CH,9,Zizers,
74236,CH,25,Rickenbach,
74237,CH,15,Horn,
74238,CH,24,Hünenberg,
74239,CH,24,Samstagern,
74240,CH,9,Thal,
74241,CH,15,Arbon,
74242,CH,1,Eglisau,
74243,CH,25,Fehraltorf,
74244,CH,25,Siebnen,
74245,CH,21,Altdorf,
74246,CH,25,Horgen,
74247,CH,1,Wikon,
74248,CH,15,Erlen,
74249,CH,23,Lutry,
74250,CH,23,Prilly,
74251,CH,9,Zuoz,
74252,CH,10,Grabs,
74253,CH,1,Dättwil,
74254,CH,20,Bioggio,
74255,CH,7,Rolle,
74256,CH,4,Schönenbuch,
74257,CH,1,Bremgarten,
74258,CH,1,Triengen,
74259,CH,8,Mollis,
74260,CH,20,Stabio,
74261,CH,25,Embrach,
74262,CH,25,Spreitenbach,
74263,CH,3,Hölstein,
74264,CH,20,Massagno,
74265,CH,20,Arzo,
74266,CH,25,Oetwil Am See,
74267,CH,5,Hasli,
74268,CH,15,Heiden,
74269,CH,9,Sargans,
74270,CH,12,Saignelégier,
74271,CH,14,Engelberg,
74272,CH,10,Gais,
74273,CH,15,Zihlschlacht,
74274,CH,1,Arisdorf,
74275,CH,5,Graben,
74276,CH,1,Leutwil,
74277,CH,1,Uitikon,
74278,CH,5,Tramelan,
74279,CH,1,Dürrenäsch,
74280,CH,11,Nottwil,
74281,CH,22,Granges,
74282,CH,3,Schweizerhalle,
74283,CH,12,Cortaillod,
74284,CH,9,Schiers,
74285,CH,1,Büron,
74286,CH,25,Wald,
74287,CH,17,Morschach,
74288,CH,2,Ebnat-kappel,
74289,CH,9,Flims Dorf,
74290,CH,25,Russikon,
74291,CH,23,La Côte,
74292,CH,23,Ballaigues,
74293,CH,25,Lindau,
74294,CH,25,Stäfa,
74295,CH,1,Egerkingen,
74296,CH,2,Zuzwil,
74297,CH,5,Köniz,
74298,CH,19,Sirnach,
74299,CH,11,Luterbach,
74300,CH,25,Dinhard,
74301,CH,6,Hauterive,
74302,CH,5,Flamatt,
74303,CH,14,Oberdiessbach,
74304,CH,5,Orvin,
74305,CH,25,Veltheim,
74306,CH,20,Bodio,
74307,CH,5,Wabern,
74308,CH,15,Rehetobel,
74309,CH,15,Rheineck,
74310,CH,5,Gerzensee,
74311,CH,10,Teufen,
74312,CH,6,Corminboeuf,
74313,CH,25,Lachen,
74314,CH,6,Freiburg,
74315,CH,3,Lausen,
74316,CH,7,Grand-saconnex,
74317,CH,23,Montricher,
74318,CH,7,Bellevue,
74319,CH,25,Hurden,
74320,CH,1,Egliswil,
74321,CH,25,Greifensee,
74322,CH,1,Niedergösgen,
74323,CH,5,Seftigen,
74324,CH,26,Courgenay,
74325,CH,25,Aathal,
74326,CH,12,Marin,
74327,CH,20,Arcegno,
74328,CH,5,Worb,
74329,CH,6,Laupen,
74330,CH,23,Cheseaux,
74331,CH,20,Ligornetto,
74332,CH,11,Malters,
74333,CH,2,Wattwil,
74334,CH,5,Oberburg,
74335,CH,5,Boll,
74336,CH,9,Arosa,
74337,CH,5,Konolfingen,
74338,CH,23,Bouveret,
74339,CH,18,Derendingen,
74340,CH,6,Domdidier,
74341,CH,3,Arlesheim,
74342,CH,1,Aarwangen,
74343,CH,9,Celerina,
74344,CH,8,Benken,
74345,CH,9,Ragaz,
74346,CH,23,Aigle,
74347,CH,1,Sins,
74348,CH,23,Moudon,
74349,CH,13,Hergiswil,
74350,CH,10,Oberriet,
74351,CH,1,Rupperswil,
74352,CH,20,Losone,
74353,CH,6,Payerne,
74354,CH,7,Le Sentier,
74355,CH,8,Kaltbrunn,
74356,CH,12,Morat,
74357,CH,1,Niederlenz,
74358,CH,8,Bilten,
74359,CH,9,Samedan,
74360,CH,5,Muri,
74361,CH,18,Biberist,
74362,CH,15,Walzenhausen,
74363,CH,5,Steffisburg,
74364,CH,6,Rossens,
74365,CH,26,Burg,
74366,CH,25,Saland,
74367,CH,20,Comano,
74368,CH,9,Campascio,
74369,CH,20,Giornico,
74370,CH,25,Tann,
74371,CH,1,Menziken,
74372,CH,8,Netstal,
74373,CH,1,Villigen,
74374,CH,12,Le Locle,
74375,CH,23,Epalinges,
74376,CH,5,Reichenbach,
74377,CH,18,Riedholz,
74378,CH,25,Neftenbach,
74379,CH,1,Nebikon,
74380,CH,20,Contone,
74381,CH,26,Alle,
74382,CH,22,Saanen,
74383,CH,1,Schinznach Dorf,
74384,CH,20,Sigirino,
74385,CH,20,Bissone,
74386,CH,22,Leuk,
74387,CH,25,Richterswil,
74388,CH,14,Alpnach,
74389,CH,5,Sonceboz,
74390,CH,5,Tavannes,
74391,CH,1,Gontenschwil,
74392,CH,1,Seon,
74393,CH,1,Safenwil,
74394,CH,1,Villmergen,
74395,CH,12,Le Landeron,
74396,CH,14,Sachseln,
74397,CH,20,Sementina,
74398,CH,9,Ponte,
74399,CH,20,Viganello,
74400,CH,9,Villa,
74401,CH,17,Steinen,
74402,CH,9,Poschiavo,
74403,CH,25,Gibswil,
74404,CH,21,Sedrun,
74405,CH,12,Le Noirmont,
74406,CH,18,Soleure,
74407,CH,20,Camorino,
74408,CH,19,Wigoltingen,
74409,CH,22,Wiler,
74410,CH,5,Gunten,
74411,CH,1,Staufen,
74412,CH,25,Weisslingen,
74413,CH,16,Uhwiesen,
74414,CH,22,Sierre,
74415,CH,20,Tenero,
74416,CH,23,Chavornay,
74417,CH,3,Nunningen,
74418,CH,7,Eysins,
74419,CH,8,Uznach,
74420,CH,16,Diessenhofen,
74421,CH,7,Chancy,
74422,CH,15,Diepoldsau,
74423,CH,5,Interlaken,
74424,CH,1,Oensingen,
74425,CH,1,Wynigen,
74426,CH,7,Vésenaz,
74427,CH,1,Beinwil,
74428,CH,2,Oberuzwil,
74429,CH,7,Les Acacias,
74430,CH,9,Bad Ragaz,
74431,CH,7,Chêne-bougeries,
74432,CH,1,Schenkon,
74433,CH,14,Meiringen,
74434,CH,9,Mels,
74435,CH,13,Stansstad,
74436,CH,25,Rorbas,
74437,CH,15,Muolen,
74438,CH,9,Vilters,
74439,CH,20,San Vittore,
74440,CH,15,Goldach,
74441,CH,6,Plaffeien,
74442,CH,7,Onex,
74443,CH,8,Schwanden,
74444,CH,9,Flims,
74445,CH,25,Eschenbach,
74446,CH,1,Oberhofen,
74447,CH,25,Rikon,
74448,CH,1,Lotzwil,
74449,CH,19,Elgg,
74450,CH,9,Lenz,
74451,CH,5,Malleray,
74452,CH,9,Lenzerheide,
74453,CH,6,Romont,
74454,CH,21,Attinghausen,
74455,CH,1,Eptingen,
74456,CH,20,Biasca,
74457,CH,1,Oberbuchsiten,
74458,CH,22,Gstaad,
74459,CH,19,Islikon,
74460,CH,1,Wasen,
74461,CH,16,Wilchingen,
74462,CH,22,Goppenstein,
74463,CH,2,Abtwil,
74464,CH,15,Egnach,
74465,CH,1,Bülach,
74466,CH,8,Reichenburg,
74467,CH,22,Conthey,
74468,CH,9,Trimmis,
74469,CH,24,Unterägeri,
74470,CH,7,Vandoeuvres,
74471,CH,24,Wollerau,
74472,CH,20,Vacallo,
74473,CH,11,Ballwil,
74474,CH,10,Weissbad,
74475,CH,24,Immensee,
74476,CH,10,Unterwasser,
74477,CH,8,Murg,
74478,CH,9,Davos Platz,
74479,CH,14,La Neuveville,
74480,CH,15,Oberaach,
74481,CH,1,Jonen,
74482,CH,1,Oberbipp,
74483,CH,5,Frutigen,
74484,CH,6,Bulle,
74485,CH,18,Subingen,
74486,CH,16,Rafz,
74487,CH,1,Rekingen,
74488,CH,1,Dottikon,
74489,CH,5,Urtenen,
74490,CH,7,Veyrier,
74491,CH,20,Riva,
74492,CH,1,Othmarsingen,
74493,CH,5,Toffen,
74494,CH,20,Agno,
74495,CH,22,Naters,
74496,CH,25,Hettlingen,
74497,CH,1,Sumiswald,
74498,CH,19,Wängi,
74499,CH,9,Champfer,
74500,CH,5,Unterseen,
74501,CH,23,Cossonay-ville,
74502,CH,25,Uerikon,
74503,CH,25,Wiesendangen,
74504,CH,19,Tägerwilen,
74505,CH,5,Péry,
74506,CH,19,Eschlikon,
74507,CH,5,Oberbüren,
74508,CH,8,Niederurnen,
74509,CH,5,Lauperswil,
74510,CH,12,Neuenburg,
74511,CH,25,Kollbrunn,
74512,CH,5,Eggiwil,
74513,CH,23,Oron-la-ville,
74514,CH,1,Fahrwangen,
74515,CH,25,Seuzach,
74516,CH,25,Bauma,
74517,CH,1,Dagmersellen,
74518,CH,24,Kappel,
74519,CH,15,Uttwil,
74520,CH,9,Zernez,
74521,CH,19,Pfyn,
74522,CH,5,Boltigen,
74523,CH,20,Lostallo,
74524,CH,9,Maienfeld,
74525,CH,9,Davos Dorf,
74526,CH,1,Unterlunkhofen,
74527,CH,1,Berikon,
74528,CH,1,Ottenbach,
74529,CH,15,Scherzingen,
74530,CH,23,Echallens,
74531,CH,20,Brissago,
74532,CH,23,Vallorbe,
74533,CH,12,Murten,
74534,CH,7,Châtelaine,
74535,CH,5,Bolligen,
74536,CH,25,Wernetshausen,
74537,CH,25,Oberengstringen,
74538,CH,9,Sevelen,
74539,CH,1,Oberweningen,
74540,CH,1,Reiden,
74541,CH,16,Flurlingen,
74542,CH,1,Ursenbach,
74543,CH,25,Brütten,
74544,CH,4,Bettingen,
74545,CH,1,Wolfwil,
74546,CH,1,Zullwil,
74547,CH,10,Rüthi,
74548,CH,26,Courtételle,
74549,CH,1,Untersiggenthal,
74550,CH,14,Belvédère,
74551,CH,19,Ittingen,
74552,CH,9,Pontresina,
74553,CH,23,Paudex,
74554,CH,1,Schinznach Bad,
74555,CH,23,Puidoux,
74556,CH,9,Prada,
74557,CH,6,Schmitten,
74558,CH,1,Trimbach,
74559,CH,6,Noréaz,
74560,CH,1,Willisau,
74561,CH,1,Mellingen,
74562,CH,1,Käserstatt,
74563,CH,1,Breitenbach,
74564,CH,5,Jegenstorf,
74565,CH,7,Russin,
74566,CH,5,Hindelbank,
74567,CH,20,Aquila,
74568,CH,25,Küsnacht,
74569,CH,5,Adelboden,
74570,CH,25,Fällanden,
74571,CH,2,Uzwil,
74572,CH,1,Hallwil,
74573,CH,11,Meggen,
74574,CH,23,Yvonand,
74575,CH,5,Prêles,
74576,CH,26,Porrentruy,
74577,CH,20,Morbio,
74578,CH,22,Collonges,
74579,CH,23,Cully,
74580,CH,7,Le Brassus,
74581,CH,14,Nods,
74582,CH,7,Versoix,
74583,CH,9,Brand,
74584,CH,20,Bironico,
74585,CH,20,Sonvico,
74586,CH,14,Lungern,
74587,CH,2,Bütschwil,
74588,CH,1,Habsburg,
74589,CH,7,Arzier,
74590,CH,12,Boudry,
74591,CH,12,Auvernier,
74592,CH,7,Genolier,
74593,CH,20,Montagnola,
74594,CH,1,Stein,
74595,CH,17,Brunnen,
74596,CH,7,Trélex,
74597,CH,9,Scuol,
74598,CH,26,Kleinlützel,
74599,CH,5,Marbach,
74600,CH,20,Banco,
74601,CH,13,Ennetbürgen,
74602,CH,22,Eyholz,
74603,CH,14,Aarberg,
74604,CH,5,Schüpfen,
74605,CH,19,Ermatingen,
74606,CH,26,Metzerlen,
74607,CH,1,Niederbuchsiten,
74608,CH,1,Obfelden,
74609,CH,22,Schönried,
74610,CH,21,Disentis,
74611,CH,21,Trun,
74612,CH,9,Brigels,
74613,CH,5,Wattenwil,
74614,CH,15,Berg,
74615,CH,12,Les Ponts-de-martel,
74616,CH,19,Märstetten,
74617,CH,25,Männedorf,
74618,CH,7,Château De Bonmont,
74619,CH,7,Bonmont,
74620,CH,23,Savigny,
74621,CH,20,Rossa,
74622,CH,6,Ponthaux,
74623,CH,1,Eggenwil,
74624,CH,16,Basadingen,
74625,CH,15,Mörschwil,
74626,CH,18,Obergerlafingen,
74627,CH,25,Mönchaltorf,
74628,CH,22,Brig,
74629,CH,25,Rüti,
74630,CH,25,Buch,
74631,CH,16,Alten,
74632,CH,9,Klosters,
74633,CH,19,Matzingen,
74634,CH,2,Lichtensteig,
74635,CH,15,Altstätten,
74636,CH,13,Beckenried,
74637,CH,13,Buochs,
74638,CH,14,Flüeli,
74639,CH,16,Rheinau,
74640,CH,1,Murgenthal,
74641,CH,1,Langenbruck,
74642,CH,1,Fulenbach,
74643,CH,25,Oberrieden,
74644,CH,25,Herrliberg,
74645,CH,5,Heimberg,
74646,CH,5,Frauenkappelen,
74647,CH,9,Savognin,
74648,CH,9,Landquart Fabriken,
74649,CH,5,Speicher,
74650,CH,15,Altenrhein,
74651,CH,6,Giffers,
74652,CH,5,Aeschlen,
74653,CH,14,Siselen,
74654,CH,6,Montagny-la-ville,
74655,CH,23,Territet,
74656,CH,20,Grono,
74657,CH,11,Römerswil,
74658,CH,1,Rohr,
74659,CH,9,Landquart,
74660,CH,25,Rümlang,
74661,CH,23,Estavayer-le-lac,
74662,CH,5,Uetendorf,
74663,CH,9,Falera,
74664,CH,23,Apples,
74665,CH,11,Dietwil,
74666,CH,10,Bühler,
74667,CH,5,Biglen,
74668,CH,23,Blonay,
74669,CH,5,Heiligenschwendi,
74670,CH,2,Lütisburg,
74671,CH,5,Münsingen,
74672,CH,23,Morgins,
74673,CH,20,Mezzovico,
74674,CH,1,Magden,
74675,CH,23,Ouchy,
74676,CH,1,Hägendorf,
74677,CH,21,Seedorf,
74678,CH,22,Evionnaz,
74679,CH,9,Filisur,
74680,CH,24,Unteräegeri,
74681,CH,18,Utzenstorf,
74682,CH,20,San Nazzaro,
74683,CH,20,Vira Gambarogno,
74684,CH,20,Ascona,
74685,CH,22,Bramois,
74686,CH,5,Courtelary,
74687,CH,8,Flums,
74688,CH,11,Winkel,
74689,CH,23,Orbe,
74690,CH,14,Kappelen,
74691,CH,1,Killwangen,
74692,CH,11,Kulm,
74693,CH,1,Seengen,
74694,CH,22,Coppet,
74695,CH,7,Céligny,
74696,CH,1,Pfeffikon,
74697,CH,8,Ziegelbrücke,
74698,CH,5,Bévilard,
74699,CH,1,Waltenschwil,
74700,CH,12,Peseux,
74701,CH,5,Zweisimmen,
74702,CH,5,Worblaufen,
74703,CH,23,Collombey,
74704,CH,22,Matten,
74705,CH,7,Anières,
74706,CH,4,Bottmingen,
74707,CH,9,Thusis,
74708,CH,19,Münchwilen,
74709,CH,1,Boniswil,
74710,CH,23,Rougemont,
74711,CH,11,Neudorf,
74712,CH,25,Tuggen,
74713,CH,25,Nänikon,
74714,CH,5,Zollbrück,
74715,CH,23,Couvet,
74716,CH,18,Wiedlisbach,
74717,CH,1,Ormalingen,
74718,CH,1,Eiken,
74719,CH,1,Wildegg,
74720,CH,21,Boden,
74721,CH,20,Castro,
74722,CH,1,Uffikon,
74723,CH,20,Sala,
74724,CH,9,Fürstenaubruck,
74725,CH,22,Charrat,
74726,CH,23,Bussigny,
74727,CH,1,Möriken,
74728,CH,12,Chézard-saint-martin,
74729,CH,1,Rudolfstetten,
74730,CH,9,Maria,
74731,CH,5,Wichtrach,
74732,CH,5,Niederwichtrach,
74733,CH,16,Ossingen,
74734,CH,22,Gampel,
74735,CH,4,Freidorf,
74736,CH,23,Roche,
74737,CH,1,Bützberg,
74738,CH,23,Penthalaz,
74739,CH,5,Schönbühl,
74740,CH,7,Allaman,
74741,CH,7,Bursinel,
74742,CH,21,Bauen,
74743,CH,5,Sigriswil,
74744,CH,1,Niederbipp,
74745,CH,6,Sâles,
74746,CH,25,Unterengstringen,
74747,CH,23,Cugy,
74748,CH,5,Riggisberg,
74749,CH,15,Balgach,
74750,CH,1,Gettnau,
74751,CH,25,Turbenthal,
74752,CH,9,Monstein,
74753,CH,9,Wolfgang,
74754,CH,18,Feldbrunnen,
74755,CH,5,Wengen,
74756,CH,1,Kölliken,
74757,CH,1,Muhen,
74758,CH,22,Fang,
74759,CH,1,Gebenstorf,
74760,CH,16,Schleitheim,
74761,CH,4,Ettingen,
74762,CH,17,Rothenthurm,
74763,CH,23,Champvent,
74764,CH,5,Hinterkappelen,
74765,CH,5,Signau,
74766,CH,1,Wiggen,
74767,CH,20,Arbedo,
74768,CH,18,Aedermannsdorf,
74769,CH,5,Worben,
74770,CH,6,Treyfayes,
74771,CH,18,Deitingen,
74772,CH,23,Travers,
74773,CH,22,Raron,
74774,CH,16,Flaach,
74775,CH,23,Chièsaz,
74776,CH,20,Castagnola,
74777,CH,3,Hochwald,
74778,CH,3,Gempen,
74779,CH,1,Döttingen,
74780,CH,1,Buus,
74781,CH,26,Charmoille,
74782,CH,18,Selzach,
74783,CH,7,Satigny,
74784,CH,9,Cazis,
74785,CH,5,Zimmerwald,
74786,CH,15,Kesswil,
74787,CH,5,Beatenberg,
74788,CH,23,Villeneuve,
74789,CH,6,Düdingen,
74790,CH,22,Stalden,
74791,CH,25,Weiningen,
74792,CH,7,Aubonne,
74793,CH,24,Hausen,
74794,CH,25,Nürensdorf,
74795,CH,14,Monte,
74796,CH,1,Unterkulm,
74797,CH,11,Inwil,
74798,CH,2,Mogelsberg,
74799,CH,6,Jaun,
74800,CH,7,Mont-sur-rolle,
74801,CH,11,Eich,
74802,CH,26,Bonfol,
74803,CH,20,Cadenazzo,
74804,CH,19,Gachnang,
74805,CH,20,Agra,
74806,CH,5,Hilterfingen,
74807,CH,20,Castel San Pietro,
74808,CH,20,Stampa,
74809,CH,23,Lucens,
74810,CH,20,Tegna,
74811,CH,9,Ilanz,
74812,CH,1,Full,
74813,CH,9,Wangs,
74814,CH,1,Birr,
74815,CH,5,Messen,
74816,CH,22,Zelg,
74817,CH,1,Göslikon,
74818,CH,5,Lützelflüh,
74819,CH,1,Vordemwald,
74820,CH,1,Obergösgen,
74821,CH,14,San Gottardo,
74822,CH,9,Malans,
74823,CH,1,Diegten,
74824,CH,1,Maisprach,
74825,CH,5,Court,
74826,CH,15,Sulgen,
74827,CH,15,Bottighofen,
74828,CH,6,Avry,
74829,CH,25,Hittnau,
74830,CH,9,Trans,
74831,CH,10,Haslen,
74832,CH,1,Buttwil,
74833,CH,5,Thierachern,
74834,CH,26,Glovelier,
74835,CH,1,Küttigen,
74836,CH,15,Ruppen,
74837,CH,19,Stettfurt,
74838,CH,25,Feusisberg,
74839,CH,1,Schötz,
74840,CH,20,Dino,
74841,CH,23,Sainte-croix,
74842,CH,9,Clavadel,
74843,CH,9,Guarda,
74844,CH,6,Courtion,
74845,CH,20,Taverne,
74846,CH,5,Hermiswil,
74847,CH,6,Kloster,
74848,CH,23,Chez-le-bart,
74849,CH,1,Effingen,
74850,CH,13,Waldheim,
74851,CH,1,Hüntwangen,
74852,CH,1,Oberkirch,
74853,CH,17,Stoos,
74854,CH,2,Jonschwil,
74855,CH,1,Klingnau,
74856,CH,23,Saint-aubin,
74857,CH,23,Saint-sulpice,
74858,CH,6,Courtepin,
74859,CH,5,Stettlen,
74860,CH,5,Kurhaus,
74861,CH,20,Promontogno,
74862,CH,9,Müstair,
74863,CH,8,Näfels,
74864,CH,1,Schinznach,
74865,CH,1,Schafisheim,
74866,CH,19,Raperswilen,
74867,CH,2,Winkeln,
74868,CH,7,La Praille,
74869,CH,20,Castione,
74870,CH,21,Erstfeld,
74871,CH,4,Zwingen,
74872,CH,23,Le Crêt,
74873,CH,17,Emmetten,
74874,CH,7,Founex,
74875,CH,1,Würenlos,
74876,CH,20,Verscio,
74877,CH,2,Bazenheid,
74878,CH,25,Thalheim,
74879,CH,1,Villnachern,
74880,CH,5,Grossaffoltern,
74881,CH,23,Grandson,
74882,CH,23,Chesières,
74883,CH,25,Rüschlikon,
74884,CH,22,Veysonnaz,
74885,CH,12,Cudrefin,
74886,CH,6,Saanenmöser,
74887,CH,1,Obererlinsbach,
74888,CH,15,Kronbühl,
74889,CH,22,Saint-germain,
74890,CH,1,Gösgen,
74891,CH,23,Chapelle,
74892,CH,1,Knonau,
74893,CH,9,Samnaun,
74894,CH,18,Kriegstetten,
74895,CH,1,Teufenthal,
74896,CH,1,Birmenstorf,
74897,CH,23,La Tour-de-peilz,
74898,CH,1,Gelterkinden,
74899,CH,5,Mühlethurnen,
74900,CH,9,Felsberg,
74901,CH,25,Bäch,
74902,CH,9,Churwalden,
74903,CH,19,Hagenbuch,
74904,CH,12,Thielle,
74905,CH,22,Vétroz,
74906,CH,25,Grüningen,
74907,CH,3,Füllinsdorf,
74908,CH,1,Mumpf,
74909,CH,5,Schnottwil,
74910,CH,23,Goumoens-la-ville,
74911,CH,11,Udligenswil,
74912,CH,5,Kandersteg,
74913,CH,9,Fontana,
74914,CH,1,Trasadingen,
74915,CH,23,Cheyres,
74916,CH,23,Glion,
74917,CH,9,Saas,
74918,CH,5,Neuhaus,
74919,CH,23,Môtiers,
74920,CH,1,Gipf-oberfrick,
74921,CH,5,Wilderswil,
74922,CH,12,Galmiz,
74923,CH,15,Leimbach,
74924,CH,25,Wiedikon,
74925,CH,25,Wädenswil,
74926,CH,10,Escher,
74927,CH,20,Valbella,
74928,CH,23,Vouvry,
74929,CH,5,Orpund,
74930,CH,8,Schänis,
74931,CH,22,Fully,
74932,CH,22,Verbier,
74933,CH,22,Salvan,
74934,CH,23,Vionnaz,
74935,CH,22,Vernayaz,
74936,CH,22,Nendaz,
74937,CH,6,Vuadens,
74938,CH,25,Goldingen,
74939,CH,11,Hasle,
74940,CH,2,Henau,
74941,CH,1,Geuensee,
74942,CH,5,Krauchthal,
74943,CH,8,Ennenda,
74944,CH,6,Avry-sur-matran,
74945,CH,5,Blausee,
74946,CH,22,Vissoie,
74947,CH,24,Menzingen,
74948,CH,18,Attiswil,
74949,CH,9,Untervaz,
74950,CH,1,Schöftland,
74951,CH,25,Steg,
74952,CH,15,Gottlieben,
74953,CH,20,Monte Carasso,
74954,CH,22,Grund,
74955,CH,23,Porsel,
74956,CH,22,Saillon,
74957,CH,14,Balm,
74958,CH,14,Kallnach,
74959,CH,5,Uttigen,
74960,CH,15,Rebstein,
74961,CH,9,Grüsch,
74962,CH,25,Räterschen,
74963,CH,5,Wahlen,
74964,CH,25,Oberembrach,
74965,CH,5,Riedbach,
74966,CH,15,Oberegg,
74967,CH,9,Vicosoprano,
74968,CH,7,Corsier,
74969,CH,23,Lully,
74970,CH,20,Castasegna,
74971,CH,23,Caux,
74972,CH,23,Pailly,
74973,CH,1,Zeihen,
74974,CH,1,Huttwil,
74975,CH,1,Sarmenstorf,
74976,CH,23,Le Mont-sur-lausanne,
74977,CH,11,Buchrain,
74978,CH,1,Buchs,
74979,CH,24,Zug,
74980,CH,5,Kirchberg,
74981,CH,25,Dürnten,
74982,CH,5,Münchenbuchsee,
74983,CH,1,Muri,
74984,CH,21,Schattdorf,
74985,CH,16,Andelfingen,
74986,CH,25,Egg,
74987,CH,5,Wahlern,
74988,CH,11,Neuenkirch,
74989,CH,24,Arth,
74990,CH,3,Seltisberg,
74991,CH,12,Ins,
74992,CH,12,Gals,
74993,CH,5,Wohlen,
74994,CH,25,Gossau,
74995,CH,17,Ingenbohl,
74996,CH,9,Igis,
74997,CH,9,Beim Thurm,
74998,CH,8,Schübelbach,
74999,CH,23,Chavannes-le-chêne,
75000,CH,15,Au,
75001,CH,22,Savièse,
75002,CH,25,Langnau,
75003,CH,15,Saint Gallen,
75004,CH,15,Sankt Gallen,
75005,CH,17,Muotathal,
75006,CH,19,Wil,
75007,CH,20,Morcote,
75008,CH,20,Roveredo,
75009,CH,22,Ferret,
75010,CH,18,Bätterkinden,
75011,CH,23,Saint-prex,
75012,CH,25,Kemptthal,
75013,CH,12,Saint-imier,
75014,CH,1,Obersiggenthal,
75015,CH,17,Oberiberg,
75016,CH,1,Stilli,
75017,CH,5,Felsenau,
75018,CH,1,Künten,
75019,CH,5,Radelfingen,
75020,CH,18,La Scheulte,
75021,CH,1,Gränichen,
75022,CH,9,Fideris,
75023,CH,9,Sankt Moritz,
75024,CH,23,Bex,
75025,CH,22,Lens,
75026,CH,22,Risch,
75027,CH,22,Riddes,
75028,CH,22,Bagnes,
75029,CH,22,Grône,
75030,CH,22,Chalais,
75031,CH,5,Betten,
75032,CH,23,Bavois,
75033,CH,1,Würenlingen,
75034,CH,23,La Sarraz,
75035,CH,1,Brittnau,
75036,CH,8,Elm,
75037,CH,6,Tafers,
75038,CH,9,Frauenkirch,
75039,CH,5,Niederscherli,
75040,CH,26,Courroux,
75041,CH,1,Hägglingen,
75042,CH,26,Courtemaîche,
75043,CH,1,Kaisten,
75044,CH,5,Reconvilier,
75045,CH,25,Schmerikon,
75046,CH,15,Eggersriet,
75047,CH,23,Château-d'oex,
75048,CH,25,Schlatt,
75049,CH,6,Lurtigen,
75050,CH,23,Attalens,
75051,CH,22,Saxon,
75052,CH,16,Hallau,
75053,CH,6,Aeschlenberg,
75054,CH,6,Autigny,
75055,CH,5,Büren,
75056,CH,26,Büsserach,
75057,CH,16,Hemishofen,
75058,CH,16,Rüdlingen,
75059,CH,16,Schlattingen,
75060,CH,1,Erlinsbach,
75061,CH,23,Le Bouveret,
75062,CH,3,Reigoldswil,
75063,CH,6,Cordast,
75064,CH,7,Bogis-bossey,
75065,CH,13,Dallenwil,
75066,CH,7,Jussy,
75067,CH,5,Bärau,
75068,CH,23,Chexbres,
75069,CH,9,Vättis,
75070,CH,9,Flims Waldhaus,
75071,CH,5,Bumbach,
75072,CH,5,Rosshäusern,
75073,CH,1,Hermetschwil,
75074,CH,7,Gingins,
75075,CH,23,Châtel-saint-denis,
75076,CH,6,Grolley,
75077,CH,23,Bercher,
75078,CH,20,Gordola,
75079,CH,1,Oberönz,
75080,CH,1,Moosleerau,
75081,CH,15,Güttingen,
75082,CH,16,Neuhausen Am Rheinfall,
75083,CH,20,Bidogno,
75084,CH,25,Oetwil An Der Limmat,
75085,CH,24,Buonas,
75086,CH,24,Walchwil,
75087,CH,5,Suberg,
75088,CH,9,Paspels,
75089,CH,14,Täuffelen,
75090,CH,1,Richenthal,
75091,CH,22,Grimentz,
75092,CH,22,Randogne,
75093,CH,22,Dorénaz,
75094,CH,22,Findelen,
75095,CH,8,Schwändi,
75096,CH,20,Indemini,
75097,CH,9,Laax,
75098,CH,16,Lohn,
75099,CH,6,Wünnewil,
75100,CH,8,Weesen,
75101,CH,26,Miécourt,
75102,CH,20,Breno,
75103,CH,2,Niederhelfenschwil,
75104,CH,26,Bassecourt,
75105,CH,25,Pfungen,
75106,CH,19,Nussbaumen,
75107,CH,14,Mörigen,
75108,CH,12,Noiraigue,
75109,CH,22,Sembrancher,
75110,CH,22,Orsières,
75111,CH,22,Chippis,
75112,CH,1,Fiesch,
75113,CH,1,Grengiols,
75114,CH,11,Ennetegg,
75115,CH,8,Diesbach,
75116,CH,25,Fischenthal,
75117,CH,5,Fraubrunnen,
75118,CH,6,Rechthalten,
75119,CH,22,Arveyes,
75120,CH,7,Champéry,
75121,CH,20,Mugena,
75122,CH,23,Romanel,
75123,CH,9,Parpan,
75124,CH,12,Sonvilier,
75125,CH,23,Tannay,
75126,CH,6,Vuisternens,
75127,CH,5,Corgémont,
75128,CH,12,Dombresson,
75129,CH,6,Wallenried,
75130,CH,6,Villaz-saint-pierre,
75131,CH,5,Aeschi,
75132,CH,16,Buchberg,
75133,CH,16,Dachsen,
75134,CH,23,Sauges,
75135,CH,1,Auenstein,
75136,CH,20,Prosito,
75137,CH,5,Eriz,
75138,CH,20,Pura,
75139,CH,11,Plaun Dils Matts,
75140,CH,22,Leukerbad,
75141,CH,5,Büren An Der Aare,
75142,CH,22,Ardon,
75143,CH,22,Les Diablerets,
75144,CH,22,Leuk Stadt,
75145,CH,12,Sugiez,
75146,CH,12,Le Pâquier,
75147,CH,5,Thorberg,
75148,CH,22,Mund,
75149,CH,5,Lajoux,
75150,CH,22,Saint-maurice,
75151,CH,1,Sulz,
75152,CH,22,Ovronnaz,
75153,CH,22,Saint-jean,
75154,CH,22,Gemmipass,
75155,CH,23,Semsales,
75156,CH,23,Grancy,
75157,CH,7,Ballens,
75158,CH,6,Alterswil,
75159,CH,12,La Sagne,
75160,CH,23,Gorgier,
75161,CH,5,Linden,
75162,CH,6,Guggisberg,
75163,CH,25,Henggart,
75164,CH,5,Geretsried,
75165,CH,7,Perroy,
75166,CH,12,Renan,
75167,CH,3,Himmelried,
75168,CH,1,Däniken,
75169,CH,5,Gümmenen,
75170,CH,16,Neunkirch,
75171,CH,9,Tomils,
75172,CH,7,Hermance,
75173,CH,18,Matzendorf,
75174,CH,1,Gunzgen,
75175,CH,9,Flond,
75176,CH,8,Panix,
75177,CH,9,Meierhof,
75178,CH,11,Perlen,
75179,CH,23,Froideville,
75180,CH,1,Auw,
75181,CH,5,Wohlen,
75182,CH,1,Muri,
75183,CH,20,Gorduno,
75184,CH,1,Aristau,
75185,CH,25,Langnau,
75186,CH,11,Vitznau,
75187,CH,5,Heimiswil,
75188,CH,9,Andeer,
75189,CH,1,Bottenwil,
75190,CH,15,Langrickenbach,
75191,CH,18,Luterbach,
75192,CH,25,Bäretswil,
75193,CH,1,Wyssachen,
75194,CH,1,Regensberg,
75195,CH,25,Gossau,
75196,CH,22,Chamoson,
75197,CH,22,Vercorin,
75198,CH,22,Martigny-croix,
75199,CH,1,Wittnau,
75200,CH,7,Essertines-sur-rolle,
75201,CH,20,Soazza,
75202,CH,5,Uettligen,
75203,CH,11,Buttisholz,
75204,CH,5,Kirchberg,
75205,CH,9,Neukirch,
75206,CH,12,Erlach,
75207,CH,6,Rueyres,
75208,CH,1,Beromünster,
75209,CH,12,Gampelen,
75210,CH,2,Schwellbrunn,
75211,CH,20,Cassina,
75212,CH,4,Blauen,
75213,CH,6,Gruyères,
75214,CH,23,Belmont-sur-lausanne,
75215,CH,23,Romanel-sur-lausanne,
75216,CH,5,Hondrich,
75217,CH,8,Gommiswald,
75218,CH,6,Neyruz,
75219,CH,9,Obervaz,
75220,CH,1,Buchs,
75221,CH,25,Zell,
75222,CH,23,Concise,
75223,CH,9,Lansch,
75224,CH,7,La Plaine,
75225,CH,6,Charmey,
75226,CH,7,Saint-cergue,
75227,CH,6,Mannens,
75228,CH,5,Orpond,
75229,CH,11,Escholzmatt,
75230,CH,8,Filzbach,
75231,CH,16,Ober-schlatt,
75232,CH,9,Trübbach,
75233,CH,23,Vuiteboeuf,
75234,CH,1,Gondiswil,
75235,CH,12,Villeret,
75236,CH,7,Crassier,
75237,CH,25,Hofstetten,
75238,CH,22,Brigue,
75239,CH,3,Pfeffingen,
75240,CH,4,Rodersdorf,
75241,CH,26,Vermes,
75242,CH,3,Oberdorf,
75243,CH,15,Sankt Margrethen,
75244,CH,11,Schüpfheim,
75245,CH,23,La Forclaz,
75246,CH,11,Schwarzenberg,
75247,CH,1,Meisterschwanden,
75248,CH,7,Gimel,
75249,CH,23,Montbovon,
75250,CH,19,Felben,
75251,CH,17,Lauerz,
75252,CH,25,Seegräben,
75253,CH,7,Vinzel,
75254,CH,3,Bretzwil,
75255,CH,5,Trachselwald,
75256,CH,22,Erde,
75257,CH,1,Mümliswil,
75258,CH,22,Saas-fee,
75259,CH,9,Sagogn,
75260,CH,12,Les Brenets,
75261,CH,1,Rümikon,
75262,CH,12,Cressier,
75263,CH,14,Brüttelen,
75264,CH,18,Küttigkofen,
75265,CH,20,Claro,
75266,CH,18,Koppigen,
75267,CH,22,Lavey,
75268,CH,12,Chaumont,
75269,CH,23,Palézieux,
75270,CH,17,Morgarten,
75271,CH,9,Tamins,
75272,CH,1,Aeugst,
75273,CH,5,Fräschels,
75274,CH,15,Trogen,
75275,CH,23,Port-valais,
75276,CH,25,Wildberg,
75277,CH,9,Scharans,
75278,CH,20,Maroggia,
75279,CH,20,Brione,
75280,CH,5,Brenzikofen,
75281,CH,4,Brislach,
75282,CH,6,Mézières,
75283,CH,2,Krinau,
75284,CH,20,Ambri,
75285,CH,1,Strengelbach,
75286,CH,23,Vauderens,
75287,CH,19,Affeltrangen,
75288,CH,1,Beznau,
75289,CH,6,Farvagny-le-grand,
75290,CH,19,Ellikon,
75291,CH,8,Nidfurn,
75292,CH,5,Bangerten,
75293,CH,5,Busswil,
75294,CH,9,Tarasp,
75295,CH,2,Urnäsch,
75296,CH,5,Buchen,
75297,CH,6,Treyvaux,
75298,CH,24,Hirzel,
75299,CH,22,Zinal,
75300,CH,1,Oberlunkhofen,
75301,CH,10,Salez,
75302,CH,23,Mollens,
75303,CH,22,Leytron,
75304,CH,22,Bovernier,
75305,CH,23,Devant,
75306,CH,2,Mettlen,
75307,CH,1,Mühlau,
75308,CH,6,Liebistorf,
75309,CH,9,Maladers,
75310,CH,5,Blumenstein,
75311,CH,7,Coppet,
75312,CH,20,Anzonico,
75313,CH,20,Melano,
75314,CH,1,Densbüren,
75315,CH,5,Matzenried,
75316,CH,5,Mühleberg,
75317,CH,9,Haldenstein,
75318,CH,9,Stafel,
75319,CH,20,Arosio,
75320,CH,16,Marthalen,
75321,CH,5,Arni,
75322,CH,20,Acquarossa,
75323,CH,6,Châtonnaye,
75324,CH,2,Niederbüren,
75325,CH,7,Meinier,
75326,CH,3,Grellingen,
75327,CH,1,Endingen,
75328,CH,23,Les Verrières,
75329,CH,3,Titterten,
75330,CH,9,S-chanf,
75331,CH,18,Wangen An Der Aare,
75332,CH,19,Thundorf,
75333,CH,20,Bigorio,
75334,CH,19,Eschikofen,
75335,CH,9,Salouf,
75336,CH,20,Gandria,
75337,CH,23,Epautheyres,
75338,CH,7,Borex,
75339,CH,20,Lumino,
75340,CH,8,Rufi,
75341,CH,1,Birrwil,
75342,CH,22,Champex,
75343,CH,17,Gersau,
75344,CH,7,Le Vaud,
75345,CH,23,Bottens,
75346,CH,25,Wila,
75347,CH,19,Müllheim,
75348,CH,5,Frieswil,
75349,CH,23,Baulmes,
75350,CH,23,Daillens,
75351,CH,16,Siblingen,
75352,CH,5,Burgistein,
75353,CH,7,La Cure,
75354,CH,5,Zäziwil,
75355,CH,22,Chermignon,
75356,CH,1,Rünenberg,
75357,CH,22,Eisten,
75358,CH,14,Hagneck,
75359,CH,2,Mosnang,
75360,CH,22,Grächen,
75361,CH,12,Les Breuleux,
75362,CH,9,Valendas,
75363,CH,20,Gnosca,
75364,CH,5,Wimmis,
75365,CH,22,Ayer,
75366,CH,26,Courfaivre,
75367,CH,6,Heitenried,
75368,CH,22,La Tour,
75369,CH,17,Sattel,
75370,CH,15,Salmsach,
75371,CH,15,Altnau,
75372,CH,5,Rüschegg,
75373,CH,23,Thierrens,
75374,CH,1,Wölflinswil,
75375,CH,12,Portalban,
75376,CH,23,Siviriez,
75377,CH,9,Bergün,
75378,CH,23,Les Avants,
75379,CH,19,Wagenhausen,
75380,CH,10,Wildhaus,
75381,CH,2,Krummenau,
75382,CH,23,Yens,
75383,CH,22,Lenk,
75384,CH,2,Hemberg,
75385,CH,5,Lauterbrunnen,
75386,CH,8,Berschis,
75387,CH,1,Aettenschwil,
75388,CH,14,Oberwilen,
75389,CH,23,Le Pont,
75390,CH,22,Glis,
75391,CH,23,Brenles,
75392,CH,9,Luven,
75393,CH,25,Uetikon,
75394,CH,9,Küblis,
75395,CH,23,Huémoz,
75396,CH,23,Les Charbonnières,
75397,CH,7,Sézegnin,
75398,CH,22,Grimisuat,
75399,CH,23,L'isle,
75400,CH,26,Movelier,
75401,CH,7,Bière,
75402,CH,5,Ueberstorf,
75403,CH,6,Plasselb,
75404,CH,17,Seelisberg,
75405,CH,20,Sessa,
75406,CH,15,Herrenhof,
75407,CH,1,Thalheim,
75408,CH,1,Hornussen,
75409,CH,6,Bonnefontaine,
75410,CH,5,Hünibach,
75411,CH,22,Feutersoey,
75412,CH,5,Krattigen,
75413,CH,5,Merligen,
75414,CH,19,Bichelsee,
75415,CH,20,Capolago,
75416,CH,7,Gilly,
75417,CH,9,Silvaplana,
75418,CH,23,Ependes,
75419,CH,19,Bissegg,
75420,CH,1,Stadel,
75421,CH,19,Wäldi,
75422,CH,21,Amsteg,
75423,CH,5,Wengi,
75424,CH,20,Meride,
75425,CH,6,Marsens,
75426,CH,6,Vaulruz,
75427,CH,26,Asuel,
75428,CH,22,Albinen,
75429,CH,17,Unteriberg,
75430,CH,8,Hätzingen,
75431,CH,2,Oberhelfenschwil,
75432,CH,26,Vendlincourt,
75433,CH,10,Gonten,
75434,CH,7,Valangin,
75435,CH,5,Seedorf,
75436,CH,20,Zwischbergen,
75437,CH,20,Cevio,
75438,CH,20,Cagiallo,
75439,CH,16,Trüllikon,
75440,CH,22,Beuson,
75441,CH,8,Unterterzen,
75442,CH,1,Böttstein,
75443,CH,5,Hasle,
75444,CH,2,Ganterschwil,
75445,CH,12,Fontainemelon,
75446,CH,12,Les Bois,
75447,CH,12,Cornaux,
75448,CH,9,Fläsch,
75449,CH,22,Crans,
75450,CH,22,Ayent,
75451,CH,22,Nax,
75452,CH,23,Troistorrents,
75453,CH,22,Salgesch,
75454,CH,22,Miège,
75455,CH,22,Liddes,
75456,CH,22,Vex,
75457,CH,22,Les Valettes,
75458,CH,16,Merishausen,
75459,CH,25,Kyburg,
75460,CH,20,Gerra-verzasca,
75461,CH,19,Gerlikon,
75462,CH,24,Kappel Am Albis,
75463,CH,1,Maschwanden,
75464,CH,11,Hildisrieden,
75465,CH,11,Oberrüti,
75466,CH,6,Riaz,
75467,CH,6,Echarlens,
75468,CH,6,Broc,
75469,CH,7,Dardagny,
75470,CH,1,Wasterkingen,
75471,CH,9,Wiesen,
75472,CH,1,Ittenthal,
75473,CH,6,Zumholz,
75474,CH,6,Wallenbuch,
75475,CH,6,Oberschrot,
75476,CH,20,Prato,
75477,CH,9,Sevgein,
75478,CH,9,La Punt,
75479,CH,1,Walterswil,
75480,CH,13,Büren,
75481,CH,20,Magadino,
75482,CH,20,Gerra,
75483,CH,20,Gordevio,
75484,CH,20,Medeglia,
75485,CH,20,Olivone,
75486,CH,20,Cugnasco,
75487,CH,2,Schönholzerswilen,
75488,CH,25,Elsau,
75489,CH,1,Binn,
75490,CH,9,Safien Platz,
75491,CH,23,Val D'illiez,
75492,CH,23,Maracon,
75493,CH,23,Bioley-orjulaz,
75494,CH,9,Rhäzüns,
75495,CH,23,Mauborget,
75496,CH,23,Rossinière,
75497,CH,23,Estavannens,
75498,CH,6,Ependes,
75499,CH,1,Zeglingen,
75500,CH,16,Gächlingen,
75501,CH,19,Eschenz,
75502,CH,16,Bibern,
75503,CH,16,Nohl,
75504,CH,16,Hemmental,
75505,CH,10,Sax,
75506,CH,12,Les Geneveys-sur-coffrane,
75507,CH,9,Valens,
75508,CH,1,Laupersdorf,
75509,CH,1,Wynau,
75510,CH,1,Rohrbach,
75511,CH,1,Bannwil,
75512,CH,1,Melchnau,
75513,CH,1,Madiswil,
75514,CH,22,Cantine-de-proz,
75515,CH,1,Veltheim,
75516,CH,1,Schlossrued,
75517,CH,22,Agettes,
75518,CH,5,Schwarzenegg,
75519,CH,5,Blankenburg,
75520,CH,5,Faulensee,
75521,CH,6,Cottens,
75522,CH,26,Courrendlin,
75523,CH,23,Saint-gingolph,
75524,CH,5,Kernenried,
75525,CH,20,Rovio,
75526,CH,20,Isone,
75527,CH,18,Erschwil,
75528,CH,5,Krauchtal,
75529,CH,19,Tobel,
75530,CH,23,Suchy,
75531,CH,5,La Heutte,
75532,CH,14,Halten,
75533,CH,1,Kleindietwil,
75534,CH,5,Allmendingen,
75535,CH,20,Faido,
75536,CH,19,Lommis,
75537,CH,14,Innertkirchen,
75538,CH,5,Leissigen,
75539,CH,5,Ringgenberg,
75540,CH,5,Matten Bei Interlaken,
75541,CH,5,Därligen,
75542,CH,5,Bowil,
75543,CH,5,Walkringen,
75544,CH,5,Bäriswil,
75545,CH,5,Mörel,
75546,CH,5,Röthenbach,
75547,CH,19,Hüttwilen,
75548,CH,8,Obstalden,
75549,CH,22,Praz-de-fort,
75550,CH,23,Oppens,
75551,CH,1,Windlach,
75552,CH,23,Assens,
75553,CH,18,Leuzigen,
75554,CH,9,Feldis,
75555,CH,23,Peney,
75556,CH,26,Fahy,
75557,CH,9,Sent,
75558,CH,19,Hüttlingen,
75559,CH,22,Trient,
75560,CH,26,Soyhières,
75561,CH,20,Lodrino,
75562,CH,5,Goldiwil,
75563,CH,5,Kiesen,
75564,CH,12,Grand-savagnier,
75565,CH,19,Märwil,
75566,CH,23,Romainmôtier,
75567,CH,17,Steinerberg,
75568,CH,23,Veytaux,
75569,CH,5,Aeschau,
75570,CH,7,Puplinge,
75571,CH,22,Lavey-village,
75572,CH,6,Belfaux,
75573,CH,6,Onnens,
75574,CH,1,Mauensee,
75575,CH,9,Langwies,
75576,CH,5,Macolin,
75577,CH,5,Meinisberg,
75578,CH,26,Mervelier,
75579,CH,9,Jenins,
75580,CH,5,Säriswil,
75581,CH,23,Bonvillars,
75582,CH,26,Röschenz,
75583,CH,23,Rue,
75584,CH,25,Turbental,
75585,CH,5,Heimenschwand,
75586,CH,5,Kandergrund,
75587,CH,1,Bözen,
75588,CH,14,Flühli,
75589,CH,6,Praroman,
75590,CH,3,Zunzgen,
75591,CH,9,Waldhaus,
75592,CH,5,Magglingen,
75593,CH,1,Bachs,
75594,CH,23,Châtelard,
75595,CH,5,Oberhofen,
75596,CH,8,Quinten,
75597,CH,22,Saint-luc,
75598,CH,1,Tegerfelden,
75599,CH,23,Bullet,
75600,CH,6,Courgevaux,
75601,CH,12,Cernier,
75602,CH,12,Damvant,
75603,CH,22,Arbaz,
75604,CH,23,Peney-le-jorat,
75605,CH,18,Schelten,
75606,CH,20,Piano,
75607,CH,6,Donatyre,
75608,CH,5,Diessbach,
75609,CH,22,Oberried,
75610,CH,15,Alterswilen,
75611,CH,20,Arogno,
75612,CH,12,Villars-le-grand,
75613,CH,2,Brunnadern,
75614,CH,15,Münsterlingen,
75615,CH,6,Ecuvillens,
75616,CH,19,Uesslingen,
75617,CH,1,Laeufelfingen,
75618,CH,5,Wileroltigen,
75619,CH,1,Hämikon,
75620,CH,2,Zuckenriet,
75621,CH,5,Bönigen,
75622,CH,23,Mont-la-ville,
75623,CH,23,Dizy,
75624,CH,7,Saint-livres,
75625,CH,9,Lantsch,
75626,CH,1,Eriswil,
75627,CH,26,Boncourt,
75628,CH,26,Buix,
75629,CH,5,Goldswil,
75630,CH,6,Sorens,
75631,CH,5,Evilard,
75632,CH,1,Wegenstetten,
75633,CH,1,Ettiswil,
75634,CH,12,Les Pommerats,
75635,CH,2,Wuppenau,
75636,CH,17,Ibach,
75637,CH,26,Cornol,
75638,CH,9,Sils,
75639,CH,6,Léchelles,
75640,CH,22,Aproz,
75641,CH,1,Trub,
75642,CH,22,Champsec,
75643,CH,16,Ellikon Am Rhein,
75644,CH,23,Pampigny,
75645,CH,13,Wolfenschiessen,
75646,CH,9,Waltensburg,
75647,CH,25,Rämismühle,
75648,CH,23,Aumont,
75649,CH,5,Les Genevez,
75650,CH,12,Les Hauts-geneveys,
75651,CH,15,Hauptwil,
75652,CH,14,Giswil,
75653,CH,19,Feldbach,
75654,CH,1,Hohenrain,
75655,CH,14,Brienzwiler,
75656,CH,1,Etzgen,
75657,CH,22,Gryon,
75658,CH,22,Evolène,
75659,CH,9,Jenaz,
75660,CH,26,Fontenais,
75661,CH,22,Saas-grund,
75662,CH,23,Onnens,
75663,CH,5,Einigen,
75664,CH,14,Diesse,
75665,CH,5,Kirchlindach,
75666,CH,9,Hütten,
75667,CH,9,Lavin,
75668,CH,7,Longirod,
75669,CH,14,Sörenberg,
75670,CH,15,Sommeri,
75671,CH,19,Mammern,
75672,CH,6,Cerniat,
75673,CH,7,Burtigny,
75674,CH,22,Finhaut,
75675,CH,20,Ponto Valentino,
75676,CH,21,Silenen,
75677,CH,15,Häggenschwil,
75678,CH,20,Cresciano,
75679,CH,6,Courlevon,
75680,CH,22,Les Haudères,
75681,CH,12,Grandcour,
75682,CH,19,Kefikon,
75683,CH,1,Knutwil,
75684,CH,23,Gollion,
75685,CH,8,Linthal,
75686,CH,18,Herbetswil,
75687,CH,20,Osogna,
75688,CH,23,Yvorne,
75689,CH,1,Ochlenberg,
75690,CH,8,Oberterzen,
75691,CH,5,Mürren,
75692,CH,1,Münster,
75693,CH,7,Eaux-vives,
75694,CH,1,Gunzwil,
75695,CH,9,Riom,
75696,CH,22,Saint-pierre-de-clages,
75697,CH,1,Lax,
75698,CH,20,Selma,
75699,CH,20,Cadro,
75700,CH,23,Le Sépey,
75701,CH,22,Termen,
75702,CH,20,Ronco,
75703,CH,1,Tecknau,
75704,CH,22,Gsteig,
75705,CH,16,Osterfingen,
75706,CH,5,Stechelberg,
75707,CH,5,Niederried,
75708,CH,6,Faoug,
75709,CH,9,Luzein,
75710,CH,22,Mex,
75711,CH,23,Champagne,
75712,CH,1,Kaiserstuhl,
75713,CH,14,Twann,
75714,CH,23,Enney,
75715,CH,20,Mesocco,
75716,CH,14,Bedretto,
75717,CH,13,Alpnachstad,
75718,CH,10,Eichberg,
75719,CH,6,Jeuss,
75720,CH,25,Sternenberg,
75721,CH,19,Hörhausen,
75722,CH,1,Wauwil,
75723,CH,15,Saint-gall,
75724,CH,23,Vaulion,
75725,CH,23,Novalles,
75726,CH,12,Saint-aubin,
75727,CH,4,Mariastein,
75728,CH,5,Montfaucon,
75729,CH,17,Illgau,
75730,CH,26,Undervelier,
75731,CH,12,Brot-plamboz,
75732,CH,20,Robasacco,
75733,CH,22,La Fouly,
75734,CH,22,Lourtier,
75735,CH,22,Bruson,
75736,CH,23,Chêne-pâquier,
75737,CH,20,Avegno,
75738,CH,12,Boudevilliers,
75739,CH,1,Staffelbach,
75740,CH,23,Estavayer,
75741,CH,2,Nesslau,
75742,CH,23,Provence,
75743,CH,9,San Carlo,
75744,CH,20,Iragna,
75745,CH,23,Rances,
75746,CH,19,Ellikon An Der Thur,
75747,CH,6,Barberêche,
75748,CH,5,Richigen,
75749,CH,21,Rabius,
75750,CH,15,Siegershausen,
75751,CH,26,Montignez,
75752,CH,23,La Comballaz,
75753,CH,6,Arconciel,
75754,CH,12,La Chaux-des-breuleux,
75755,CH,9,Pignia,
75756,CH,6,Kriechenwil,
75757,CH,22,Inden,
75758,CH,23,Le Crêt-près-semsales,
75759,CH,7,Sécheron,
75760,CH,26,Bure,
75761,CH,1,Winikon,
75762,CH,23,Chardonne,
75763,CH,12,La Ferrière,
75764,CH,22,Brigerbad,
75765,CH,25,Oberglatt,
75766,CH,25,Stallikon,
75767,CH,4,Aesch,
75768,CH,25,Dielsdorf,
75769,CH,25,Bonstetten,
75770,CH,25,Glattfelden,
75771,CH,25,Samstagern,
75772,CH,25,Eglisau,
75773,CH,25,Birmensdorf,
75774,CH,25,Uitikon,
75775,CH,25,Uznach,
75776,CH,25,Bülach,
75777,CH,4,Breitenbach,
75778,CH,4,Metzerlen,
75779,CH,25,Flaach,
75780,CH,25,Hüntwangen,
75781,CH,25,Bachenbülach,
75782,CH,25,Birmenstorf,
75783,CH,25,Buchberg,
75784,CH,14,Bürglen,
75785,CH,1,Aesch,
75786,CH,4,Himmelried,
75787,CH,25,Sankt Gallenkappel,
75788,CH,9,Saint Peter,
75789,CH,23,La Tine,
75790,CH,16,Benken,
75791,CH,1,Wil,
75792,CH,23,Chateau-d'oex,
75793,CH,22,Eischoll,
75794,CH,25,Wasterkingen,
75795,CH,25,Aeugst,
75796,CH,25,Rüdlingen,
75797,CH,1,Oberwil,
75798,CH,23,Grandvillard,
75799,CH,5,Oberbalm,
75800,CH,9,Vignogn,
75801,CH,4,Grellingen,
75802,CH,4,Pfeffingen,
75803,CH,15,Neukirch,
75804,CH,5,Rüeggisberg,
75805,CH,23,La Brévine,
75806,CH,14,Brienz,
75807,CH,20,Riva San Vitale,
75808,CH,25,Au,
75809,CH,23,L'abbaye,
75810,CH,20,Fornasette,
75811,CH,4,Hofstetten,
75812,CH,5,Brügg,
75813,CH,23,Granges,
75814,CH,11,Hellbühl,
75815,CH,25,Windlach,
75816,CH,9,Urmein,
75817,CH,22,Gamsen,
75818,CH,19,Mettendorf,
75819,CH,22,Simplon Dorf,
75820,CH,23,La Praz,
75821,CH,2,Hundwil,
75822,CH,23,Vullierens,
75823,CH,14,Villa,
75824,CH,5,Wiler,
75825,CH,14,Grund,
75826,CH,5,Matten,
75827,CH,14,Stalden,
75828,CH,6,Villarvolard,
75829,CH,25,Teufen,
75830,CH,23,Lessoc,
75831,CH,22,Saint-léonard,
75832,CH,5,Rapperswil,
75833,CH,6,Grandsivaz,
75834,CH,12,Chevroux,
75835,CH,1,Alberswil,
75836,CH,23,Ropraz,
75837,CH,11,Greppen,
75838,CH,6,Villarsiviriaux,
75839,CH,6,Ried,
75840,CH,6,Villarsel-le-gibloux,
75841,CH,22,Randa,
75842,CH,25,Wil,
75843,CH,14,Obergesteln,
75844,CH,5,Landiswil,
75845,CH,26,Vicques,
75846,CH,1,Zell,
75847,CH,14,Kaiserstuhl,
75848,CH,22,Niedergampel,
75849,CH,14,Airolo,
75850,CH,23,Corbeyrier,
75851,CH,12,Chabrey,
75852,CH,11,Eschenbach,
75853,CH,25,Buchs,
75854,CH,14,Guttannen,
75855,CH,5,Schüpbach,
75856,CH,18,Crémines,
75857,CH,8,Mühlehorn,
75858,CH,1,Wangen,
75859,CH,5,Bremgarten,
75860,CH,14,Unterbach,
75861,CH,23,Arnex,
75862,CH,1,Ehrendingen,
75863,CH,22,Baltschieder,
75864,CH,9,Fanas,
75865,CH,22,Le Châble,
75866,CH,14,Ligerz,
75867,CH,7,Begnins,
75868,CH,6,Hauteville,
75869,CH,14,Lamboing,
75870,CH,1,Dürrenroth,
75871,CH,6,Biberen,
75872,CH,26,Bärschwil,
75873,CH,23,Côte Aux Fées,
75874,CH,23,La Chièsaz,
75875,CH,5,Oey,
75876,CH,11,Kastanienbaum,
75877,CH,15,Kradolf,
75878,CH,1,Hendschiken,
75879,CH,22,Vernamiège,
75880,CH,20,Malvaglia,
75881,CH,9,Rueun,
75882,CH,14,Ronco,
75883,CH,15,Buchen,
75884,CH,16,Herblingen,
75885,CH,8,Vorderthal,
75886,CH,8,Luchsingen,
75887,CH,22,Euseigne,
75888,CH,20,Novaggio,
75889,CH,1,Riburg,
75890,CH,9,Ruschein,
75891,CH,15,Heerbrugge,
75892,CH,23,Buttes,
75893,CH,20,San Carlo,
75894,CH,7,Compesières,
75895,CH,4,Sankt Johann,
75896,CH,6,Riedstätt,
75897,CH,5,Wald,
75898,CH,5,Bigenthal,
75899,CH,11,Eigenthal,
75900,CH,5,Rüderswil,
75901,CH,25,Stadel,
75902,CH,23,Les Mosses,
75903,CH,5,Brunnenthal,
75904,CH,11,Gelfingen,
75905,CH,5,Vorderfultigen,
75906,CH,20,Muggio,
75907,CH,1,Bellwald,
75908,CH,9,La Rösa,
75909,CH,9,Tschuggen,
75910,CH,1,Sommerau,
75911,CH,5,Emmenmatt,
75912,CH,23,Villars-sur-ollon,
75913,CH,20,Certara,
75914,CH,13,Kehrsiten,
75915,CH,20,Palagnedra,
75916,CH,23,Baillaigues,
75917,CH,20,Spruga,
75918,CH,20,Solduno,
75919,CH,1,Zuzgen,
75920,CH,23,Combremont,
75921,CH,14,Andermatt,
75922,CH,18,Hessigkofen,
75923,CH,21,Gurtnellen,
75924,CH,15,Bürglen,
75925,CH,14,Hohfluh,
75926,CH,6,Trey,
75927,CH,22,Mase,
75928,CH,22,Chandolin,
75929,CH,23,Donneloye,
75930,CH,23,Combremont-le-petit,
75931,CH,20,Morbio Superiore,
75932,CH,20,Cama,
75933,CH,1,Siglistorf,
75934,CH,22,Bitsch,
75935,CH,14,Oberwald,
75936,CH,20,Bogno,
75937,CH,9,Weisstannen,
75938,CH,20,Pianezzo,
75939,CH,9,Peist,
75940,CH,23,Les Moulins,
75941,CH,5,Sundlauenen,
75942,CH,15,Nonnenhorn,
75943,CH,18,Welschenrohr,
75944,CH,20,Contra,
75945,CH,9,Schmitten,
75946,CH,5,Balm Bei Messen,
75947,CH,7,Marchissy,
75948,CH,1,Schongau,
75949,CH,20,Vairano,
75950,CH,5,Habkern,
75951,CH,1,Schwaderloch,
75952,CH,2,Ricken,
75953,CH,5,Vauffelin,
75954,CH,4,Kleinhüningen,
75955,CH,5,Albligen,
75956,CH,20,Cimadera,
75957,CH,1,Seeberg,
75958,CH,1,Dogern,
75959,CH,9,Rodels,
75960,CH,20,Campo,
75961,CH,6,Orsonnens,
75962,CH,20,Feld,
75963,CH,22,Bürchen,
75964,CH,5,Schangnau,
75965,CH,16,Oberhallau,
75966,CH,11,Werthenstein,
75967,CH,1,Hemmiken,
75968,CH,8,Amden,
75969,CH,23,Cheiry,
75970,CH,12,Grandfontaine,
75971,CH,3,Saline,
75972,CH,22,Saint-martin,
75973,CH,22,Staldenried,
75974,CH,22,Herbriggen,
75975,CH,20,Roverdo,
75976,CH,5,Saint-brais,
75977,CH,8,Braunwald,
75978,CH,8,Engi,
75979,CH,5,Weissenburg,
75980,CH,17,Euthal,
75981,CH,26,Roches,
75982,CH,5,Iseltwald,
75983,CH,1,Hauenstein,
75984,CH,14,Melchtal,
75985,CH,6,Sedeilles,
75986,CH,26,Wahlen,
75987,CH,22,Hérémence,
75988,CH,1,Ramiswil,
75989,CH,26,Perrefitte,
75990,CH,23,La Lécherette,
75991,CH,23,Montcherand,
75992,CH,18,Grandval,
75993,CH,20,Aurigeno,
75994,CH,5,Reutigen,
75995,CH,22,La Balmaz,
75996,CH,22,Zeneggen,
75997,CH,20,Caviano,
75998,CH,20,Lodano,
75999,CH,9,Fidaz,
76000,CH,22,Brignon,
76001,CH,22,Agarn,
76002,CH,5,Gsteig,
76003,CH,17,Alpthal,
76004,CH,25,Feldbach,
76005,CH,22,Feschel,
76006,CH,8,Innerthal,
76007,CH,17,Sisikon,
76008,CH,14,Stein,
76009,CH,8,Leuggelbach,
76010,CH,8,Matt,
76011,CH,11,Doppleschwand,
76012,CH,23,Fiez,
76013,CH,9,Klosters Dorf,
76014,CH,25,Seebach,
76015,CH,1,Hergiswil,
76016,CH,25,Baltenswil,
76017,CH,16,Beggingen,
76018,CH,9,Maloja,
76019,CH,22,Embd,
76020,CH,5,Erlenbach Im Simmental,
76021,CH,20,Chironico,
76022,CH,22,Täsch,
76023,CH,22,Turtmann,
76024,CH,20,Lavorgo,
76025,CH,5,Deisswil,
76026,CH,23,Le Châtelard,
76027,CH,23,Albeuve,
76028,CH,5,Diemtigen,
76029,CH,2,Schönengrund,
76030,CH,22,Les Marécottes,
76031,CH,6,Dompierre,
76032,CH,12,Morens,
76033,CH,20,Intragna,
76034,CH,20,Brusino Arsizio,
76035,CH,25,Mühlrüti,
76036,CH,22,Almagell,
76037,CH,26,Saint-ursanne,
76038,CH,20,Mergoscia,
76039,CH,1,Lieli,
76040,CH,19,Herdern,
76041,CH,25,Breite,
76042,CH,1,Ufhusen,
76043,CH,5,Ranflüh,
76044,CH,20,Piotta,
76045,CH,4,Oleyres,
76046,CH,9,Sils-maria,
76047,CH,9,Seewis,
76048,CH,20,Iseo,
76049,CH,22,Iserables,
76050,CH,5,Rütti,
76051,CH,15,Büchler,
76052,CH,9,Furth,
76053,CH,20,Pedrinate,
76054,CH,25,Hegi,
76055,CH,5,Därstetten,
76056,CH,16,Stammheim,
76057,CH,16,Ellikon,
76058,CH,14,Grafenort,
76059,CH,22,Kippel,
76060,CH,19,Neunforn,
76061,CH,5,Oberried,
76062,CH,7,Cartigny,
76063,CH,1,Ohmstal,
76064,CH,9,Tiefencastel,
76065,CH,9,Mastrils,
76066,CH,20,Osco,
76067,CH,23,Agiez,
76068,CH,9,Zillis,
76069,CH,23,La Côte-aux-fées,
76070,CH,26,Pleigne,
76071,CH,22,Lavey-les-bains,
76072,CH,9,Reischen,
76073,CH,1,Luthern,
76074,CH,18,Alchenstorf,
76075,CH,9,Conters,
76076,CH,25,Otelfingen,
76077,CH,17,Wollerau,
76078,CH,25,Mettmenstetten,
76079,CH,23,Nyon,
76080,CH,3,Therwil,
76081,CH,11,Altishofen,
76082,CH,15,Lienz,
76083,CH,19,Amriswil,
76084,CH,5,Langenthal,
76085,CH,18,Lostorf,
76086,CH,18,Olten,
76087,CH,17,Freienbach,
76088,CH,3,Allschwil,
76089,CH,23,Avenches,
76090,CH,5,Grindelwald,
76091,CH,11,Meierskappel,
76092,CH,15,Bronschhofen,
76093,CH,23,Gland,
76094,CH,5,Nidau,
76095,CH,12,Fleurier,
76096,CH,25,Feuerthalen,
76097,CH,15,Degersheim,
76098,CH,11,Sursee,
76099,CH,25,Niederweningen,
76100,CH,25,Urdorf,
76101,CH,15,Sennwald,
76102,CH,18,Grenchen,
76103,CH,15,Flawil,
76104,CH,15,Jona,
76105,CH,17,Altendorf,
76106,CH,5,Moutier,
76107,CH,11,Hitzkirch,
76108,CH,23,Bursins,
76109,CH,19,Kreuzlingen,
76110,CH,5,Herzogenbuchsee,
76111,CH,5,Arch,
76112,CH,15,Gams,
76113,CH,19,Romanshorn,
76114,CH,3,Birsfelden,
76115,CH,18,Dornach,
76116,CH,22,Monthey,
76117,CH,15,Niederuzwil,
76118,CH,17,Schindellegi,
76119,CH,3,Augst,
76120,CH,3,Waldenburg,
76121,CH,18,Balsthal,
76122,CH,11,Pfaffnau,
76123,CH,23,Vaud,
76124,CH,23,Givrins,
76125,CH,23,Prangins,
76126,CH,19,Horn,
76127,CH,15,Thal,
76128,CH,19,Arbon,
76129,CH,17,Siebnen,
76130,CH,5,Aarberg,
76131,CH,11,Wikon,
76132,CH,19,Erlen,
76133,CH,15,Grabs,
76134,CH,11,Triengen,
76135,CH,1,Spreitenbach,
76136,CH,15,Sargans,
76137,CH,2,Gais,
76138,CH,19,Zihlschlacht,
76139,CH,3,Arisdorf,
76140,CH,18,Egerkingen,
76141,CH,15,Schmerikon,
76142,CH,6,Flamatt,
76143,CH,5,Oberdiessbach,
76144,CH,17,Lachen,
76145,CH,17,Hurden,
76146,CH,5,Laupen,
76147,CH,15,Wattwil,
76148,CH,22,Bouveret,
76149,CH,23,Payerne,
76150,CH,23,Le Sentier,
76151,CH,2,Walzenhausen,
76152,CH,11,Nebikon,
76153,CH,5,Saanen,
76154,CH,9,Sedrun,
76155,CH,26,Le Noirmont,
76156,CH,25,Uhwiesen,
76157,CH,18,Nunningen,
76158,CH,23,Eysins,
76159,CH,15,Uznach,
76160,CH,19,Diessenhofen,
76161,CH,18,Oensingen,
76162,CH,5,Wynigen,
76163,CH,15,Oberuzwil,
76164,CH,15,Bad Ragaz,
76165,CH,11,Schenkon,
76166,CH,5,Meiringen,
76167,CH,15,Mels,
76168,CH,15,Vilters,
76169,CH,9,San Vittore,
76170,CH,5,Lotzwil,
76171,CH,6,Kerzers,
76172,CH,3,Eptingen,
76173,CH,18,Oberbuchsiten,
76174,CH,5,Gstaad,
76175,CH,19,Egnach,
76176,CH,17,Immensee,
76177,CH,15,Unterwasser,
76178,CH,25,Winkel,
76179,CH,5,La Neuveville,
76180,CH,19,Oberaach,
76181,CH,5,Oberbipp,
76182,CH,2,Heiden,
76183,CH,11,Dagmersellen,
76184,CH,25,Rafz,
76185,CH,19,Uttwil,
76186,CH,9,Lostallo,
76187,CH,25,Elgg,
76188,CH,25,Ottenbach,
76189,CH,15,Sevelen,
76190,CH,25,Oberweningen,
76191,CH,11,Reiden,
76192,CH,25,Flurlingen,
76193,CH,5,Ursenbach,
76194,CH,18,Wolfwil,
76195,CH,18,Zullwil,
76196,CH,18,Trimbach,
76197,CH,11,Willisau,
76198,CH,18,Breitenbach,
76199,CH,15,Uzwil,
76200,CH,23,Le Brassus,
76201,CH,5,Nods,
76202,CH,23,Gimel,
76203,CH,23,Arzier,
76204,CH,23,Genolier,
76205,CH,18,Metzerlen,
76206,CH,18,Niederbuchsiten,
76207,CH,25,Obfelden,
76208,CH,9,Trun,
76209,CH,2,Rehetobel,
76210,CH,9,Rossa,
76211,CH,19,Basadingen,
76212,CH,23,Rolle,
76213,CH,15,Lichtensteig,
76214,CH,25,Rheinau,
76215,CH,3,Langenbruck,
76216,CH,18,Fulenbach,
76217,CH,0,,
76218,CH,5,Siselen,
76219,CH,22,Morgins,
76220,CH,5,Utzenstorf,
76221,CH,15,Flums,
76222,CH,5,Kappelen,
76223,CH,11,Pfeffikon,
76224,CH,22,Collombey,
76225,CH,5,Sumiswald,
76226,CH,3,Bottmingen,
76227,CH,12,Couvet,
76228,CH,5,Wiedlisbach,
76229,CH,3,Ormalingen,
76230,CH,11,Uffikon,
76231,CH,5,Aarwangen,
76232,CH,6,Murten,
76233,CH,0,,
76234,CH,23,Allaman,
76235,CH,23,Bursinel,
76236,CH,5,Niederbipp,
76237,CH,25,Alten,
76238,CH,3,Ettingen,
76239,CH,0,,
76240,CH,17,Reichenburg,
76241,CH,12,Travers,
76242,CH,18,Hochwald,
76243,CH,18,Gempen,
76244,CH,3,Buus,
76245,CH,19,Kesswil,
76246,CH,25,Ossingen,
76247,CH,23,Aubonne,
76248,CH,15,Mogelsberg,
76249,CH,9,Stampa,
76250,CH,15,Kaltbrunn,
76251,CH,3,Diegten,
76252,CH,3,Maisprach,
76253,CH,19,Sulgen,
76254,CH,19,Bottighofen,
76255,CH,8,Haslen,
76256,CH,5,Huttwil,
76257,CH,17,Feusisberg,
76258,CH,15,Jonschwil,
76259,CH,19,Scherzingen,
76260,CH,13,Emmetten,
76261,CH,23,Founex,
76262,CH,15,Bazenheid,
76263,CH,23,Cudrefin,
76264,CH,16,Trasadingen,
76265,CH,25,Knonau,
76266,CH,17,Tuggen,
76267,CH,18,Schnottwil,
76268,CH,6,Cheyres,
76269,CH,6,Galmiz,
76270,CH,22,Vouvry,
76271,CH,22,Vionnaz,
76272,CH,15,Goldingen,
76273,CH,15,Henau,
76274,CH,5,Attiswil,
76275,CH,19,Gottlieben,
76276,CH,19,Wuppenau,
76277,CH,15,Wangs,
76278,CH,5,Kallnach,
76279,CH,10,Oberegg,
76280,CH,15,Weesen,
76281,CH,3,Gelterkinden,
76282,CH,25,Andelfingen,
76283,CH,25,Maschwanden,
76284,CH,26,Les Breuleux,
76285,CH,6,Semsales,
76286,CH,6,Siviriez,
76287,CH,5,Villeret,
76288,CH,23,Gilly,
76289,CH,6,Portalban,
76290,CH,6,Sugiez,
76291,CH,22,Fiesch,
76292,CH,18,Gunzgen,
76293,CH,5,Koppigen,
76294,CH,15,Gommiswald,
76295,CH,6,Albeuve,
76296,CH,1,Steinhaus,
76297,CH,21,Stock,
76298,CH,11,Wauwil,
76299,CH,18,Himmelried,
76300,CH,23,Vinzel,
76301,CH,18,Hauenstein,
76302,CH,2,Trogen,
76303,CH,17,Arth,
76304,CH,15,Hemberg,
76305,CH,6,Rue,
76306,CH,23,Borex,
76307,CH,15,Rufi,
76308,CH,23,Trey,
76309,CH,18,Halten,
76310,CH,23,Perroy,
76311,CH,22,Troistorrents,
76312,CH,24,Morgarten,
76313,CH,6,Grandvillard,
76314,CH,25,Dachsen,
76315,CH,25,Regensberg,
76316,CH,26,Montfaucon,
76317,CH,26,Les Bois,
76318,CH,22,Crans-sur-sierre,
76319,CH,22,Lax,
76320,CH,5,Wyssachen,
76321,CH,11,Grosswangen,
76322,CH,23,Coppet,
76323,CH,6,Attalens,
76324,CH,23,Marchissy,
76325,CH,12,Gorgier,
76326,CH,1,Dietwil,
76327,CH,23,Le Vaud,
76328,CH,15,Wildhaus,
76329,CH,19,Altnau,
76330,CH,19,Hauptwil,
76331,CH,5,Ins,
76332,CH,18,Messen,
76333,CH,25,Hirzel,
76334,CH,5,Rohrbach,
76335,CH,6,Ueberstorf,
76336,CH,11,Ufhusen,
76337,CH,6,Riffenmatt,
76338,CH,11,Gettnau,
76339,CH,3,Zeglingen,
76340,CH,20,Airolo,
76341,CH,26,Grandfontaine,
76342,CH,2,Speicher,
76343,CH,23,Faoug,
76344,CH,3,Hemmiken,
76345,CH,18,Rodersdorf,
76346,CH,5,Lenk,
76347,CH,19,Schlattingen,
76348,CH,25,Nohl,
76349,CH,15,Berschis,
76350,CH,15,Sax,
76351,CH,15,Salez,
76352,CH,12,Valangin,
76353,CH,18,Laupersdorf,
76354,CH,5,Madiswil,
76355,CH,5,Rüti,
76356,CH,5,Eriswil,
76357,CH,23,Rueyres,
76358,CH,5,Vechigen,
76359,CH,23,Begnins,
76360,CH,6,Vauderens,
76361,CH,11,Gunzwil,
76362,CH,9,Marmorera,
76363,CH,15,Ganterschwil,
76364,CH,19,Kradolf,
76365,CH,23,Les Diablerets,
76366,CH,11,Oberkirch,
76367,CH,5,Erlach,
76368,CH,11,Richenthal,
76369,CH,5,Wynau,
76370,CH,5,Hagneck,
76371,CH,15,Eichberg,
76372,CH,15,Krinau,
76373,CH,15,Zuckenriet,
76374,CH,5,Ochlenberg,
76375,CH,8,Betschwanden,
76376,CH,6,Enney,
76377,CH,3,Wahlen,
76378,CH,5,,
76379,CH,22,,
76380,CH,26,,
76381,CH,23,Le Mont,
76382,CH,25,Marthalen,
76383,CH,11,Rigi Kaltbad,
76384,CH,20,Fiesso,
76385,CH,20,Piazzogna,
76386,CH,9,Splügen,
76387,CH,5,Kleindietwil,
76388,CH,6,Porsel,
76389,CH,22,Châteauneuf,
76390,CH,20,Ronco Sopra Ascona,
76391,CH,23,Sottens,
76392,CH,11,Knutwil,
76393,CH,14,Alpnachstad,
76394,CH,11,Ettiswil,
76395,CH,20,Moleno,
76396,CH,20,Quinto,
76397,CH,5,Gondiswil,
76398,CH,19,Langrickenbach,
76399,CH,9,Serneus,
76400,CH,5,Fahrni,
76401,CH,20,Vira,
76402,CH,9,Sils Im Domleschg,
76403,CH,9,Ardez,
76404,CH,22,Eggerberg,
76405,CH,22,Varen,
76406,CH,20,Cauco,
76407,CH,1,Ernen,
76408,CH,26,Courtedoux,
76409,CH,2,Necker,
76410,CH,16,Biber,
76411,CH,5,Oberwil,
76412,CH,9,Danis,
76413,CH,19,Mettlen,
76414,CH,8,Mols,
76415,CH,22,Oberems,
76416,CH,20,Calpiogna,
76417,CH,1,Würenling,
76418,CH,15,Speicher,
76419,CH,11,Wiggen,
76420,CH,20,Moghegno,
76421,CH,9,Ascharina,
76422,CH,9,Digg,
76423,CH,18,Gänsbrunnen,
76424,CH,9,Malix,
76425,CH,8,Quarten,
76426,CH,9,Bivio,
76427,CH,14,Frutt,
76428,CH,26,Coeuve,
76429,CH,5,Bellelay,
76430,CH,20,Chiggiogna,
76431,CH,26,Ocourt,
76432,CH,20,Curtina,
76433,CH,9,Klosters Platz,
76434,CH,22,Visperterminen,
76435,CH,6,Le Bry,
76436,CH,9,Glaris,
76437,CH,21,Hergersboden,
76438,CH,7,Bossey,
76439,CH,23,Colombier,
76440,CH,19,Fischingen,
76441,CH,5,Rüeschegg,
76442,CH,11,Schongau,
76443,CH,5,Twann,
76444,CH,20,Mosogno,
76445,CH,5,Trimstein,
76446,CH,2,Stein,
76447,CH,9,Valzeina,
76448,CH,22,Bourg-saint-pierre,
76449,CH,5,Teuffenthal,
76450,CH,5,Riedern,
76451,CH,13,Oberdorf,
76452,CH,20,Miglieglia,
76453,CH,5,Oberstocken,
76454,CH,7,Changins,
76455,CH,6,Villarsel,
76456,CH,21,Intschi,
76457,CH,22,Visse,
76458,CH,23,Les Bayards,
76459,CH,20,Auressio,
76460,CH,25,Winterthur Töss,
76461,CH,23,Tanay,
76462,CH,1,Spitzenhaus,
76463,CH,1,Nieder-zeihen,
76464,CH,25,Stärnebärg,
76465,CH,23,Dompierre,
76466,CH,5,Ferenbalm,
76467,CH,8,Ochsenboden,
76468,CH,1,Willisau Stadt,
76469,CH,1,Fankhaus,
76470,CH,1,Ober Rämis,
76471,CH,5,Käppeli,
76472,CH,5,Saxeten,
76473,CH,6,Farvagny-le-petit,
76474,CH,5,Mannried,
76475,CH,6,Im Fang,
76476,CH,14,Lohalp,
76477,CH,9,Trinsermühle,
76478,CH,1,Bad Schinznach,
76479,CH,20,Soresina,
76480,CH,19,Wetzikon,
76481,CH,8,Ober Siez,
76482,CH,22,Ecône,
76483,CH,22,Pont-de-nant,
76484,CH,5,Dreischübel,
76485,CH,6,Sankt Ursen,
76486,CH,14,Gidisdorf,
76487,CH,8,Vordertal,
76488,CH,21,Ruèras,
76489,CH,9,Le Prese,
76490,CH,5,Illiswil,
76491,CH,20,Loco,
76492,CH,23,Rovray,
76493,CH,1,Langnau,
76494,CH,1,Richental,
76495,CH,9,Versam,
76496,CH,21,Spitelrüti,
76497,CH,14,Möhrlialp,
76498,CH,23,Estavannens-dessous,
76499,CH,5,Jerisberghof,
76500,CH,6,Chavannes-sous-orsonnens,
76501,CH,5,Schwanden,
76502,CH,5,Buchholterberg,
76503,CH,15,Hof,
76504,CH,8,Innertal,
76505,CH,5,Reuchenette,
76506,CH,1,Hendschikon,
76507,CH,6,Sangernboden,
76508,CH,9,Seewis Dorf,
76509,CH,16,Etzwilen,
76510,CH,21,Unterschächen,
76511,CH,15,Bauried,
76512,CH,14,Schimbergbad,
76513,CH,6,Sankt Antoni,
76514,CH,14,Hospental,
76515,CH,14,Müssen,
76516,CH,6,Burstera,
76517,CH,5,Unter-gomerkinden,
76518,CH,5,Sornetan,
76519,CH,25,Alt Toggenburg,
76520,CH,1,Ittental,
76521,CH,20,Alpe Di Crastera,
76522,CH,25,Zürichhorn,
76523,CH,20,Bignasco,
76524,CH,9,Obersaxen,
76525,CH,9,Mathon,
76526,CH,23,Fruence,
76527,CH,20,Someo,
76528,CH,8,Käsern,
76529,CH,25,Letten,
76530,CH,26,Saulcy,
76531,CH,14,Geschinen,
76532,CH,9,Tschappina,
76533,CH,5,Rüschegg-graben,
76534,CH,21,Curaglia,
76535,CH,5,Grimmialp,
76536,CH,12,Portalban- Dessous,
76537,CH,5,Überstorf,
76538,CH,5,Unter-sohl,
76539,CH,22,Taveyannaz,
76540,CH,22,Épinassey,
76541,CH,20,Cimalmotto,
76542,CH,9,Pany,
76543,CH,11,Landbrugg,
76544,CH,25,Kempttal,
76545,CH,5,Schärligbad,
76546,CH,5,Fermelberg,
76547,CH,1,Friedau,
76548,CH,17,Riemenstalden,
76549,CH,23,Ensex,
76550,CH,14,Schwendibad,
76551,CH,3,Blauen,
76552,CH,23,Les Thioleyres,
76553,CH,25,Hulftegg,
76554,CH,5,Kröschenbrunnen,
76555,CH,6,Entenmoos,
76556,CH,6,Abländschen,
76557,CH,7,Le Chenit,
76558,CH,12,Lindenhof,
76559,CH,8,Richisau,
76560,CH,22,Reusch,
76561,CH,22,Viege,
76562,CH,22,Magnot,
76563,CH,20,Brè Sopra Lugano,
76564,CH,9,Brail,
76565,CH,9,Castiel,
76566,CH,17,Lustenau,
76567,CH,23,Ciernes-picat,
76568,CH,5,Heidbühl,
76569,CH,9,Ladils,
76570,CH,9,Ladir,
76571,CH,22,Martigny-combe,
76572,CH,14,Gadmen,
76573,CH,16,Hofen,
76574,CH,9,Sarn,
76575,CH,20,Porto Ronco,
76576,CH,20,Frasco,
76577,CH,22,Diablerets,
76578,CH,21,Bristen,
76579,CH,11,Lelin,
76580,CH,5,Lindenthal,
76581,CH,21,Liplisbühl,
76582,CH,9,Scheid,
76583,CH,22,Erschmatt,
76584,CH,25,Töss,
76585,CH,14,Ried,
76586,CH,22,Eison,
76587,CH,20,San Bernardino,
76588,CH,22,Gottefrey,
76589,CH,5,Morgeten,
76590,CH,22,Iffigenalp,
76591,CH,5,Nidegg,
76592,CH,5,Grodei,
76593,CH,9,Kästris,
76594,CH,22,Somlaproz,
76595,CH,9,Mittelsass,
76596,CH,9,Morissen,
76597,CH,9,Tschiertschen,
76598,CH,25,Tössegg,
76599,CH,8,Argseeli,
76600,CH,12,Laneron-combes,
76601,CH,5,Unter Schwendimatt,
76602,CH,7,Barmaz,
76603,CH,23,Le Contour,
76604,CH,25,Tössriedern,
76605,CH,9,Trimmis Dorf,
76606,CH,14,Göschenen,
76607,CH,23,Siernes Picats,
76608,CH,9,Alvaneu Dorf,
76609,CH,5,Bümpliz,
76610,CH,9,Fuldera,
76611,CH,20,Lelgio,
76612,CH,21,Tschamut,
76613,CH,6,Kalchstätten,
76614,CH,22,Bratsch,
76615,CH,1,Niedererlinsbach,
76616,CH,8,Rüti,
76617,CH,5,Linden Bei Oberdiessbach,
76618,CH,22,Simpeln,
76619,CH,6,Im Kloster,
76620,CH,10,Alt Sankt Johann,
76621,CH,22,Pra Combeira,
76622,CH,20,Castello San Pietro,
76623,CH,22,Niedergesteln,
76624,CH,14,Wassen,
76625,CH,14,Saint-gothard,
76626,CH,5,Weissenbach,
76627,CH,5,Schwefelbergbad,
76628,CH,22,Bains De Lavey,
76629,CH,14,Ulrichen,
76630,CH,24,Zugersee,
76631,CH,14,Gentalhütten,
76632,CH,22,Chermignon-d'en Haut,
76633,CH,5,Betelried,
76634,CH,21,Isenthal,
76635,CH,5,Tiermatti,
76636,CH,5,Kemmeribodenbad,
76637,CH,9,Laax Bei Ilanz,
76638,CH,16,Ober-stammheim,
76639,CH,22,Lauenen,
76640,CH,20,Ludiano,
76641,CH,14,Bühlen,
76642,CH,21,Riedlig,
76643,CH,10,Wasserauen,
76644,CH,14,Nieder Surenen Alm,
76645,CH,12,Münstschemier,
76646,CH,5,Tschenten,
76647,CH,20,Piandera,
76648,CH,9,Kriegmatte,
76649,CH,9,Selfranga,
76650,CH,6,Bad-schwarzsee,
76651,CH,20,Personico,
76652,CH,1,Murgental,
76653,CH,9,Fideris Dorf,
76654,CH,21,Dürrenboden,
76655,CH,25,Fischental,
76656,CH,11,Hertenstein,
76657,CH,24,Sihlbrugg,
76658,CH,5,Scherliau,
76659,CH,5,Wachseldorn,
76660,CH,20,Bosco Gurin,
76661,CH,5,Hirschhorn,
76662,CH,25,Höngg,
76663,CH,14,Krautmettli,
76664,CH,25,Turicum,
76665,CH,22,Hinter Wallegg,
76666,CH,1,Mühlebach,
76667,CH,20,Cavergno,
76668,CH,22,Lalden,
76669,CH,9,Alvaneu,
76670,CH,20,Peccia,
76671,CH,22,Ferden,
76672,CH,9,Thalkirch,
76673,CH,7,Pregny,
76674,CH,5,Kiental,
76675,CH,9,Vulpera,
76676,CH,21,Disla,
76677,CH,9,Vrin,
76678,CH,22,Saclentse,
76679,CH,22,Daillet,
76680,CH,5,Zweilütschinen,
76681,CH,5,Soubey,
76682,CH,9,Brusio,
76683,CH,20,Magliasina Chiesa,
76684,CH,20,Astano,
76685,CH,9,Muldain,
76686,CH,16,Unter-schlatt,
76687,CH,25,Zurich,
76688,CH,5,Pery,
76689,CH,25,Rumlang,
76690,CH,7,Geneve,
76691,CH,11,Kussnacht,
76692,CH,25,Kusnacht,
76693,CH,2,Butschwil,
76694,CH,12,Neuchatel,
76695,CH,1,Laufelfingen,
76696,CH,7,Chambesy,
76697,CH,25,Nanikon,
76698,CH,25,Bachenbulach,
76699,CH,1,Schonenwerd,
76700,CH,25,Stafa,
76701,CH,14,Lignieres,
76702,CH,5,Gumligen,
76703,CH,19,Tagerwilen,
76704,CH,1,Wurenlos,
76705,CH,25,Bulach,
76706,CH,26,Delemont,
76707,CH,25,Ruschlikon,
76708,CH,25,Wadenswil,
76709,CH,24,Hunenberg,
76710,CH,4,Munchenstein,
76711,CH,1,Butzberg,
76712,CH,11,Emmenbrucke,
76713,CH,25,Dubendorf,
76714,CH,5,Sage,
76715,CH,25,Bruttisellen,
76716,CH,7,Thonex,
76717,CH,25,Ruti,
76718,CH,24,Schonenberg,
76719,CH,15,Altstatten,
76720,CH,25,Pfaffikon,
76721,CH,19,Mullheim,
76722,CH,1,Wurenlingen,
76723,CH,15,Kronbuhl,
76724,CH,5,Munsingen,
76725,CH,6,Bosingen,
76726,CH,5,Hasle-ruegsau,
76727,CH,1,Hagendorf,
76728,CH,1,Dattwil,
76729,CH,5,Buren An Der Aare,
76730,CH,3,Holstein,
76731,CH,12,Saignelegier,
76732,CH,1,Durrenasch,
76733,CH,10,Buhler,
76734,CH,1,Buron,
76735,CH,5,Koniz,
76736,CH,1,Niedergosgen,
76737,CH,25,Baretswil,
76738,CH,23,La Cote,
76739,CH,25,Nurensdorf,
76740,CH,5,Corgemont,
76741,CH,11,Schupfheim,
76742,CH,8,Nafels,
76743,CH,7,Chene-bourg,
76744,CH,3,Fullinsdorf,
76745,CH,25,Ramismuhle,
76746,CH,25,Fallanden,
76747,CH,25,Mannedorf,
76748,CH,1,Mohlin,
76749,CH,10,Ruthi,
76750,CH,24,Unterageri,
76751,CH,5,Schonbuhl,
76752,CH,5,Barau,
76753,CH,1,Daniken,
76754,CH,6,Villars-sur-glane,
76755,CH,19,Wangi,
76756,CH,19,Munchwilen,
76757,CH,25,Bach,
76758,CH,25,Brutten,
76759,CH,6,Noreaz,
76760,CH,5,Preles,
76761,CH,7,Chatelaine,
76762,CH,26,Kleinlutzel,
76763,CH,13,Ennetburgen,
76764,CH,19,Marstetten,
76765,CH,15,Morschwil,
76766,CH,8,Ziegelbrucke,
76767,CH,5,Rutti,
76768,CH,2,Lutisburg,
76769,CH,11,Romerswil,
76770,CH,24,Unteraegeri,
76771,CH,5,Bevilard,
76772,CH,7,Celigny,
76773,CH,5,Zollbruck,
76774,CH,9,Furstenaubruck,
76775,CH,12,Chezard-saint-martin,
76776,CH,6,Sales,
76777,CH,26,Busserach,
76778,CH,6,Dudingen,
76779,CH,1,Dottingen,
76780,CH,25,Gruningen,
76781,CH,1,Goslikon,
76782,CH,8,Schanis,
76783,CH,9,Mustair,
76784,CH,23,Le Cret,
76785,CH,22,Schonried,
76786,CH,7,Trelex,
76787,CH,7,Vesenaz,
76788,CH,5,Oberburen,
76789,CH,5,Muhlethurnen,
76790,CH,16,Gachlingen,
76791,CH,5,Darstetten,
76792,CH,9,La Rosa,
76793,CH,26,Courtetelle,
76794,CH,5,Lutzelfluh,
76795,CH,5,Thorishaus,
76796,CH,25,Raterschen,
76797,CH,25,Huntwangen,
76798,CH,1,Muhlau,
76799,CH,23,Les Charbonnieres,
76800,CH,5,Munchenbuchsee,
76801,CH,23,Chatelard,
76802,CH,1,Kunten,
76803,CH,7,Secheron,
76804,CH,6,Mezieres,
76805,CH,6,Chatonnaye,
76806,CH,9,Trubbach,
76807,CH,7,Chene-bougeries,
76808,CH,23,Chiesaz,
76809,CH,25,Seegraben,
76810,CH,22,Grachen,
76811,CH,1,Hagglingen,
76812,CH,19,Huttwilen,
76813,CH,15,Buchler,
76814,CH,9,Rhazuns,
76815,CH,9,Grusch,
76816,CH,6,Wunnewil,
76817,CH,1,Kolliken,
76818,CH,1,Moriken,
76819,CH,25,Durnten,
76820,CH,5,Muhleberg,
76821,CH,1,Granichen,
76822,CH,5,Fraschels,
76823,CH,23,Motiers,
76824,CH,5,Schupbach,
76825,CH,15,Burglen,
76826,CH,14,Tauffelen,
76827,CH,23,La Chiesaz,
76828,CH,25,Monchaltorf,
76829,CH,2,Niederburen,
76830,CH,5,Hunibach,
76831,CH,1,Schotz,
76832,CH,5,Buren,
76833,CH,25,Zurich,
76834,CH,4,Klein-basel,
76835,CH,15,Kronbuhl Bei Sankt Gallen,
76836,CH,17,Wadenswil,
76837,CH,5,Rondchatel,
76838,CH,1,Oberhofen Bei Etzgen,
76839,CH,17,Ruti,
76840,CH,1,Bulach,
76841,CH,18,Kirchberg,
76842,CH,1,Unter-siggental,
76843,CH,17,Stafa,
76844,CH,5,Fuhre,
76845,CH,9,Neu-felsberg,
76846,CH,17,Eschenbach,
76847,CH,17,Rapperswil,
76848,CH,17,Jona,
76849,CH,17,Benken,
76850,CH,15,Abtwil,
76851,CH,14,Burglen,
76852,CH,23,Chatel-saint-denis,
76853,CH,1,Reigoldswil,
76854,CH,17,Hombrechtikon,
76855,CH,18,Batterkinden,
76856,CH,17,Hinwil,
76857,CH,4,Dornach,
76858,CH,11,Gerliswil,
76859,CH,17,Bach,
76860,CH,1,Beromunster,
76861,CH,17,Kaltbrunn,
76862,CH,1,Oetwil An Der Limmat,
76863,CH,1,Teufen,
76864,CH,14,Ranft,
76865,CH,9,Schatzalp,
76866,CH,1,Untererlinsbach,
76867,CH,17,Schubelbach,
76868,CH,26,Soubey,
76869,CH,11,Hergiswil,
76870,CH,1,Bachenbulach,
76871,CH,5,Bort,
76872,CH,17,Wangen,
76873,CH,17,Richterswil,
76874,CH,1,Kuttigen,
76875,CH,17,Uznach,
76876,CH,4,Busserach,
76877,CH,14,Morigen,
76878,CH,5,Steinhaus,
76879,CH,5,Kleinhochstetten,
76880,CH,18,Ruti,
76881,CH,5,Schupfen,
76882,CH,24,Knonau,
76883,CH,10,Sevelen,
76884,CH,17,Bubikon,
76885,CH,6,Lechelles,
76886,CH,17,Uerikon,
76887,CH,4,Laufen,
76888,CH,9,Saint Moritz,
76889,CH,22,Dorenaz,
76890,CH,22,Morcles,
76891,CH,22,Saint-romain,
76892,CH,22,Saviese,
76893,CH,22,Vetroz,
76894,CH,22,Saint-leonard,
76895,CH,22,Evolene,
76896,CH,24,Au,
76897,CH,14,Erlach,
76898,CH,17,Samstagern,
76899,CH,17,Wald,
76900,CH,19,Rickenbach,
76901,CH,1,Obergosgen,
76902,CH,15,Teufen,
76903,CH,5,Biberen,
76904,CH,19,Waldi,
76905,CH,14,Le Landeron,
76906,CH,14,Wilerbad,
76907,CH,5,Brugg,
76908,CH,6,Zweisimmen,
76909,CH,17,Unter-bilten,
76910,CH,17,Gommiswald,
76911,CH,12,Chez-le-bart,
76912,CH,9,Egga,
76913,CH,4,Schonenbuch,
76914,CH,9,Rongellen,
76915,CH,22,Miege,
76916,CH,22,Le Chable,
76917,CH,22,Grone,
76918,CH,1,Muhlebach,
76919,CH,14,Flueli,
76920,CH,17,Goldingen,
76921,CH,25,Unter Illnau,
76922,CH,7,Colovrex,
76923,CH,1,Schoftland,
76924,CH,1,Oberonz,
76925,CH,24,Oberruti,
76926,CH,6,Gruyeres,
76927,CH,4,Zullwil,
76928,CH,26,Barschwil,
76929,CH,4,Erschwil,
76930,CH,17,Treib,
76931,CH,23,Chesieres,
76932,CH,23,La Cote-aux-fees,
76933,CH,23,Les Verrieres,
76934,CH,1,Durrenroth,
76935,CH,1,Huntwangen,
76936,CH,23,Huemoz,
76937,CH,6,Schonried,
76938,CH,5,Kappeli,
76939,CH,8,Muhlehorn,
76940,CH,18,Seeberg,
76941,CH,5,Zaziwil,
76942,CH,17,Ricken,
76943,CH,12,La Brevine,
76944,CH,12,La Ferriere,
76945,CH,18,Wynigen,
76946,CH,17,Fischenthal,
76947,CH,4,Roschenz,
76948,CH,5,Bariswil,
76949,CH,22,Fontaine,
76950,CH,13,Buren,
76951,CH,5,Wunnewil,
76952,CH,15,Buhler,
76953,CH,5,Gummenen,
76954,CH,1,Bretzwil,
76955,CH,23,Chavannes-le-chene,
76956,CH,24,Sihlbrucke,
76957,CH,5,Stossen,
76958,CH,9,Splugen,
76959,CH,12,Col Des Roches,
76960,CH,22,Heremence,
76961,CH,26,Lajoux,
76962,CH,5,Bonigen,
76963,CH,17,Rufi,
76964,CH,19,Marwil,
76965,CH,1,Oberdorf,
76966,CH,4,Arlesheim,
76967,CH,4,Stallen,
76968,CH,5,Sengg,
76969,CH,16,Rudlingen,
76970,CH,16,Schlatt,
76971,CH,1,Tossriedern,
76972,CH,10,Werdenberg,
76973,CH,5,Rothenbach,
76974,CH,18,Thunstetten,
76975,CH,20,Prugiasco,
76976,CH,20,Monti Della-tagliada,
76977,CH,20,Al Sasso,
76978,CH,26,Miecourt,
76979,CH,26,Courtemaiche,
76980,CH,4,Burg,
76981,CH,8,Brigels,
76982,CH,7,Anieres,
76983,CH,1,Mumliswil,
76984,CH,1,Bozen,
76985,CH,23,Rossiniere,
76986,CH,2,Ober-basenheid,
76987,CH,17,Schmerikon,
76988,CH,9,Trinsermuhle,
76989,CH,15,Guttingen,
76990,CH,9,Tretsch,
76991,CH,5,Neumuhle,
76992,CH,19,Horhausen,
76993,CH,14,Hinter Horbis,
76994,CH,6,Barbereche,
76995,CH,17,Durnten,
76996,CH,17,Wernetshausen,
76997,CH,17,Tann,
76998,CH,7,Biere,
76999,CH,23,Palezieux,
77000,CH,14,Bruttelen,
77001,CH,5,Rueggisberg,
77002,CH,18,Fraubrunnen,
77003,CH,5,Dornhalden,
77004,CH,14,Courtelary,
77005,CH,9,Kublis,
77006,CH,9,Flasch,
77007,CH,23,La Dernier,
77008,CH,23,Le Chatelard,
77009,CH,9,Schuls,
77010,CH,1,Matzendorf,
77011,CH,20,Cagnago,
77012,CH,7,Sezegnin,
77013,CH,19,Huttlingen,
77014,CH,16,Trullikon,
77015,CH,14,Sorenberg,
77016,CH,17,Sankt Gallenkappel,
77017,CH,17,Gibswil,
77018,CH,1,Hamikon,
77019,CH,1,Runenberg,
77020,CH,5,Murren,
77021,CH,5,Riedbargli,
77022,CH,5,Ruderswil,
77023,CH,22,Orsieres,
77024,CH,22,Les Marecottes,
77025,CH,23,Ballens,
77026,CH,22,Vernamiege,
77027,CH,9,Tgantieni,
77028,CH,1,Morel,
77029,CH,5,Rosshausern,
77030,CH,12,Bellechasse,
77031,CH,25,Starnebarg,
77032,CH,5,Mutzlenberg,
77033,CH,9,Ruis,
77034,CH,8,Schubelbach,
77035,CH,26,Roschenz,
77036,CH,5,Ruschegg,
77037,CH,7,Champery,
77038,CH,1,Wolflinswil,
77039,CH,14,Goschenen,
77040,CH,6,Saanenmoser,
77041,CH,14,Realp,
77042,CH,23,Romainmotier,
77043,CH,1,Rumikon,
77044,CH,25,Rudlingen,
77045,CH,2,Schonengrund,
77046,CH,22,Tasch,
77047,CH,1,Densburen,
77048,CH,23,La Brevine,
77049,CH,8,Sool,
77050,CH,12,Le Paquier,
77051,CH,5,Sariswil,
77052,CH,11,Oberruti,
77053,CH,23,Le Sepey,
77054,CH,2,Urnasch,
77055,CH,21,Unterschachen,
77056,CH,6,Morat,
77057,CH,17,Bilten,
77058,CH,1,Nunningen,
77059,CH,18,Ersigen,
77060,CH,1,Neudorf,
77061,CH,13,Vitznau,
77062,CH,22,Ried,
77063,CH,25,Fischingen,
77064,CH,6,Tour De Treme,
77065,CH,15,Haggenschwil,
77066,CH,17,Pfaffikon,
77067,CH,9,Saglia,
77068,CH,26,Saint-brais,
77069,CH,20,Monti Di Pianturino,
77070,CH,14,Gerschnialp,
77071,CH,7,Confignon,
77072,CH,6,La Tour-de-treme,
77073,CH,5,Rueschegg,
77074,CH,11,Hellbuhl,
77075,CH,1,Buchberg,
77076,CH,9,Bergun,
77077,CH,5,Bellmund,
77078,CH,25,Muhlruti,
77079,CH,22,Epinassey,
77080,CH,23,La Lecherette,
77081,CH,4,Wahlen,
77082,CH,7,Corsier Port,
77083,CH,9,Buchen,
77084,CH,6,Corcelles,
77085,CH,26,Soyhieres,
77086,CH,1,Bottstein,
77087,CH,21,Burglen,
77088,CH,15,San Gallo,
77089,CH,8,Hatzingen,
77090,CH,1,Munster,
77091,CH,12,Brot-dessous,
77092,CH,5,Uberstorf,
77093,CH,17,Feldbach,
77094,CH,6,En La Gottaz,
77095,CH,9,Tavanasa,
77096,CH,20,Sornico,
77097,CH,22,Burchen,
77098,CH,21,Sisikon,
77099,CH,23,Cote Aux Fees,
77100,CH,25,Unter-buch,
77101,CH,20,Sonogno,
77102,CH,17,Alptal,
77103,CH,22,Saint German,
77104,CH,9,Hutten,
77105,CH,22,Sankt Niklaus,
77106,CH,11,Rothernburg,
77107,CH,19,Eschlikon-dorf,
77108,CH,15,Mettlen,
77109,CH,20,Bre Sopra Lugano,
77110,CH,8,Wallendstadt,
77111,CH,17,Biberbrucke,
77112,CH,15,Munsterlingen,
77113,CH,17,Seewes,
77114,CH,18,Kuttigkofen,
77115,CH,2,Neu Sankt Johann,
77116,CH,20,Savosa Paese,
77117,CH,14,Ligers,
77118,CH,17,Vorderthal,
77119,CH,9,Tinizong,
77120,CH,20,Lavertezzo,
77121,CH,5,Ober Gurzelen,
77122,CH,1,Betten,
77123,CH,23,Val-d'iliez,
77124,CH,9,Madulein,
77125,CH,19,Marstetten-dorf,
77126,CH,5,Papiermuhle,
77127,CH,1,Nieder-schongau,
77128,CH,17,Etzel,
77129,CH,9,Bevers,
77130,CH,21,Flueln,
77131,CH,23,Arveyes,
77132,CH,25,Witikon,
77133,CH,14,Fluhli,
77134,CH,11,Blatten,
77135,CH,20,Dongio,
77136,CH,22,Econe,
77137,CH,5,Isenfluh,
77138,CH,1,Affoltern Am Albis,
77139,CH,23,Yverdon-les-bains,
77140,CH,22,Basse-nendaz,
77141,CH,9,Domat Ems,
77142,CH,11,Kussnacht Am Rigi,
77143,CH,2,Rickenbach,
77144,CH,15,Schonenberg,
77145,CH,11,Lucerna,
77146,CH,5,Muri Bei Bern,
77147,CH,15,Roggwil,
77148,CH,4,Basle,
77149,CH,9,Beim Hohenhaus,
77150,CH,1,Kulm,
77151,CH,9,Kastris,
77152,CH,4,Bale,
77153,CH,15,Schonholzerswilen,
77154,CH,22,Riti,
77155,CH,5,Sudern,
77156,CH,14,Munster,
77157,CH,8,Ruti,
77158,CH,20,Forna,
77159,CH,8,Schwandi,
77160,CH,14,Urnerstafel,
77161,CH,9,Preda,
77162,CH,18,Cremines,
77163,CH,9,Pusserein,
77164,CH,12,La Chaux De Fonda,
77165,CH,17,Rotenturm,
77166,CH,9,Vason,
77167,CH,9,Vattis,
77168,CH,22,Unterbach,
77169,CH,25,Oberschlatt,
77170,CH,22,Montagnon,
77171,CH,25,Zurich,8002
77172,CH,25,Zurich,8001
77173,CH,25,Zurich,8005
77174,CH,4,Basel,4000
77175,CH,1,Langenthal,4900
77176,CH,7,Geneve,1205
77177,CH,25,Uster,8610
77178,CH,25,Kloten,8302
77179,CH,19,Frauenfeld,8500
77180,CH,25,Dietikon,8953
77181,CH,5,Lyss,3250
77182,CH,25,Zurich,8047
77183,CH,25,Thalwil,8800
77184,CH,25,Winterthur,8404
77185,CH,6,Fribourg,1700
77186,CH,25,Volketswil,8604
77187,CH,7,Geneve,1202
77188,CH,7,Geneve,1201
77189,CH,1,Villigen,5232
77190,CH,9,Chur,7000
77191,CH,20,Bellinzona,6500
77192,CH,20,Lugano,6900
77193,CH,15,Kreuzlingen,8280
77194,CH,25,Winterthur,8409
77195,CH,11,Luzern,6005
77196,CH,25,Zurich,8152
77197,CH,25,Zurich,8008
77198,CH,5,Burgdorf,3400
77199,CH,17,Hinwil,8340
77200,CH,17,Stafa,8712
77201,CH,16,Schaffhausen,8212
77202,CH,25,Zurich,8004
77203,CH,25,Zurich,8038
77204,CH,5,Bern,3018
77205,CH,25,Winterthur,8356
77206,CH,17,Einsiedeln,8840
77207,CH,1,Aarau,5000
77208,CH,25,Zurich,8003
77209,CH,1,Bulach,8180
77210,CH,19,Nussbaumen,5415
77211,CH,25,Urdorf,8902
77212,CH,25,Kilchberg,8802
77213,CH,20,Lugano,6912
77214,CH,25,Zurich,8057
77215,CH,25,Zurich,8908
77216,CH,25,Wetzikon,8620
77217,CH,25,Zurich,8045
77218,CH,25,Zurich,8048
77219,CH,25,Winterthur,8406
77220,CH,23,Montreux,1820
77221,CH,25,Zurich,8468
77222,CH,16,Schaffhausen,8200
77223,CH,1,Windisch,5210
77224,CH,23,Pully,1009
77225,CH,5,Bern,3011
77226,CH,1,Wettingen,5430
77227,CH,17,Wangen,8602
77228,CH,17,Siebnen,8854
77229,CH,5,Aarberg,3270
77230,CH,5,Lengnau,2543
77231,CH,23,Lausanne,1004
77232,CH,25,Zurich,8046
77233,CH,25,Zollikon,8702
77234,CH,17,Wald,8636
77235,CH,25,Zurich,8024
77236,CH,25,Winterthur,8400
77237,CH,25,Effretikon,8307
77238,CH,24,Baar,6340
77239,CH,5,Bern,3027
77240,CH,23,Yverdon,1400
77241,CH,23,Lausanne,1028
77242,CH,15,Saint Gallen,9014
77243,CH,12,La Chaux-de-fonds,2300
77244,CH,25,Embrach,8424
77245,CH,5,Biel,2502
77246,CH,25,Regensdorf,8105
77247,CH,23,Collombey,1893
77248,CH,22,Nendaz,1997
77249,CH,22,Arbaz,1974
77250,CH,22,Sion,1950
77251,CH,22,Sierre,3960
77252,CH,22,Saviese,1965
77253,CH,15,Abtwil,9030
77254,CH,7,Geneve,1203
77255,CH,25,Zurich,4052
77256,CH,11,Kriens,6010
77257,CH,4,Basel,4056
77258,CH,1,Neuenhof,5432
77259,CH,1,Baden,5400
77260,CH,5,Bienne,2504
77261,CH,25,Pfaffikon,8330
77262,CH,1,Rudolfstetten,8964
77263,CH,25,Zurich,8006
77264,CH,1,Untererlinsbach,4657
77265,CH,25,Zurich,8051
77266,CH,25,Zurich,8044
77267,CH,7,Geneva,1215
77268,CH,16,Ossingen,8475
77269,CH,16,Ossingen,8467
77270,CH,25,Zurich,8156
77271,CH,25,Wallisellen,8304
77272,CH,12,Neuchatel,2000
77273,CH,22,Martigny,1920
77274,CH,22,Montana,3963
77275,CH,23,Mollens,3974
77276,CH,7,Plan-les-ouates,1228
77277,CH,23,Lausanne,1006
77278,CH,1,Baden,5405
77279,CH,25,Uitikon,5454
77280,CH,24,Zug,6300
77281,CH,11,Luzern,6023
77282,CH,11,Hochdorf,6280
77283,CH,24,Rotkreuz,6343
77284,CH,25,Kusnacht,8700
77285,CH,4,Basel,4054
77286,CH,4,Munchenstein,4142
77287,CH,23,Lutry,1095
77288,CH,23,Cugy,1053
77289,CH,13,Stans,6370
77290,CH,7,Geneve,1204
77291,CH,25,Zurich,5314
77292,CH,20,Locarno,6600
77293,CH,2,Herisau,9100
77294,CH,5,Bern,8162
77295,CH,11,Luzern,6015
77296,CH,4,Riehen,4125
77297,CH,11,Emmenbrucke,6020
77298,CH,1,Buchs,5033
77299,CH,20,Mendrisio,6850
77300,CH,25,Gossau,6973
77301,CH,4,Basel,4051
77302,CH,1,Brugg,5200
77303,CH,25,Winterthur,8408
77304,CH,11,Luzern,6004
77305,CH,23,Montreux,1815
77306,CH,23,Renens,1022
77307,CH,25,Horgen,8810
77308,CH,25,Herrliberg,8704
77309,CH,11,Luzern,6038
77310,CH,1,Berikon,8965
77311,CH,1,Oftringen,4665
77312,CH,25,Zurich,8000
77313,CH,17,Schwyz,6430
77314,CH,11,Luzern,6002
77315,CH,23,Lausanne,1005
77316,CH,23,Orbe,1350
77317,CH,23,Lausanne,1012
77318,CH,23,Le Mont-sur-lausanne,1052
77319,CH,23,Lausanne,1003
77320,CH,23,Lausanne,1018
77321,CH,23,Lausanne,1010
77322,CH,23,Lausanne,1000
77323,CH,23,Chapelle,1063
77324,CH,23,Lausanne,1002
77325,CH,23,Lausanne,1007
77326,CH,23,Lausanne,1015
77327,CH,23,Lausanne,1054
77328,CH,23,Collombey,1868
77329,CH,1,Zurzach,5330
77330,CH,6,La Tour-de-treme,1635
77331,CH,3,Pratteln,4133
77332,CH,1,Rheinfelden,4310
77333,CH,4,Binningen,4102
77334,CH,1,Oberwil,4104
77335,CH,1,Eglisau,8193
77336,CH,3,Fullinsdorf,4414
77337,CH,5,Munchenbuchsee,3053
77338,CH,5,Hindelbank,3324
77339,CH,1,Baden,5442
77340,CH,1,Granichen,5722
77341,CH,1,Spreitenbach,8957
77342,CH,25,Uitikon,8142
77343,CH,25,Zurich,8055
77344,CH,17,Jona,8645
77345,CH,5,Munsingen,3110
77346,CH,5,Interlaken,3800
77347,CH,7,Geneve,1208
77348,CH,5,Seedorf,3267
77349,CH,24,Steinhausen,6312
77350,CH,1,Wil,9500
77351,CH,23,Saint-sulpice,1025
77352,CH,6,Villars-sur-glane,1752
77353,CH,23,Yverdon,1435
77354,CH,23,Orbe,1321
77355,CH,26,Delemont,1345
77356,CH,15,Saint Gallen,9016
77357,CH,15,Saint Gallen,9000
77358,CH,4,Allschwil,4123
77359,CH,4,Basel,4057
77360,CH,4,Basel,4058
77361,CH,1,Zofingen,4800
77362,CH,4,Basel,4053
77363,CH,1,Olten,4600
77364,CH,18,Solothurn,4500
77365,CH,5,Bern,3006
77366,CH,7,Geneve,1219
77367,CH,5,Bern,3014
77368,CH,25,Mannedorf,8708
77369,CH,1,Buchs,9470
77370,CH,25,Fehraltorf,8320
77371,CH,18,Wangen An Der Aare,3380
77372,CH,21,Altdorf,6460
77373,CH,25,Zurich,8032
77374,CH,14,Engelberg,6390
77375,CH,23,Morges,1122
77376,CH,25,Zurich,8050
77377,CH,6,Fribourg,1762
77378,CH,23,Lausanne,1163
77379,CH,25,Zurich,8021
77380,CH,15,Saint Gallen,9006
77381,CH,7,Geneve,1200
77382,CH,4,Basel,4055
77383,CH,1,Mohlin,4313
77384,CH,25,Zurich,8037
77385,CH,3,Liestal,4410
77386,CH,25,Zurich,8053
77387,CH,5,Bern,3063
77388,CH,7,Nyon,1260
77389,CH,25,Zurich,8172
77390,CH,12,Bellerive,1245
77391,CH,23,Chavannes,1279
77392,CH,5,Bern,3007
77393,CH,11,Luzern,6006
77394,CH,23,Lausanne,1723
77395,CH,1,Schonenwerd,5012
77396,CH,4,Breitenbach,4226
77397,CH,5,Biel,4105
77398,CH,20,Lugano,6932
77399,CH,1,Aesch,4147
77400,CH,7,Geneve,1207
77401,CH,5,Bienne,2500
77402,CH,14,Sarnen,6060
77403,CH,25,Zumikon,8126
77404,CH,24,Zug,6301
77405,CH,1,Roggwil,4914
77406,CH,25,Zurich,8035
77407,CH,23,Vevey,1800
77408,CH,12,Saint-imier,2610
77409,CH,1,Stein,4332
77410,CH,25,Meilen,8706
77411,CH,25,Zurich,8127
77412,CH,7,Chene-bougeries,1275
77413,CH,25,Zurich,8058
77414,CH,25,Zurich,8603
77415,CH,3,Liestal,4417
77416,CH,4,Basel,4012
77417,CH,1,Baden,5408
77418,CH,25,Zurich,8052
77419,CH,19,Munchwilen,9542
77420,CH,5,Worb,3076
77421,CH,5,Hasle-ruegsau,3415
77422,CH,5,Lutzelfluh,3432
77423,CH,5,Langnau,3550
77424,CH,1,Olten,4612
77425,CH,23,Villars,1172
77426,CH,26,Delemont,2800
77427,CH,6,Bulle,1643
77428,CH,19,Aadorf,8355
77429,CH,1,Herzogenbuchsee,3360
77430,CH,11,Luzern,6003
77431,CH,23,Monthey,1870
77432,CH,5,Thun,3604
77433,CH,7,Gland,1196
77434,CH,6,Dudingen,3186
77435,CH,2,Uzwil,9240
77436,CH,4,Oberwil,4104
77437,CH,16,Beringen,8222
77438,CH,10,Buchs,9470
77439,CH,1,Untererlinsbach,4469
77440,CH,1,Seon,5703
77441,CH,7,Geneve,1234
77442,CH,19,Wil,9500
77443,CH,25,Zurich,8092
77444,CH,1,Birr,5242
77445,CH,7,Le Sentier,1346
77446,CH,7,Geneve,1206
77447,CH,5,Bern,3001
77448,CH,20,Dalpe,
77449,CH,23,Chene-paquier,
77450,CH,7,Nyon,1275
77451,CH,3,Liestal,4433
77452,CH,5,Darligen,
77453,CH,22,Verbier,1936
77454,CH,15,Roschach,
77455,CH,1,Oberentfelden,5035
77456,CH,5,Thun,3600
77457,CH,23,Renens,1020
77458,CH,22,Chateauneuf,
77459,CH,22,Grimisuat,1971
77460,CH,18,Gansbrunnen,
77461,CH,5,Kerzers,3210
77462,CH,23,Morges,1027
77463,CH,1,Villigen,5234
77464,CH,19,Bronschhofen,9552
77465,CH,5,Wallenbuch,
77466,CH,9,Klosters,7250
77467,CH,10,Appenzell,9050
77468,CH,17,Lachen,8853
77469,CH,11,Ebikon,6030
77470,CH,21,Schattdorf,6467
77471,CH,1,Dottikon,5605
77472,CH,25,Zurich,8914
77473,CH,5,Steffisburg,3612
77474,CH,5,Bern,3012
77475,CH,1,Acheberg,
77476,CH,21,Rueras,
77477,CH,20,Lugano,6915
77478,CH,6,Bulle,1630
77479,CH,23,Granges,1763
77480,CH,22,Saviese,1991
77481,CH,22,Les Hauderes,
77482,CH,25,Wetzikon,8623
77483,CH,23,Puidoux,1070
77484,CH,25,Bonstetten,8906
77485,CH,4,Munchenstein,4232
77486,CH,1,Strengelbach,4802
77487,CH,7,Corsier,1804
77488,CH,25,Steg,8496
77489,CH,1,Oberentfelden,5036
77490,CH,6,Payerne,1530
77491,CH,5,Bern,3020
77492,CH,23,Granges,1614
77493,CH,25,Zurich,8093
77494,CH,7,Ginevra,
77495,CH,7,Le Sentier,1347
77496,CH,5,Bern,3074
77497,CH,1,Beinwil,4229
77498,CH,3,Sissach,4450
77499,CH,2,Jonschwil,9243
77500,CH,20,Lugano,6917
77501,CH,23,Rougemont,1659
77502,CH,5,Bern,3000
77503,CH,6,Fribourg,1705
77504,CH,1,Oberwil,6317
77505,CH,14,Oberrickenbach,
77506,CH,25,Egg,8132
77507,CH,11,Hergiswil,6052
77508,CH,15,Haslen,
77509,CH,12,Neuchatel,2009
77510,CH,26,Miecourt,2946
77511,CH,19,Sirnach,8370
77512,CH,2,Flawil,9230
77513,CH,9,Ilanz,7130
77514,CH,15,Saint Gallen,9015
77515,CH,25,Winterthur,8405
77516,CH,1,Sursee,6210
77517,CH,22,Mayoux,
77518,CH,23,Echallens,1040
77519,CH,11,Root,6039
77520,CH,9,Laax,7031
77521,CH,5,Berna,
77522,CH,11,Root,6037
77523,CH,1,Reinach,4153
77524,CH,25,Zurich,8049
77525,CH,22,Le Chable,1934
77526,CH,22,Naters,3904
77527,CH,1,Herzogenbuchsee,3362
77528,CH,25,Neftenbach,8413
77529,CH,1,Buchs,8107
77530,CH,24,Unterageri,6314
77531,CH,7,Geneve,1438
77532,CH,22,Les Plans,
77533,CH,5,Bern,3302
77534,CH,5,Kappelen,3273
77535,CH,9,Tartar,
77536,CH,7,Geneve,1209
77537,CH,22,Dailly,
77538,CH,7,Bernex,1233
77539,CH,1,Huttwil,4950
77540,CH,9,Untervaz,7204
77541,CH,25,Zurich,8108
77542,CH,25,Gossau,8625
77543,CH,5,Sonceboz,2605
77544,CH,17,Ruti,8630
77545,CH,23,Morges,1167
77546,CH,5,Steffisburg,3613
77547,CH,22,Granges,3977
77548,CH,5,Bern,3008
77549,CH,1,Kolliken,5742
77550,CH,25,Winterthur,8411
77551,CH,4,Basel,4059
77552,CH,5,Bern,3047
77553,CH,26,Moutier,2740
77554,CH,15,Saint Gallen,9001
77555,CH,15,Wittenbach,9300
77556,CH,23,Lausanne,1509
77557,CH,6,Bonnefontaine,1724
77558,CH,7,Geneve,1212
