locId,country,region,city,postcode
77642,CL,,,
77643,CL,12,Santiago,
77644,CL,1,Viña Del Mar,
77645,CL,1,Valparaíso,
77646,CL,1,San Antonio,
77647,CL,9,Valdivia,
77648,CL,9,Puerto Montt,
77649,CL,12,Las Condes,
77650,CL,11,Talca,
77651,CL,7,Algarrobo,
77652,CL,6,Concepción,
77653,CL,3,Chuquicamata,
77654,CL,12,Providencia,
77655,CL,7,Rinconada,
77656,CL,4,Temuco,
77657,CL,1,Los Andes,
77658,CL,5,El Salvador,
77659,CL,12,Maipú,
77660,CL,6,Talcahuano,
77661,CL,3,Calama,
77662,CL,3,Antofagasta,
77663,CL,7,El Salto,
77664,CL,11,Carrera,
77665,CL,13,Iquique,
77666,CL,6,Bellavista,
77667,CL,11,El Rosal,
77668,CL,7,La Serena,
77669,CL,1,Calera,
77670,CL,1,Quilpué,
77671,CL,6,Chillán,
77672,CL,1,San Felipe,
77673,CL,13,Arica,
77674,CL,12,Melipilla,
77675,CL,7,Coquimbo,
77676,CL,6,Los Ángeles,
77677,CL,1,San Fernando,
77678,CL,5,Copiapó,
77679,CL,10,Punta Arenas,
77680,CL,9,Osorno,
77681,CL,9,Cunco,
77682,CL,4,Angol,
77683,CL,4,Purén,
77684,CL,4,Villarrica,
77685,CL,12,San Bernardo,
77686,CL,8,Manzano,
77687,CL,11,Linares,
77688,CL,5,Diego De Almagro,
77689,CL,12,Peñalolén,
77690,CL,7,Miraflores,
77691,CL,12,Colina,
77692,CL,12,Vitacura,
77693,CL,12,Quilicura,
77694,CL,12,Macul,
77695,CL,1,Concón,
77696,CL,11,Constitución,
77697,CL,7,Cerrillos,
77698,CL,7,Compañia,
77699,CL,1,Miramar,
77700,CL,9,Ancud,
77701,CL,12,Buin,
77702,CL,12,Paine,
77703,CL,8,Rancagua,
77704,CL,12,Lampa,
77705,CL,2,Coihaique,
77706,CL,9,Calbuco,
77707,CL,9,Panguipulli,
77708,CL,9,Las Quemas Del Salto,
77709,CL,1,Villa Alemana,
77710,CL,1,Montt,
77711,CL,1,Cabildo,
77712,CL,9,Puerto Varas,
77713,CL,6,Coronel,
77714,CL,6,Chiguayante,
77715,CL,12,El Monte,
77716,CL,1,Quillota,
77717,CL,8,San Vicente,
77718,CL,6,Lota,
77719,CL,4,Traiguén,
77720,CL,6,Penco,
77721,CL,12,Peñaflor,
77722,CL,6,Laja,
77723,CL,11,Curicó,
77724,CL,11,Parral,
77725,CL,12,Padre Hurtado,
77726,CL,12,Talagante,
77727,CL,6,Yumbel,
77728,CL,6,Arauco,
77729,CL,1,Limache,
77730,CL,1,Llaillay,
77731,CL,11,San Javier,
77732,CL,8,Chimbarongo,
77733,CL,7,Tambillo,
77734,CL,7,Ovalle,
77735,CL,9,Purranque,
77736,CL,9,La Unión,
77737,CL,9,Río Bueno,
77738,CL,9,Santa María Línea,
77739,CL,4,Loncoche,
77740,CL,9,San José De La Mariquina,
77741,CL,7,Las Cardas,
77742,CL,4,Lautaro,
77743,CL,8,Rengo,
77744,CL,11,Molina,
77745,CL,11,Longaví,
77746,CL,12,La Reina,
77747,CL,11,La Leonera,
77748,CL,5,Caldera,
77749,CL,11,Cauquenes,
77750,CL,10,Puerto Natales,
77751,CL,9,Llanquihue,
77752,CL,6,Cabrero,
77753,CL,12,Loica,
77754,CL,4,Collipulli,
77755,CL,8,Graneros,
77756,CL,9,Los Pellines,
77757,CL,12,La Chupalla,
77758,CL,7,Ambillo,
77759,CL,4,Victoria,
77760,CL,6,Tomé,
77761,CL,4,Nueva Imperial,
77762,CL,6,Bulnes,
77763,CL,6,San Carlos,
77764,CL,5,Freirina,
77765,CL,7,Las Barrancas,
77766,CL,5,Vallenar,
77767,CL,9,Purey,
77768,CL,9,Paillaco,
77769,CL,1,Reñaca,
77770,CL,13,Alto Hospicio,
77771,CL,6,Araucana,
77772,CL,9,Frutillar Alto,
77773,CL,12,La Dehesa,
77774,CL,12,Calera De Tango,
77775,CL,12,Curacaví,
77776,CL,12,El Trebolar,
77777,CL,9,Los Lagos,
77778,CL,7,La Chacrita,
77779,CL,4,Ipinco,
77780,CL,3,María Elena,
77781,CL,5,Francke,
77782,CL,2,Farellones,
77783,CL,2,Aysen,
77784,CL,7,Monte Patria,
77785,CL,7,El Peñón,
77786,CL,12,Carrascal,
77787,CL,9,Castro,
77788,CL,1,La Ligua,
77789,CL,13,Tarapacá,
77790,CL,4,Pucón,
77791,CL,4,Pitrufquén,
77792,CL,1,Casablanca,
77793,CL,7,Tongoicillo,
77794,CL,6,Nacimiento,
77795,CL,7,Tambillos,
77796,CL,9,Puerto Octay,
77797,CL,8,Malloa,
77798,CL,12,Lo Barnechea,
77799,CL,12,Ñuñoa,
77800,CL,1,El Quisco,
77801,CL,8,Quinta De Tilcoco,
77802,CL,1,Quintero,
77803,CL,6,Curanilahue,
77804,CL,12,Isla De Maipo,
77805,CL,8,Requínoa,
77806,CL,4,Vilcún,
77807,CL,11,Peumo,
77808,CL,9,Dalcahue,
77809,CL,11,Puente Alto,
77810,CL,8,Machalí,
77811,CL,9,Achao,
77812,CL,9,Curaco De Velez,
77813,CL,8,Nancagua,
77814,CL,3,Mejillones,
77815,CL,3,Tocopilla,
77816,CL,12,Renca,
77817,CL,12,Errázuriz,
77818,CL,8,Yungay,
77819,CL,9,Futrono,
77820,CL,9,Chonchi,
77821,CL,6,Frutillar,
77822,CL,6,Santa Bárbara,
77823,CL,6,Cañete,
77824,CL,6,Quillón,
77825,CL,7,San Pedro,
77826,CL,9,Quellón,
77827,CL,1,Puchuncaví,
77828,CL,12,Barnechea,
77829,CL,9,Pailad,
77830,CL,4,Curacautín,
77831,CL,8,Santa Cruz,
77832,CL,4,Carahue,
77833,CL,10,Porvenir,
77834,CL,12,San Joaquín,
77835,CL,1,Olmué,
77836,CL,12,La Cisterna,
77837,CL,8,Codegua,
77838,CL,12,Calera,
77839,CL,13,La Calera,
77840,CL,1,Llolleo,
77841,CL,6,Mulchén,
77842,CL,11,Villa Alegre,
77843,CL,7,Combarbalá,
77844,CL,4,Quepe,
77845,CL,6,Lebu,
77846,CL,6,Pinto,
77847,CL,5,Atacama,
77848,CL,7,La Herradura,
77849,CL,11,La Florida,
77850,CL,6,Coelemu,
77851,CL,4,Gorbea,
77852,CL,7,Tongoy,
77853,CL,9,Alerce,
77854,CL,1,Hijuelas,
77855,CL,1,Nogales,
77856,CL,8,La Cruz,
77857,CL,11,Colbun,
77858,CL,1,Loncura,
77859,CL,12,San José De Maipo,
77860,CL,1,Santa María,
77861,CL,8,Las Cabras,
77862,CL,9,Maullín,
77863,CL,8,Pichidegua,
77864,CL,7,Illapel,
77865,CL,5,Los Loros,
77866,CL,1,Pichilemu,
77867,CL,7,Recoleta,
77868,CL,9,Río Negro,
77869,CL,7,Vicuña,
77870,CL,4,Lanco,
77871,CL,12,Alhué,
77872,CL,8,Coltauco,
77873,CL,4,Padre Las Casas,
77874,CL,8,California,
77875,CL,7,Chañaral,
77876,CL,2,Puerto Aisén,
77877,CL,10,Natales,
77878,CL,9,Queilén,
77879,CL,9,Los Muermos,
77880,CL,5,Chañaral,
77881,CL,11,Los Laureles,
77882,CL,1,Hanga Roa,
77883,CL,6,Negrete,
77884,CL,7,El Carmen,
77885,CL,13,Estación Central,
77886,CL,1,Recreo,
77887,CL,11,Teno,
77888,CL,6,Chillán Viejo,
77889,CL,2,Chile Chico,
77890,CL,1,Cartagena,
77891,CL,9,San Pablo,
77892,CL,6,Monte Águila,
77893,CL,4,Freire,
77894,CL,7,Zapallar,
77895,CL,12,Quinta Normal,
77896,CL,11,Maule,
77897,CL,8,Doñihue,
77898,CL,7,Salamanca,
77899,CL,11,Empedrado,
77900,CL,6,Hualqui,
77901,CL,12,Chicureo,
77902,CL,9,Máfil,
77903,CL,12,Farellones,
77904,CL,1,Petorca,
77905,CL,11,San Rafael,
77906,CL,13,Pozo Almonte,
77907,CL,2,Aisén,
77908,CL,11,La Junta,
77909,CL,6,Fresia,
77910,CL,1,Putaendo,
77911,CL,12,San Francisco De Mostazal,
77912,CL,12,Tiltil,
77913,CL,6,Los Álamos,
77914,CL,2,Tortel,
77915,CL,11,San Clemente,
77916,CL,9,Neltume,
77917,CL,6,Florida,
77918,CL,6,San Rosendo,
77919,CL,6,Quirihue,
77920,CL,8,Olivar,
77921,CL,11,Palmilla,
77922,CL,7,Paihuano,
77923,CL,5,El Salado,
77924,CL,1,Catemu,
77925,CL,11,Curepto,
77926,CL,11,Vichuquén,
77927,CL,1,Chincolco,
77928,CL,6,Quilleco,
77929,CL,2,Cochrane,
77930,CL,1,Rinconada De Los Andes,
77931,CL,6,Lirquén,
77932,CL,2,Puerto Cisnes,
77933,CL,13,Pica,
77934,CL,6,Dichato,
77935,CL,6,Contulmo,
77936,CL,7,Canela,
77937,CL,12,El Tabo,
77938,CL,5,Huasco,
77939,CL,1,Placeres,
77940,CL,1,Playa Ancha,
77941,CL,6,Santa Juana,
77942,CL,6,Tucapel,
77943,CL,8,Corcolén,
77944,CL,4,Centro,
77945,CL,12,Los Quilos,
77946,CL,12,Maipo,
77947,CL,12,Lo Ovalle,
77948,CL,2,Coyhaique Alto,
77949,CL,9,Ensenada,
77950,CL,6,San Ignacio,
77951,CL,7,Chilecito,
77952,CL,12,Malloco,
77953,CL,12,La Primavera,
77954,CL,1,Peñablanca,
77955,CL,12,La Loma De Macul,
77956,CL,8,Lo Miranda,
77957,CL,7,Peralillo,
77958,CL,12,Casas De Chacabuco,
77959,CL,8,La Estrella,
77960,CL,4,Puerto Saavedra,
77961,CL,11,Retiro,
77962,CL,7,Andacollo,
77963,CL,1,Rocas De Santo Domingo,
77964,CL,1,Cajón Grande,
77965,CL,12,Angostura,
77966,CL,12,La Rana,
77967,CL,4,Púa,
77968,CL,9,Casma,
77969,CL,9,Abtao,
77970,CL,1,Ventanas,
77971,CL,9,Mesquihué,
77972,CL,6,Millanto,
77973,CL,1,Montemar,
77974,CL,10,Puerto Williams,
77975,CL,6,Laraquete,
77976,CL,7,San Miguel,
77977,CL,11,Lontué,
77978,CL,4,Radal,
77979,CL,12,Queltehues,
77980,CL,7,Maitencillo,
77981,CL,3,Taltal,
77982,CL,1,Papudo,
77983,CL,12,El Guanaco,
77984,CL,6,Portezuelo,
77985,CL,12,Huechún,
77986,CL,1,Los Ranchillos,
77987,CL,1,El Melón,
77988,CL,6,San Carlos De Purén,
77989,CL,11,Hualañé,
77990,CL,3,San Pedro De Atacama,
77991,CL,8,San Vicente De Taguatagua,
77992,CL,6,Los Olivos,
77993,CL,11,San Francisco,
77994,CL,1,Cerro Viejo,
77995,CL,9,El Bosque,
77996,CL,9,Niebla,
77997,CL,6,Gualpencillo,
77998,CL,4,Nielol,
77999,CL,12,Lo Espejo,
78000,CL,9,Crucero,
78001,CL,12,Esmeralda,
78002,CL,12,Baños De Colina,
78003,CL,4,Galvarino,
78004,CL,4,Melipeuco,
78005,CL,1,Viña Guzmán,
78006,CL,12,San Alfonso,
78007,CL,12,Santa Ana De Chena,
78008,CL,4,Pillanlelbun,
78009,CL,12,Valdivia De Paine,
78010,CL,1,Cerro Playa Ancha,
78011,CL,6,Hualpencillo,
78012,CL,6,Lota Alto,
78013,CL,11,Pencahue,
78014,CL,9,Futaleufú,
78015,CL,6,Lomas Coloradas,
78016,CL,12,Padre Huartado,
78017,CL,8,Roma,
78018,CL,7,Punitaqui,
78019,CL,1,Los Olmos,
78020,CL,9,Corral,
78021,CL,6,Huépil,
78022,CL,6,San Pedro,
78023,CL,12,María Pinto,
78024,CL,12,Chacra Valparaíso,
78025,CL,12,Polpaico,
78026,CL,7,Pichasca,
78027,CL,6,Chillancito,
78028,CL,7,Cobre,
78029,CL,1,San Pedro,
78030,CL,1,Valparaiso,
78031,CL,1,Vina Del Mar,
78032,CL,6,Concepcion,
78033,CL,13,Tarapaca,
78034,CL,12,Maipu,
78035,CL,1,Quilpue,
78036,CL,6,Chillan,
78037,CL,6,Los Angeles,
78038,CL,5,Copiapo,
78039,CL,4,Puren,
78040,CL,12,Penalolen,
78041,CL,1,Concon,
78042,CL,11,Constitucion,
78043,CL,7,Compania,
78044,CL,14,Puerto Montt,
78045,CL,11,Curico,
78046,CL,15,Iquique,
78047,CL,12,Nunoa,
78048,CL,4,Traiguen,
78049,CL,17,Valdivia,
78050,CL,16,Arica,
78051,CL,15,La Calera,
78052,CL,6,Tome,
78053,CL,14,Osorno,
78054,CL,17,Paillaco,
78055,CL,17,Niebla,
78056,CL,14,Puerto Varas,
78057,CL,1,Olmue,
78058,CL,8,Machali,
78059,CL,15,Alto Hospicio,
78060,CL,8,Requinoa,
78061,CL,8,Donihue,
78062,CL,8,San Francisco De Mostazal,
78063,CL,14,Llanquihue,
78064,CL,14,Futaleufu,
78065,CL,14,Castro,
78066,CL,12,Penaflor,
78067,CL,1,La Cruz,
78068,CL,12,San Joaquin,
78069,CL,17,La Union,
78070,CL,7,Combarbala,
78071,CL,17,Los Lagos,
78072,CL,4,Panguipulli,
78073,CL,17,Corral,
78074,CL,14,Calbuco,
78075,CL,1,Hacienda La Calera,
78076,CL,12,Maria Pinto,
78077,CL,14,Purranque,
78078,CL,14,Rio Negro,
78079,CL,14,Chonchi,
78080,CL,6,Los Alamos,
78081,CL,12,Curacavi,
78082,CL,4,Pucon,
78083,CL,1,Puchuncavi,
78084,CL,6,Quillon,
78085,CL,1,El Tabo,
78086,CL,17,San Pablo,
78087,CL,9,Lagos,
78088,CL,6,Mulchen,
78089,CL,9,San Jose De La Mariquina,
78090,CL,15,Pozo Almonte,
78091,CL,15,Tarapaca,
78092,CL,14,Chinchin,
78093,CL,17,Frutillar,
78094,CL,1,Renaca,
78095,CL,12,La Granja,
78096,CL,7,Vicuna,
78097,CL,14,Alerce,
78098,CL,17,San Jose De La Mariquina,
78099,CL,17,Lanco,
78100,CL,1,Algarrobo,
78101,CL,12,Chacra Valparaiso,
78102,CL,8,El Olivar,
78103,CL,7,El Bosque,
78104,CL,4,Cunco,
78105,CL,12,San Jose De Maipo,
78106,CL,14,Puerto Octay,
78107,CL,1,El Manzanar,
78108,CL,6,El Manzano,
78109,CL,17,Mafil,
78110,CL,14,Ancud,
78111,CL,7,Algarrobito,
78112,CL,17,Rio Bueno,
78113,CL,1,Las Cruces,
78114,CL,4,Renaico,
78115,CL,6,La Quinta,
78116,CL,16,Azapa,
78117,CL,6,Santa Barbara,
78118,CL,4,Tromen,
78119,CL,14,Curaco De Velez,
78120,CL,14,Maullin,
78121,CL,4,Selva Oscura,
78122,CL,14,Quemchi,
78123,CL,14,Dalcahue,
78124,CL,4,Pitrufquen,
78125,CL,8,Rosario,
78126,CL,7,Hurtado,
78127,CL,4,Curacautin,
78128,CL,6,Quilaco,
78129,CL,12,Los Quillayes,
78130,CL,14,Quellon,
78131,CL,12,Espejo,
78132,CL,5,Tierra Amarilla,
78133,CL,11,Longavi,
78134,CL,12,Recoleta,
78135,CL,14,Frutillar,
78136,CL,6,Chillan Viejo,
78137,CL,12,Apoquindo,
78138,CL,1,Panquehue,
78139,CL,1,El Bosque,
78140,CL,11,Sagrada Familia,
78141,CL,4,Cajon,
78142,CL,14,Ciudad De Puerto Montt,
78143,CL,8,Pelequen,
78144,CL,6,Angeles,
78145,CL,6,Huepil,
78146,CL,6,Ciudad De Concepcion,
78147,CL,2,Coyhaique,
78148,CL,1,La Calera,
78149,CL,7,Ciudad De Coquimbo,
78150,CL,12,Ciudad Santiago,
78151,CL,1,Llay-llay,
78152,CL,4,Vilcun,
78153,CL,1,El Melon,
78154,CL,1,La Retamilla,
78155,CL,14,Cochamo,
78156,CL,1,Los Quillayes,
78157,CL,14,Achao,
78158,CL,1,Catapilco,
78159,CL,7,San Jose,
78160,CL,1,Ciudad De Valparaiso,
78161,CL,12,Puente Alto,
78162,CL,4,Ciudad Temuco,
78163,CL,14,Los Muermos,
78164,CL,6,Lirquen,
78165,CL,1,Santa Maria,
78166,CL,10,San Martin,
78167,CL,17,Futrono,
78168,CL,6,Canete,
78169,CL,12,Alhue,
78170,CL,2,Puerto Chacabuco,
78171,CL,11,Sarmiento,
78172,CL,17,Miraflores,
78173,CL,14,Rauco,
78174,CL,4,Perquenco,
78175,CL,6,San Carlos De Puren,
78176,CL,4,Pua,
78177,CL,7,Los Vilos,
78178,CL,17,Lago Ranco,
78179,CL,7,El Palqui,
78180,CL,1,Zapallar,
