locId,country,region,city,postcode
78225,CN,,,
78226,CN,23,Shanghai,
78227,CN,30,Shenzhen,
78228,CN,3,Changshu,
78229,CN,22,Beijing,
78230,CN,10,Shen,
78231,CN,32,Mianyang,
78232,CN,5,Changchun,
78233,CN,30,Wanchai,
78234,CN,4,Suzhou,
78235,CN,9,Cheng,
78236,CN,32,Chengdu,
78237,CN,25,Qingdao,
78238,CN,33,Chongqing,
78239,CN,4,Nanjing,
78240,CN,25,Pudong,
78241,CN,30,Guangzhou,
78242,CN,10,Ting,
78243,CN,22,Peking,
78244,CN,2,Ningbo,
78245,CN,30,Foshan,
78246,CN,30,Dongguan,
78247,CN,25,Jinan,
78248,CN,15,Huan,
78249,CN,30,Xinhui,
78250,CN,18,Zunyi,
78251,CN,2,Hangzhou,
78252,CN,18,Hema,
78253,CN,28,Tianjin,
78254,CN,29,Dong,
78255,CN,30,Haitian,
78256,CN,30,Canton,
78257,CN,19,Shenyang,
78258,CN,9,Chün,
78259,CN,25,Fushan,
78260,CN,29,Kunming,
78261,CN,8,Harbin,
78262,CN,12,Wuhan,
78263,CN,10,Xidian,
78264,CN,19,Dalian,
78265,CN,3,Hubei,
78266,CN,4,Xuzhou,
78267,CN,19,Chaoyang,
78268,CN,9,Zhengzhou,
78269,CN,2,Shaan,
78270,CN,26,Yang,
78271,CN,26,Xian,
78272,CN,4,Zhenjiang,
78273,CN,4,Wuxi,
78274,CN,26,Dianzi,
78275,CN,9,Kaifeng,
78276,CN,7,Hunan,
78277,CN,11,Changsha,
78278,CN,4,Huaiyin,
78279,CN,4,Yangzhou,
78280,CN,25,Yantai,
78281,CN,11,Xinhua,
78282,CN,15,Ning,
78283,CN,4,Changzhou,
78284,CN,16,Guilin,
78285,CN,30,Shantou,
78286,CN,15,Lanzhou,
78287,CN,24,Shenyan,
78288,CN,5,Jilin,
78289,CN,7,Shandong,
78290,CN,19,Anshan,
78291,CN,24,Taiyüan,
78292,CN,7,Shanxi,
78293,CN,9,Huangdao,
78294,CN,22,Haidian,
78295,CN,24,Shijiazhuang,
78296,CN,30,Zhanjiang,
78297,CN,16,Liuzhou,
78298,CN,9,Anyang,
78299,CN,11,Changan,
78300,CN,19,Fuxin,
78301,CN,19,Benxi,
78302,CN,19,Liaoyang,
78303,CN,19,Yingkou,
78304,CN,25,Taian,
78305,CN,19,Jinzhou,
78306,CN,22,Changping,
78307,CN,25,Dongying,
78308,CN,11,Xiangtan,
78309,CN,12,Xiangfan,
78310,CN,3,Nanchang,
78311,CN,7,Fuzhou,
78312,CN,7,Xiamen,
78313,CN,4,Nantong,
78314,CN,25,Qufu,
78315,CN,9,Jiaozuo,
78316,CN,10,Baoding,
78317,CN,18,Xintong,
78318,CN,32,Yaan,
78319,CN,30,Taishan,
78320,CN,9,Xinxiang,
78321,CN,16,Nanning,
78322,CN,26,Xianyang,
78323,CN,31,Haikou,
78324,CN,9,Luoyang,
78325,CN,2,Xiaoshan,
78326,CN,29,Linan,
78327,CN,2,Wenzhou,
78328,CN,2,Jinhua,
78329,CN,2,Jiaxing,
78330,CN,7,Zhangzhou,
78331,CN,25,Laiyang,
78332,CN,2,Huzhou,
78333,CN,4,Zhoushan,
78334,CN,2,Shaoxing,
78335,CN,8,Mishan,
78336,CN,19,Daqing,
78337,CN,31,Danzhou,
78338,CN,24,Changzhi,
78339,CN,1,Wuhu,
78340,CN,1,Hefei,
78341,CN,7,Quanzhou,
78342,CN,13,Ürümqi,
78343,CN,14,Lasa,
78344,CN,24,Ying,
78345,CN,9,Xinyang,
78346,CN,25,Weifang,
78347,CN,11,Zhuzhou,
78348,CN,18,Guiyang,
78349,CN,32,Nanchong,
78350,CN,1,Tongda,
78351,CN,31,Hainan,
78352,CN,25,Liaocheng,
78353,CN,3,Ganzhou,
78354,CN,4,Yancheng,
78355,CN,26,Peiyüan,
78356,CN,30,Maoming,
78357,CN,12,Yichang,
78358,CN,26,Lintong,
78359,CN,8,Anda,
78360,CN,1,Bengbu,
78361,CN,30,Zhuhai,
78362,CN,26,Suite,
78363,CN,24,Hejin,
78364,CN,26,Dongyang,
78365,CN,13,Yiwu,
78366,CN,7,Shekou,
78367,CN,13,Jing,
78368,CN,30,Panyü,
78369,CN,30,Meizhou,
78370,CN,11,Xijiang,
78371,CN,1,Anqing,
78372,CN,7,Putian,
78373,CN,29,Yünnan,
78374,CN,1,Huainan,
78375,CN,24,Linfen,
78376,CN,30,Shaoguan,
78377,CN,24,Henan,
78378,CN,4,Lianyungang,
78379,CN,11,Jishou,
78380,CN,10,Qinhuangdao,
78381,CN,25,Zibo,
78382,CN,1,Fuyang,
78383,CN,11,Changde,
78384,CN,1,Huaibei,
78385,CN,9,Nanyang,
78386,CN,1,Chuzhou,
78387,CN,22,Hebei,
78388,CN,11,Hengyang,
78389,CN,25,Weihai,
78390,CN,4,Zhaoyang,
78391,CN,11,Shengli,
78392,CN,21,Yinchuan,
78393,CN,1,Hanshan,
78394,CN,7,Zhongshan,
78395,CN,30,Zhaoqing,
78396,CN,7,Nanhai,
78397,CN,31,Qionghai,
78398,CN,31,Qiongshan,
78399,CN,32,Wenchang,
78400,CN,26,Jiaying,
78401,CN,30,Jiangmen,
78402,CN,30,Huizhou,
78403,CN,7,Huiyang,
78404,CN,4,Shanguan,
78405,CN,30,Gaozhou,
78406,CN,30,Huadu,
78407,CN,11,Huaihua,
78408,CN,2,Yuyao,
78409,CN,26,Shang,
78410,CN,2,Yingchuan,
78411,CN,7,Fuxi,
78412,CN,13,Shihezi,
78413,CN,7,Huaxing,
78414,CN,11,Yongzhou,
78415,CN,32,Neijiang,
78416,CN,26,Shanyang,
78417,CN,11,Yueyang,
78418,CN,11,Jinlin,
78419,CN,11,Shaoyang,
78420,CN,10,Shunde,
78421,CN,10,Handan,
78422,CN,8,Jiamusi,
78423,CN,8,Hulan,
78424,CN,9,Puyang,
78425,CN,10,Langfang,
78426,CN,33,Nanping,
78427,CN,8,Jixi,
78428,CN,8,Mudanjiang,
78429,CN,8,Suihua,
78430,CN,8,Qiqihar,
78431,CN,24,Xinjiang,
78432,CN,25,Zaozhuang,
78433,CN,11,Chenzhou,
78434,CN,11,Yiyang,
78435,CN,11,Loudi,
78436,CN,11,Zhangjiajie,
78437,CN,32,Leshan,
78438,CN,9,Sanmenxia,
78439,CN,9,Shangqiu,
78440,CN,9,Zhumadian,
78441,CN,9,Xuchang,
78442,CN,32,Xiantan,
78443,CN,9,Pingdingshan,
78444,CN,31,Dizhi,
78445,CN,11,Hengyan,
78446,CN,11,Iyang,
78447,CN,12,Jidian,
78448,CN,32,Panzhihua,
78449,CN,2,Quzhou,
78450,CN,8,Yichun,
78451,CN,2,Ruian,
78452,CN,2,Linping,
78453,CN,31,Nanjin,
78454,CN,31,Baotou,
78455,CN,6,Guide,
78456,CN,31,Changjiang,
78457,CN,32,Anning,
78458,CN,2,Dian,
78459,CN,3,Jiujiang,
78460,CN,10,Luquan,
78461,CN,3,Yuxi,
78462,CN,12,Danjiangkou,
78463,CN,10,Tangshan,
78464,CN,25,Dezhou,
78465,CN,24,Dongda,
78466,CN,30,Guizhou,
78467,CN,25,Binzhou,
78468,CN,4,Taizhou,
78469,CN,12,Huazhong,
78470,CN,11,Yulan,
78471,CN,28,Dabo,
78472,CN,29,Haiyi,
78473,CN,4,Chenxu,
78474,CN,9,Wangluo,
78475,CN,13,Urumchi,
78476,CN,14,Lhasa,
78477,CN,32,Shuangliu,
78478,CN,5,Chian,
78479,CN,10,Zhangjiakou,
78480,CN,24,Xinzhou,
78481,CN,30,Huaxian,
78482,CN,30,Changhong,
78483,CN,5,Yanji,
78484,CN,16,Changxin,
78485,CN,20,Hailar,
78486,CN,26,Yangling,
78487,CN,12,Huangzhou,
78488,CN,1,Maanshan,
78489,CN,13,Changji,
78490,CN,32,Zigong,
78491,CN,25,Taoyuan,
78492,CN,6,Xining,
78493,CN,30,Hecheng,
78494,CN,7,Sanming,
78495,CN,16,Yulin,
78496,CN,7,Zhangqu,
78497,CN,10,Chengde,
78498,CN,7,Ningde,
78499,CN,11,Xishan,
78500,CN,29,Mengzi,
78501,CN,29,Qujing,
78502,CN,32,Kangding,
78503,CN,1,Bozhou,
78504,CN,1,Tongling,
78505,CN,1,Chizhou,
78506,CN,25,Huangshan,
78507,CN,1,Liuan,
78508,CN,26,Huaibai,
78509,CN,25,Linyi,
78510,CN,25,Jiaozhou,
78511,CN,25,Rizhao,
78512,CN,25,Nanding,
78513,CN,25,Shan,
78514,CN,7,Kunshan,
78515,CN,11,Nantian,
78516,CN,7,Longyan,
78517,CN,1,Chendu,
78518,CN,32,Yibin,
78519,CN,2,Linhai,
78520,CN,25,Jining,
78521,CN,3,Renshou,
78522,CN,11,Leiyang,
78523,CN,9,Zhoukou,
78524,CN,7,Puning,
78525,CN,25,Heze,
78526,CN,11,Zhonghua,
78527,CN,25,Laiwu,
78528,CN,25,Zhangdian,
78529,CN,25,Boshan,
78530,CN,25,Zhoucun,
78531,CN,12,Enshi,
78532,CN,24,Yuncheng,
78533,CN,25,Mengyin,
78534,CN,25,Linshu,
78535,CN,25,Yishui,
78536,CN,30,Rongcheng,
78537,CN,15,Zhangye,
78538,CN,22,Shunyi,
78539,CN,26,Fengxi,
78540,CN,30,Jieyang,
78541,CN,7,Shanwei,
78542,CN,30,Yunfu,
78543,CN,30,Yangjiang,
78544,CN,3,Heyuan,
78545,CN,30,Qingyuan,
78546,CN,4,Xinxing,
78547,CN,32,Deyang,
78548,CN,32,Luzhou,
78549,CN,19,Fushun,
78550,CN,11,Yanbian,
78551,CN,25,Jufeng,
78552,CN,11,Dazhou,
78553,CN,32,Fuxing,
78554,CN,5,Liaoyüan,
78555,CN,4,Xinan,
78556,CN,15,Linxia,
78557,CN,15,Wuwei,
78558,CN,25,Ling,
78559,CN,32,Peng,
78560,CN,8,Gannan,
78561,CN,3,Longnan,
78562,CN,15,Pingliang,
78563,CN,15,Dingxi,
78564,CN,15,Jiayuguan,
78565,CN,15,Baiyin,
78566,CN,30,Tianshui,
78567,CN,15,Jiuquan,
78568,CN,9,Hebi,
78569,CN,9,Luohe,
78570,CN,7,Zhaoxin,
78571,CN,15,Jinchang,
78572,CN,18,Jihua,
78573,CN,10,Lixian,
78574,CN,11,Wanxi,
78575,CN,18,Zhongli,
78576,CN,9,Teng,
78577,CN,4,Suqian,
78578,CN,10,Huaian,
78579,CN,20,Liaohe,
78580,CN,10,Hebei,
78581,CN,25,Weiji,
78582,CN,11,Jinzhai,
78583,CN,25,Tongcheng,
78584,CN,1,Lujiang,
78585,CN,30,Wuhe,
78586,CN,8,Xixian,
78587,CN,18,Yeji,
78588,CN,1,Shucheng,
78589,CN,1,Shouxian,
78590,CN,12,Huaihe,
78591,CN,30,Guzhen,
78592,CN,1,Xiaoxian,
78593,CN,1,Jieshou,
78594,CN,30,Gujing,
78595,CN,1,Quanjiao,
78596,CN,1,Chaohu,
78597,CN,24,Fengyang,
78598,CN,2,Langya,
78599,CN,1,Tianchang,
78600,CN,7,Xuancheng,
78601,CN,22,Nanjiao,
78602,CN,1,Mingguang,
78603,CN,15,Dingyuan,
78604,CN,2,Qingyang,
78605,CN,30,Huoshan,
78606,CN,9,Tongbai,
78607,CN,2,Daxue,
78608,CN,9,Xinmi,
78609,CN,9,Jiyuan,
78610,CN,5,Wangqing,
78611,CN,5,Dongfeng,
78612,CN,25,Dayang,
78613,CN,25,Madian,
78614,CN,4,Zhujiang,
78615,CN,19,Haicheng,
78616,CN,24,Taigu,
78617,CN,9,Meng,
78618,CN,9,Dengfeng,
78619,CN,19,Tieling,
78620,CN,7,Jiangxi,
78621,CN,12,Jingzhou,
78622,CN,12,Xiaogan,
78623,CN,3,Huanggang,
78624,CN,12,Qianjiang,
78625,CN,12,Tianmen,
78626,CN,12,Ezhou,
78627,CN,12,Fangxian,
78628,CN,31,Zhongyuan,
78629,CN,4,Zhangjiagang,
78630,CN,3,Jian,
78631,CN,31,Lian,
78632,CN,3,Dongcheng,
78633,CN,7,Wuzhong,
78634,CN,7,Guyuan,
78635,CN,21,Shizuishan,
78636,CN,1,Huawei,
78637,CN,10,Tang,
78638,CN,16,Heng,
78639,CN,14,Lang,
78640,CN,13,Hami,
78641,CN,19,Dandong,
78642,CN,13,Kashi,
78643,CN,25,Huayu,
78644,CN,2,Xuan,
78645,CN,23,Yuan,
78646,CN,32,Chang,
78647,CN,12,Fang,
78648,CN,13,Yining,
78649,CN,24,Xiangning,
78650,CN,24,Datong,
78651,CN,25,Pingyi,
78652,CN,4,Liujun,
78653,CN,24,Gaoping,
78654,CN,31,Sanya,
78655,CN,25,Wangjing,
78656,CN,24,Shuozhou,
78657,CN,29,Dali,
78658,CN,11,Chen,
78659,CN,26,Feng,
78660,CN,7,Liao,
78661,CN,30,Xiao,
78662,CN,1,Shou,
78663,CN,11,Huang,
78664,CN,11,Linfeng,
78665,CN,26,Baoji,
78666,CN,26,Weinan,
78667,CN,26,Hanzhong,
78668,CN,26,Yanan,
78669,CN,16,Chüan,
78670,CN,1,Luan,
78671,CN,15,Kang,
78672,CN,10,Guan,
78673,CN,1,Chao,
78674,CN,25,Kuan,
78675,CN,30,Jiangying,
78676,CN,4,Gaoyou,
78677,CN,7,Hanjiang,
78678,CN,4,Baoying,
78679,CN,7,Sheyang,
78680,CN,4,Xuyi,
78681,CN,7,Wuxian,
78682,CN,4,Binhai,
78683,CN,26,Wujing,
78684,CN,25,Xinyi,
78685,CN,32,Pixian,
78686,CN,4,Peixian,
78687,CN,4,Haian,
78688,CN,4,Danyang,
78689,CN,30,Rudong,
78690,CN,22,Tongzhou,
78691,CN,11,Qidong,
78692,CN,4,Rugao,
78693,CN,7,Tongshan,
78694,CN,4,Liyang,
78695,CN,33,Jiangjin,
78696,CN,4,Yangzhong,
78697,CN,4,Jurong,
78698,CN,30,Donghai,
78699,CN,4,Ganyu,
78700,CN,18,Siyang,
78701,CN,4,Jiangyan,
78702,CN,16,Jiangning,
78703,CN,4,Taixing,
78704,CN,30,Zhagang,
78705,CN,18,Qinghai,
78706,CN,2,Dinghai,
78707,CN,7,Yantian,
78708,CN,25,Yanzhou,
78709,CN,3,Lilin,
78710,CN,11,Shaoshan,
78711,CN,30,Beijin,
78712,CN,4,Fuxingwei,
78713,CN,19,Huludao,
78714,CN,19,Xingcheng,
78715,CN,19,Jinxi,
78716,CN,5,Baicheng,
78717,CN,24,Tonghua,
78718,CN,25,Juxian,
78719,CN,8,Shuangcheng,
78720,CN,3,Xinyu,
78721,CN,12,Shiyan,
78722,CN,24,Shui,
78723,CN,1,Wangxu,
78724,CN,12,Baiying,
78725,CN,7,Jinfeng,
78726,CN,16,Liuping,
78727,CN,25,Liuying,
78728,CN,9,Handong,
78729,CN,18,Jixing,
78730,CN,19,Shuangtaizi,
78731,CN,3,Lishi,
78732,CN,22,Huairou,
78733,CN,22,Mentougou,
78734,CN,22,Niulanshan,
78735,CN,30,Junan,
78736,CN,25,Laixi,
78737,CN,3,Sanlian,
78738,CN,10,Aihe,
78739,CN,7,Guyong,
78740,CN,24,Baijing,
78741,CN,10,Xingtai,
78742,CN,16,Wuzhou,
78743,CN,11,Yanta,
78744,CN,28,Tianjing,
78745,CN,10,Gaoyang,
78746,CN,19,Nantai,
78747,CN,11,Zhongxin,
78748,CN,26,Muwang,
78749,CN,30,Yihua,
78750,CN,26,Linhe,
78751,CN,20,Huhehot,
78752,CN,25,Minfeng,
78753,CN,29,Mengsheng,
78754,CN,26,Zhenjing,
78755,CN,32,Baiyun,
78756,CN,7,Jiangjing,
78757,CN,32,Ziyang,
78758,CN,18,Duma,
78759,CN,4,Zhenzhou,
78760,CN,33,Fuling,
78761,CN,3,Chüannan,
78762,CN,32,Meihua,
78763,CN,3,Yingtan,
78764,CN,3,Shangrao,
78765,CN,3,Guixi,
78766,CN,2,Qianshan,
78767,CN,3,Jingdezhen,
78768,CN,9,Yuzhou,
78769,CN,3,Leping,
78770,CN,3,Pingxiang,
78771,CN,32,Emei,
78772,CN,32,Xichang,
78773,CN,3,Yongxin,
78774,CN,31,Yongxiu,
78775,CN,3,Ganxian,
78776,CN,3,Guangfeng,
78777,CN,3,Yugan,
78778,CN,3,Dexing,
78779,CN,3,Jinxian,
78780,CN,2,Wuning,
78781,CN,28,Dongzhou,
78782,CN,11,Xinfu,
78783,CN,25,Dongshan,
78784,CN,26,Fugu,
78785,CN,2,Hang,
78786,CN,18,Tanchang,
78787,CN,24,Ganquan,
78788,CN,9,Yichuan,
78789,CN,26,Huanglong,
78790,CN,26,Wuqi,
78791,CN,26,Zhidan,
78792,CN,26,Huangling,
78793,CN,7,Yanchuan,
78794,CN,7,Yongping,
78795,CN,7,Jiaokou,
78796,CN,11,Yanchang,
78797,CN,7,Xixin,
78798,CN,26,Tongchuan,
78799,CN,26,Shangluo,
78800,CN,26,Ankang,
78801,CN,2,Jinzhong,
78802,CN,30,Gaoke,
78803,CN,13,Kuitun,
78804,CN,7,Sunlin,
78805,CN,4,Jinzhen,
78806,CN,18,Qianfeng,
78807,CN,4,Huifeng,
78808,CN,4,Haihong,
78809,CN,22,Zhangxin,
78810,CN,16,Yuntong,
78811,CN,16,Duan,
78812,CN,25,Wudi,
78813,CN,11,Wuxing,
78814,CN,7,Zhongye,
78815,CN,29,Cuihua,
78816,CN,7,Taihua,
78817,CN,22,Nanguan,
78818,CN,2,Nanxin,
78819,CN,26,Shangzhou,
78820,CN,30,Shangde,
78821,CN,7,Jixiang,
78822,CN,12,Guanghua,
78823,CN,12,Xianning,
78824,CN,30,Hanguang,
78825,CN,31,Yanglan,
78826,CN,9,Changying,
78827,CN,7,Xiangyuan,
78828,CN,24,Bayi,
78829,CN,9,Xingji,
78830,CN,16,Mingjiang,
78831,CN,30,Xijing,
78832,CN,11,Zhangli,
78833,CN,26,Taibai,
78834,CN,30,Dadi,
78835,CN,11,Shengqi,
78836,CN,7,Jianshe,
78837,CN,11,Tangfang,
78838,CN,22,Daxing,
78839,CN,26,Xingping,
78840,CN,4,Xueyan,
78841,CN,10,Baliqiao,
78842,CN,7,Nanda,
78843,CN,11,Heshi,
78844,CN,3,Sanqiao,
78845,CN,30,Qiao,
78846,CN,26,Lishan,
78847,CN,9,Yuanyang,
78848,CN,11,Xinfeng,
78849,CN,32,Qunli,
78850,CN,5,Jiefang,
78851,CN,15,Main,
78852,CN,26,Baqiao,
78853,CN,2,Jinwang,
78854,CN,11,Xintian,
78855,CN,24,Xiyu,
78856,CN,2,Tianli,
78857,CN,7,Yunfeng,
78858,CN,18,Tiancheng,
78859,CN,2,Zhonglian,
78860,CN,7,Changlong,
78861,CN,19,Xinglongtai,
78862,CN,2,Youyuan,
78863,CN,16,Shanxin,
78864,CN,20,Hunt,
78865,CN,7,Tianyuan,
78866,CN,32,Side,
78867,CN,22,Wanghua,
78868,CN,11,Changshan,
78869,CN,12,Gezhouba,
78870,CN,8,Heihe,
78871,CN,4,Jiangyin,
78872,CN,24,Xizhang,
78873,CN,26,Chia,
78874,CN,10,Sanhe,
78875,CN,5,Yueqing,
78876,CN,32,Wenhua,
78877,CN,29,Kaiyuan,
78878,CN,5,Lingyun,
78879,CN,7,Weiyang,
78880,CN,31,Yaxin,
78881,CN,4,Zhongxing,
78882,CN,3,Xibei,
78883,CN,11,Youjia,
78884,CN,30,Raoping,
78885,CN,26,Yanliang,
78886,CN,7,Anxi,
78887,CN,25,Changle,
78888,CN,7,Jianyang,
78889,CN,25,Pingnan,
78890,CN,7,Fuqing,
78891,CN,7,Huian,
78892,CN,11,Longhai,
78893,CN,7,Xiapu,
78894,CN,7,Zhouning,
78895,CN,7,Fuan,
78896,CN,7,Zhaoan,
78897,CN,7,Gutian,
78898,CN,7,Xianyou,
78899,CN,7,Yongchun,
78900,CN,7,Minqing,
78901,CN,7,Jinjiang,
78902,CN,11,Hezhou,
78903,CN,11,Guitang,
78904,CN,2,Guiping,
78905,CN,33,Renhe,
78906,CN,30,Guigang,
78907,CN,11,Hechi,
78908,CN,9,Fangcheng,
78909,CN,16,Qinzhou,
78910,CN,16,Bose,
78911,CN,16,Beihai,
78912,CN,1,Xinxin,
78913,CN,21,Shikong,
78914,CN,11,Lianmeng,
78915,CN,11,Lingling,
78916,CN,7,Minhou,
78917,CN,7,Anhai,
78918,CN,7,Fangyuan,
78919,CN,7,Shunchang,
78920,CN,7,Shaowu,
78921,CN,7,Wuyishan,
78922,CN,29,Jinshan,
78923,CN,7,Dehua,
78924,CN,11,Huarong,
78925,CN,7,Foochow,
78926,CN,7,Hongyu,
78927,CN,4,Minqiao,
78928,CN,7,Yinglin,
78929,CN,1,Kangjia,
78930,CN,30,Beixi,
78931,CN,7,Pucheng,
78932,CN,15,Kangle,
78933,CN,29,Judian,
78934,CN,25,Shiji,
78935,CN,25,Shancheng,
78936,CN,30,Zengcheng,
78937,CN,13,Weili,
78938,CN,15,Dunhuang,
78939,CN,9,Guangdian,
78940,CN,8,Yian,
78941,CN,32,Jialing,
78942,CN,10,Dongguang,
78943,CN,7,Hongkou,
78944,CN,12,Tianhe,
78945,CN,16,Dazhong,
78946,CN,11,Dongjiang,
78947,CN,1,Tietong,
78948,CN,8,Youyi,
78949,CN,26,Huali,
78950,CN,3,Huafang,
78951,CN,11,Datang,
78952,CN,11,Jinhui,
78953,CN,25,Xiyou,
78954,CN,10,Jianguo,
78955,CN,7,Zhengda,
78956,CN,11,Longwei,
78957,CN,10,Ziwei,
78958,CN,28,Tianmu,
78959,CN,32,Taiyi,
78960,CN,26,Gaoling,
78961,CN,30,Yihe,
78962,CN,3,Songyi,
78963,CN,9,Qianhe,
78964,CN,30,Gaoliang,
78965,CN,33,Shimen,
78966,CN,29,Guangtong,
78967,CN,8,Huanan,
78968,CN,11,Xinlong,
78969,CN,30,Chaozhou,
78970,CN,30,Chaoan,
78971,CN,32,Hexi,
78972,CN,29,Lühe,
78973,CN,18,Wenxin,
78974,CN,2,Xilong,
78975,CN,10,Tumu,
78976,CN,9,Jishui,
78977,CN,7,Hedong,
78978,CN,20,Huate,
78979,CN,25,Hongyun,
78980,CN,26,Huiyu,
78981,CN,19,Suizhong,
78982,CN,31,Jiaxin,
78983,CN,10,Qianxi,
78984,CN,19,Fengcheng,
78985,CN,7,Shipai,
78986,CN,7,Liwan,
78987,CN,7,Fangcun,
78988,CN,10,Shahe,
78989,CN,30,Huangpu,
78990,CN,29,Gulang,
78991,CN,30,Shamian,
78992,CN,30,Humen,
78993,CN,26,Sanshui,
78994,CN,26,Zhangxian,
78995,CN,30,Jinyu,
78996,CN,29,Chuxiong,
78997,CN,19,Xinli,
78998,CN,5,Jichang,
78999,CN,16,Yongfu,
79000,CN,1,Huakang,
79001,CN,30,Longdong,
79002,CN,22,Fengtai,
79003,CN,11,Yongding,
79004,CN,30,Renhua,
79005,CN,30,Ruyuan,
79006,CN,2,Wengyuan,
79007,CN,3,Baishiqiao,
79008,CN,11,Changshang,
79009,CN,12,Honghu,
79010,CN,11,Lengshuitan,
79011,CN,10,Qinglan,
79012,CN,2,Zhongji,
79013,CN,18,Gaowei,
79014,CN,18,Boyu,
79015,CN,11,Jingwei,
79016,CN,26,Luochuan,
79017,CN,26,Zichang,
79018,CN,11,Huangshi,
79019,CN,2,Wuyi,
79020,CN,11,Shajing,
79021,CN,10,Zhengding,
79022,CN,25,Hejia,
79023,CN,7,Zhanghou,
79024,CN,11,Tangxia,
79025,CN,30,Huangjiang,
79026,CN,9,Guoji,
79027,CN,31,Yangguang,
79028,CN,24,Fenyang,
79029,CN,12,Suizhou,
79030,CN,11,Jinshi,
79031,CN,1,Zhangguang,
79032,CN,12,Qingquan,
79033,CN,21,Shidian,
79034,CN,12,Daye,
79035,CN,32,Guanghan,
79036,CN,2,Huangnan,
79037,CN,1,Macao,
79038,CN,30,Lianshan,
79039,CN,2,Lizhu,
79040,CN,32,Meixing,
79041,CN,23,Hezuo,
79042,CN,12,Laohekou,
79043,CN,4,Haifu,
79044,CN,3,Lijing,
79045,CN,32,Xiaoba,
79046,CN,3,Lianxi,
79047,CN,33,Yuanyi,
79048,CN,30,Gaoming,
79049,CN,7,Keyu,
79050,CN,7,Kengtou,
79051,CN,13,Baijiantan,
79052,CN,1,Hongji,
79053,CN,30,Daliang,
79054,CN,2,Ninghai,
79055,CN,3,Zhongtong,
79056,CN,32,Feilong,
79057,CN,10,Zhongyi,
79058,CN,33,Huiming,
79059,CN,8,Lianxing,
79060,CN,1,Suixi,
79061,CN,30,Jingan,
79062,CN,26,Sixian,
79063,CN,9,Ningguo,
79064,CN,30,Guangde,
79065,CN,32,Bazhong,
79066,CN,25,Liangshan,
79067,CN,32,Guangyuan,
79068,CN,32,Guangan,
79069,CN,31,Lingshui,
79070,CN,30,Shengjiang,
79071,CN,2,Quxian,
79072,CN,32,Suining,
79073,CN,7,Meishan,
79074,CN,3,Luohu,
79075,CN,15,Niao,
79076,CN,30,Xianan,
79077,CN,10,Xicheng,
79078,CN,12,Yingcheng,
79079,CN,33,Shiping,
79080,CN,8,Hegang,
79081,CN,30,Dabang,
79082,CN,3,Dayu,
79083,CN,13,Yuli,
79084,CN,8,Longjiang,
79085,CN,8,Tailai,
79086,CN,8,Keshan,
79087,CN,30,Tonghe,
79088,CN,11,Yanshou,
79089,CN,26,Binxian,
79090,CN,24,Beiyao,
79091,CN,8,Shangzhi,
79092,CN,18,Kunlun,
79093,CN,15,Changi,
79094,CN,12,Jingmen,
79095,CN,2,Shayang,
79096,CN,21,Tongxin,
79097,CN,30,Zhongwei,
79098,CN,7,Longhu,
79099,CN,10,Cangzhou,
79100,CN,19,Xinbin,
79101,CN,30,Liuhuang,
79102,CN,11,Lantian,
79103,CN,30,Fengshun,
79104,CN,7,Wuhua,
79105,CN,25,Pingyuan,
79106,CN,32,Shunhe,
79107,CN,26,Ansai,
79108,CN,31,Shidai,
79109,CN,11,Guangfa,
79110,CN,30,Yunan,
79111,CN,25,Yangxin,
79112,CN,31,Jiangwei,
79113,CN,4,Yandu,
79114,CN,18,Duyun,
79115,CN,18,Anshun,
79116,CN,18,Bijie,
79117,CN,18,Xingyi,
79118,CN,11,Zhangjiang,
79119,CN,8,Ranghulu,
79120,CN,11,Dongshang,
79121,CN,1,Daiwa,
79122,CN,9,Guolian,
79123,CN,23,Wangxin,
79124,CN,11,Guangming,
79125,CN,7,Caihong,
79126,CN,7,Tiandi,
79127,CN,20,Xinghe,
79128,CN,12,Xiantao,
79129,CN,19,Beining,
79130,CN,26,Qianqiu,
79131,CN,19,Taiji,
79132,CN,22,Beijing Shi,
79133,CN,20,Chifeng,
79134,CN,30,Huazhou,
79135,CN,16,Zhuang,
79136,CN,10,Feixiang,
79137,CN,22,Fangshan,
79138,CN,11,Huaqiao,
79139,CN,11,Nanshan,
79140,CN,18,Tianlong,
79141,CN,11,Meitian,
79142,CN,6,Shuichan,
79143,CN,16,Heshan,
79144,CN,11,Datian,
79145,CN,26,Nanfang,
79146,CN,16,Deli,
79147,CN,11,Yangquan,
79148,CN,5,Longgang,
79149,CN,7,Zhonglou,
79150,CN,16,Bobai,
79151,CN,2,Bihu,
79152,CN,30,Jingyi,
79153,CN,26,Shangnan,
79154,CN,2,Zhongyu,
79155,CN,24,Yijing,
79156,CN,11,Qixing,
79157,CN,11,Xinglang,
79158,CN,19,Kuandian,
79159,CN,16,Silian,
79160,CN,9,Xuanwu,
79161,CN,3,Hengyuan,
79162,CN,7,Tianyang,
79163,CN,32,Yongning,
79164,CN,30,Liucheng,
79165,CN,12,Shishou,
79166,CN,1,Laian,
79167,CN,10,Shexian,
79168,CN,1,Dangshan,
79169,CN,10,Hengshui,
79170,CN,15,Yuzhong,
79171,CN,7,Xili,
79172,CN,30,Taiwan,
79173,CN,9,Zhile,
79174,CN,7,Jiangwan,
79175,CN,15,Yuebei,
79176,CN,11,Wujiang,
79177,CN,10,Shenzhou,
79178,CN,30,Hualong,
79179,CN,30,Gongcheng,
79180,CN,1,Shahu,
79181,CN,1,Xiangyang,
79182,CN,11,Yangxi,
79183,CN,8,Nehe,
79184,CN,33,Jiulong,
79185,CN,2,Hengyu,
79186,CN,8,Hailin,
79187,CN,8,Dongning,
79188,CN,7,Muling,
79189,CN,8,Linkou,
79190,CN,8,Ningan,
79191,CN,8,Liansheng,
79192,CN,10,Pengcheng,
79193,CN,7,Tangyuan,
79194,CN,8,Huachuan,
79195,CN,15,Zhongtai,
79196,CN,7,Chengfeng,
79197,CN,12,Chenfeng,
79198,CN,4,Wuye,
79199,CN,2,Fuming,
79200,CN,25,Mingshui,
79201,CN,8,Qinggang,
79202,CN,31,Huixin,
79203,CN,11,Xinghua,
79204,CN,8,Shuangyashan,
79205,CN,8,Baoqing,
79206,CN,10,Jixian,
79207,CN,32,Gongnong,
79208,CN,7,Qianyu,
79209,CN,1,Yingzi,
79210,CN,8,Wudalianchi,
79211,CN,8,Xunke,
79212,CN,8,Nenjiang,
79213,CN,5,Beishan,
79214,CN,8,Longfeng,
79215,CN,4,Pingsheng,
79216,CN,4,Ruixiang,
79217,CN,8,Zhaoyuan,
79218,CN,3,Taifang,
79219,CN,5,Liuhe,
79220,CN,25,Yiyuan,
79221,CN,11,Jinlong,
79222,CN,7,Sanyou,
79223,CN,11,Yonghong,
79224,CN,5,Hongyi,
79225,CN,31,Honghai,
79226,CN,7,Guannan,
79227,CN,7,Hechun,
79228,CN,30,Nangang,
79229,CN,3,Xiangfang,
79230,CN,19,Pingfang,
79231,CN,16,Zhongliang,
79232,CN,25,Sishui,
79233,CN,25,Tancheng,
79234,CN,25,Shizilu,
79235,CN,32,Tongji,
79236,CN,16,Chengjian,
79237,CN,10,Xinhe,
79238,CN,25,Huayuan,
79239,CN,30,Shizheng,
79240,CN,18,Wangguan,
79241,CN,25,Zhucheng,
79242,CN,25,Difang,
79243,CN,7,Shishi,
79244,CN,16,Liujing,
79245,CN,29,Zhanyi,
79246,CN,29,Shizong,
79247,CN,29,Honghe,
79248,CN,29,Gejiu,
79249,CN,29,Jianshui,
79250,CN,32,Yunxi,
79251,CN,12,Jiayu,
79252,CN,9,Hexing,
79253,CN,7,Wangqian,
79254,CN,18,Ruili,
79255,CN,32,Lianghe,
79256,CN,7,Yangli,
79257,CN,24,Jiade,
79258,CN,11,Luxi,
79259,CN,8,Youhao,
79260,CN,3,Songgang,
79261,CN,24,Yangjian,
79262,CN,10,Yongqing,
79263,CN,18,Yuyou,
79264,CN,1,Wangshen,
79265,CN,10,Yangfan,
79266,CN,1,Wanwan,
79267,CN,8,Baoshan,
79268,CN,25,Weishan,
79269,CN,18,Wangyou,
79270,CN,12,Hongta,
79271,CN,29,Tonghai,
79272,CN,29,Huaning,
79273,CN,25,Eshan,
79274,CN,15,Yumen,
79275,CN,11,Lufeng,
79276,CN,11,Dayao,
79277,CN,29,Nanhua,
79278,CN,29,Yaoan,
79279,CN,29,Yuanmou,
79280,CN,29,Yongren,
79281,CN,29,Wuding,
79282,CN,29,Mouding,
79283,CN,29,Lanping,
79284,CN,29,Zhaotong,
79285,CN,4,Lijian,
79286,CN,29,Lijiang,
79287,CN,7,Guanfang,
79288,CN,21,Huaping,
79289,CN,5,Yongsheng,
79290,CN,3,Hekou,
79291,CN,7,Jingcheng,
79292,CN,29,Mile,
79293,CN,29,Simao,
79294,CN,29,Puer,
79295,CN,29,Jingdong,
79296,CN,15,Jinggu,
79297,CN,29,Menglian,
79298,CN,29,Ximeng,
79299,CN,7,Jiancheng,
79300,CN,18,Zhenyuan,
79301,CN,11,Jiwei,
79302,CN,7,Yongan,
79303,CN,29,Jinghong,
79304,CN,30,Dongfang,
79305,CN,8,Hongtai,
79306,CN,29,Xichou,
79307,CN,3,Qiubei,
79308,CN,1,Wenshan,
79309,CN,7,Maguan,
79310,CN,29,Guangnan,
79311,CN,3,Yanshan,
79312,CN,7,Funing,
79313,CN,25,Wenshang,
79314,CN,26,Fuping,
79315,CN,18,Zhongqing,
79316,CN,4,Wujian,
79317,CN,4,Wuyou,
79318,CN,8,Lizhi,
79319,CN,11,Baoan,
79320,CN,9,Xinzheng,
79321,CN,7,Hubin,
79322,CN,26,Guodu,
79323,CN,26,Xiaoqu,
79324,CN,26,Mingdu,
79325,CN,7,Dasha,
79326,CN,30,Fulin,
79327,CN,9,Baofeng,
79328,CN,7,Lutian,
79329,CN,10,Xingyuan,
79330,CN,3,Jiangtian,
79331,CN,11,Donghua,
79332,CN,7,Zhongbao,
79333,CN,25,Caozhou,
79334,CN,2,Tiantong,
79335,CN,1,Lingda,
79336,CN,24,Yongkang,
79337,CN,2,Huangyan,
79338,CN,11,Hongqiao,
79339,CN,19,Yizhou,
79340,CN,2,Jiadi,
79341,CN,24,Jincheng,
79342,CN,7,Wuyu,
79343,CN,31,Huabei,
79344,CN,3,Dianshitai,
79345,CN,31,Tianan,
79346,CN,7,Muzi,
79347,CN,7,Qiaodong,
79348,CN,30,Dongli,
79349,CN,4,Tianchen,
79350,CN,18,Huagong,
79351,CN,24,Longyu,
79352,CN,3,Zhongqi,
79353,CN,10,Haixing,
79354,CN,11,Haiyang,
79355,CN,30,Baogang,
79356,CN,7,Chaodai,
79357,CN,5,Yonghua,
79358,CN,11,Jida,
79359,CN,32,Zhongcheng,
79360,CN,32,Heyi,
79361,CN,11,Yanqiao,
79362,CN,31,Yangpu,
79363,CN,10,Zhongbei,
79364,CN,26,Hongtu,
79365,CN,7,Diao,
79366,CN,3,Hantang,
79367,CN,7,Huge,
79368,CN,11,Rongsheng,
79369,CN,7,Shishan,
79370,CN,30,Guanyao,
79371,CN,9,Nanyue,
79372,CN,9,Qingfeng,
79373,CN,7,Huangqi,
79374,CN,7,Caopu,
79375,CN,31,Sanjiu,
79376,CN,7,Xiangxi,
79377,CN,7,Beidou,
79378,CN,8,Binhe,
79379,CN,1,Sungang,
79380,CN,2,Guiyuan,
79381,CN,7,Hongling,
79382,CN,32,Wutong,
79383,CN,25,Dawang,
79384,CN,18,Bibo,
79385,CN,3,Jingbei,
79386,CN,7,Jintian,
79387,CN,7,Donghu,
79388,CN,30,Buxin,
79389,CN,31,Luoling,
79390,CN,5,Xingang,
79391,CN,12,Macheng,
79392,CN,10,Beidian,
79393,CN,33,Quande,
79394,CN,18,Haila,
79395,CN,18,Kaili,
79396,CN,26,Lüeyang,
79397,CN,20,Tongliao,
79398,CN,32,Jiangyou,
79399,CN,7,Jutian,
79400,CN,18,Zhiyun,
79401,CN,12,Hefeng,
79402,CN,7,Jiangnan,
79403,CN,3,Xiejia,
79404,CN,4,Juzhen,
79405,CN,7,Shangxi,
79406,CN,7,Luofang,
79407,CN,32,Lianhua,
79408,CN,31,Meilian,
79409,CN,7,Taining,
79410,CN,8,Renmin,
79411,CN,30,Liannan,
79412,CN,7,Shixia,
79413,CN,7,Futian,
79414,CN,16,Jinglong,
79415,CN,5,Fumin,
79416,CN,2,Huaqiang,
79417,CN,25,Kangcheng,
79418,CN,7,Dongpu,
79419,CN,32,Bailu,
79420,CN,15,Mudan,
79421,CN,31,Gangxia,
79422,CN,11,Liyuan,
79423,CN,2,Zhuxiang,
79424,CN,7,Yuanling,
79425,CN,30,Shangsha,
79426,CN,8,Yinglan,
79427,CN,1,Meili,
79428,CN,7,Zhongfu,
79429,CN,7,Duwei,
79430,CN,7,Bantou,
79431,CN,7,Jiaowei,
79432,CN,7,Daji,
79433,CN,7,Gaiwei,
79434,CN,7,Longhua,
79435,CN,4,Yizheng,
79436,CN,30,Nantou,
79437,CN,24,Shanshui,
79438,CN,1,Zhifeng,
79439,CN,3,Yitian,
79440,CN,24,Baihua,
79441,CN,12,Zhulin,
79442,CN,3,Yuanfang,
79443,CN,23,Gonglu,
79444,CN,7,Lianjiang,
79445,CN,25,Potou,
79446,CN,4,Yaochang,
79447,CN,10,Wangchang,
79448,CN,18,Fengqing,
79449,CN,3,Qiqi,
79450,CN,8,Lingdong,
79451,CN,7,Ximen,
79452,CN,24,Xingyu,
79453,CN,2,Shunli,
79454,CN,7,Xingchen,
79455,CN,18,Xiaoyao,
79456,CN,25,Xinji,
79457,CN,10,Shennan,
79458,CN,10,Baile,
79459,CN,11,Shuguang,
79460,CN,18,Wuchuan,
79461,CN,2,Zhitang,
79462,CN,25,Fengsu,
79463,CN,11,Xianglong,
79464,CN,25,Wanglu,
79465,CN,11,Xingguang,
79466,CN,30,Taicheng,
79467,CN,1,Chenwei,
79468,CN,26,Zhangjian,
79469,CN,2,Tianma,
79470,CN,1,Xinshijie,
79471,CN,33,Yongchang,
79472,CN,32,Dushi,
79473,CN,26,Dacheng,
79474,CN,24,Wenyuan,
79475,CN,1,Quanji,
79476,CN,3,Chenying,
79477,CN,18,Yizhong,
79478,CN,18,Zhihui,
79479,CN,1,Hualan,
79480,CN,18,Lantu,
79481,CN,20,Suiyüan,
79482,CN,8,Fuqiang,
79483,CN,25,Jiaodong,
79484,CN,8,Fuli,
79485,CN,32,Daxin,
79486,CN,30,Huadong,
79487,CN,25,Youji,
79488,CN,22,Taihu,
79489,CN,9,Landian,
79490,CN,11,Lianqiao,
79491,CN,32,Daqiao,
79492,CN,25,Zoucheng,
79493,CN,25,Laizhou,
79494,CN,25,Dongping,
79495,CN,25,Feicheng,
79496,CN,25,Tengzhou,
79497,CN,33,Xianfeng,
79498,CN,7,Taiyang,
79499,CN,16,Shitong,
79500,CN,31,Yongchu,
79501,CN,33,Nanan,
79502,CN,25,Nanzhuang,
79503,CN,25,Luocun,
79504,CN,32,Zhuyuan,
79505,CN,1,Pingan,
79506,CN,16,Guicheng,
79507,CN,8,Chenming,
79508,CN,30,Yanbu,
79509,CN,26,Chien,
79510,CN,11,Ching,
79511,CN,15,Chengxian,
79512,CN,7,Taipei,
79513,CN,29,Yixiang,
79514,CN,20,Jianhua,
79515,CN,30,Leizhou,
79516,CN,24,Shuo,
79517,CN,18,Lalin,
79518,CN,26,Dongchen,
79519,CN,14,Nang,
79520,CN,19,Huiji,
79521,CN,22,Shangying,
79522,CN,11,Suoshi,
79523,CN,1,Xincang,
79524,CN,2,Xianmen,
79525,CN,7,Donglin,
79526,CN,22,Wanping,
79527,CN,11,Tianshan,
79528,CN,11,Jinqiao,
79529,CN,18,Motai,
79530,CN,10,Tanglin,
79531,CN,12,Wangba,
79532,CN,24,Xiying,
79533,CN,30,Pingdong,
79534,CN,1,Lujiazui,
79535,CN,2,Changxing,
79536,CN,11,Wangyuan,
79537,CN,31,Xinmei,
79538,CN,16,Jiayou,
79539,CN,5,Yitong,
79540,CN,25,Gaoji,
79541,CN,31,Wuxin,
79542,CN,30,Xinheng,
79543,CN,24,Qinyuan,
79544,CN,33,Wanxian,
79545,CN,18,Caizi,
79546,CN,19,Fenghuangcheng,
79547,CN,8,Zhongren,
79548,CN,7,Guangze,
79549,CN,11,Dachong,
79550,CN,23,Xinhai,
79551,CN,32,Yanxi,
79552,CN,2,Lianyun,
79553,CN,4,Haizhou,
79554,CN,11,Taoan,
79555,CN,30,Huancheng,
79556,CN,22,Dongzhi,
79557,CN,7,Xiuyu,
79558,CN,8,Hailang,
79559,CN,25,Huangsheng,
79560,CN,12,Caifeng,
79561,CN,6,Haowei,
79562,CN,16,Weiluo,
79563,CN,24,Daqu,
79564,CN,10,Xinle,
79565,CN,10,Luancheng,
79566,CN,30,Kaiping,
79567,CN,22,Jingezhuang,
79568,CN,8,Jidong,
79569,CN,10,Xingtang,
79570,CN,31,Yucai,
79571,CN,30,Lanfang,
79572,CN,11,Youxian,
79573,CN,26,Yinchen,
79574,CN,30,Pingzhou,
79575,CN,30,Fuhe,
79576,CN,9,Linghu,
79577,CN,2,Lishui,
79578,CN,30,Dongwei,
79579,CN,10,Xianghe,
79580,CN,30,Danzao,
79581,CN,24,Huachuang,
79582,CN,30,Xiqiao,
79583,CN,1,Lianzhan,
79584,CN,25,Shichang,
79585,CN,19,Pingluo,
79586,CN,7,Tangcheng,
79587,CN,7,Beilin,
79588,CN,7,Hongdun,
79589,CN,25,Yishan,
79590,CN,29,Shanjie,
79591,CN,5,Tiande,
79592,CN,4,Xuean,
79593,CN,1,Lide,
79594,CN,25,Jiazhen,
79595,CN,11,Liangjiang,
79596,CN,18,Guai,
79597,CN,2,Pingyang,
79598,CN,30,Chikan,
79599,CN,11,Baolong,
79600,CN,3,Dongxin,
79601,CN,30,Jingdu,
79602,CN,30,Huilai,
79603,CN,22,Dingfuzhuang,
79604,CN,7,Shangdi,
79605,CN,11,Nanlu,
79606,CN,32,Xiangshan,
79607,CN,18,Desheng,
79608,CN,15,Fucheng,
79609,CN,7,Dongxiao,
79610,CN,2,Shuiku,
79611,CN,11,Shuitian,
79612,CN,22,Nanyuan,
79613,CN,2,Shangbu,
79614,CN,25,Nanhu,
79615,CN,30,Xinsha,
79616,CN,11,Meiyuan,
79617,CN,11,Shiling,
79618,CN,7,Meilin,
79619,CN,16,Youfu,
79620,CN,11,Jiedong,
79621,CN,2,Xiyi,
79622,CN,30,Longchuan,
79623,CN,13,Xinyuan,
79624,CN,8,Yishun,
79625,CN,11,Xinguang,
79626,CN,33,Heping,
79627,CN,20,Dongsheng,
79628,CN,16,Changhe,
79629,CN,7,Guzhu,
79630,CN,12,Zijin,
79631,CN,30,Lianping,
79632,CN,7,Hongmei,
79633,CN,5,Jishu,
79634,CN,7,Hongxin,
79635,CN,26,Boshi,
79636,CN,11,Sanxing,
79637,CN,24,Jingsheng,
79638,CN,7,Huafeng,
79639,CN,9,Yangtse,
79640,CN,11,Weidong,
79641,CN,7,Jiayang,
79642,CN,7,Jiexi,
79643,CN,3,Xiaolong,
79644,CN,20,Xianjin,
79645,CN,3,Xuri,
79646,CN,7,Shilian,
79647,CN,18,Guanzhou,
79648,CN,11,Hongxi,
79649,CN,24,Xugou,
79650,CN,11,Zhongtian,
79651,CN,3,Butian,
79652,CN,26,Huxian,
79653,CN,11,Taxi,
79654,CN,7,Hongyang,
79655,CN,10,Dingxing,
79656,CN,23,Xuhui,
79657,CN,23,Putuo,
79658,CN,11,Lanshi,
79659,CN,11,Zhongyin,
79660,CN,24,Jiandu,
79661,CN,1,Yinjian,
79662,CN,25,Guanli,
79663,CN,11,Kuangshan,
79664,CN,7,Gulangyu,
79665,CN,22,Jiyang,
79666,CN,31,Lianyi,
79667,CN,25,Changqing,
79668,CN,12,Duandian,
79669,CN,19,Changtu,
79670,CN,10,Yanfeng,
79671,CN,7,Dongwu,
79672,CN,30,Qingcheng,
79673,CN,25,Yidu,
79674,CN,25,Linqu,
79675,CN,5,Tumen,
79676,CN,16,Xiangnan,
79677,CN,2,Wenling,
79678,CN,32,Ganjiang,
79679,CN,2,Jiaojiang,
79680,CN,2,Zhiying,
79681,CN,8,Yuying,
79682,CN,33,Taiping,
79683,CN,2,Sanshi,
79684,CN,31,Songmen,
79685,CN,2,Luqiao,
79686,CN,2,Yuhuan,
79687,CN,4,Shiye,
79688,CN,11,Xingdong,
79689,CN,30,Cixi,
79690,CN,11,Shuilong,
79691,CN,24,Zhongjie,
79692,CN,24,Shuanglu,
79693,CN,7,Daxi,
79694,CN,15,Huahai,
79695,CN,7,Daishan,
79696,CN,3,Sanmen,
79697,CN,7,Mengyuan,
79698,CN,2,Xianju,
79699,CN,2,Jinqing,
79700,CN,6,Tianjun,
79701,CN,11,Hongxing,
79702,CN,4,Jinsha,
79703,CN,15,Hongcheng,
79704,CN,7,Dongshen,
79705,CN,25,Henfeng,
79706,CN,11,Shitang,
79707,CN,31,Wenlin,
79708,CN,19,Lunan,
79709,CN,11,Xinqiao,
79710,CN,30,Xiachen,
79711,CN,2,Tiantai,
79712,CN,29,Chennan,
79713,CN,2,Shengzhou,
79714,CN,1,Wenqiao,
79715,CN,30,Lupu,
79716,CN,15,Longxi,
79717,CN,9,Wanzhong,
79718,CN,11,Longtan,
79719,CN,2,Damaiyu,
79720,CN,29,Sanmeng,
79721,CN,30,Sanbian,
79722,CN,10,Jiashan,
79723,CN,3,Shangxin,
79724,CN,30,Dapu,
79725,CN,25,Shangtang,
79726,CN,2,Shengsi,
79727,CN,30,Tongmeng,
79728,CN,2,Gaoting,
79729,CN,2,Daidong,
79730,CN,8,Baiquan,
79731,CN,32,Qushan,
79732,CN,30,Siwei,
79733,CN,11,Tianfu,
79734,CN,11,Lincheng,
79735,CN,2,Daodou,
79736,CN,2,Maao,
79737,CN,18,Jieke,
79738,CN,11,Litian,
79739,CN,30,Haishan,
79740,CN,7,Xiaosha,
79741,CN,2,Zhujiajian,
79742,CN,26,Yushi,
79743,CN,25,Shangye,
79744,CN,7,Hongjian,
79745,CN,3,Jingtang,
79746,CN,2,Beichan,
79747,CN,24,Jinyuan,
79748,CN,2,Liuheng,
79749,CN,22,Shuitou,
79750,CN,2,Kunyang,
79751,CN,4,Dafeng,
79752,CN,5,Beigang,
79753,CN,30,Mabu,
79754,CN,10,Baixiang,
79755,CN,33,Yongjia,
79756,CN,2,Wuyang,
79757,CN,2,Zhenglou,
79758,CN,31,Yanhai,
79759,CN,7,Guanhua,
79760,CN,6,Haiyan,
79761,CN,3,Tianxi,
79762,CN,2,Putuoshan,
79763,CN,11,Taohua,
79764,CN,30,Xinqin,
79765,CN,2,Cezi,
79766,CN,29,Daju,
79767,CN,7,Shanhu,
79768,CN,30,Xiaosheng,
79769,CN,7,Chengdong,
79770,CN,24,Chuangli,
79771,CN,30,Shiwei,
79772,CN,3,Jiejia,
79773,CN,3,Qingjiang,
79774,CN,18,Kuaile,
79775,CN,2,Tengjiao,
79776,CN,16,Wanwei,
79777,CN,16,Kuanyang,
79778,CN,16,Pinyang,
79779,CN,32,Wanglong,
79780,CN,11,Dajing,
79781,CN,3,Furong,
79782,CN,10,Beizhao,
79783,CN,25,Wencheng,
79784,CN,2,Taishun,
79785,CN,12,Lucheng,
79786,CN,12,Jinhong,
79787,CN,30,Lecheng,
79788,CN,8,Jingtao,
79789,CN,8,Hongda,
79790,CN,7,Shanmen,
79791,CN,16,Xiaojiang,
79792,CN,3,Xinxi,
79793,CN,12,Puqi,
79794,CN,7,Dingdang,
79795,CN,3,Qiligang,
79796,CN,18,Jiaao,
79797,CN,1,Youdian,
79798,CN,30,Lixiang,
79799,CN,11,Liushi,
79800,CN,25,Tianji,
79801,CN,1,Xinqian,
79802,CN,8,Xinqing,
79803,CN,11,Zhengjiang,
79804,CN,10,Wanquan,
79805,CN,7,Pinghu,
79806,CN,30,Fuda,
79807,CN,5,Xinfa,
79808,CN,7,Meixi,
79809,CN,19,Shuangta,
79810,CN,7,Qili,
79811,CN,32,Qingchuan,
79812,CN,11,Nantang,
79813,CN,2,Yandang,
79814,CN,13,Pole,
79815,CN,5,Mingyue,
79816,CN,7,Xincheng,
79817,CN,3,Yincheng,
79818,CN,3,Danxi,
79819,CN,7,Zhengyuan,
79820,CN,7,Jinxing,
79821,CN,1,Yaojiang,
79822,CN,2,Haining,
79823,CN,26,Atang,
79824,CN,30,Guodian,
79825,CN,1,Huaxiang,
79826,CN,2,Tongxiang,
79827,CN,7,Puyuan,
79828,CN,26,Wuzhen,
79829,CN,2,Zhouwangmiao,
79830,CN,7,Yancang,
79831,CN,15,Yanguan,
79832,CN,3,Xucun,
79833,CN,2,Tongyuan,
79834,CN,5,Fate,
79835,CN,4,Xuxiang,
79836,CN,2,Zhuliu,
79837,CN,32,Hengsheng,
79838,CN,11,Zhongyan,
79839,CN,2,Xiashi,
79840,CN,19,Changhai,
79841,CN,7,Lianfeng,
79842,CN,24,Dongjia,
79843,CN,7,Maodun,
79844,CN,2,Yuanhua,
79845,CN,11,Quantang,
79846,CN,25,Qingyun,
79847,CN,1,Yaozhuang,
79848,CN,12,Qiangang,
79849,CN,9,Yima,
79850,CN,28,Jianming,
79851,CN,7,Qinshan,
79852,CN,30,Jicheng,
79853,CN,30,Haimen,
79854,CN,2,Deqing,
79855,CN,11,Jianshan,
79856,CN,32,Baoshi,
79857,CN,5,Huadian,
79858,CN,16,Yachang,
79859,CN,9,Yangmiao,
79860,CN,31,Zhili,
79861,CN,3,Tongfu,
79862,CN,2,Yuandi,
79863,CN,32,Changsheng,
79864,CN,25,Gaoqiao,
79865,CN,2,Jiangshan,
79866,CN,32,Taihe,
79867,CN,11,Xinchao,
79868,CN,10,Jingxing,
79869,CN,3,Xingdi,
79870,CN,7,Shishang,
79871,CN,31,Hanxiao,
79872,CN,26,Xinmiao,
79873,CN,26,Kangqiao,
79874,CN,24,Longbai,
79875,CN,2,Hengdian,
79876,CN,13,Mingfeng,
79877,CN,30,Yuecheng,
79878,CN,26,Hongjia,
79879,CN,25,Qingshan,
79880,CN,19,Zhenxing,
79881,CN,31,Huachang,
79882,CN,2,Panan,
79883,CN,2,Lanxi,
79884,CN,20,Tieniu,
79885,CN,32,Sanyuan,
79886,CN,11,Jintong,
79887,CN,31,Chenguang,
79888,CN,7,Zhongdai,
79889,CN,7,Tingxi,
79890,CN,2,Pujiang,
79891,CN,16,Jinji,
79892,CN,25,Xintai,
79893,CN,32,Wolong,
79894,CN,33,Xinchang,
79895,CN,3,Shangyu,
79896,CN,2,Zhuji,
79897,CN,1,Dingqiao,
79898,CN,11,Gaoyuan,
79899,CN,9,Yuzhen,
79900,CN,31,Dafa,
79901,CN,10,Zhengxi,
79902,CN,18,Hualian,
79903,CN,2,Fengqiao,
79904,CN,11,Wansheng,
79905,CN,16,Gongzheng,
79906,CN,29,Aihua,
79907,CN,7,Anji,
79908,CN,4,Guoxiang,
79909,CN,31,Qinfeng,
79910,CN,31,Tianzi,
79911,CN,3,Lianhu,
79912,CN,25,Chaoyüan,
79913,CN,26,Lindian,
79914,CN,3,Linhu,
79915,CN,7,Nanxun,
79916,CN,11,Qingtian,
79917,CN,4,Yunhe,
79918,CN,2,Tonglu,
79919,CN,11,Jingang,
79920,CN,29,Kaihua,
79921,CN,16,Xinyun,
79922,CN,32,Yilong,
79923,CN,11,Longteng,
79924,CN,32,Jiqing,
79925,CN,30,Longdu,
79926,CN,30,Nanfeng,
79927,CN,28,Zhongwang,
79928,CN,16,Xianming,
79929,CN,10,Fengfeng,
79930,CN,26,Dongwang,
79931,CN,4,Sanmao,
79932,CN,7,Yutou,
79933,CN,7,Dakang,
79934,CN,24,Mingzhu,
79935,CN,11,Zhaixian,
79936,CN,3,Chenglong,
79937,CN,7,Sanyang,
79938,CN,30,Jianghu,
79939,CN,30,Fengchi,
79940,CN,7,Changtai,
79941,CN,2,Longyou,
79942,CN,15,Jingning,
79943,CN,2,Dagangtou,
79944,CN,11,Xikou,
79945,CN,11,Longquan,
79946,CN,7,Songyang,
79947,CN,18,Jinyun,
79948,CN,10,Hecun,
79949,CN,31,Xiaoli,
79950,CN,2,Huzhen,
79951,CN,2,Maye,
79952,CN,2,Suichang,
79953,CN,1,Shuhong,
79954,CN,7,Lutang,
79955,CN,33,Sansheng,
79956,CN,8,Chuachi,
79957,CN,3,Hengfeng,
79958,CN,30,Minzhu,
79959,CN,19,Xinqiu,
79960,CN,10,Qinglong,
79961,CN,3,Qianfang,
79962,CN,2,Liguang,
79963,CN,7,Zhengyang,
79964,CN,7,Xiandu,
79965,CN,33,Xinglong,
79966,CN,9,Xiaoshijie,
79967,CN,18,Yazhou,
79968,CN,33,Rongxi,
79969,CN,7,Dongtou,
79970,CN,7,Xingli,
79971,CN,16,Hongma,
79972,CN,32,Feima,
79973,CN,2,Yuhang,
79974,CN,2,Jiande,
79975,CN,16,Luobo,
79976,CN,11,Yinhu,
79977,CN,3,Fangzhou,
79978,CN,11,Taojin,
79979,CN,2,Chunan,
79980,CN,2,Zhapu,
79981,CN,18,Shenjiawan,
79982,CN,7,Qianjian,
79983,CN,4,Xieqiao,
79984,CN,7,Letu,
79985,CN,16,Nahua,
79986,CN,25,Qiandao,
79987,CN,18,Jiarong,
79988,CN,7,Meicheng,
79989,CN,2,Qiantan,
79990,CN,2,Shouchang,
79991,CN,11,Anren,
79992,CN,3,Xizhou,
79993,CN,26,Tianshi,
79994,CN,16,Guali,
79995,CN,10,Daming,
79996,CN,11,Longli,
79997,CN,25,Yiqiao,
79998,CN,2,Dayangzhen,
79999,CN,7,Hanke,
80000,CN,24,Wangda,
80001,CN,24,Nanwang,
80002,CN,26,Chaoyu,
80003,CN,10,Liwu,
80004,CN,19,Xinmin,
80005,CN,3,Jifu,
80006,CN,7,Yuqian,
80007,CN,18,Wanma,
80008,CN,4,Hengxing,
80009,CN,1,Jinniu,
80010,CN,19,Tianyi,
80011,CN,5,Jingyu,
80012,CN,2,Tashi,
80013,CN,30,Jiali,
80014,CN,11,Yongxiang,
80015,CN,7,Huating,
80016,CN,3,Jianda,
80017,CN,1,Jinwei,
80018,CN,7,Huangtian,
80019,CN,2,Keqiao,
80020,CN,25,Maqiao,
80021,CN,11,Tianxin,
80022,CN,2,Qintang,
80023,CN,4,Huilong,
80024,CN,18,Yinghe,
80025,CN,2,Qiandaohu,
80026,CN,5,Yuren,
80027,CN,26,Tiandu,
80028,CN,9,Zhancheng,
80029,CN,3,Binjiang,
80030,CN,2,Yanpu,
80031,CN,26,Shenhe,
80032,CN,2,Moganshan,
80033,CN,25,Liuqiao,
80034,CN,11,Dongnan,
80035,CN,10,Yuke,
80036,CN,8,Dunan,
80037,CN,3,Jiangling,
80038,CN,10,Dongmao,
80039,CN,25,Xinhu,
80040,CN,7,Yuanlin,
80041,CN,12,Yindian,
80042,CN,7,Shifang,
80043,CN,30,Jijia,
80044,CN,7,Sandu,
80045,CN,1,Baoyi,
80046,CN,11,Fenghuang,
80047,CN,10,Minghua,
80048,CN,12,Yugang,
80049,CN,16,Nandu,
80050,CN,2,Yangcunqiao,
80051,CN,11,Jiangdong,
80052,CN,3,Anyi,
80053,CN,7,Fengcai,
80054,CN,32,Donghe,
80055,CN,24,Yongle,
80056,CN,7,Xianyue,
80057,CN,11,Lanshan,
80058,CN,2,Yinzhou,
80059,CN,7,Shanli,
80060,CN,31,Jinbo,
80061,CN,25,Yitang,
80062,CN,24,Dongye,
80063,CN,7,Linshan,
80064,CN,30,Chengcheng,
80065,CN,8,Hongfeng,
80066,CN,30,Beiji,
80067,CN,4,Lili,
80068,CN,2,Fangqiao,
80069,CN,30,Yaodong,
80070,CN,5,Shiyi,
80071,CN,12,Weixing,
80072,CN,2,Sanqishi,
80073,CN,22,Sihai,
80074,CN,32,Luojiang,
80075,CN,26,Shipu,
80076,CN,7,Yijia,
80077,CN,7,Tangxi,
80078,CN,3,Dean,
80079,CN,10,Chewang,
80080,CN,31,Liudao,
80081,CN,7,Shamen,
80082,CN,7,Chengguan,
80083,CN,4,Huanchen,
80084,CN,29,Chenguan,
80085,CN,11,Shuanglong,
80086,CN,16,Shuiwen,
80087,CN,11,Hexin,
80088,CN,11,Xinjian,
80089,CN,11,Shujia,
80090,CN,33,Daan,
80091,CN,2,Jiuli,
80092,CN,11,Chengbei,
80093,CN,7,Penglai,
80094,CN,30,Yehu,
80095,CN,9,Dianli,
80096,CN,26,Shangcheng,
80097,CN,3,Liufang,
80098,CN,9,Gushi,
80099,CN,11,Paifang,
80100,CN,9,Youcheng,
80101,CN,2,Xiping,
80102,CN,7,Daixi,
80103,CN,2,Tingpang,
80104,CN,2,Jinxiang,
80105,CN,11,Lingxi,
80106,CN,19,Tongxing,
80107,CN,9,Huangying,
80108,CN,32,Changshi,
80109,CN,7,Panxi,
80110,CN,8,Shashan,
80111,CN,24,Weichuang,
80112,CN,16,Xinlian,
80113,CN,9,Fudao,
80114,CN,3,Gongda,
80115,CN,10,Linxi,
80116,CN,11,Qiaoting,
80117,CN,16,Jinning,
80118,CN,7,Xiyuan,
80119,CN,33,Xiushan,
80120,CN,18,Sanjiang,
80121,CN,3,Wenzhu,
80122,CN,11,Liangli,
80123,CN,7,Dongtian,
80124,CN,9,Taiwei,
80125,CN,30,Jiangcheng,
80126,CN,25,Longwan,
80127,CN,7,Yongtai,
80128,CN,2,Xiaya,
80129,CN,2,Maoshan,
80130,CN,23,Wanxiang,
80131,CN,7,Pengshan,
80132,CN,7,Qiushan,
80133,CN,31,Yalong,
80134,CN,10,Huanghua,
80135,CN,7,Longxiang,
80136,CN,2,Xinanjiang,
80137,CN,11,Zhongchang,
80138,CN,24,Zhengyu,
80139,CN,32,Minglong,
80140,CN,18,Huahong,
80141,CN,18,Shundong,
80142,CN,16,Longsheng,
80143,CN,29,Menglong,
80144,CN,11,Jiacheng,
80145,CN,24,Chengxi,
80146,CN,25,Yutai,
80147,CN,7,Jiafeng,
80148,CN,11,Yongming,
80149,CN,9,Xingyang,
80150,CN,7,Guihua,
80151,CN,2,Daizhong,
80152,CN,2,Shenjiamen,
80153,CN,18,Jiaogong,
80154,CN,7,Xiashan,
80155,CN,3,Wanfang,
80156,CN,7,Shuangjian,
80157,CN,29,Donggan,
80158,CN,29,Zhedong,
80159,CN,1,Bafang,
80160,CN,29,Jinguan,
80161,CN,25,Guanxian,
80162,CN,11,Huajiang,
80163,CN,2,Hushan,
80164,CN,11,Gaojian,
80165,CN,26,Fangzhen,
80166,CN,25,Longwang,
80167,CN,30,Lingtian,
80168,CN,5,Hailong,
80169,CN,11,Xiazhi,
80170,CN,25,Tianhai,
80171,CN,9,Xinye,
80172,CN,11,Nanqiao,
80173,CN,10,Dachang,
80174,CN,11,Jiahe,
80175,CN,3,Jianguang,
80176,CN,1,Wuliu,
80177,CN,1,Jindi,
80178,CN,2,Dipu,
80179,CN,9,Changhua,
80180,CN,11,Zhijiang,
80181,CN,16,Shangkai,
80182,CN,11,Xiaochong,
80183,CN,18,Cengang,
80184,CN,23,Zhenghai,
80185,CN,7,Nanyan,
80186,CN,8,Dongxing,
80187,CN,24,Luchen,
80188,CN,31,Dayue,
80189,CN,25,Taozhuang,
80190,CN,15,Luomen,
80191,CN,19,Donggang,
80192,CN,5,Fenghua,
80193,CN,32,Xinwen,
80194,CN,24,Henghe,
80195,CN,25,Haifeng,
80196,CN,11,Jindian,
80197,CN,25,Guancheng,
80198,CN,2,Zhenhai,
80199,CN,11,Shuangqiao,
80200,CN,2,Dengbu,
80201,CN,11,Putong,
80202,CN,11,Shuidong,
80203,CN,11,Shiqiao,
80204,CN,19,Xiecheng,
80205,CN,2,Juexi,
80206,CN,11,Shanwen,
80207,CN,33,Dasheng,
80208,CN,24,Xinzhi,
80209,CN,26,Yinhua,
80210,CN,4,Zhuangqiao,
80211,CN,2,Jishigang,
80212,CN,7,Sanfeng,
80213,CN,7,Dongqiao,
80214,CN,3,Yinjiang,
80215,CN,7,Shanling,
80216,CN,32,Gulin,
80217,CN,30,Shiqi,
80218,CN,2,Cicheng,
80219,CN,11,Shanshan,
80220,CN,18,Anlong,
80221,CN,7,Xuncheng,
80222,CN,7,Jili,
80223,CN,10,Kuangshi,
80224,CN,29,Fanghua,
80225,CN,11,Longshan,
80226,CN,7,Luhua,
80227,CN,11,Shanbei,
80228,CN,30,Guhe,
80229,CN,4,Zhouxiang,
80230,CN,18,Xingbao,
80231,CN,24,Taide,
80232,CN,24,Zhangqi,
80233,CN,4,Xinpu,
80234,CN,24,Fanshi,
80235,CN,32,Guohua,
80236,CN,24,Chicheng,
80237,CN,4,Hangji,
80238,CN,29,Yuewang,
80239,CN,2,Qiuai,
80240,CN,26,Dianshi,
80241,CN,3,Yinfeng,
80242,CN,24,Jinsheng,
80243,CN,11,Qiaotou,
80244,CN,30,Donghong,
80245,CN,30,Xiaozhen,
80246,CN,2,Hengjie,
80247,CN,11,Chenyang,
80248,CN,33,Yulong,
80249,CN,24,Donghui,
80250,CN,24,Xiangyi,
80251,CN,19,Hongsheng,
80252,CN,24,Yinjiao,
80253,CN,7,Hongtang,
80254,CN,31,Wujia,
80255,CN,1,Shiliang,
80256,CN,7,Dongsha,
80257,CN,9,Haocheng,
80258,CN,33,Jiangbei,
80259,CN,2,Xiangcun,
80260,CN,7,Xiashen,
80261,CN,9,Qiyi,
80262,CN,11,Wenxing,
80263,CN,2,Tianhuangping,
80264,CN,26,Qiangtou,
80265,CN,30,Donglong,
80266,CN,18,Yimo,
80267,CN,24,Qiansuo,
80268,CN,24,Jishan,
80269,CN,11,Jiatian,
80270,CN,4,Shengdun,
80271,CN,30,Fukang,
80272,CN,7,Changhu,
80273,CN,7,Xiaofang,
80274,CN,7,Zhongyang,
80275,CN,30,Jiayi,
80276,CN,11,Meitong,
80277,CN,11,Yalan,
80278,CN,18,Guoshui,
80279,CN,4,Jinhu,
80280,CN,2,Zhangshui,
80281,CN,18,Huayue,
80282,CN,7,Yuanfeng,
80283,CN,30,Xiaolin,
80284,CN,25,Changcheng,
80285,CN,18,Guobang,
80286,CN,11,Huangyang,
80287,CN,4,Jianhu,
80288,CN,2,Shangao,
80289,CN,24,Xiaoyu,
80290,CN,7,Xinqi,
80291,CN,4,Zhaofeng,
80292,CN,10,Yutian,
80293,CN,11,Xiangxiang,
80294,CN,1,Tanghui,
80295,CN,24,Baijiazhuang,
80296,CN,25,Datun,
80297,CN,24,Anze,
80298,CN,3,Niangniangmiao,
80299,CN,10,Xitucheng,
80300,CN,3,Jinli,
80301,CN,30,Chuncheng,
80302,CN,31,Wenluo,
80303,CN,29,Lincang,
80304,CN,22,Chedaogou,
80305,CN,7,Fushi,
80306,CN,1,Chengfu,
80307,CN,30,Cuiwei,
80308,CN,10,Tongcun,
80309,CN,12,Zhicheng,
80310,CN,8,Qike,
80311,CN,30,Hailing,
80312,CN,16,Dazheng,
80313,CN,18,Zhongguan,
80314,CN,16,Lingqing,
80315,CN,25,Zhongzhi,
80316,CN,2,Linglong,
80317,CN,18,Libo,
80318,CN,11,Tianxing,
80319,CN,11,Wukang,
80320,CN,4,Baike,
80321,CN,7,Zhengfang,
80322,CN,1,Sanhuan,
80323,CN,5,Yongji,
80324,CN,7,Tiantang,
80325,CN,24,Xingao,
80326,CN,11,Dahua,
80327,CN,10,Yuda,
80328,CN,33,Chenjia,
80329,CN,28,Shuanggang,
80330,CN,31,Yuyin,
80331,CN,9,Qianjing,
80332,CN,11,Baozhai,
80333,CN,11,Xicun,
80334,CN,1,Zhongguo,
80335,CN,7,Taifeng,
80336,CN,22,Sijiqing,
80337,CN,25,Yunshan,
80338,CN,1,Zhonglu,
80339,CN,33,Shentong,
80340,CN,30,Xinting,
80341,CN,33,Guangshun,
80342,CN,3,Qinghua,
80343,CN,31,Changwei,
80344,CN,19,Liudian,
80345,CN,30,Dama,
80346,CN,26,Jiaxian,
80347,CN,22,Balidian,
80348,CN,7,Dongqian,
80349,CN,11,Wenming,
80350,CN,26,Hehe,
80351,CN,11,Jiaotou,
80352,CN,11,Shuangtang,
80353,CN,2,Zhanmao,
80354,CN,4,Dafei,
80355,CN,7,Jiangkou,
80356,CN,7,Fenggang,
80357,CN,25,Jiehu,
80358,CN,31,Changlian,
80359,CN,15,Jinping,
80360,CN,7,Tonggang,
80361,CN,24,Huijun,
80362,CN,7,Guiyan,
80363,CN,26,Hanjia,
80364,CN,11,Linxiang,
80365,CN,30,Youtian,
80366,CN,3,Wudu,
80367,CN,24,Changchen,
80368,CN,2,Wuyan,
80369,CN,18,Yuyi,
80370,CN,7,Huangpo,
80371,CN,9,Qingting,
80372,CN,16,Lizhen,
80373,CN,9,Tengfeng,
80374,CN,19,Xinjin,
80375,CN,16,Dongyi,
80376,CN,11,Rongxiang,
80377,CN,32,Yixing,
80378,CN,24,Wenxi,
80379,CN,12,Gucheng,
80380,CN,7,Daxie,
80381,CN,4,Shangfeng,
80382,CN,11,Hezhong,
80383,CN,26,Shuangchao,
80384,CN,7,Huayan,
80385,CN,19,Wangbin,
80386,CN,2,Baofu,
80387,CN,3,Ruijin,
80388,CN,10,Mingzhou,
80389,CN,31,Songtao,
80390,CN,32,Fuji,
80391,CN,11,Tianwei,
80392,CN,2,Suxi,
80393,CN,25,Chifu,
80394,CN,24,Wangyu,
80395,CN,8,Fangzheng,
80396,CN,24,Zhitou,
80397,CN,33,Beibei,
80398,CN,7,Dongjian,
80399,CN,2,Genglou,
80400,CN,10,Dachen,
80401,CN,3,Dajiang,
80402,CN,7,Chashan,
80403,CN,5,Wenzi,
80404,CN,29,Ayong,
80405,CN,1,Tianfang,
80406,CN,9,Weishi,
80407,CN,32,Xindou,
80408,CN,11,Kaiyun,
80409,CN,8,Zhaohui,
80410,CN,18,Jiajia,
80411,CN,18,Shengji,
80412,CN,7,Anjing,
80413,CN,30,Yingte,
80414,CN,15,Chiba,
80415,CN,25,Sifang,
80416,CN,9,Dancheng,
80417,CN,8,Shuangfa,
80418,CN,4,Shunsheng,
80419,CN,31,Xizi,
80420,CN,7,Weijia,
80421,CN,30,Tianwang,
80422,CN,5,Huashan,
80423,CN,13,Jiashi,
80424,CN,26,Liziyuan,
80425,CN,7,Yangmei,
80426,CN,16,Jushi,
80427,CN,24,Shanhui,
80428,CN,28,Yangcun,
80429,CN,6,Kecheng,
80430,CN,1,Qingqian,
80431,CN,19,Zaohua,
80432,CN,2,Baian,
80433,CN,30,Baini,
80434,CN,11,Jinling,
80435,CN,11,Kuangquan,
80436,CN,31,Baodao,
80437,CN,26,Xunyi,
80438,CN,1,Lanniao,
80439,CN,26,Sanlang,
80440,CN,10,Jianfang,
80441,CN,10,Xinzhen,
80442,CN,24,Jinghua,
80443,CN,33,Shenjia,
80444,CN,9,Gongyi,
80445,CN,25,Wanjia,
80446,CN,7,Huaan,
80447,CN,12,Tongsheng,
80448,CN,8,Yongquan,
80449,CN,10,Jiedi,
80450,CN,32,Luobu,
80451,CN,3,Dongjing,
80452,CN,10,Dusheng,
80453,CN,3,Sili,
80454,CN,25,Fengjia,
80455,CN,30,Liangjing,
80456,CN,15,Feiyun,
80457,CN,32,Jiguang,
80458,CN,4,Chuyi,
80459,CN,2,Fanjing,
80460,CN,11,Mingli,
80461,CN,11,Shuanglin,
80462,CN,3,Fangtai,
80463,CN,1,Yinxin,
80464,CN,24,Lingfeng,
80465,CN,25,Baoquan,
80466,CN,2,Shanding,
80467,CN,11,Nanling,
80468,CN,3,Shengyuan,
80469,CN,25,Fenglin,
80470,CN,25,Yangshan,
80471,CN,7,Shamei,
80472,CN,19,Yusi,
80473,CN,16,Zhongjiang,
80474,CN,1,Tunxi,
80475,CN,26,Yuhua,
80476,CN,11,Honghua,
80477,CN,32,Nanlong,
80478,CN,11,Dongwan,
80479,CN,20,Jinsong,
80480,CN,11,Fengyuan,
80481,CN,11,Huashi,
80482,CN,31,Shifu,
80483,CN,18,Tongtie,
80484,CN,24,Ceshi,
80485,CN,3,Yingxi,
80486,CN,30,Shijie,
80487,CN,11,Zhongfang,
80488,CN,7,Jingkou,
80489,CN,10,Zhijiazhuang,
80490,CN,1,Bangbu,
80491,CN,32,Zhongsuo,
80492,CN,4,Yizhuang,
80493,CN,10,Longdian,
80494,CN,10,Shengfang,
80495,CN,5,Dunhua,
80496,CN,7,Xiasha,
80497,CN,11,Guanglian,
80498,CN,3,Xianghu,
80499,CN,1,Shuyuan,
80500,CN,7,Fengqi,
80501,CN,12,Qingtai,
80502,CN,7,Dahui,
80503,CN,29,Jiaqi,
80504,CN,31,Gongju,
80505,CN,31,Changzheng,
80506,CN,19,Dianchang,
80507,CN,11,Laoyu,
80508,CN,9,Nongchang,
80509,CN,2,Fuchunjiang,
80510,CN,12,Hongan,
80511,CN,29,Hualongtan,
80512,CN,10,Xiachao,
80513,CN,18,Yelang,
80514,CN,7,Shangji,
80515,CN,10,Renqiu,
80516,CN,7,Beijiang,
80517,CN,20,Holin,
80518,CN,24,Yanhui,
80519,CN,7,Xuyang,
80520,CN,30,Xingning,
80521,CN,7,Hepu,
80522,CN,26,Changfeng,
80523,CN,10,Ciyu,
80524,CN,25,Yitu,
80525,CN,1,Tianxiang,
80526,CN,7,Shangfang,
80527,CN,30,Fengan,
80528,CN,14,Lima,
80529,CN,9,Fengli,
80530,CN,30,Huayang,
80531,CN,32,Muyu,
80532,CN,32,Gaodeng,
80533,CN,4,Huangma,
80534,CN,32,Shuanghui,
80535,CN,30,Hulu,
80536,CN,3,Dachuan,
80537,CN,10,Huajian,
80538,CN,2,Hongxingqiao,
80539,CN,2,Huajie,
80540,CN,2,Mingyuan,
80541,CN,30,Guangfu,
80542,CN,30,Jianping,
80543,CN,11,Qixi,
80544,CN,11,Jucheng,
80545,CN,31,Yutong,
80546,CN,1,Xiangdao,
80547,CN,7,Zhugang,
80548,CN,30,Anban,
80549,CN,3,Bali,
80550,CN,7,Hankong,
80551,CN,26,Qiulin,
80552,CN,33,Tongxi,
80553,CN,11,Baima,
80554,CN,26,Fengming,
80555,CN,2,Chaoshu,
80556,CN,18,Shuichang,
80557,CN,8,Juyuan,
80558,CN,24,Wuxiang,
80559,CN,3,Zhiyang,
80560,CN,18,Tiansheng,
80561,CN,1,Yinhui,
80562,CN,32,Nanpin,
80563,CN,29,Chenggong,
80564,CN,33,Fulu,
80565,CN,2,Tongli,
80566,CN,7,Nanjian,
80567,CN,9,Wangmeng,
80568,CN,5,Yinghua,
80569,CN,26,Shide,
80570,CN,11,Yongxing,
80571,CN,18,Angu,
80572,CN,7,Jiuxu,
80573,CN,7,Youche,
80574,CN,15,Baili,
80575,CN,11,Anjiang,
80576,CN,2,Guangying,
80577,CN,8,Zhiyi,
80578,CN,1,Weikang,
80579,CN,30,Hengli,
80580,CN,24,Dongyu,
80581,CN,30,Zhenwen,
80582,CN,7,Hualin,
80583,CN,30,Guangli,
80584,CN,3,Fuchun,
80585,CN,1,Shezhen,
80586,CN,2,Hangwan,
80587,CN,7,Nanzhao,
80588,CN,18,Youliang,
80589,CN,3,Huipu,
80590,CN,29,Zhoucheng,
80591,CN,11,Leshi,
80592,CN,1,Xuyuan,
80593,CN,21,Fengdeng,
80594,CN,2,Hengbo,
80595,CN,4,Qingyi,
80596,CN,25,Chancheng,
80597,CN,11,Tangtou,
80598,CN,11,Shiwan,
80599,CN,15,Zhencheng,
80600,CN,7,Dafu,
80601,CN,31,Lingying,
80602,CN,11,Ugan,
80603,CN,15,Taishi,
80604,CN,11,Zhonghe,
80605,CN,19,Lixin,
80606,CN,11,Liming,
80607,CN,7,Chengnan,
80608,CN,7,Chengxiang,
80609,CN,25,Juye,
80610,CN,9,Jiaodian,
80611,CN,30,Weizheng,
80612,CN,25,Bincheng,
80613,CN,11,Xiayang,
80614,CN,1,Shuji,
80615,CN,11,Bailong,
80616,CN,33,Jiulongpo,
80617,CN,7,Guanjiang,
80618,CN,7,Xiufeng,
80619,CN,10,Taicang,
80620,CN,4,Dongtai,
80621,CN,19,Xiangtang,
80622,CN,7,Jingyuan,
80623,CN,22,Dongyuan,
80624,CN,18,Ruihao,
80625,CN,11,Jiangshi,
80626,CN,7,Xibu,
80627,CN,30,Pingding,
80628,CN,11,Jingshan,
80629,CN,30,Shuzi,
80630,CN,11,Maogang,
80631,CN,10,Botou,
80632,CN,8,Taikang,
80633,CN,11,Xinping,
80634,CN,24,Jinyi,
80635,CN,30,Hesi,
80636,CN,11,Guangrong,
80637,CN,11,Lianhe,
80638,CN,3,Pengxi,
80639,CN,26,Hanfeng,
80640,CN,33,Kaixian,
80641,CN,7,Shizhu,
80642,CN,3,Dongshui,
80643,CN,31,Leiming,
80644,CN,31,Yidong,
80645,CN,9,Jingdian,
80646,CN,30,Xiancheng,
80647,CN,30,Yuancheng,
80648,CN,32,Julong,
80649,CN,33,Zhengxing,
80650,CN,18,Chuandong,
80651,CN,25,Sanshan,
80652,CN,25,Shuangfeng,
80653,CN,30,Dading,
80654,CN,2,Lantang,
80655,CN,7,Huwei,
80656,CN,33,Jinding,
80657,CN,25,Mucun,
80658,CN,18,Donghuang,
80659,CN,11,Yizhang,
80660,CN,16,Puluo,
80661,CN,18,Jiancha,
80662,CN,1,Mengcheng,
80663,CN,5,Panshi,
80664,CN,33,Longmen,
80665,CN,5,Jiaohe,
80666,CN,9,Xiali,
80667,CN,30,Sanhua,
80668,CN,10,Yingtai,
80669,CN,7,Wenfeng,
80670,CN,2,Kandun,
80671,CN,18,Yongke,
80672,CN,1,Zaoshan,
80673,CN,24,Tongyu,
80674,CN,18,Liping,
80675,CN,3,Wenhui,
80676,CN,11,Yingjia,
80677,CN,30,Huacheng,
80678,CN,1,Huagang,
80679,CN,15,Simen,
80680,CN,11,Mingxing,
80681,CN,16,Zheda,
80682,CN,7,Xintianxia,
80683,CN,29,Jiayin,
80684,CN,2,Huangtianfan,
80685,CN,33,Longxing,
80686,CN,7,Yingdu,
80687,CN,8,Wuchan,
80688,CN,2,Chongshou,
80689,CN,5,Wanchang,
80690,CN,30,Beiyang,
80691,CN,30,Yahu,
80692,CN,11,Bamao,
80693,CN,3,Baowei,
80694,CN,1,Wanzhi,
80695,CN,19,Huatong,
80696,CN,32,Hongyan,
80697,CN,32,Jiaming,
80698,CN,24,Weiguo,
80699,CN,30,Wenfu,
80700,CN,11,Hongshan,
80701,CN,11,Banshan,
80702,CN,3,Dongbu,
80703,CN,7,Yingdi,
80704,CN,31,Linwei,
80705,CN,30,Shuntian,
80706,CN,7,Xiaotong,
80707,CN,30,Xiaomiao,
80708,CN,2,Xiaofeng,
80709,CN,15,Shanhe,
80710,CN,2,Kuangyan,
80711,CN,2,Yuao,
80712,CN,2,Mazhu,
80713,CN,11,Hefu,
80714,CN,1,Yuxing,
80715,CN,30,Sunon,
80716,CN,8,Fuhai,
80717,CN,22,Shiwo,
80718,CN,7,Kaishan,
80719,CN,23,Changyin,
80720,CN,18,Jiake,
80721,CN,7,Hengxi,
80722,CN,30,Chaolian,
80723,CN,24,Yongtian,
80724,CN,24,Fengying,
80725,CN,25,Poli,
80726,CN,1,Chenchai,
80727,CN,31,Wenda,
80728,CN,1,Hangpu,
80729,CN,7,Hongyuan,
80730,CN,11,Lianyuan,
80731,CN,18,Yangteng,
80732,CN,1,Qingcun,
80733,CN,16,Yueli,
80734,CN,7,Hushang,
80735,CN,18,Aoshi,
80736,CN,10,Weibo,
80737,CN,11,Yongfeng,
80738,CN,18,Keqin,
80739,CN,6,Huangyuan,
80740,CN,7,Xiaodong,
80741,CN,12,Haofeng,
80742,CN,11,Faxin,
80743,CN,11,Taichang,
80744,CN,31,Sancai,
80745,CN,20,Hohhot,
80746,CN,31,Jiekai,
80747,CN,5,Songjiang,
80748,CN,16,Zhongrong,
80749,CN,33,Qijian,
80750,CN,8,Hailun,
80751,CN,25,Zhonggao,
80752,CN,3,Guangchang,
80753,CN,30,Xindong,
80754,CN,18,Jianbo,
80755,CN,30,Shalong,
80756,CN,7,Caiyuan,
80757,CN,19,Yanjun,
80758,CN,30,Qishi,
80759,CN,30,Fengyi,
80760,CN,7,Weiling,
80761,CN,11,Juhua,
80762,CN,2,Qianqing,
80763,CN,10,Suning,
80764,CN,31,Zhiqiang,
80765,CN,2,Langxia,
80766,CN,18,Weiqi,
80767,CN,4,Dongpeng,
80768,CN,2,Guangchen,
80769,CN,3,Meilong,
80770,CN,1,Huigu,
80771,CN,30,Jiesheng,
80772,CN,7,Yuyuan,
80773,CN,11,Xiangjia,
80774,CN,1,Xinbo,
80775,CN,11,Shiqiaopu,
80776,CN,7,Xiongfeng,
80777,CN,30,Anbu,
80778,CN,8,Sung,
80779,CN,30,Daya,
80780,CN,18,Heyong,
80781,CN,23,Xujiahui,
80782,CN,31,Damao,
80783,CN,3,Zhenbei,
80784,CN,16,Jung,
80785,CN,11,Heqing,
80786,CN,32,Haitang,
80787,CN,18,Zhuzhong,
80788,CN,25,Zhongding,
80789,CN,19,Sanwa,
80790,CN,8,Tongquan,
80791,CN,5,Zhixin,
80792,CN,11,Qianjin,
80793,CN,26,Sanchang,
80794,CN,11,Zhenxi,
80795,CN,24,Huanzhu,
80796,CN,11,Pingshui,
80797,CN,7,Yiyu,
80798,CN,7,Tiangong,
80799,CN,31,Jianfeng,
80800,CN,12,Xihe,
80801,CN,26,Jianjun,
80802,CN,25,Daoxu,
80803,CN,2,Lianshi,
80804,CN,2,Mayao,
80805,CN,3,Xindi,
80806,CN,30,Shenquan,
80807,CN,7,Zhufeng,
80808,CN,25,Dongdu,
80809,CN,26,Gaolin,
80810,CN,5,Tiangang,
80811,CN,7,Qianyuan,
80812,CN,9,Jiuguan,
80813,CN,7,Biannan,
80814,CN,19,Baoshen,
80815,CN,9,Bandian,
80816,CN,3,Xinshan,
80817,CN,11,Jinmai,
80818,CN,10,Xingnan,
80819,CN,30,Hongying,
80820,CN,26,Laolin,
80821,CN,11,Xiaoping,
80822,CN,26,Zuan,
80823,CN,32,Jianxing,
80824,CN,31,Meifu,
80825,CN,7,Hujiang,
80826,CN,3,Anli,
80827,CN,9,Kaichou,
80828,CN,7,Zhongshe,
80829,CN,6,Huangzhong,
80830,CN,24,Deyi,
80831,CN,30,Longxian,
80832,CN,2,Leqing,
80833,CN,25,Lanling,
80834,CN,7,Jingma,
80835,CN,3,Denglin,
80836,CN,16,Antai,
80837,CN,30,Kongjiang,
80838,CN,25,Bole,
80839,CN,7,Qifeng,
80840,CN,24,Xianren,
80841,CN,10,Wangchün,
80842,CN,1,Xiaowei,
80843,CN,7,Zhongdu,
80844,CN,16,Laibin,
80845,CN,10,Chiu,
80846,CN,3,Pencheng,
80847,CN,10,Chüyang,
80848,CN,3,Jianqiao,
80849,CN,7,Heyu,
80850,CN,20,Soon,
80851,CN,32,Qilong,
80852,CN,16,Debao,
80853,CN,31,Bowen,
80854,CN,9,Zexia,
80855,CN,7,Jinyang,
80856,CN,30,Dongjiao,
80857,CN,7,Xiwu,
80858,CN,10,Suobao,
80859,CN,11,Shuren,
80860,CN,11,Wangli,
80861,CN,31,Tongtian,
80862,CN,11,Tianping,
80863,CN,11,Guanglong,
80864,CN,30,Houzhai,
80865,CN,30,Jindu,
80866,CN,7,Jintao,
80867,CN,19,Dadonggang,
80868,CN,33,Baisha,
80869,CN,31,Gongan,
80870,CN,30,Fuyong,
80871,CN,7,Daqi,
80872,CN,10,Baozhuang,
80873,CN,16,Ziyuan,
80874,CN,7,Dagang,
80875,CN,2,Lianghui,
80876,CN,7,Shangyao,
80877,CN,12,Fancheng,
80878,CN,8,Fuyuan,
80879,CN,26,Guozhen,
80880,CN,24,Yangchüan,
80881,CN,1,Qijing,
80882,CN,32,Ludu,
80883,CN,2,Goushan,
80884,CN,11,Shunshui,
80885,CN,8,Laodong,
80886,CN,23,Tangzhen,
80887,CN,18,Jianglong,
80888,CN,11,Feitian,
80889,CN,9,Gongdian,
80890,CN,7,Chendong,
80891,CN,18,Huale,
80892,CN,18,Youshi,
80893,CN,32,Wusheng,
80894,CN,33,Yifeng,
80895,CN,9,Xiqu,
80896,CN,26,Huawu,
80897,CN,1,Yiqi,
80898,CN,25,Boxing,
80899,CN,23,Luwan,
80900,CN,32,Dahe,
80901,CN,11,Wumen,
80902,CN,25,Yinxiang,
80903,CN,7,Guoqiang,
80904,CN,2,Jingling,
80905,CN,11,Lanqiao,
80906,CN,13,Hotan,
80907,CN,2,Huangdu,
80908,CN,9,Zhaoji,
80909,CN,10,Sanhao,
80910,CN,11,Baiyunshan,
80911,CN,4,Dongou,
80912,CN,7,Honglou,
80913,CN,30,Haoyi,
80914,CN,10,Jianzhong,
80915,CN,10,Longzhou,
80916,CN,7,Jiudu,
80917,CN,11,Jilong,
80918,CN,32,Wanyuan,
80919,CN,11,Luping,
80920,CN,24,Taili,
80921,CN,16,Jinjie,
80922,CN,26,Xuezhen,
80923,CN,11,Baiguan,
80924,CN,31,Kaishi,
80925,CN,18,Leishan,
80926,CN,5,Qijia,
80927,CN,18,Wangjiang,
80928,CN,31,Bolang,
80929,CN,32,Junlian,
80930,CN,12,Taima,
80931,CN,7,Zhengban,
80932,CN,32,Huangjin,
80933,CN,24,Beixin,
80934,CN,18,Nongmin,
80935,CN,25,Shilou,
80936,CN,7,Shuili,
80937,CN,25,Zhukou,
80938,CN,2,Jushui,
80939,CN,13,Chaosu,
80940,CN,7,Gongli,
80941,CN,11,Boxiang,
80942,CN,11,Boshu,
80943,CN,11,Wanli,
80944,CN,24,Chengyü,
80945,CN,9,Wuzhi,
80946,CN,18,Jiashao,
80947,CN,11,Baoli,
80948,CN,11,Beisheng,
80949,CN,7,Zhenghe,
80950,CN,25,Baishi,
80951,CN,3,Dexi,
80952,CN,1,Chiaofeng,
80953,CN,18,Hengdi,
80954,CN,4,Kaiwei,
80955,CN,31,Haizhu,
80956,CN,7,Louxia,
80957,CN,7,Meihu,
80958,CN,4,Haiguan,
80959,CN,2,Tazhi,
80960,CN,4,Nongkesuo,
80961,CN,31,Buxiao,
80962,CN,3,Yindong,
80963,CN,31,Baoshe,
80964,CN,26,Zhuyuancun,
80965,CN,15,Yuntian,
80966,CN,30,Hengchang,
80967,CN,28,Shanzhuang,
80968,CN,32,Qingshen,
80969,CN,7,Fuchi,
80970,CN,28,Wuqing,
80971,CN,7,Xingxi,
80972,CN,31,Fengling,
80973,CN,10,Yongyang,
80974,CN,21,Qingtongxia,
80975,CN,31,Hongli,
80976,CN,18,Yide,
80977,CN,21,Lingwu,
80978,CN,26,Xiakou,
80979,CN,21,Dawukou,
80980,CN,30,Huicheng,
80981,CN,24,Linyeju,
80982,CN,24,Huhui,
80983,CN,7,Jianyuan,
80984,CN,4,Bailing,
80985,CN,23,Minhang,
80986,CN,2,Qiaosi,
80987,CN,2,Dingxin,
80988,CN,11,Qiyang,
80989,CN,18,Kaixuan,
80990,CN,7,Pinghe,
80991,CN,25,Lingxian,
80992,CN,11,Feixian,
80993,CN,25,Xuezhuang,
80994,CN,18,Yongyi,
80995,CN,7,Dianxia,
80996,CN,29,Jindun,
80997,CN,25,Ningyang,
80998,CN,24,Mengshan,
80999,CN,26,Shuhe,
81000,CN,7,Xianfu,
81001,CN,25,Cangshan,
81002,CN,11,Lianxiang,
81003,CN,25,Mazhuang,
81004,CN,19,Nanlou,
81005,CN,1,Zhouhu,
81006,CN,25,Liulou,
81007,CN,9,Xudong,
81008,CN,4,Linyezhan,
81009,CN,16,Liumei,
81010,CN,11,Jiuzhou,
81011,CN,11,Hongxiang,
81012,CN,1,Juxin,
81013,CN,9,Zhidian,
81014,CN,1,Xiwang,
81015,CN,32,Zhaohua,
81016,CN,25,Xuecheng,
81017,CN,25,Taierzhuang,
81018,CN,2,Zhuan,
81019,CN,31,Baorui,
81020,CN,30,Jinghai,
81021,CN,11,Jinluo,
81022,CN,33,Wanshun,
81023,CN,28,Baodi,
81024,CN,7,Dingdian,
81025,CN,12,Qingqu,
81026,CN,10,Wuqiang,
81027,CN,31,Jinbao,
81028,CN,25,Shanting,
81029,CN,11,Qingcao,
81030,CN,30,Linpan,
81031,CN,5,Laoling,
81032,CN,7,Xijin,
81033,CN,25,Yucheng,
81034,CN,25,Qihe,
81035,CN,1,Wucheng,
81036,CN,25,Tianzhuang,
81037,CN,11,Xinzhuang,
81038,CN,28,Hangu,
81039,CN,1,Jiji,
81040,CN,3,Tiantuo,
81041,CN,16,Hongkan,
81042,CN,4,Jinnan,
81043,CN,26,Fengxiang,
81044,CN,31,Yaxing,
81045,CN,30,Taimei,
81046,CN,25,Hanting,
81047,CN,25,Qingzhou,
81048,CN,25,Shouguang,
81049,CN,25,Gaomi,
81050,CN,8,Qingan,
81051,CN,25,Fangzi,
81052,CN,25,Anqiu,
81053,CN,25,Changyi,
81054,CN,7,Boyuan,
81055,CN,11,Zhongtang,
81056,CN,7,Shangdong,
81057,CN,21,Hongquan,
81058,CN,7,Qingqi,
81059,CN,25,Zhangqiu,
81060,CN,1,Shengquan,
81061,CN,25,Shanghe,
81062,CN,25,Pingyin,
81063,CN,10,Huaying,
81064,CN,4,Fangxiang,
81065,CN,25,Zhongjing,
81066,CN,25,Liuhu,
81067,CN,31,Zhongjian,
81068,CN,3,Sanlong,
81069,CN,9,Juyang,
81070,CN,30,Licheng,
81071,CN,30,Lunjiao,
81072,CN,9,Yüanchuang,
81073,CN,11,Baifang,
81074,CN,31,Lanfu,
81075,CN,3,Aishang,
81076,CN,11,Riquan,
81077,CN,31,Wanning,
81078,CN,7,Mingxi,
81079,CN,1,Xiaorong,
81080,CN,32,Anchang,
81081,CN,26,Beiyuan,
81082,CN,12,Chuanxin,
81083,CN,12,Hanchuan,
81084,CN,18,Fangping,
81085,CN,18,Guangda,
81086,CN,25,Shizhuang,
81087,CN,30,Guangtai,
81088,CN,29,Lancang,
81089,CN,11,Longji,
81090,CN,24,Zhiyu,
81091,CN,24,Dongyan,
81092,CN,3,Xingzhou,
81093,CN,11,Baojia,
81094,CN,29,Jinmian,
81095,CN,1,Zanjia,
81096,CN,8,Shanquan,
81097,CN,7,Qitian,
81098,CN,3,Xinglian,
81099,CN,29,Jinbi,
81100,CN,25,Qianhai,
81101,CN,7,Shanbing,
81102,CN,18,Xingfa,
81103,CN,31,Tianyahaijiao,
81104,CN,30,Tuopu,
81105,CN,7,Baizhang,
81106,CN,28,Zhongying,
81107,CN,16,Mingshi,
81108,CN,18,Yuantong,
81109,CN,11,Taping,
81110,CN,26,Siyuan,
81111,CN,32,Qionglai,
81112,CN,18,Jule,
81113,CN,30,Tongwei,
81114,CN,24,Feichuang,
81115,CN,11,Huaxi,
81116,CN,19,Beilu,
81117,CN,26,Yidian,
81118,CN,7,Guodun,
81119,CN,11,Chaoyi,
81120,CN,11,Xiaojiahe,
81121,CN,32,Yandao,
81122,CN,7,Huxi,
81123,CN,19,Huiyuan,
81124,CN,11,Pengzhou,
81125,CN,26,Chadianzi,
81126,CN,7,Chengwu,
81127,CN,18,Shuiqing,
81128,CN,19,Ganggang,
81129,CN,18,Xinnan,
81130,CN,30,Zhudong,
81131,CN,10,Pancheng,
81132,CN,4,Chunxi,
81133,CN,5,Tongfa,
81134,CN,7,Jiuyuan,
81135,CN,24,Taiyo,
81136,CN,24,Shangtian,
81137,CN,2,Gaoxiang,
81138,CN,3,Kejia,
81139,CN,32,Liuma,
81140,CN,7,Diyuan,
81141,CN,12,Baokang,
81142,CN,7,Zhongshi,
81143,CN,33,Baoxing,
81144,CN,7,Xiangyun,
81145,CN,9,Guolüe,
81146,CN,33,Shapingba,
81147,CN,4,Dongbang,
81148,CN,2,Zhangting,
81149,CN,7,Yantou,
81150,CN,24,Majiali,
81151,CN,11,Xiaoyan,
81152,CN,21,Pengbu,
81153,CN,31,Yingzhou,
81154,CN,5,Wanlong,
81155,CN,33,Jiming,
81156,CN,18,Lilong,
81157,CN,30,Wanxin,
81158,CN,2,Lujiazhi,
81159,CN,23,Chenxing,
81160,CN,24,Tingyü,
81161,CN,1,Pinghui,
81162,CN,3,Baofang,
81163,CN,24,Pingyao,
81164,CN,25,Tianqiao,
81165,CN,18,Guandian,
81166,CN,24,Huairen,
81167,CN,7,Zhufang,
81168,CN,12,Yuyang,
81169,CN,18,Wengyang,
81170,CN,5,Fangchang,
81171,CN,31,Zuguan,
81172,CN,16,Zhongqiang,
81173,CN,7,Jianjiang,
81174,CN,1,Zhanghui,
81175,CN,29,Dianzhong,
81176,CN,28,Xiaodian,
81177,CN,19,Wulongkou,
81178,CN,7,Xuefeng,
81179,CN,25,Zhaozhuang,
81180,CN,24,Anye,
81181,CN,18,Liangfeng,
81182,CN,33,Rongchang,
81183,CN,9,Yingyang,
81184,CN,32,Gelan,
81185,CN,2,Yisheng,
81186,CN,30,Jingxin,
81187,CN,32,Huidong,
81188,CN,7,Songxia,
81189,CN,10,Anxin,
81190,CN,11,Longtian,
81191,CN,20,Ouli,
81192,CN,3,Tianhua,
81193,CN,25,Wenyang,
81194,CN,9,Gangcheng,
81195,CN,18,Qingdong,
81196,CN,7,Yangdong,
81197,CN,30,Yangchun,
81198,CN,18,Tongren,
81199,CN,18,Jiaotong,
81200,CN,30,Boluo,
81201,CN,11,Anhua,
81202,CN,7,Longyuan,
81203,CN,5,Meihekou,
81204,CN,25,Baishan,
81205,CN,2,Songyuan,
81206,CN,25,Jintai,
81207,CN,6,Gonghe,
81208,CN,18,Yuanchang,
81209,CN,11,Siping,
81210,CN,2,Weiping,
81211,CN,7,Kangli,
81212,CN,25,Yuanli,
81213,CN,18,Dingli,
81214,CN,2,Wenquan,
81215,CN,30,Waisha,
81216,CN,7,Xindu,
81217,CN,12,Liangji,
81218,CN,4,Chenshu,
81219,CN,11,Jinhe,
81220,CN,25,Hsin,
81221,CN,18,Gaobao,
81222,CN,11,Gaofeng,
81223,CN,29,Wujie,
81224,CN,7,Qiantang,
81225,CN,31,Shixing,
81226,CN,13,Milan,
81227,CN,26,Hancheng,
81228,CN,20,Yimin,
81229,CN,16,Jinxiu,
81230,CN,30,Tangpu,
81231,CN,30,Fengnan,
81232,CN,4,Jiangshu,
81233,CN,25,Huaguan,
81234,CN,25,Zhangwan,
81235,CN,2,Luwei,
81236,CN,2,Fusheng,
81237,CN,32,Laowu,
81238,CN,18,Jiusheng,
81239,CN,3,Qinjiang,
81240,CN,1,Fengji,
81241,CN,30,Yangming,
81242,CN,26,Chunhua,
81243,CN,11,Baojiang,
81244,CN,2,Huling,
81245,CN,15,Yigang,
81246,CN,7,Guoling,
81247,CN,2,Fenkou,
81248,CN,33,Guofu,
81249,CN,31,Qingjie,
81250,CN,30,Xinpeng,
81251,CN,31,Fanya,
81252,CN,18,Fengsan,
81253,CN,1,Yuwei,
81254,CN,16,Yuhong,
81255,CN,11,Hongqi,
81256,CN,25,Yuanqiao,
81257,CN,4,Weibang,
81258,CN,30,Liugui,
81259,CN,33,Yubei,
81260,CN,2,Yiting,
81261,CN,7,Jingu,
81262,CN,2,Lingan,
81263,CN,26,Zhongnan,
81264,CN,32,Lizhou,
81265,CN,10,Dongting,
81266,CN,19,Beidi,
81267,CN,4,Baixian,
81268,CN,12,Wenkang,
81269,CN,7,Youli,
81270,CN,9,Gongting,
81271,CN,30,Liancheng,
81272,CN,10,Tangxian,
81273,CN,11,Danjiang,
81274,CN,1,Hetao,
81275,CN,26,Lianshui,
81276,CN,20,Wuhai,
81277,CN,32,Hejiang,
81278,CN,16,Chongzuo,
81279,CN,25,Jiangjia,
81280,CN,19,Chantu,
81281,CN,32,Yunding,
81282,CN,19,Hedian,
81283,CN,9,Ouhua,
81284,CN,30,Yunyi,
81285,CN,30,Xianggang,
81286,CN,7,Fengdu,
81287,CN,5,Zuojia,
81288,CN,7,Hangtou,
81289,CN,11,Qingtang,
81290,CN,25,Lijia,
81291,CN,30,Zhapo,
81292,CN,5,Qianan,
81293,CN,5,Shihu,
81294,CN,10,Zhuozhou,
81295,CN,5,Xiangshui,
81296,CN,2,Niansanli,
81297,CN,8,Zhaozhou,
81298,CN,8,Honggang,
81299,CN,11,Meiping,
81300,CN,19,Mingyang,
81301,CN,8,Tahe,
81302,CN,7,Hongwei,
81303,CN,30,Whampoa,
81304,CN,25,Zhonggong,
81305,CN,9,Lifeng,
81306,CN,22,Tung,
81307,CN,9,Huangzhai,
81308,CN,11,Lanjiang,
81309,CN,11,Renli,
81310,CN,20,Fengzhen,
81311,CN,11,Shijia,
81312,CN,24,Suzhuang,
81313,CN,24,Zuohui,
81314,CN,31,Dingan,
81315,CN,25,Jiaxiang,
81316,CN,25,Baifu,
81317,CN,24,Zhangcha,
81318,CN,25,Xiaotang,
81319,CN,24,Huili,
81320,CN,12,Yicheng,
81321,CN,24,Lanyu,
81322,CN,30,Tielu,
81323,CN,1,Wantong,
81324,CN,32,Yaya,
81325,CN,3,Xinjiayuan,
81326,CN,24,Taitu,
81327,CN,10,Dashang,
81328,CN,7,Shenqing,
81329,CN,26,Luyuan,
81330,CN,30,Lianxian,
81331,CN,24,Gaozhong,
81332,CN,31,Qingsong,
81333,CN,7,Jinzhi,
81334,CN,29,Yanfang,
81335,CN,30,Hansha,
81336,CN,16,Xialang,
81337,CN,7,Weitian,
81338,CN,11,Longchi,
81339,CN,7,Hongtian,
81340,CN,1,Qiaofeng,
81341,CN,24,Guohe,
81342,CN,26,Jiaodai,
81343,CN,3,Huajia,
81344,CN,16,Tianheng,
81345,CN,1,Jinshe,
81346,CN,31,Shanya,
81347,CN,3,Wanhe,
81348,CN,32,Rongshan,
81349,CN,11,Gangdong,
81350,CN,11,Linli,
81351,CN,24,Yuquan,
81352,CN,25,Wanglian,
81353,CN,29,Yalian,
81354,CN,25,Xitang,
81355,CN,2,Bada,
81356,CN,9,Huodian,
81357,CN,30,Xinwei,
81358,CN,12,Changyang,
81359,CN,7,Zhongxi,
81360,CN,25,Chukou,
81361,CN,8,Fazhan,
81362,CN,14,Moto,
81363,CN,24,Siyu,
81364,CN,8,Qitaihe,
81365,CN,10,Mengjiayuan,
81366,CN,16,Shuihua,
81367,CN,33,Yanjing,
81368,CN,3,Sanfang,
81369,CN,25,Guojia,
81370,CN,24,Hedi,
81371,CN,18,Xiaoqing,
81372,CN,4,Shiqiaotou,
81373,CN,10,Qincun,
81374,CN,3,Linchuan,
81375,CN,32,Shinian,
81376,CN,11,Jingping,
81377,CN,24,Changyu,
81378,CN,22,Shayu,
81379,CN,5,Linjiang,
81380,CN,32,Xinshizhen,
81381,CN,21,Kaicheng,
81382,CN,31,Boao,
81383,CN,18,Dake,
81384,CN,1,Chenyü,
81385,CN,24,Jiacun,
81386,CN,25,Mingji,
81387,CN,11,Yanping,
81388,CN,25,Yangjun,
81389,CN,23,Qianqiao,
81390,CN,30,Huilan,
81391,CN,19,Taiyangsheng,
81392,CN,11,Tongguan,
81393,CN,33,Jijiang,
81394,CN,7,Donggong,
81395,CN,30,Wanzi,
81396,CN,31,Dangjian,
81397,CN,18,Xiaoheshan,
81398,CN,7,Sanyu,
81399,CN,4,Luduo,
81400,CN,30,Jingou,
81401,CN,32,Shaxi,
81402,CN,25,Yuanlou,
81403,CN,11,Xinsheng,
81404,CN,16,Zhixing,
81405,CN,9,Juxiang,
81406,CN,18,Yingbin,
81407,CN,24,Jiexiu,
81408,CN,19,Shixin,
81409,CN,7,Yangfeng,
81410,CN,2,Xinchu,
81411,CN,11,Leyuan,
81412,CN,8,Hengshan,
81413,CN,19,Dudu,
81414,CN,2,Meiqi,
81415,CN,10,Yaocheng,
81416,CN,4,Yilin,
81417,CN,8,Minzheng,
81418,CN,2,Xiaoxiong,
81419,CN,11,Wangxiang,
81420,CN,6,Bagou,
81421,CN,30,Ningxi,
81422,CN,3,Anke,
81423,CN,30,Yonggu,
81424,CN,16,Baoxin,
81425,CN,25,Xiaoyun,
81426,CN,11,Siqian,
81427,CN,10,Dayin,
81428,CN,25,Wande,
81429,CN,24,Zhuoli,
81430,CN,25,Linqing,
81431,CN,32,Fubao,
81432,CN,9,Dongjie,
81433,CN,24,Wenxue,
81434,CN,4,Sanwei,
81435,CN,1,Baosha,
81436,CN,7,Lianchi,
81437,CN,7,Nanmen,
81438,CN,1,Hongdian,
81439,CN,18,Wuma,
81440,CN,2,Shuixin,
81441,CN,8,Jiangbin,
81442,CN,7,Nanpu,
81443,CN,2,Shuangyu,
81444,CN,24,Yangyi,
81445,CN,3,Zili,
81446,CN,3,Meigang,
81447,CN,11,Shiyun,
81448,CN,30,Hongchang,
81449,CN,12,Yaohua,
81450,CN,2,Toutuo,
81451,CN,11,Shankou,
81452,CN,2,Gongchenqiao,
81453,CN,31,Bolian,
81454,CN,7,Huangbu,
81455,CN,18,Qinlin,
81456,CN,18,Lizi,
81457,CN,21,Yuantao,
81458,CN,33,Chung,
81459,CN,10,Anzhou,
81460,CN,25,Zhanghua,
81461,CN,31,Baojie,
81462,CN,2,Lixinwu,
81463,CN,30,Shangwei,
81464,CN,32,Tianchi,
81465,CN,7,Yeping,
81466,CN,4,Haihe,
81467,CN,18,Jiaoxia,
81468,CN,33,Yongchuan,
81469,CN,11,Huitong,
81470,CN,6,Xinghai,
81471,CN,31,Jidi,
81472,CN,16,Fulai,
81473,CN,18,Dewei,
81474,CN,31,Huaming,
81475,CN,3,Paichu,
81476,CN,11,Dayan,
81477,CN,19,Wenxiang,
81478,CN,1,Zhouji,
81479,CN,10,Shacheng,
81480,CN,2,Zhongtu,
81481,CN,15,Yuele,
81482,CN,7,Jimei,
81483,CN,1,Leihu,
81484,CN,7,Shanghang,
81485,CN,2,Huangtouling,
81486,CN,26,Zhenan,
81487,CN,2,Jingyou,
81488,CN,7,Yangping,
81489,CN,4,Ilin,
81490,CN,3,Damei,
81491,CN,11,Xinshi,
81492,CN,11,Longhui,
81493,CN,11,Zhongquan,
81494,CN,11,Yinping,
81495,CN,25,Wulian,
81496,CN,24,Yingyan,
81497,CN,30,Liangan,
81498,CN,7,Yuxin,
81499,CN,23,Dianfeng,
81500,CN,12,Wujin,
81501,CN,7,Shangchang,
81502,CN,22,Yuzhuang,
81503,CN,5,Nonglin,
81504,CN,9,Changyuan,
81505,CN,10,Fanshan,
81506,CN,2,Choucheng,
81507,CN,1,Digang,
81508,CN,11,Longtang,
81509,CN,7,Shanzhen,
81510,CN,28,Lizhuang,
81511,CN,9,Caigou,
81512,CN,11,Bailin,
81513,CN,31,Longfa,
81514,CN,31,Chongde,
81515,CN,7,Lianfang,
81516,CN,33,Dadukou,
81517,CN,8,Huamin,
81518,CN,11,Liulang,
81519,CN,24,Hougong,
81520,CN,9,Zhengan,
81521,CN,10,Maoyi,
81522,CN,7,Amoy,
81523,CN,5,Chüanyang,
81524,CN,25,Liuxing,
81525,CN,11,Taolin,
81526,CN,18,Mintong,
81527,CN,11,Meikuang,
81528,CN,2,Zhongmei,
81529,CN,7,Wuling,
81530,CN,7,Baidu,
81531,CN,25,Tianhuang,
81532,CN,24,Gaosheng,
81533,CN,24,Lubei,
81534,CN,32,Nanjiang,
81535,CN,10,Degui,
81536,CN,29,Minglang,
81537,CN,2,Beibaixiang,
81538,CN,7,Xixi,
81539,CN,1,Shaolian,
81540,CN,4,Yindu,
81541,CN,9,Haolin,
81542,CN,25,Boping,
81543,CN,25,Bohai,
81544,CN,30,Yuanzhou,
81545,CN,30,Shanhua,
81546,CN,2,Jujiang,
81547,CN,15,Yongjing,
81548,CN,3,Shanghuai,
81549,CN,7,Ruihu,
81550,CN,24,Chaowang,
81551,CN,8,Pinan,
81552,CN,9,Xiaoyi,
81553,CN,16,Dingjun,
81554,CN,11,Qujiang,
81555,CN,2,Zhongkui,
81556,CN,3,Yifang,
81557,CN,30,Hantian,
81558,CN,11,Sanjia,
81559,CN,4,Chumen,
81560,CN,2,Jieyu,
81561,CN,12,Yehua,
81562,CN,18,Shuangjia,
81563,CN,4,Yunting,
81564,CN,30,Liulian,
81565,CN,1,Lingbo,
81566,CN,2,Gujia,
81567,CN,7,Jiaoli,
81568,CN,10,Kongjian,
81569,CN,7,Daiwei,
81570,CN,9,Yunyang,
81571,CN,24,Yuanping,
81572,CN,30,Xinbao,
81573,CN,4,Wanying,
81574,CN,30,Liangdong,
81575,CN,7,Tuan,
81576,CN,3,Yaoshan,
81577,CN,22,Liubo,
81578,CN,2,Lijiaxi,
81579,CN,24,Zhangfeng,
81580,CN,2,Yuhui,
81581,CN,15,Guanghe,
81582,CN,8,Shangjia,
81583,CN,8,Xiaoqinghe,
81584,CN,22,Zhenzhuquan,
81585,CN,29,Aitian,
81586,CN,7,Gongdong,
81587,CN,24,Hehui,
81588,CN,3,Lizhai,
81589,CN,32,Xiaoya,
81590,CN,22,Luozhuang,
81591,CN,25,Yinan,
81592,CN,25,Puwang,
81593,CN,25,Dazhuang,
81594,CN,11,Yangpo,
81595,CN,24,Zhangzhuang,
81596,CN,1,Puqing,
81597,CN,33,Guangpu,
81598,CN,25,Ezhuang,
81599,CN,10,Bancheng,
81600,CN,28,Dasunzhuang,
81601,CN,30,Youcun,
81602,CN,25,Xuzhuang,
81603,CN,25,Pingshang,
81604,CN,18,Yandong,
81605,CN,16,Liuye,
81606,CN,25,Qingguji,
81607,CN,25,Caoxian,
81608,CN,25,Zhuangzhai,
81609,CN,25,Shaozhuang,
81610,CN,25,Pulianji,
81611,CN,25,Hanji,
81612,CN,25,Shanxian,
81613,CN,25,Dingtao,
81614,CN,25,Juancheng,
81615,CN,11,Dabao,
81616,CN,26,Wulidun,
81617,CN,5,Xiyang,
81618,CN,25,Dashan,
81619,CN,3,Sanhu,
81620,CN,11,Jianyun,
81621,CN,31,Wenlong,
81622,CN,1,Xinlin,
81623,CN,11,Tongle,
81624,CN,30,Dananshan,
81625,CN,7,Longxun,
81626,CN,30,Liusha,
81627,CN,30,Mianhu,
81628,CN,30,Conghua,
81629,CN,30,Hongke,
81630,CN,4,Huiping,
81631,CN,33,Hufeng,
81632,CN,7,Taocheng,
81633,CN,18,Fansheng,
81634,CN,18,Kefu,
81635,CN,11,Dayangshu,
81636,CN,2,Sixiazhang,
81637,CN,2,Zhuangshi,
81638,CN,11,Wanyi,
81639,CN,19,Jingshang,
81640,CN,24,Shiyuan,
81641,CN,31,Jiale,
81642,CN,25,Dagao,
81643,CN,4,Duzhu,
81644,CN,15,Minle,
81645,CN,2,Qianku,
81646,CN,5,Shangyou,
81647,CN,6,Kanglong,
81648,CN,1,Dabaoli,
81649,CN,25,Xifu,
81650,CN,16,Wenli,
81651,CN,31,Jiangkan,
81652,CN,3,Henglong,
81653,CN,7,Baisheng,
81654,CN,33,Sanhui,
81655,CN,24,Sanwen,
81656,CN,11,Shangbao,
81657,CN,6,Shenzhong,
81658,CN,1,Lixing,
81659,CN,16,Suiyi,
81660,CN,18,Kele,
81661,CN,9,Chünchao,
81662,CN,8,Yanxing,
81663,CN,30,Heguang,
81664,CN,1,Lida,
81665,CN,30,Jiandong,
81666,CN,4,Liheng,
81667,CN,7,Yupeng,
81668,CN,26,Xingan,
81669,CN,24,Hongtong,
81670,CN,29,Mengmeng,
81671,CN,10,Wuyue,
81672,CN,3,Qingxin,
81673,CN,29,Fengtun,
81674,CN,33,Baihe,
81675,CN,4,Zhenwu,
81676,CN,10,Erpao,
81677,CN,25,Wennan,
81678,CN,10,Nanbao,
81679,CN,30,Anwo,
81680,CN,7,Jinyin,
81681,CN,30,Beijie,
81682,CN,32,Anyue,
81683,CN,32,Lezhi,
81684,CN,31,Zhizhong,
81685,CN,32,Naxi,
81686,CN,24,Gaoxian,
81687,CN,24,Xiafei,
81688,CN,16,Baimu,
81689,CN,20,Qinglongshan,
81690,CN,9,Huolong,
81691,CN,1,Liangdian,
81692,CN,18,Mulong,
81693,CN,7,Yantan,
81694,CN,2,Xiaomei,
81695,CN,7,Rongxian,
81696,CN,1,Xijie,
81697,CN,18,Xingsu,
81698,CN,10,Nanying,
81699,CN,10,Linshui,
81700,CN,7,Beicheng,
81701,CN,32,Yuechi,
81702,CN,24,Jinshatan,
81703,CN,2,Dajun,
81704,CN,3,Huagongchang,
81705,CN,30,Gongjiao,
81706,CN,1,Siji,
81707,CN,30,Meige,
81708,CN,4,Liuxin,
81709,CN,11,Shulin,
81710,CN,32,Shehong,
81711,CN,32,Anju,
81712,CN,24,Nanbu,
81713,CN,11,Xichong,
81714,CN,32,Langzhong,
81715,CN,8,Fengchan,
81716,CN,24,Puming,
81717,CN,32,Fenggu,
81718,CN,4,Zhenghong,
81719,CN,11,Jiangji,
81720,CN,11,Sanyi,
81721,CN,7,Shixun,
81722,CN,32,Santai,
81723,CN,16,Xinwang,
81724,CN,16,Tanghong,
81725,CN,32,Shangma,
81726,CN,26,Nanhe,
81727,CN,9,Changlin,
81728,CN,22,Yanqing,
81729,CN,31,Wenshi,
81730,CN,16,Gongyuan,
81731,CN,11,Guowan,
81732,CN,30,Dengyun,
81733,CN,7,Guoyuan,
81734,CN,11,Zhongjia,
81735,CN,7,Tangke,
81736,CN,7,Fuyao,
81737,CN,11,Heliping,
81738,CN,3,Chenggang,
81739,CN,2,Zhengqiao,
81740,CN,1,Caishi,
81741,CN,16,Liyong,
81742,CN,25,Gaotang,
81743,CN,32,Renshi,
81744,CN,3,Qiutian,
81745,CN,31,Shude,
81746,CN,19,Kangkang,
81747,CN,26,Lingyu,
81748,CN,30,Yunxiang,
81749,CN,11,Hongguang,
81750,CN,7,Qingliang,
81751,CN,3,Fugang,
81752,CN,10,Dajie,
81753,CN,30,Baihou,
81754,CN,11,Beirong,
81755,CN,26,Yaoping,
81756,CN,25,Zhengcheng,
81757,CN,11,Feiyuan,
81758,CN,18,Deming,
81759,CN,30,Guodong,
81760,CN,24,Peiying,
81761,CN,15,Yonghe,
81762,CN,11,Mijia,
81763,CN,3,Bajiang,
81764,CN,24,Chengkuan,
81765,CN,7,Limei,
81766,CN,25,Nanquan,
81767,CN,8,Changfa,
81768,CN,18,Ronghua,
81769,CN,11,Baitian,
81770,CN,30,Shiying,
81771,CN,25,Wuji,
81772,CN,21,Huochezhan,
81773,CN,18,Shichao,
81774,CN,31,Qunying,
81775,CN,11,Disheng,
81776,CN,1,Yongnan,
81777,CN,24,Dujiacun,
81778,CN,20,Yinhao,
81779,CN,32,Jinchuan,
81780,CN,32,Jifeng,
81781,CN,11,Xinjie,
81782,CN,26,Qiaozhen,
81783,CN,30,Langdi,
81784,CN,9,Dingying,
81785,CN,3,Changning,
81786,CN,8,Keli,
81787,CN,11,Gaolong,
81788,CN,25,Paipu,
81789,CN,11,Shiliping,
81790,CN,7,Fuchu,
81791,CN,11,Jingxian,
81792,CN,31,Yuanzheng,
81793,CN,30,Pingtai,
81794,CN,7,Shangyuan,
81795,CN,18,Zhijie,
81796,CN,7,Shangyan,
81797,CN,7,Pingchuan,
81798,CN,25,Xiaoying,
81799,CN,31,Luobao,
81800,CN,19,Xinkai,
81801,CN,18,Xingzhong,
81802,CN,10,Haibin,
81803,CN,3,Chengyang,
81804,CN,16,Ligao,
81805,CN,15,Xingfeng,
81806,CN,3,Qiliao,
81807,CN,30,Lihua,
81808,CN,25,Wangtai,
81809,CN,7,Shanghu,
81810,CN,7,Qianhua,
81811,CN,18,Baixing,
81812,CN,7,Chengyuan,
81813,CN,7,Yunxiao,
81814,CN,25,Huangwu,
81815,CN,13,Wushi,
81816,CN,24,Duyu,
81817,CN,18,Sanghe,
81818,CN,22,Xinghuo,
81819,CN,19,Yanjiang,
81820,CN,4,Yiling,
81821,CN,1,Longkang,
81822,CN,9,Gangyao,
81823,CN,7,Yunji,
81824,CN,11,Xiling,
81825,CN,7,Shibei,
81826,CN,5,Yangcha,
81827,CN,16,Longtong,
81828,CN,24,Dawei,
81829,CN,7,Yingxiang,
81830,CN,11,Baojing,
81831,CN,5,Kirin,
81832,CN,7,Shangwu,
81833,CN,7,Xiayuan,
81834,CN,20,Dongjiaying,
81835,CN,3,Baijia,
81836,CN,6,Tongde,
81837,CN,3,Shicheng,
81838,CN,3,Yujia,
81839,CN,10,Wuan,
81840,CN,26,Zhitian,
81841,CN,4,Weixu,
81842,CN,30,Fengguang,
81843,CN,4,Yanxiang,
81844,CN,1,Wanshou,
81845,CN,12,Shashi,
81846,CN,4,Hushu,
81847,CN,9,Bowang,
81848,CN,5,Hongshi,
81849,CN,1,Haiju,
81850,CN,7,Chiangnan,
81851,CN,26,Yunmeng,
81852,CN,3,Liutang,
81853,CN,22,Beifang,
81854,CN,18,Xingzhu,
81855,CN,28,Xizhaizhuang,
81856,CN,28,Tangguantun,
81857,CN,10,Chenguantun,
81858,CN,28,Liangwangzhuang,
81859,CN,28,Zhangjiafangzi,
81860,CN,28,Caigongzhuang,
81861,CN,31,Taibo,
81862,CN,11,Cili,
81863,CN,28,Yangchengzhuang,
81864,CN,16,Liliang,
81865,CN,24,Beiying,
81866,CN,11,Juyu,
81867,CN,24,Handu,
81868,CN,26,Yinwan,
81869,CN,11,Jianxin,
81870,CN,24,Zhongxiang,
81871,CN,9,Zhangtao,
81872,CN,25,Wangzhuang,
81873,CN,7,Xiangling,
81874,CN,3,Yongshan,
81875,CN,11,Baoping,
81876,CN,7,Denglu,
81877,CN,23,Duhang,
81878,CN,3,Hongju,
81879,CN,1,Jiujing,
81880,CN,24,Yuxian,
81881,CN,28,Nankai,
81882,CN,2,Yongqiang,
81883,CN,5,Zhongde,
81884,CN,16,Sulong,
81885,CN,18,Yarong,
81886,CN,7,Qianwei,
81887,CN,5,Yayuan,
81888,CN,31,Shituo,
81889,CN,7,Aozhong,
81890,CN,31,Jiaju,
81891,CN,25,Jiudian,
81892,CN,5,Jiguan,
81893,CN,11,Fengxing,
81894,CN,26,Wangsu,
81895,CN,18,Baihai,
81896,CN,2,Shunchi,
81897,CN,7,Yujing,
81898,CN,7,Zhangcheng,
81899,CN,14,Dechen,
81900,CN,11,Jin Jiang,
81901,CN,1,Chengji,
81902,CN,3,Shangtong,
81903,CN,12,Xugu,
81904,CN,1,Qianlong,
81905,CN,30,Yingcai,
81906,CN,2,Majian,
81907,CN,11,Xingwu,
81908,CN,12,Zhaopeng,
81909,CN,7,Anjie,
81910,CN,3,Guida,
81911,CN,10,Laiyuan,
81912,CN,30,Hudong,
81913,CN,7,Xiayu,
81914,CN,2,Banfei,
81915,CN,24,Xixing,
81916,CN,31,Jiatong,
81917,CN,1,Chengang,
81918,CN,32,Jimi,
81919,CN,7,Liuxia,
81920,CN,2,Zhengdian,
81921,CN,7,Jiamei,
81922,CN,4,Liuqing,
81923,CN,1,Zhongliu,
81924,CN,10,Zhenchang,
81925,CN,9,Wangshi,
81926,CN,3,Xihu,
81927,CN,1,Shitai,
81928,CN,29,Mengyou,
81929,CN,30,Yixi,
81930,CN,25,Hanhe,
81931,CN,26,Yongyu,
81932,CN,7,Landun,
81933,CN,2,Jingren,
81934,CN,5,Xinlicheng,
81935,CN,7,Wenjiao,
81936,CN,30,Jianglin,
81937,CN,3,Huangcheng,
81938,CN,10,Beizheng,
81939,CN,25,Yangan,
81940,CN,7,Dazhi,
81941,CN,7,Qianyang,
81942,CN,3,Chengjiawan,
81943,CN,11,Machang,
81944,CN,25,Guxian,
81945,CN,2,Honggong,
81946,CN,23,Lulu,
81947,CN,24,Houbu,
81948,CN,11,Xiaotian,
81949,CN,12,Maqian,
81950,CN,14,Yanhuqu,
81951,CN,12,Caihe,
81952,CN,9,Xuehu,
81953,CN,11,Jiping,
81954,CN,28,Daying,
81955,CN,9,Weigang,
81956,CN,3,Chongxian,
81957,CN,15,Weiyuan,
81958,CN,3,Zaoxi,
81959,CN,2,Tianfeng,
81960,CN,3,Ruichang,
81961,CN,3,Jiaowan,
81962,CN,33,Yungchia,
81963,CN,3,Fujia,
81964,CN,25,Jianli,
81965,CN,24,Yiwang,
81966,CN,24,Changdong,
81967,CN,30,Jitian,
81968,CN,26,Jieling,
81969,CN,11,Fanjiang,
81970,CN,8,Jubao,
81971,CN,24,Guanjun,
81972,CN,1,Changhui,
81973,CN,18,Jinhai,
81974,CN,9,Wudian,
81975,CN,22,Tiankai,
81976,CN,3,Hongmen,
81977,CN,7,Honglin,
81978,CN,18,Shuli,
81979,CN,28,Gaojiazhuang,
81980,CN,11,Xingfu,
81981,CN,2,Huanghu,
81982,CN,30,Lianan,
81983,CN,1,Yanghuzhen,
81984,CN,3,Xiangxing,
81985,CN,4,Taige,
81986,CN,16,Babu,
81987,CN,7,Shizhong,
81988,CN,7,Qiwei,
81989,CN,30,Minzhong,
81990,CN,7,Fuzhong,
81991,CN,24,Guohang,
81992,CN,3,Shuinichang,
81993,CN,32,Huayun,
81994,CN,31,Luoji,
81995,CN,10,Mike,
81996,CN,16,Minglun,
81997,CN,1,Dongguancun,
81998,CN,24,Mayu,
81999,CN,7,Jinjing,
82000,CN,3,Xiadan,
82001,CN,4,Changwang,
82002,CN,16,Wankang,
82003,CN,31,Chunyuan,
82004,CN,31,Meidong,
82005,CN,7,Meiyu,
82006,CN,30,Xiaoxiang,
82007,CN,32,Yonglong,
82008,CN,29,Yisha,
82009,CN,5,Fotang,
82010,CN,12,Junxian,
82011,CN,10,Damin,
82012,CN,3,Xiaogang,
82013,CN,2,Jiangjun,
82014,CN,10,Fangzhuang,
82015,CN,24,Hongdao,
82016,CN,3,Jieli,
82017,CN,7,Longting,
82018,CN,4,Xinta,
82019,CN,18,Rongguang,
82020,CN,30,Tanxia,
82021,CN,11,Yangjing,
82022,CN,32,Luding,
82023,CN,21,Zhangyi,
82024,CN,25,Xiaojing,
82025,CN,24,Yushe,
82026,CN,24,Yangqu,
82027,CN,3,Youzhen,
82028,CN,7,Shensu,
82029,CN,7,Lifang,
82030,CN,24,Qixian,
82031,CN,7,Daao,
82032,CN,10,Yinfang,
82033,CN,1,Huajin,
82034,CN,8,Chonghe,
82035,CN,7,Huangtan,
82036,CN,19,Hunhe,
82037,CN,2,Yigao,
82038,CN,15,Honghui,
82039,CN,11,Dayong,
82040,CN,3,Boyang,
82041,CN,6,Haomen,
82042,CN,32,Huijia,
82043,CN,3,Yangfen,
82044,CN,24,Guodao,
82045,CN,4,Yaoxiang,
82046,CN,24,Yangyu,
82047,CN,1,Shengwang,
82048,CN,5,Mingcheng,
82049,CN,7,Jinglun,
82050,CN,11,Tuanjie,
82051,CN,3,Chengfang,
82052,CN,3,Wanan,
82053,CN,2,Yuyan,
82054,CN,2,Furun,
82055,CN,7,Wangting,
82056,CN,11,Qunfeng,
82057,CN,5,Yushu,
82058,CN,3,Tianbao,
82059,CN,10,Kangbao,
82060,CN,2,Huangguan,
82061,CN,9,Wangpeng,
82062,CN,11,Zhexi,
82063,CN,12,Doushi,
82064,CN,3,Huxin,
82065,CN,12,Yunxian,
82066,CN,5,Xingsheng,
82067,CN,7,Xianhe,
82068,CN,7,Hejiashan,
82069,CN,9,Jiuchong,
82070,CN,1,Peigang,
82071,CN,30,Chenjiang,
82072,CN,16,Youlan,
82073,CN,26,Miaoliang,
82074,CN,29,Huiyi,
82075,CN,25,Longjia,
82076,CN,5,Dehui,
82077,CN,33,Baijie,
82078,CN,11,Chengbu,
82079,CN,11,Tantou,
82080,CN,30,Jinggang,
82081,CN,11,Yujie,
82082,CN,11,Dongan,
82083,CN,30,Shengdong,
82084,CN,11,Wuli,
82085,CN,26,Jingyang,
82086,CN,30,Sainan,
82087,CN,2,Liangzhu,
82088,CN,9,Fengqiu,
82089,CN,7,Huangjing,
82090,CN,9,Luyi,
82091,CN,2,Fuquan,
82092,CN,24,Yuling,
82093,CN,5,Sipeng,
82094,CN,2,Panzhi,
82095,CN,18,Dexin,
82096,CN,4,Buyi,
82097,CN,7,Bailian,
82098,CN,11,Longcheng,
82099,CN,7,Lingxia,
82100,CN,30,Gangmei,
82101,CN,7,Guoqian,
82102,CN,16,Xiangqi,
82103,CN,2,Guangtian,
82104,CN,8,Leye,
82105,CN,18,Ziqiang,
82106,CN,31,Qichang,
82107,CN,2,Tangqi,
82108,CN,1,Zhangge,
82109,CN,7,Ruiying,
82110,CN,2,Yuguang,
82111,CN,11,Rixin,
82112,CN,7,Hengjiang,
82113,CN,26,Yingge,
82114,CN,25,Huimin,
82115,CN,2,Tiexiang,
82116,CN,31,Baoluo,
82117,CN,12,Yaoxin,
82118,CN,30,Changhuan,
82119,CN,8,Qinglin,
82120,CN,7,Zhangping,
82121,CN,12,Ancheng,
82122,CN,31,Yongfa,
82123,CN,23,Chuansha,
82124,CN,19,Chin,
82125,CN,4,Laoyan,
82126,CN,4,Jingjiang,
82127,CN,11,Maliya,
82128,CN,3,Zhonggang,
82129,CN,16,Santan,
82130,CN,32,Qingshi,
82131,CN,24,Shaoxian,
82132,CN,18,Bawang,
82133,CN,10,Gaocheng,
82134,CN,18,Yuping,
82135,CN,3,Xiangdong,
82136,CN,8,Dongfanghong,
82137,CN,16,Jiafang,
82138,CN,7,Haiteng,
82139,CN,23,Zhenru,
82140,CN,11,Liandong,
82141,CN,30,Dahuai,
82142,CN,4,Dayi,
82143,CN,7,Hualing,
82144,CN,26,Hanjing,
82145,CN,30,Gaopu,
82146,CN,11,Liangshi,
82147,CN,32,Longshu,
82148,CN,7,Shengping,
82149,CN,7,Weimin,
82150,CN,12,Baifeng,
82151,CN,12,Hongxia,
82152,CN,1,Aimin,
82153,CN,2,Xiaoshun,
82154,CN,25,Xiaoxue,
82155,CN,16,Chengjun,
82156,CN,1,Shenggang,
82157,CN,7,Shengshan,
82158,CN,7,Beihe,
82159,CN,7,Dongdi,
82160,CN,32,Qingyu,
82161,CN,11,Fengping,
82162,CN,11,Yunyan,
82163,CN,30,Shangheng,
82164,CN,1,Jingqiao,
82165,CN,33,Weituo,
82166,CN,19,Dadong,
82167,CN,2,Huangbiao,
82168,CN,7,Langchi,
82169,CN,11,Chetou,
82170,CN,18,Xinnong,
82171,CN,30,Shilong,
82172,CN,7,Shanglian,
82173,CN,16,Qiangsheng,
82174,CN,18,Boshang,
82175,CN,2,Tudian,
82176,CN,11,Jingui,
82177,CN,24,Sijiao,
82178,CN,7,Lingyang,
82179,CN,21,Xiaohe,
82180,CN,3,Haihui,
82181,CN,7,Jianou,
82182,CN,32,Ruiyun,
82183,CN,3,Maliang,
82184,CN,25,Chining,
82185,CN,14,Dêgên,
82186,CN,10,Donghao,
82187,CN,31,Yahong,
82188,CN,15,Aoma,
82189,CN,11,Jimin,
82190,CN,2,Lianshu,
82191,CN,3,Shuangxi,
82192,CN,11,Heting,
82193,CN,9,Caoshuang,
82194,CN,25,Yuxiang,
82195,CN,24,Guoli,
82196,CN,33,Shibao,
82197,CN,30,Sanli,
82198,CN,7,Yuanxing,
82199,CN,25,Hongchuan,
82200,CN,15,Honggu,
82201,CN,12,Jingming,
82202,CN,11,Dongzheng,
82203,CN,11,Zhongzhou,
82204,CN,29,Guichao,
82205,CN,32,Ande,
82206,CN,7,Badou,
82207,CN,30,Yousheng,
82208,CN,7,Yidou,
82209,CN,1,Hongzhen,
82210,CN,3,Fuliang,
82211,CN,25,Wendian,
82212,CN,3,Xiaojian,
82213,CN,30,Hengshi,
82214,CN,33,Tianci,
82215,CN,25,Changling,
82216,CN,7,Tianzhi,
82217,CN,1,Hongfan,
82218,CN,11,Niutoushan,
82219,CN,31,Youlun,
82220,CN,18,Yanming,
82221,CN,31,Gancheng,
82222,CN,32,Chengtu,
82223,CN,3,Yunli,
82224,CN,26,Baicao,
82225,CN,5,Jingtai,
82226,CN,7,Yingyong,
82227,CN,18,Laba,
82228,CN,30,Shengcheng,
82229,CN,9,Linju,
82230,CN,4,Deji,
82231,CN,26,Shannan,
82232,CN,3,Zhongmin,
82233,CN,4,Meiduo,
82234,CN,14,Nima,
82235,CN,2,Jinzhuxi,
82236,CN,26,Shiquan,
82237,CN,19,Rongxing,
82238,CN,9,Shanbiao,
82239,CN,9,Miaodi,
82240,CN,31,Liqun,
82241,CN,8,Bishui,
82242,CN,18,Muyi,
82243,CN,16,Qiaoxian,
82244,CN,19,Wenbin,
82245,CN,30,Guxiang,
82246,CN,25,Zhongdian,
82247,CN,12,Linkuang,
82248,CN,11,Tongyi,
82249,CN,7,Guoxi,
82250,CN,4,Hengji,
82251,CN,24,Kangning,
82252,CN,11,Yunong,
82253,CN,31,Shisheng,
82254,CN,33,Luoqi,
82255,CN,7,Zhongpeng,
82256,CN,8,Boli,
82257,CN,3,Geling,
82258,CN,8,Kumar,
82259,CN,18,Changming,
82260,CN,25,Qingshui,
82261,CN,16,Zhenglong,
82262,CN,18,Tianzhu,
82263,CN,1,Liwei,
82264,CN,3,Lanjing,
82265,CN,7,Qianhong,
82266,CN,16,Jiahui,
82267,CN,10,Yunzhou,
82268,CN,32,Wensheng,
82269,CN,1,Jingqu,
82270,CN,10,Tiantaishan,
82271,CN,24,Changhang,
82272,CN,7,Xingqiao,
82273,CN,11,Shangyi,
82274,CN,2,Pingyangkeng,
82275,CN,7,Penghu,
82276,CN,2,Zilin,
82277,CN,4,Changrong,
82278,CN,11,Xiangjian,
82279,CN,26,Kuanshan,
82280,CN,8,Yangkang,
82281,CN,2,Hemudu,
82282,CN,7,Jiangyuan,
82283,CN,11,Yanjiao,
82284,CN,4,Qiaolin,
82285,CN,24,Yuwang,
82286,CN,2,Wangfu,
82287,CN,11,Wending,
82288,CN,33,Fengjie,
82289,CN,7,Xiyue,
82290,CN,3,Jinrui,
82291,CN,33,Bicheng,
82292,CN,3,Yudu,
82293,CN,11,Liangping,
82294,CN,32,Xianlin,
82295,CN,30,Yirong,
82296,CN,30,Shanghua,
82297,CN,11,Wushan,
82298,CN,33,Wuxia,
82299,CN,33,Gunan,
82300,CN,33,Heliang,
82301,CN,12,Dangyang,
82302,CN,7,Huangwan,
82303,CN,2,Anwen,
82304,CN,7,Duping,
82305,CN,7,Dongxi,
82306,CN,10,Shihao,
82307,CN,11,Panlong,
82308,CN,7,Junbing,
82309,CN,33,Dingshi,
82310,CN,7,Huangxi,
82311,CN,7,Youyang,
82312,CN,31,Renxing,
82313,CN,24,Qiji,
82314,CN,7,Fulong,
82315,CN,11,Longmao,
82316,CN,11,Laifu,
82317,CN,7,Xitianwei,
82318,CN,18,Huaqiu,
82319,CN,30,Huahu,
82320,CN,9,Beiyu,
82321,CN,18,Qingmu,
82322,CN,3,Xiangjiang,
82323,CN,7,Jinpu,
82324,CN,7,Wanwu,
82325,CN,30,Tancun,
82326,CN,10,Xida,
82327,CN,7,Dongge,
82328,CN,4,Anhu,
82329,CN,11,Daling,
82330,CN,33,Hechuan,
82331,CN,2,Baojian,
82332,CN,30,Hongguan,
82333,CN,8,Imjanjpo,
82334,CN,11,Qiaotouzui,
82335,CN,5,Gongzhuling,
82336,CN,7,Liqiangbian,
82337,CN,30,Encheng,
82338,CN,31,Mupai,
82339,CN,7,Hanyang,
82340,CN,7,Qinyu,
82341,CN,7,Rongcheng,
82342,CN,7,Fangkou,
82343,CN,22,Huangcun,
82344,CN,8,Zhaodong,
82345,CN,2,Zhicheng,
82346,CN,2,Xieyan,
82347,CN,25,Zouxian,
82348,CN,25,Pingyangsi,
82349,CN,25,Hsiakouchen,
82350,CN,25,Leijia,
82351,CN,23,Chaoyangchen,
82352,CN,11,Ningxiang,
82353,CN,9,Chiukuangwu,
82354,CN,2,Haochuan,
82355,CN,9,Yaoqiao,
82356,CN,30,Shaping,
82357,CN,30,Chiuchieh,
82358,CN,11,Lengshuichong,
82359,CN,9,Yangwu,
82360,CN,9,Micun,
82361,CN,11,Guanqiaopu,
82362,CN,2,Hsiehchiaochen,
82363,CN,9,Hsintienchen,
82364,CN,25,Hongjialou,
82365,CN,30,Niuwan,
82366,CN,30,Yüncheng,
82367,CN,1,Paochiachi,
82368,CN,5,Yantongshan,
82369,CN,9,Cuimiao,
82370,CN,9,Chucun,
82371,CN,25,Shuiji,
82372,CN,3,Xiongshi,
82373,CN,11,Yongshun,
82374,CN,32,Wanchangchang,
82375,CN,4,Yushan,
82376,CN,4,Tongnongshiwudui,
82377,CN,4,Yangshe,
82378,CN,30,Yangang,
82379,CN,9,Huixian,
82380,CN,11,Wugang,
82381,CN,32,Anjia,
82382,CN,11,Fanjiayuan,
82383,CN,3,Dalingxia,
82384,CN,3,Hsiashan,
82385,CN,9,Mihe,
82386,CN,12,Songzi,
82387,CN,9,Xiaoxiying,
82388,CN,19,Heishan,
82389,CN,8,Shadong,
82390,CN,25,Longkou,
82391,CN,5,Pizhou,
82392,CN,4,Dongkan,
82393,CN,25,Chiangkuantun,
82394,CN,9,Weihui,
82395,CN,5,Jiutai,
82396,CN,5,Hunchun,
82397,CN,33,Heyang,
82398,CN,4,Shenshucun,
82399,CN,4,Yaochiachiao,
82400,CN,11,Longchang,
82401,CN,10,Gaobeidian,
82402,CN,11,Huatang,
82403,CN,11,Zizhai,
82404,CN,11,Shanyangtou,
82405,CN,11,Changkuang,
82406,CN,19,Xiaoshi,
82407,CN,2,Yangshun,
82408,CN,31,Longguang,
82409,CN,9,Kequan,
82410,CN,2,Xulong,
82411,CN,21,Zhangen,
82412,CN,2,Kuanyü,
82413,CN,8,Chenqing,
82414,CN,24,Wangjiahui,
82415,CN,11,Jinpan,
82416,CN,31,Xiuying,
82417,CN,31,Yalongwan,
82418,CN,9,Baipo,
82419,CN,31,Tunchang,
82420,CN,30,Wuzhishan,
82421,CN,31,Qiongzhong,
82422,CN,3,Ledong,
82423,CN,31,Baoting,
82424,CN,4,Tanta,
82425,CN,31,Chengmai,
82426,CN,31,Jinjiling,
82427,CN,31,Lingao,
82428,CN,24,Yuandian,
82429,CN,31,Xinying,
82430,CN,24,Sanlin,
82431,CN,14,Nujiang,
82432,CN,30,Kelu,
82433,CN,25,Yanjia,
82434,CN,31,Jiarun,
82435,CN,7,Tieshan,
82436,CN,11,Wulingyuan,
82437,CN,29,Lantsang,
82438,CN,30,Xucheng,
82439,CN,24,Xianfang,
82440,CN,3,Chongyi,
82441,CN,25,Kangyi,
82442,CN,3,Yingqian,
82443,CN,2,Jialong,
82444,CN,1,Zhongming,
82445,CN,7,Dutou,
82446,CN,4,Yisu,
82447,CN,14,Rongbo,
82448,CN,32,Tianlin,
82449,CN,10,Xuanhua,
82450,CN,7,Jingdi,
82451,CN,7,Longqing,
82452,CN,18,Kaitai,
82453,CN,7,Meiying,
82454,CN,7,Nanya,
82455,CN,32,Ante,
82456,CN,7,Jiumei,
82457,CN,32,Moni,
82458,CN,10,Xiaowa,
82459,CN,3,Rundong,
82460,CN,32,Jiankang,
82461,CN,7,Heli,
82462,CN,1,Shengqiang,
82463,CN,4,Zhongya,
82464,CN,11,Yuanzhen,
82465,CN,2,Lihai,
82466,CN,2,Caozhai,
82467,CN,7,Guantian,
82468,CN,32,Jiangan,
82469,CN,7,Yufang,
82470,CN,9,Cangtai,
82471,CN,18,Xinmai,
82472,CN,1,Baishen,
82473,CN,21,Yongli,
82474,CN,2,Zhuangwei,
82475,CN,26,Yinqiao,
82476,CN,24,Taidi,
82477,CN,7,Huiling,
82478,CN,7,Xidong,
82479,CN,3,Hengcheng,
82480,CN,24,Baiwen,
82481,CN,29,Youshe,
82482,CN,23,Buzhen,
82483,CN,32,Baichao,
82484,CN,2,Zhengyan,
82485,CN,11,Shuping,
82486,CN,19,Polante,
82487,CN,31,Gengxin,
82488,CN,31,Dasong,
82489,CN,10,Peiliang,
82490,CN,2,Fuyou,
82491,CN,1,Huguang,
82492,CN,30,Lingfu,
82493,CN,3,Lugang,
82494,CN,18,Huangbao,
82495,CN,9,Zhuge,
82496,CN,15,Baicaoyuan,
82497,CN,2,Yangmeilong,
82498,CN,18,Changshun,
82499,CN,5,Huanghe,
82500,CN,3,Jianjie,
82501,CN,25,Dianji,
82502,CN,7,Wufu,
82503,CN,11,Xiumei,
82504,CN,31,Changmao,
82505,CN,26,Jinghe,
82506,CN,7,Beifeng,
82507,CN,25,Jiazhuang,
82508,CN,7,Yueling,
82509,CN,4,Hubang,
82510,CN,30,Danshui,
82511,CN,30,Sanbu,
82512,CN,19,Jiupu,
82513,CN,19,Dalianwan,
82514,CN,25,Chiyang,
82515,CN,23,Chenjiazhen,
82516,CN,23,Tinglinchen,
82517,CN,4,Hongjiazhuang,
82518,CN,4,Heyang,
82519,CN,24,Hongyadi,
82520,CN,2,Fuyang,
82521,CN,2,Waiwanghua,
82522,CN,19,Sujiatun,
82523,CN,11,Tangjiapu,
82524,CN,3,Mayuanwei,
82525,CN,3,Fengkeng,
82526,CN,1,Taochichen,
82527,CN,9,Zhenping,
82528,CN,4,Hutang,
82529,CN,4,Hongze,
82530,CN,32,Linqiong,
82531,CN,26,Tacheng,
82532,CN,9,Qiaogou,
82533,CN,4,Shanghui,
82534,CN,3,Chonggang,
82535,CN,18,Leyun,
82536,CN,30,Heyun,
82537,CN,31,Shirong,
82538,CN,30,Qinhuang,
82539,CN,11,Daping,
82540,CN,7,Shoujian,
82541,CN,30,Chengjia,
82542,CN,16,Hurun,
82543,CN,10,Mancheng,
82544,CN,24,Yangxing,
82545,CN,31,Yongde,
82546,CN,11,Hengjin,
82547,CN,18,Sijing,
82548,CN,13,Weiya,
82549,CN,18,Hongdu,
82550,CN,18,Yangxiang,
82551,CN,4,Tongtai,
82552,CN,29,Yiliang,
82553,CN,30,Dongyong,
82554,CN,26,Famen,
82555,CN,7,Lingwei,
82556,CN,1,Rongling,
82557,CN,24,Liyi,
82558,CN,3,Jine,
82559,CN,33,Guoliang,
82560,CN,19,Lingnan,
82561,CN,2,Huazhi,
82562,CN,33,Qijiang,
82563,CN,32,Xirong,
82564,CN,16,Lingshan,
82565,CN,30,Mata,
82566,CN,10,Guchen,
82567,CN,7,Xianjia,
82568,CN,7,Shima,
82569,CN,3,Hsiaoho,
82570,CN,5,Nongan,
82571,CN,25,Guodian,
82572,CN,9,Heiyugou,
82573,CN,10,Hebei,
82574,CN,4,Dongchang,
82575,CN,25,Liangshuizhen,
82576,CN,25,Chiping,
82577,CN,25,Shenxian,
82578,CN,25,Jiangguantun,
82579,CN,25,Donge,
82580,CN,25,Liuji,
82581,CN,25,Chenji,
82582,CN,25,Yanggu,
82583,CN,11,Dazhang,
82584,CN,25,Liulin,
82585,CN,26,Xuejia,
82586,CN,18,Deke,
82587,CN,33,Guangyang,
82588,CN,31,Liugong,
82589,CN,12,Xiehe,
82590,CN,1,Yinying,
82591,CN,16,Name,
82592,CN,19,Chwangho,
82593,CN,25,Dongming,
82594,CN,10,Hantan,
82595,CN,24,Chiang,
82596,CN,10,Dingzhou,
82597,CN,10,Wangjun,
82598,CN,32,Liujia,
82599,CN,1,Zhaotao,
82600,CN,30,Dafucun,
82601,CN,4,Gangkou,
82602,CN,23,Zhabei,
82603,CN,2,Haiyu,
82604,CN,16,Hemu,
82605,CN,25,Zhangzhai,
82606,CN,25,Chaocheng,
82607,CN,25,Beiyangji,
82608,CN,25,Yuji,
82609,CN,29,Xuying,
82610,CN,25,Yandian,
82611,CN,11,Chenxi,
82612,CN,10,Niudian,
82613,CN,3,Donggu,
82614,CN,10,Yaozhai,
82615,CN,19,Zhaotun,
82616,CN,25,Zhengjia,
82617,CN,9,Zhaizhen,
82618,CN,29,Eryuan,
82619,CN,1,Wuming,
82620,CN,3,Lianhuashan,
82621,CN,21,Huibei,
82622,CN,10,Wangdu,
82623,CN,30,Xiaolan,
82624,CN,29,Rongcheng,
82625,CN,30,Yuncheng,
82626,CN,11,Zixing,
82627,CN,13,Korla,
82628,CN,7,Rongcheng,
82629,CN,10,Shuyang,
82630,CN,32,Fui,
82631,CN,7,Jiaocheng,
82632,CN,24,Houma,
82633,CN,29,Yunjinghong,
82634,CN,11,Xupu,
82635,CN,9,Linzhou,
82636,CN,18,Lejing,
82637,CN,25,Liying,
82638,CN,30,Huangpuqu,
82639,CN,1,Yitai,
82640,CN,33,Fuguo,
82641,CN,1,Yinshang,
82642,CN,1,Sanlitun,
82643,CN,18,Tangren,
82644,CN,4,Hote,
82645,CN,20,Kulun,
82646,CN,7,Zhongban,
82647,CN,1,Huaiyuan,
82648,CN,19,Gaizhou,
82649,CN,25,Qixia,
82650,CN,11,Miluo,
82651,CN,3,Sihong,
82652,CN,33,Shiyu,
82653,CN,18,Zhijin,
82654,CN,30,Chinü,
82655,CN,30,Baiteng,
82656,CN,13,Miquan,
82657,CN,13,Yangmaogong,
82658,CN,4,Cangji,
82659,CN,24,Mayi,
82660,CN,13,Hutubi,
82661,CN,13,Fangcaohu,
82662,CN,13,Qitai,
82663,CN,6,Shouyizhan,
82664,CN,28,Lianhuayuan,
82665,CN,13,Tulufan,
82666,CN,3,Xingshu,
82667,CN,18,Yangchang,
82668,CN,25,Zhuyou,
82669,CN,13,Wuqia,
82670,CN,3,Dushanzi,
82671,CN,13,Zhaosu,
82672,CN,2,Lanju,
82673,CN,31,Wenlian,
82674,CN,2,Silu,
82675,CN,16,Mingwang,
82676,CN,32,Tangchang,
82677,CN,4,Fengxian,
82678,CN,24,Sunchuang,
82679,CN,13,Moyu,
82680,CN,3,Luopu,
82681,CN,33,Pishan,
82682,CN,18,Haima,
82683,CN,1,Guichi,
82684,CN,1,Huoxing,
82685,CN,24,Tahua,
82686,CN,26,Longtou,
82687,CN,13,Kuche,
82688,CN,13,Wensu,
82689,CN,30,Taixian,
82690,CN,13,Shaya,
82691,CN,18,Santuan,
82692,CN,4,Chenbao,
82693,CN,13,Awati,
82694,CN,16,Yuma,
82695,CN,1,Lingji,
82696,CN,31,Yifenchang,
82697,CN,24,Sanlou,
82698,CN,13,Gaoquan,
82699,CN,2,Qianzhao,
82700,CN,9,Bagang,
82701,CN,23,Minghang,
82702,CN,11,Taohuayuan,
82703,CN,13,Nalati,
82704,CN,7,Wuqu,
82705,CN,11,Wanjing,
82706,CN,19,Nandao,
82707,CN,31,Yongdong,
82708,CN,1,Yuer,
82709,CN,16,Luoya,
82710,CN,16,Zhilang,
82711,CN,15,Dongdong,
82712,CN,18,Niba,
82713,CN,7,Dafang,
82714,CN,3,Xiaozhu,
82715,CN,20,Azhong,
82716,CN,2,Xiaxue,
82717,CN,19,Fangyi,
82718,CN,10,Liuzhong,
82719,CN,7,Daqian,
82720,CN,9,Yanjin,
82721,CN,24,Congshan,
82722,CN,31,Shuijiao,
82723,CN,5,Anguan,
82724,CN,18,Buzheng,
82725,CN,30,Sihe,
82726,CN,32,Wenjing,
82727,CN,25,Changkuan,
82728,CN,7,Jiaren,
82729,CN,11,Yanxiaojing,
82730,CN,3,Xianyuan,
82731,CN,31,Hesheng,
82732,CN,25,Laohu,
82733,CN,9,Minchi,
82734,CN,7,Yunlong,
82735,CN,4,Yiju,
82736,CN,30,Liyue,
82737,CN,7,Keling,
82738,CN,7,Zhentou,
82739,CN,7,Kangwei,
82740,CN,12,Aijia,
82741,CN,24,Jiahan,
82742,CN,11,Hongjiang,
82743,CN,11,Maoyuan,
82744,CN,24,Xiangfen,
82745,CN,22,Xiaowu,
82746,CN,25,Yingao,
82747,CN,22,Tongxian,
82748,CN,3,Yihuang,
82749,CN,16,Dumo,
82750,CN,24,Zhangming,
82751,CN,25,Songlin,
82752,CN,16,Langping,
82753,CN,7,Shenxi,
82754,CN,29,Yongbao,
82755,CN,11,Xinning,
82756,CN,29,Tongdian,
82757,CN,31,Hongwu,
82758,CN,24,Yuangqu,
82759,CN,9,Wulidian,
82760,CN,25,Guanyi,
82761,CN,11,Hongjin,
82762,CN,19,Yunlin,
82763,CN,26,Guoqi,
82764,CN,18,Lianqiang,
82765,CN,7,Zhongxian,
82766,CN,7,Xiahu,
82767,CN,32,Jingyan,
82768,CN,23,Tagang,
82769,CN,3,Guandong,
82770,CN,10,Jizhou,
82771,CN,7,Fengtian,
82772,CN,1,Chengying,
82773,CN,30,Xiangang,
82774,CN,3,Xingtian,
82775,CN,18,Kaijian,
82776,CN,8,Haokang,
82777,CN,30,Yanzhen,
82778,CN,32,Youqing,
82779,CN,12,Yingzhong,
82780,CN,31,Huiwen,
82781,CN,19,Lingyuan,
82782,CN,7,Yuezhou,
82783,CN,15,Xiaojin,
82784,CN,18,Huakung,
82785,CN,2,Chuanyi,
82786,CN,5,Shuangyang,
82787,CN,18,Mingying,
82788,CN,32,Badi,
82789,CN,31,Xiyong,
82790,CN,10,Guofang,
82791,CN,7,Shiju,
82792,CN,1,Hengguan,
82793,CN,7,Jiuling,
82794,CN,30,Yanzhuang,
82795,CN,10,Zhengji,
82796,CN,2,Andong,
82797,CN,25,Zhangfang,
82798,CN,7,Tuling,
82799,CN,9,Zhiping,
82800,CN,26,Puxi,
82801,CN,3,Shanggai,
82802,CN,30,Zhangshi,
82803,CN,1,Shengfeng,
82804,CN,7,Leishi,
82805,CN,7,Gaodi,
82806,CN,7,Xiyan,
82807,CN,7,Danyun,
82808,CN,25,Zhonghan,
82809,CN,29,Yezhi,
82810,CN,26,Zhongmiao,
82811,CN,33,Danfeng,
82812,CN,29,Dongbo,
82813,CN,30,Yanhong,
82814,CN,29,Liude,
82815,CN,16,Dapin,
82816,CN,24,Qiucun,
82817,CN,9,Chongyang,
82818,CN,25,Xiaozheng,
82819,CN,2,Shangge,
82820,CN,30,Wangping,
82821,CN,11,Xizhong,
82822,CN,31,Beili,
82823,CN,18,Bayong,
82824,CN,1,Guangxing,
82825,CN,5,Weitang,
82826,CN,30,Yongshui,
82827,CN,25,Gushan,
82828,CN,25,Lijin,
82829,CN,16,Qinghu,
82830,CN,7,Doushan,
82831,CN,11,Tanshi,
82832,CN,2,Nianbadu,
82833,CN,7,Sidu,
82834,CN,7,Wanyao,
82835,CN,25,Zhangcun,
82836,CN,7,Shuangxikou,
82837,CN,3,Shangguan,
82838,CN,24,Fendi,
82839,CN,11,Paixi,
82840,CN,24,Yuci,
82841,CN,7,Dongxia,
82842,CN,1,Songjing,
82843,CN,25,Weixian,
82844,CN,19,Dongling,
82845,CN,15,Qishou,
82846,CN,30,Longbei,
82847,CN,10,Fengrun,
82848,CN,24,Shuyi,
82849,CN,24,Wanghui,
82850,CN,15,Heshui,
82851,CN,7,Xinquan,
82852,CN,7,Jintang,
82853,CN,9,Puyan,
82854,CN,1,Shier,
82855,CN,10,Hsinhai,
82856,CN,2,Qiancang,
82857,CN,24,Qianping,
82858,CN,2,Xiangzhu,
82859,CN,7,Jinao,
82860,CN,12,Zhifang,
82861,CN,7,Dongban,
82862,CN,26,Liquan,
82863,CN,1,Xiangji,
82864,CN,18,Jiaqing,
82865,CN,26,Liangyi,
82866,CN,19,Junmin,
82867,CN,18,Jianqing,
82868,CN,30,Enping,
82869,CN,2,Yafang,
82870,CN,5,Qingbei,
82871,CN,11,Shijian,
82872,CN,30,Guanghai,
82873,CN,3,Nankang,
82874,CN,5,Antu,
82875,CN,8,Acheng,
82876,CN,30,Fengshuba,
82877,CN,7,Tianmei,
82878,CN,20,Huadeng,
82879,CN,1,Zhangpu,
82880,CN,1,Yuhan,
82881,CN,30,Sihui,
82882,CN,11,Luoxi,
82883,CN,29,Nansha,
82884,CN,4,Jiangpu,
82885,CN,31,Jiajing,
82886,CN,8,Hualu,
82887,CN,7,Baohu,
82888,CN,11,Huabi,
82889,CN,26,Huayin,
82890,CN,9,Yingsi,
82891,CN,24,Puzhou,
82892,CN,31,Meiao,
82893,CN,21,Shutai,
82894,CN,24,Baode,
82895,CN,21,Helan,
82896,CN,31,Jiayun,
82897,CN,24,Xichu,
82898,CN,24,Suyang,
82899,CN,16,Sushe,
82900,CN,7,Yunping,
82901,CN,9,Suping,
82902,CN,12,Liangyu,
82903,CN,18,Chenyüan,
82904,CN,11,Yangshi,
82905,CN,18,Kaiwang,
82906,CN,7,Wulin,
82907,CN,7,Guoping,
82908,CN,9,Lushan,
82909,CN,30,Yuantian,
82910,CN,7,Renjia,
82911,CN,29,Pingda,
82912,CN,10,Jiaguang,
82913,CN,8,Jianmin,
82914,CN,33,Zijian,
82915,CN,10,Disan,
82916,CN,2,Shaofei,
82917,CN,2,Qingma,
82918,CN,9,Xixiang,
82919,CN,10,Sanling,
82920,CN,10,Shunchuang,
82921,CN,24,Lushang,
82922,CN,24,Zaojiao,
82923,CN,25,Zhenglu,
82924,CN,2,Wuniu,
82925,CN,16,Yanghe,
82926,CN,10,Sankeshu,
82927,CN,2,Yueqing,
82928,CN,1,Xuanzhou,
82929,CN,10,Nanpi,
82930,CN,19,Dengta,
82931,CN,25,Wangcun,
82932,CN,11,Shangshi,
82933,CN,3,Gaoxing,
82934,CN,24,Longgong,
82935,CN,10,Lingshou,
82936,CN,25,Changjia,
82937,CN,31,Yingwen,
82938,CN,3,Shebei,
82939,CN,10,Fengzhou,
82940,CN,7,Longjin,
82941,CN,22,Shangwan,
82942,CN,25,Litao,
82943,CN,14,Piju,
82944,CN,12,Chenghe,
82945,CN,11,Shuangshan,
82946,CN,15,Caiqi,
82947,CN,25,Huangjia,
82948,CN,25,Anti,
82949,CN,7,Taozhou,
82950,CN,31,Xinming,
82951,CN,11,Minan,
82952,CN,11,Zhushi,
82953,CN,1,Guowei,
82954,CN,2,Zhengzhong,
82955,CN,7,Xiqi,
82956,CN,11,Dashi,
82957,CN,11,Sankuan,
82958,CN,30,Sanpu,
82959,CN,31,Xiangming,
82960,CN,21,Jianquan,
82961,CN,32,Guanzhuang,
82962,CN,12,Liusheng,
82963,CN,7,Haoyang,
82964,CN,25,Shouzhang,
82965,CN,3,Huangqiang,
82966,CN,7,Luobin,
82967,CN,30,Tuocheng,
82968,CN,18,Zhengping,
82969,CN,25,Wangfen,
82970,CN,11,Shuliang,
82971,CN,2,Shijing,
82972,CN,18,Xinjing,
82973,CN,1,Yixian,
82974,CN,30,Pingshan,
82975,CN,4,Zhenze,
82976,CN,8,Wolitun,
82977,CN,24,Limin,
82978,CN,25,Liji,
82979,CN,7,Feishi,
82980,CN,18,Gaowang,
82981,CN,10,Xiasi,
82982,CN,7,Xinxu,
82983,CN,7,Puqian,
82984,CN,11,Guishan,
82985,CN,30,Xingtan,
82986,CN,19,Shenglicun,
82987,CN,5,Helong,
82988,CN,1,Wangge,
82989,CN,9,Jiadian,
82990,CN,29,Dongchuan,
82991,CN,30,Yangcheng,
82992,CN,24,Qiuquan,
82993,CN,1,Jiutian,
82994,CN,25,Kunyü,
82995,CN,2,Lanting,
82996,CN,7,Shiliao,
82997,CN,10,Yuanbao,
82998,CN,4,Guolin,
82999,CN,31,Baocheng,
83000,CN,11,Dashun,
83001,CN,18,Yongcheng,
83002,CN,19,Shoushan,
83003,CN,25,Shimei,
83004,CN,7,Chencheng,
83005,CN,11,Xima,
83006,CN,2,Lushu,
83007,CN,22,Beijing,100000
83008,CN,32,Chengdu,610021
83009,CN,25,Jiaonan,
83010,CN,4,Lingmin,
83011,CN,11,Juntang,
83012,CN,26,Lung,
83013,CN,25,Sunji,
83014,CN,11,Liren,
83015,CN,11,Xintang,
83016,CN,18,Kuala,
83017,CN,2,Linpu,
83018,CN,4,Mingling,
83019,CN,20,Huade,
83020,CN,7,Shangjie,
83021,CN,19,Huajianzi,
83022,CN,3,Jigao,
83023,CN,15,Yunchan,
83024,CN,26,Yixue,
83025,CN,33,Jielong,
83026,CN,11,Pengjia,
83027,CN,7,Xuepan,
83028,CN,30,Jianghong,
83029,CN,3,Fangli,
83030,CN,18,Xuedong,
83031,CN,31,Lingcheng,
83032,CN,2,Yaolin,
83033,CN,11,Weixi,
83034,CN,3,Lintan,
83035,CN,11,Xiahe,
83036,CN,30,Haikang,
83037,CN,31,Lanxun,
83038,CN,30,Gaoyao,
83039,CN,7,Baiyi,
83040,CN,16,Dekang,
83041,CN,8,Hada,
83042,CN,24,Dawa,
83043,CN,14,Pubu,
83044,CN,29,Zhaxi,
83045,CN,4,Mima,
83046,CN,26,Puchi,
83047,CN,10,Kangma,
83048,CN,20,Yadong,
83049,CN,14,Saga,
83050,CN,18,Ganba,
83051,CN,14,Dingri,
83052,CN,14,Bomi,
83053,CN,14,Milin,
83054,CN,18,Biyou,
83055,CN,18,Zuogong,
83056,CN,32,Luolong,
83057,CN,14,Biru,
83058,CN,18,Pulang,
83059,CN,1,Geji,
83060,CN,11,Zhaping,
83061,CN,18,Yingjie,
83062,CN,23,Nanhui,
83063,CN,3,Zhangshu,
83064,CN,28,Tanggu,
83065,CN,7,Yingshan,
83066,CN,12,Huangmei,
83067,CN,3,Luotian,
83068,CN,7,Xike,
83069,CN,3,Dadu,
83070,CN,16,Jiuya,
83071,CN,32,Jiajiang,
83072,CN,7,Dingtian,
83073,CN,18,Datu,
83074,CN,2,Shengxi,
83075,CN,31,Wenjie,
83076,CN,2,Qianda,
83077,CN,7,Houzhu,
83078,CN,18,Qingyan,
83079,CN,9,Renji,
83080,CN,11,Xiaokai,
83081,CN,30,Luofu,
83082,CN,18,Shiqian,
83083,CN,2,Zhonggongmiao,
83084,CN,29,Xiaojie,
83085,CN,24,Wenshui,
83086,CN,30,Xuwen,
83087,CN,11,Xingsha,
83088,CN,30,Zengguang,
83089,CN,3,Zhanqian,
83090,CN,5,Xilin,
83091,CN,25,Beizhan,
83092,CN,30,Dongbei,
83093,CN,3,Tangwei,
83094,CN,30,Huanshi,
83095,CN,3,Meijiang,
83096,CN,26,Caotang,
83097,CN,7,Nanao,
83098,CN,25,Buji,
83099,CN,11,Shuijing,
83100,CN,3,Yükan,
83101,CN,30,Tangkeng,
83102,CN,30,Meixian,
83103,CN,12,Xinyan,
83104,CN,30,Lianghua,
83105,CN,18,Anliu,
83106,CN,11,Xianxia,
83107,CN,11,Shuiyin,
83108,CN,30,Shatoujiao,
83109,CN,3,Henggang,
83110,CN,30,Chünhu,
83111,CN,30,Danxia,
83112,CN,10,Changli,
83113,CN,7,Longping,
83114,CN,16,Aiguo,
83115,CN,7,Liantang,
83116,CN,9,Baohe,
83117,CN,30,Bainikeng,
83118,CN,4,Suicheng,
83119,CN,30,Xiashanqu,
83120,CN,30,Meilu,
83121,CN,11,Lukou,
83122,CN,11,Yuejin,
83123,CN,30,Naozhou,
83124,CN,2,Lucun,
83125,CN,25,Mazhan,
83126,CN,25,Machi,
83127,CN,5,Biangang,
83128,CN,30,Dadao,
83129,CN,30,Mazhang,
83130,CN,29,Lüchun,
83131,CN,24,Xiaxian,
83132,CN,30,Wendong,
83133,CN,20,Hulun,
83134,CN,3,Caoxi,
83135,CN,31,Sanqu,
83136,CN,29,Gumu,
83137,CN,7,Wushizhen,
83138,CN,30,Nanshui,
83139,CN,3,Liuling,
83140,CN,24,Dingxiang,
83141,CN,2,Wutongshan,
83142,CN,7,Dongmen,
83143,CN,5,Tianbei,
83144,CN,7,Nanguang,
83145,CN,33,Jiaoshi,
83146,CN,30,Wujingfu,
83147,CN,11,Baotian,
83148,CN,30,Leicheng,
83149,CN,3,Shangzhu,
83150,CN,25,Qingping,
83151,CN,11,Longkouxi,
83152,CN,3,Panshan,
83153,CN,30,Gongming,
83154,CN,30,Meitang,
83155,CN,10,Baoshui,
83156,CN,26,Loufang,
83157,CN,11,Songshan,
83158,CN,3,Fengjiang,
83159,CN,32,Tianba,
83160,CN,10,Donglü,
83161,CN,18,Youba,
83162,CN,18,Wuyang Zhen,
83163,CN,30,Guxu,
83164,CN,30,Xinggang,
83165,CN,30,Xilu,
83166,CN,30,Zhenlong,
83167,CN,33,Shuikou,
83168,CN,30,Dunhou,
83169,CN,7,Erlou,
83170,CN,11,Shijiang,
83171,CN,7,Aotou,
83172,CN,30,Xinliao,
83173,CN,7,Gubei,
83174,CN,30,Danchang,
83175,CN,25,Liangcheng,
83176,CN,22,Lugouqiao,
83177,CN,22,Anding,
83178,CN,25,Lianhuachi,
83179,CN,11,Eshi,
83180,CN,11,Danyuan,
83181,CN,3,Anyuan,
83182,CN,19,Xisi,
83183,CN,22,Yangfang,
83184,CN,33,Banqiao,
83185,CN,22,Jiuxianqiao,
83186,CN,22,Changxindian,
83187,CN,3,Tongfang,
83188,CN,19,Dongsi,
83189,CN,22,Panggezhuang,
83190,CN,10,Heishitou,
83191,CN,18,Kaide,
83192,CN,22,Landianchang,
83193,CN,7,Jiangfang,
83194,CN,10,Xifucun,
83195,CN,22,Shijingshan,
83196,CN,1,Zhengwumiao,
83197,CN,18,Azuo,
83198,CN,23,Zhujiajiao,
83199,CN,10,Jiasong,
83200,CN,32,Baiwang,
83201,CN,22,Moshikou,
83202,CN,4,Rudong,
83203,CN,16,Lingui,
83204,CN,30,Beijiao,
83205,CN,13,Yanqi,
83206,CN,25,Jimo,
83207,CN,7,Fuhou,
83208,CN,19,Huandong,
83209,CN,30,Houjie,
83210,CN,7,Shouning,
83211,CN,30,Gongbei,
83212,CN,4,Changshu,
83213,CN,4,Gushan,
83214,CN,23,Pudong,
83215,CN,30,Zhongshan,
83216,CN,23,Changning,
83217,CN,23,Zhudi,
83218,CN,23,Xinqiao,
83219,CN,12,Dawu,
83220,CN,30,Dongzhen,
83221,CN,5,Anshi,
83222,CN,10,Shijiazhuang,
83223,CN,10,Jiazhuang,
83224,CN,2,Wencheng,
83225,CN,11,Dalin,
83226,CN,25,Yatou,
83227,CN,2,Yongkang,
83228,CN,4,Haimen,
83229,CN,23,Songjiang,
83230,CN,4,Xinghua,
83231,CN,4,Huaian,
83232,CN,12,Zhijiang,
83233,CN,5,Siping,
83234,CN,25,Zouping,
83235,CN,19,Beijing,
83236,CN,2,Zhoushan,
83237,CN,2,Shuitou,
83238,CN,24,Ruicheng,
83239,CN,24,Yangquan,
83240,CN,12,Huangshi,
83241,CN,7,Puyang,
83242,CN,23,Hongqiao,
83243,CN,22,Changyang,
83244,CN,10,Xian,
83245,CN,30,Puning,
83246,CN,1,Qianshan,
83247,CN,2,Jiashan,
83248,CN,3,Fuzhou,
83249,CN,20,Baotou,
83250,CN,16,Hechi,
83251,CN,7,Nanping,
83252,CN,15,Chang,
83253,CN,19,Diaobingshan,
83254,CN,8,Foshan,
83255,CN,25,Chengyang,
83256,CN,24,Qinshui,
83257,CN,24,Tai,
83258,CN,25,Changdao,
83259,CN,2,Qingtao,
83260,CN,2,Pinghu,
83261,CN,2,Fenghua,
83262,CN,30,Dangan,
83263,CN,7,Changle,
83264,CN,12,Nanzhang,
83265,CN,1,Xuxu,
83266,CN,30,Yingde,
83267,CN,1,Suzhou,
83268,CN,8,Daqing,
83269,CN,25,Zeku,
83270,CN,5,Zhengjiatun,
83271,CN,25,Baoji,
83272,CN,30,Dongwancun,
83273,CN,19,Pulandian,
83274,CN,1,Wujiang,
83275,CN,2,Shangyu,
83276,CN,10,Hejian,
83277,CN,9,Dengzhou,
83278,CN,8,Xian,
83279,CN,13,Kuytun,
83280,CN,24,Pianguan,
83281,CN,13,Aksu,
83282,CN,2,Yongjia,
83283,CN,5,Lishu,
83284,CN,32,Zitong,
83285,CN,11,Ling,
83286,CN,30,Shekou,
83287,CN,4,Taicang,
83288,CN,4,Xichang,
83289,CN,4,Yixing,
83290,CN,7,Junying,
83291,CN,3,Haikou,
83292,CN,12,Zaoyang,
83293,CN,16,Cenxi,
83294,CN,31,Nandan,
83295,CN,29,Baoshan,
83296,CN,11,Jianghua,
83297,CN,7,Mayang,
83298,CN,1,Minxian,
83299,CN,20,Manzhouli,
83300,CN,13,Luntai,
83301,CN,3,Yichun,
83302,CN,25,Yancheng,
83303,CN,11,Liling,
83304,CN,1,Liuyang,
83305,CN,32,Zhongjiang,
83306,CN,7,Libing,
83307,CN,32,Shifang,
83308,CN,7,Taiyuan Shi,
83309,CN,2,Yiwu,
83310,CN,1,Xuancheng,
83311,CN,16,Guigang,
83312,CN,2,Ruili,
83313,CN,2,Zhangan,
83314,CN,2,Qingbei,
83315,CN,9,Yongcheng,
83316,CN,12,Yunmeng,
83317,CN,32,Tianquan,
83318,CN,10,Pingxiang,
83319,CN,9,Xiangcheng,
83320,CN,2,Dongyang,
83321,CN,16,Yangshuo,
83322,CN,2,Cixi,
83323,CN,2,Xian,
83324,CN,19,Dashiqiao,
83325,CN,5,Longjing,
83326,CN,7,Changsha,
83327,CN,1,Santa,
83328,CN,7,Nanchang,
83329,CN,5,Jian,
83330,CN,25,Ningjin,
83331,CN,32,Linshui,
83332,CN,10,Daping,
83333,CN,7,Qingdao,
83334,CN,2,Xinjiang,
83335,CN,16,Guiping,
83336,CN,9,Hejian,
83337,CN,11,Liuyang,
83338,CN,23,Yangpu,
83339,CN,20,Solon,
83340,CN,30,Yejiaozui,
83341,CN,31,Linchun,
83342,CN,30,Luoding,
83343,CN,1,Huangshan,
83344,CN,7,Pingtan,
83345,CN,10,Dongguan,
83346,CN,1,Guixi,
83347,CN,3,Gaoan,
83348,CN,2,Yunhe,
83349,CN,20,Wuchuan,
83350,CN,15,Tianshui,
83351,CN,30,Heshan,
83352,CN,22,Gaobeidian,
83353,CN,4,Quanzhou,
83354,CN,2,Daqing,
83355,CN,12,Lichuan,
83356,CN,2,Shenzhen,
83357,CN,12,Wuchang,
83358,CN,32,Meishan,
83359,CN,9,Lingbao,
83360,CN,7,Wuhang,
83361,CN,24,Beijing,
83362,CN,1,Cixi,
83363,CN,2,Sanmen,
83364,CN,24,Beiliu,
83365,CN,11,Yuanling,
83366,CN,7,Songxi,
83367,CN,19,Beipiao,
83368,CN,20,Yakeshi,
83369,CN,30,Lecong,
83370,CN,2,Cheng,
83371,CN,30,Lipu,
83372,CN,30,Dalang,
83373,CN,30,Futian,
83374,CN,32,Dazhu,
83375,CN,12,Rongcheng,
83376,CN,1,Baiyin,
83377,CN,23,Jingan,
83378,CN,30,Nanhai,
83379,CN,1,Dingyuan,
83380,CN,32,Longchang,
83381,CN,30,Zhangmutou,
83382,CN,7,Bading,
83383,CN,11,Jinzhou,
83384,CN,7,Nanan,
83385,CN,25,Qingyang,
83386,CN,25,Wenling,
83387,CN,19,Wafangdian,
83388,CN,25,Huang,
83389,CN,11,Tanwan,
83390,CN,29,Yuanjiang,
83391,CN,7,Haicheng,
83392,CN,16,Lianzhou,
83393,CN,20,Linhe,
83394,CN,30,Huanggang,
83395,CN,10,Xinji,
83396,CN,33,Fengdu,
83397,CN,1,Zhongxin,
83398,CN,5,Tonghua,
83399,CN,30,Fengcheng,
83400,CN,24,Luoyang,
83401,CN,1,Lian,
83402,CN,30,Chino,
83403,CN,2,Haiyan,
83404,CN,1,Guanghan,
83405,CN,1,Tongcheng,
83406,CN,16,Zhanjiang,
83407,CN,10,Yanshan,
83408,CN,8,Binzhou,
83409,CN,5,Baishan,
83410,CN,33,Zhongxian,
83411,CN,4,Changsha,
83412,CN,7,Wangyang,
83413,CN,32,Huaguo,
83414,CN,8,Beian,
83415,CN,2,Shangtan,
83416,CN,20,Shantan,
83417,CN,33,Baiyang,
83418,CN,4,Chengqiao,
83419,CN,19,Qinjian,
83420,CN,7,Shanglin,
83421,CN,24,Huting,
83422,CN,16,Chengzhong,
83423,CN,2,Xiaonanhai,
83424,CN,4,Qinnan,
83425,CN,2,Huabu,
83426,CN,25,Zhanjia,
83427,CN,3,Xiajie,
83428,CN,31,Longlan,
83429,CN,30,Wuyun,
83430,CN,1,Yaqian,
83431,CN,3,Wuyuan,
83432,CN,7,Lintian,
83433,CN,18,Yugu,
83434,CN,10,Hexia,
83435,CN,3,Yangang,
83436,CN,2,Miaogao,
83437,CN,2,Haiyou,
83438,CN,11,Yueshan,
83439,CN,9,Changdai,
83440,CN,11,Sangzhi,
83441,CN,2,Panhuo,
83442,CN,7,Xiacheng,
83443,CN,2,Tongpu,
83444,CN,33,Anlan,
83445,CN,5,Songhuajiang,
83446,CN,3,Shangshe,
83447,CN,33,Zijing,
83448,CN,23,Lingqiao,
83449,CN,7,Xiaoshao,
83450,CN,10,Changdi,
83451,CN,7,Xinzhong,
83452,CN,30,Mayuan,
83453,CN,10,Changguo,
83454,CN,24,Gouzhuang,
83455,CN,11,Xinwan,
83456,CN,2,Yandangshan,
83457,CN,7,Lingli,
83458,CN,2,Huanshan,
83459,CN,11,Dukou,
83460,CN,2,Guoju,
83461,CN,5,Fanrong,
83462,CN,2,Chenpodu,
83463,CN,30,Tucheng,
83464,CN,24,Shangwang,
83465,CN,2,Kexi,
83466,CN,3,Nanlin,
83467,CN,7,Changpu,
83468,CN,7,Pingcheng,
83469,CN,32,Luoyan,
83470,CN,7,Qiaoxi,
83471,CN,12,Chengdian,
83472,CN,25,Nanma,
83473,CN,16,Pubei,
83474,CN,7,Jiaoyang,
83475,CN,7,Shangzhai,
83476,CN,18,Jiaoyan,
83477,CN,30,Yishen,
83478,CN,2,Qiao,
83479,CN,9,Dafeng,
83480,CN,12,Wuxue,
83481,CN,30,Shanwei,
83482,CN,7,Zhicheng,
83483,CN,15,Qingyang,
83484,CN,1,Fengtai,
83485,CN,1,Anshan,
83486,CN,3,Putian,
83487,CN,2,Xinchang,
83488,CN,9,Xianju,
83489,CN,24,Yongji,
83490,CN,24,Linyi,
83491,CN,1,Jinzhong,
83492,CN,23,Qingpu,
83493,CN,26,Sanyuan,
83494,CN,16,Xiangzhou,
83495,CN,1,Taiyuan,
83496,CN,11,Yuanjiang,
83497,CN,18,Wengan,
83498,CN,3,Wanzai,
83499,CN,1,Gaoan,
83500,CN,10,Anyang,
83501,CN,12,Guangshui,
83502,CN,22,Miyun,
83503,CN,26,Jingbian,
83504,CN,7,Nanjing,
83505,CN,9,Hanzhong,
83506,CN,1,Guzhen,
83507,CN,1,Qingyang,
83508,CN,7,Renshou,
83509,CN,30,Guandu,
83510,CN,10,Bazhou,
83511,CN,2,Linan,
83512,CN,2,Longquan,
83513,CN,1,Xuchang,
83514,CN,24,Xinmin,
83515,CN,9,Zhecheng,
83516,CN,7,Xian,
83517,CN,24,Xiaoyi,
83518,CN,24,Lishi,
83519,CN,7,Hengyang,
83520,CN,15,Ninyuan,
83521,CN,23,Hongkou,
83522,CN,19,Kaiyuan,
83523,CN,15,Cheng,
83524,CN,32,Jianyang,
83525,CN,7,Shuitou,
83526,CN,25,Haiyang,
83527,CN,11,Shaodong,
83528,CN,10,Nanyang,
83529,CN,9,Zhuqu,
83530,CN,30,Kungming,
83531,CN,32,Kaiyü,
83532,CN,26,Tsun,
83533,CN,11,Baiyu,
83534,CN,33,Dalu,
83535,CN,12,Zuoyu,
83536,CN,1,Yudian,
83537,CN,7,Xushi,
83538,CN,18,Luqing,
83539,CN,10,Qiyu,
83540,CN,1,Songxu,
83541,CN,26,Taiyu,
83542,CN,2,Meixu,
83543,CN,26,Baiqu,
83544,CN,12,Yuyue,
83545,CN,25,Chiyü,
83546,CN,31,Yayu,
83547,CN,30,Yuhu,
83548,CN,2,Mada,
83549,CN,2,Lingkun,
83550,CN,18,Yuming,
83551,CN,24,Dingyu,
83552,CN,7,Yuching,
83553,CN,31,Baoyu,
83554,CN,30,Baoxu,
83555,CN,24,Fengyu,
83556,CN,29,Xujie,
83557,CN,30,Xusong,
83558,CN,32,Yufeng,
83559,CN,4,Yanxu,
83560,CN,15,Parma,
83561,CN,14,Bar,
83562,CN,18,Yuchong,
83563,CN,9,Xuliang,
83564,CN,24,Youyu,
83565,CN,1,Xugang,
83566,CN,9,Songyu,
83567,CN,9,Wuqiu,
83568,CN,22,Wulu,
83569,CN,30,Jianggao,
83570,CN,31,Wenchang,
83571,CN,1,Feidong,
83572,CN,25,Zhaocheng,
83573,CN,23,Jiading,
83574,CN,16,Luzhai,
83575,CN,23,Xujing,
83576,CN,30,Luoyang,
83577,CN,9,Changge,
83578,CN,24,Nanyang,
83579,CN,23,Hangtou,
83580,CN,30,Suixi,
83581,CN,24,Hanchuan,
83582,CN,9,Xihua,
83583,CN,16,Beiliu,
83584,CN,5,Kouqian,
83585,CN,24,Wanrong,
83586,CN,30,Sha Tau Kok,
83587,CN,10,Yizhou,
83588,CN,9,Wugang,
83589,CN,7,Xinqiao,
83590,CN,7,Emeishan,
83591,CN,4,Changshushi,
83592,CN,11,Lengshuijiang,
83593,CN,10,Weichang,
83594,CN,30,Jiexi,
83595,CN,3,Fenyi,
83596,CN,10,Wuyi,
83597,CN,5,Huinan,
83598,CN,11,Rucheng,
83599,CN,32,Beichuan,
83600,CN,11,Shuangfeng,
83601,CN,16,Pingnan,
83602,CN,23,Xinchang,
83603,CN,4,Jiangdu,
83604,CN,29,Lianran,
83605,CN,7,Xiamei,
83606,CN,22,Songzhuang,
83607,CN,2,Chumen,
83608,CN,33,Dianjiang,
83609,CN,23,Baoshan,
83610,CN,8,Suifenhe,
83611,CN,22,Wangjing,
83612,CN,12,Zhuxi,
83613,CN,4,Guabu,
83614,CN,7,Guankou,
83615,CN,29,Changning,
83616,CN,23,Sijing,
83617,CN,9,Xichuan,
83618,CN,9,Putian,
83619,CN,25,Dengzhou,
83620,CN,24,Yangcheng,
83621,CN,7,Zhangban,
83622,CN,2,Jinyun,
83623,CN,22,Gaoliying,
83624,CN,22,Pinggu,
83625,CN,16,Yongzhou,
83626,CN,7,Zherong,
83627,CN,16,Guanyang,
83628,CN,16,Luchuan,
83629,CN,32,Cangxi,
83630,CN,12,Caohe,
83631,CN,29,Yanjin,
83632,CN,30,Lechang,
83633,CN,1,Jixi,
83634,CN,24,Xiamen,
83635,CN,4,Guazhou,
83636,CN,1,Changhu,
83637,CN,4,Guanyun,
83638,CN,19,Yingkow,
83639,CN,9,Qinyang,
83640,CN,9,Lankao,
83641,CN,32,Puge,
83642,CN,30,Dabu,
83643,CN,4,Hengliaojing,
83644,CN,1,Qianyanwa,
83645,CN,23,Chongming,
83646,CN,1,Guoyang,
83647,CN,23,Zhoupu,
83648,CN,30,Guangzhouyiyaogongsi,
83649,CN,26,Liuba,
83650,CN,16,Fuchuan,
83651,CN,19,Dalinghe,
83652,CN,11,Chenggongtang,
83653,CN,2,Changchiatai,
83654,CN,23,Anting,
83655,CN,19,Liaozhong,
83656,CN,30,Lishui,
83657,CN,30,Zhudongdou,
83658,CN,22,Qingbaikou,
83659,CN,11,Mayang,
83660,CN,30,Dongwan,
83661,CN,30,Yayao,
83662,CN,24,Qingxu,
83663,CN,11,Shuangpai,
83664,CN,25,Gaoshan,
83665,CN,10,Yixian,
83666,CN,32,Hongya,
83667,CN,30,Xixiang,
83668,CN,30,Shekpai,
83669,CN,19,Guizhou,
83670,CN,23,Chowpu,
83671,CN,24,Taiyuan Shi,
83672,CN,20,Jinlin,
83673,CN,11,Beijinggang,
83674,CN,22,Zhuwo,
83675,CN,20,Baotou Shi,
83676,CN,3,Hotan,
83677,CN,32,Pengzhen,
83678,CN,4,Dadangli,
83679,CN,2,Shaibang,
83680,CN,33,Lianglu,
83681,CN,30,Bijiang,
83682,CN,24,Yuguo,
83683,CN,23,Datuan,
83684,CN,4,Weiting,
83685,CN,28,Jixian,
83686,CN,2,Leping Xiang,
83687,CN,22,Muchengjian,
83688,CN,24,Chi,
83689,CN,30,Xingcha,
83690,CN,7,Jiling,
83691,CN,33,Dazu,
83692,CN,9,Pingyu,
83693,CN,22,Dongbangezhuang,
83694,CN,4,Wuwei,
83695,CN,1,Hexian,
83696,CN,2,Yuecheng,
83697,CN,30,Wanzai,
83698,CN,4,Tangtouchiaochen,
83699,CN,4,Yanghsiangching,
83700,CN,11,Hongqiaotou,
83701,CN,30,Chüntien,
83702,CN,30,Tanghsia,
83703,CN,30,Zhongchong,
83704,CN,12,Liushikou,
83705,CN,25,Suliu,
83706,CN,7,Niuxie,
83707,CN,4,Yussuchen,
83708,CN,4,Shihchiachiaochen,
83709,CN,4,Weitingchen,
83710,CN,23,Chonggu,
83711,CN,7,Liuzhai,
83712,CN,30,Dongan,
83713,CN,30,Chentongxu,
83714,CN,10,Daguandi,
83715,CN,25,Liubu,
83716,CN,1,Linye Chachang,
83717,CN,22,Taihezhuang,
83718,CN,25,Yangchuang,
83719,CN,2,Nanaotsun,
83720,CN,2,Wengchiafou,
83721,CN,2,Liuliang,
83722,CN,25,Chengchiachuang,
83723,CN,25,Nanduozhuang,
83724,CN,2,Hsiehtang,
83725,CN,32,Chingpaichiang,
83726,CN,30,Caojiang,
83727,CN,2,Hengao,
83728,CN,26,Sanchiaochen,
83729,CN,9,Handongzhuang,
83730,CN,11,Huangbo,
83731,CN,2,Yirencun,
83732,CN,2,Dayin,
83733,CN,30,Loucun,
83734,CN,2,Shierdu,
83735,CN,1,Huanglienpu,
83736,CN,4,Daxujia,
83737,CN,9,Houyingzhuang,
83738,CN,4,Houchengchen,
83739,CN,33,Liuyin,
83740,CN,25,Linchuang,
83741,CN,30,Hengdang,
83742,CN,25,Shangyou,
83743,CN,4,Kaochiaochen,
83744,CN,4,Dachengqiao,
83745,CN,4,Guochuangang,
83746,CN,4,Tukulou,
83747,CN,4,Hsinchi,
83748,CN,2,Chienchingchen,
83749,CN,11,Getangsi,
83750,CN,25,Kushan,
83751,CN,4,Maochiawan,
83752,CN,9,Fenshang,
83753,CN,2,Chingchiang,
83754,CN,32,Caochi,
83755,CN,31,Minchang,
83756,CN,32,Hsintuhsien,
83757,CN,32,Hsinhsingchang,
83758,CN,30,Caitang,
83759,CN,9,Boai,
83760,CN,9,Chenputou,
83761,CN,30,Lingtounongchang,
83762,CN,28,Aotzutsui,
83763,CN,30,Tujuan,
83764,CN,30,Hengtien,
83765,CN,4,Daijiacun,
83766,CN,4,Chühsiachen,
83767,CN,3,Nanmiao,
83768,CN,9,Chungmou,
83769,CN,9,Sungchai,
83770,CN,30,Fusha,
83771,CN,4,Wangting,
83772,CN,30,Didu,
83773,CN,2,Hengshe,
83774,CN,12,Baozixie,
83775,CN,25,Hsienchiachai,
83776,CN,30,Sijiuwei,
83777,CN,12,Xinyanhe,
83778,CN,32,Hongqi,
83779,CN,2,Paikeng,
83780,CN,8,Duiqingshan,
83781,CN,25,Gaotuan,
83782,CN,25,Hantun,
83783,CN,25,Fangsi,
83784,CN,30,Maicun,
83785,CN,25,Daotian,
83786,CN,4,Miaotouchen,
83787,CN,32,Lingchiachang,
83788,CN,25,Walizhao,
83789,CN,9,Caosi,
83790,CN,9,Chiyangchi,
83791,CN,25,Chaishan,
83792,CN,25,Huamawan,
83793,CN,25,Daxindian,
83794,CN,10,Gaolincun,
83795,CN,22,Sunhe,
83796,CN,30,Longhua,
83797,CN,23,Jinqiao,
83798,CN,12,Anlu,
83799,CN,30,Zijin,
83800,CN,23,Nanqiao,
83801,CN,7,Linggen,
83802,CN,24,Shanyin,
83803,CN,33,Tongliang,
83804,CN,7,Youxi,
83805,CN,4,Zhaqiao,
83806,CN,7,Xianhou,
83807,CN,25,Chuyangchen,
83808,CN,4,Wenjiabang,
83809,CN,30,Chishih,
83810,CN,4,Xiaojiali,
83811,CN,25,Longju,
83812,CN,25,Tangchiapo,
83813,CN,4,Pujiaqiao,
83814,CN,32,Neychen,
83815,CN,4,Liujiabian,
83816,CN,25,Chingchiachuang,
83817,CN,16,Baishan,
83818,CN,8,Hulin,
83819,CN,3,Jinxi,
83820,CN,11,Hanshou,
83821,CN,4,Shengze,
83822,CN,7,Hucheng,
83823,CN,9,Shangjie,
83824,CN,3,Shanggao,
83825,CN,7,Guiling,
83826,CN,4,Sanhekou,
83827,CN,4,Nihsüchuang,
83828,CN,30,Xinjiao,
83829,CN,28,Xiaodongzhuang,
83830,CN,25,Huangjintun,
83831,CN,7,Caidian,
83832,CN,2,Baimen,
83833,CN,4,Hsiehmachiao,
83834,CN,16,Liutanghsü,
83835,CN,9,Liangzhai,
83836,CN,11,Huatian,
83837,CN,4,Chengmao,
83838,CN,33,Banan,
83839,CN,24,Fenglingdu,
83840,CN,7,Liexi,
83841,CN,32,Mianzhu,
83842,CN,30,Baishizhou,
83843,CN,29,Yongshan,
83844,CN,2,Donglin,
83845,CN,4,Lianyungang Shi,
83846,CN,30,Chenghai,
83847,CN,1,Liuzhou,
83848,CN,1,Jianguo,
83849,CN,29,Luchüan,
83850,CN,12,Tongcheng,
83851,CN,22,Dongxiaokou,
83852,CN,7,Qingliu,
83853,CN,31,Chengmaitaipinglinchang,
83854,CN,31,Namli,
83855,CN,2,Jinjiaqiao,
83856,CN,31,Jiaji,
83857,CN,4,Xinyang,
83858,CN,7,Nanzhai,
83859,CN,1,Fengyang,
83860,CN,2,Wukang,
83861,CN,19,Xifeng,
83862,CN,4,Hsütangchen,
83863,CN,15,Gaolan,
83864,CN,19,Yangmugou,
83865,CN,2,Houhsichieh,
83866,CN,11,Shuangchikou,
83867,CN,28,Shanlingtzu,
83868,CN,2,Tangkoubang,
83869,CN,9,Beiwudu,
83870,CN,2,Qingyuan,
83871,CN,19,Zhuanghe,
83872,CN,18,Qingzhen,
83873,CN,24,Zhenhe,
83874,CN,2,Songyang,
83875,CN,11,Wangcheng,
83876,CN,31,Changsha,
83877,CN,4,Rihuiba,
83878,CN,4,Yangshou,
83879,CN,26,Hsiwu,
83880,CN,32,Shachüchen,
83881,CN,25,Gaoyue,
83882,CN,12,Caidian,
83883,CN,4,Daqiwei,
83884,CN,4,Liuchiachuang,
83885,CN,4,Erhkuangchen,
83886,CN,25,Chiulinghsien,
83887,CN,4,Yinchiachiao,
83888,CN,4,Hsiehchiachi,
83889,CN,4,Chengwan,
83890,CN,7,Hufang,
83891,CN,9,Vensyan,
83892,CN,23,Hsüchiahuichen,
83893,CN,7,Shangpu,
83894,CN,7,Jinshui,
83895,CN,29,Yimen,
83896,CN,9,Shangshui,
83897,CN,11,Changning,
83898,CN,26,Hu,
83899,CN,2,Chongfu,
83900,CN,23,Zhangjiang,
83901,CN,9,Yanshi,
83902,CN,7,Danyang,
83903,CN,3,Xingguo,
83904,CN,1,Yanliu,
83905,CN,25,Yuncheng,
83906,CN,13,Kashgar,
83907,CN,25,Jinxiang,
83908,CN,23,Beicai,
83909,CN,30,Leliu,
83910,CN,23,Huinan,
83911,CN,30,Longgang,
83912,CN,3,Fengcheng,
83913,CN,1,Dongliu,
83914,CN,16,Tiane,
83915,CN,4,Yaoguanxiang,
83916,CN,12,Maomiaochi,
83917,CN,7,Liaoyan,
83918,CN,12,Wangjenpu,
83919,CN,4,Wenlin,
83920,CN,5,Qianqingshuiquanzi,
83921,CN,25,Jenlichi,
83922,CN,25,Lianghsiatien,
83923,CN,30,Niuao,
83924,CN,19,Shangwafang,
83925,CN,4,Anchen,
83926,CN,33,Yüanyangchiao,
83927,CN,11,Liaotian,
83928,CN,21,Hongguangying,
83929,CN,33,Changshou,
83930,CN,30,Changan,
83931,CN,26,Fufeng,
83932,CN,11,Ganzi,
83933,CN,18,Luodian,
83934,CN,4,Pei,
83935,CN,30,Nansha,
83936,CN,9,Zhengyang,
83937,CN,13,Altay,
83938,CN,4,Baidian,
83939,CN,32,Mianning,
83940,CN,7,Xihongtang,
83941,CN,7,Songcuo,
83942,CN,2,Hsintsangchen,
83943,CN,12,Songjiazui,
83944,CN,7,Pengtou,
83945,CN,25,Touhutun,
83946,CN,13,Diwopu,
83947,CN,30,Lingshan,
83948,CN,22,Huilongguan,
83949,CN,3,Dongxiang,
83950,CN,3,Anfu,
83951,CN,4,Shuyang,
83952,CN,1,Zhuangzhou,
83953,CN,12,Chongyang,
83954,CN,7,Bangtou,
83955,CN,9,Tangyin,
83956,CN,25,Linyihsien,
83957,CN,26,Huaxian,
83958,CN,13,Wujiaqu,
83959,CN,12,Laochouchang,
83960,CN,9,Fengzhuang,
83961,CN,30,Pingtanyü,
83962,CN,19,Shenchingtzu,
83963,CN,9,Hsingshan,
83964,CN,7,Hongcuokeng,
83965,CN,25,Chinhochuang,
83966,CN,4,Chaochiachang,
83967,CN,9,Yingqiao,
83968,CN,10,Guantao,
83969,CN,30,Fushan,
83970,CN,30,Wuchuan,
83971,CN,4,Sheyang,
83972,CN,10,Raoyang,
83973,CN,7,Shaxian,
83974,CN,10,Jinzhou,
83975,CN,25,Lanshan,
83976,CN,30,Shipai,
83977,CN,1,Dali,
83978,CN,15,Zhoujiajing,
83979,CN,9,Yiyang,
83980,CN,33,Nanchuan,
83981,CN,8,Yonganxiang,
83982,CN,4,Hsiaoichuang,
83983,CN,9,Xiaohutuo,
83984,CN,6,Pingan,
83985,CN,8,Yilan,
83986,CN,1,Linquan,
83987,CN,1,Yinli,
83988,CN,25,Hongshan,
83989,CN,2,Shuishen,
83990,CN,7,Shaban,
83991,CN,26,Hua,
83992,CN,3,Gaoshi,
83993,CN,11,Xiangdong,
83994,CN,8,Wuchang,
83995,CN,19,Shantou,
83996,CN,7,Hulin,
83997,CN,26,Mianxian,
83998,CN,30,Haifeng,
83999,CN,16,Dongxing,
84000,CN,2,Zhili,
84001,CN,11,Huanan,
84002,CN,2,Hsihuitsui,
84003,CN,30,Ejing,
84004,CN,22,Zhangjiawan,
84005,CN,9,Chi,
84006,CN,30,Guangning,
84007,CN,10,Xingshan,
84008,CN,24,Jiaokou,
84009,CN,4,Jintan,
84010,CN,25,Xingcun,
84011,CN,5,Shulan,
84012,CN,22,Majuqiao,
84013,CN,22,Liangxiang,
84014,CN,30,Shating,
84015,CN,9,Wangcunpu,
84016,CN,32,Luxian,
84017,CN,30,Chunglaotan,
84018,CN,4,Dazhuomiao,
84019,CN,1,Changchun,
84020,CN,9,Wenxian,
84021,CN,9,Huojia,
84022,CN,32,Qianwei,
84023,CN,12,Tsaotienchen,
84024,CN,21,Wuzhong,
84025,CN,22,Xihongmen,
84026,CN,4,Xizhu,
84027,CN,30,Zhenjiang,
84028,CN,33,Shuangqiao,
84029,CN,30,Santang,
84030,CN,11,Linwu,
84031,CN,24,Fenghuang,
84032,CN,12,Yangzi,
84033,CN,9,Ruzhou,
84034,CN,1,Gushan,
84035,CN,4,Baima,
84036,CN,16,Nandan,
84037,CN,32,Luxi,
84038,CN,2,Huchen,
84039,CN,24,Zezhouxian,
84040,CN,32,Baoning,
84041,CN,9,Zhangruji,
84042,CN,33,Yudong,
84043,CN,1,Kunshan,
84044,CN,4,Erhlingchen,
84045,CN,11,Nanjiang,
84046,CN,7,Yongding,
84047,CN,26,Shizhen,
84048,CN,23,Fengxian,
84049,CN,22,Houshayu,
84050,CN,25,Huangdao,
84051,CN,12,Yidu,
84052,CN,5,Taonan,
84053,CN,10,Changshou,
84054,CN,7,Liancheng,
84055,CN,29,Huize,
84056,CN,7,Santou,
84057,CN,9,Huaidian,
84058,CN,3,Suichuan,
84059,CN,30,Fenggang,
84060,CN,23,Dachang,
84061,CN,8,Bayan,
84062,CN,30,Jingnan,
84063,CN,30,Weichong,
84064,CN,30,Wangfuhsü,
84065,CN,7,Pangu,
84066,CN,24,Hunyuan,
84067,CN,3,Jiading,
84068,CN,2,Puyang,
84069,CN,22,Lixian,
84070,CN,2,Qingtian,
84071,CN,25,Fucun,
84072,CN,2,Xiangshan,
84073,CN,2,Beibaixiangzhen,
84074,CN,30,Fogang,
84075,CN,4,Sanshan,
84076,CN,7,Mulühuang,
84077,CN,30,Xinxing,
84078,CN,16,Donglan,
84079,CN,1,Lingbi,
84080,CN,25,Guangrao,
84081,CN,4,Baitu,
84082,CN,23,Jiangqiao,
84083,CN,10,Cixian,
84084,CN,2,Guangling,
84085,CN,25,Qinghezhen,
84086,CN,12,Wulongquan,
84087,CN,25,Tungkuo,
84088,CN,2,Beilunqu,
84089,CN,1,Minquan,
84090,CN,7,Baitang,
84091,CN,23,Qibao,
84092,CN,7,Wuping,
84093,CN,24,Guangling,
84094,CN,30,Meilong,
84095,CN,3,Chongren,
84096,CN,24,Tunliu,
84097,CN,7,Puding,
84098,CN,21,Yanchi,
84099,CN,25,Rushan,
84100,CN,33,Tongjiaxi,
84101,CN,24,Haozhuang,
84102,CN,10,Pa,
84103,CN,30,Guanlan,
84104,CN,30,Buji,
84105,CN,19,Dexing,
84106,CN,26,Dingbian,
84107,CN,1,Wuwei,
84108,CN,9,Fugou,
84109,CN,32,Pengshan,
84110,CN,32,Wutongqiao,
84111,CN,24,Zuoyun,
84112,CN,7,Paitou,
84113,CN,12,Xingshan,
84114,CN,30,Hexie,
84115,CN,12,Ichang,
84116,CN,16,Quanzhou,
84117,CN,32,Jintang,
84118,CN,7,Baiyun,
84119,CN,1,Erba,
84120,CN,2,Wutong,
84121,CN,14,Nyingchi,
84122,CN,7,Hutou,
84123,CN,1,Lixin,
84124,CN,24,Yicheng,
84125,CN,26,Yangxian,
84126,CN,3,Fengxin,
84127,CN,26,Qianxian,
84128,CN,3,Quangang,
84129,CN,30,Haikou,
84130,CN,1,Dangtu,
84131,CN,2,Wujiang,
84132,CN,30,Henggang,
84133,CN,32,Shimian,
84134,CN,22,Tangshan,
84135,CN,16,Tiandong,
84136,CN,9,Suchiao,
84137,CN,2,Wangchiakang,
84138,CN,32,Niuhuachi,
84139,CN,23,Langxia,
84140,CN,11,Tao,
84141,CN,25,Pingdu,
84142,CN,24,Nantun,
84143,CN,8,Fuyü,
84144,CN,3,Ningdu,
84145,CN,11,Gangxiyu,
84146,CN,19,Ruicheng,
84147,CN,7,Fujing,
84148,CN,2,Dongguan,
84149,CN,1,Zhongshan,
84150,CN,24,Taiyuan,
84151,CN,15,Xizang,
84152,CN,14,Tong,
84153,CN,11,Xinjiang,
84154,CN,5,Guangdong,
84155,CN,2,Henan,
84156,CN,2,Neimeng,
84157,CN,15,Zhongyuan,
84158,CN,19,Heibei,
84159,CN,11,Baizhang,
84160,CN,14,Wang,
84161,CN,7,Tangxia,
84162,CN,30,Gaoxin,
84163,CN,11,Fengxiang,
84164,CN,14,Linzhi,
84165,CN,11,Xiyang,
84166,CN,7,Wenxi,
84167,CN,8,Haerbin,
84168,CN,11,Hebei,
84169,CN,26,Dongcheng,
84170,CN,26,Zhangjiagang,
84171,CN,15,Sichuan,
84172,CN,7,Donghua,
84173,CN,6,Jiang,
84174,CN,9,Hetao,
84175,CN,11,Meizhou,
84176,CN,2,Yuehu,
84177,CN,32,Jiaotong,
84178,CN,30,Dalingshan,
84179,CN,23,Jiangchuanlu,
84180,CN,8,Saerhtu,
84181,CN,12,Chenjiawan,
84182,CN,11,Changshahsien,
84183,CN,30,Zhanbeicun,
84184,CN,30,Kuanchengchen,
84185,CN,1,Shejiazui,
84186,CN,30,Changxiacun,
84187,CN,30,Shuijiankeng,
84188,CN,30,Liuxie,
84189,CN,30,Baisha,
84190,CN,30,Shenshuidong,
84191,CN,30,Lingcunzi,
84192,CN,29,Mingyong,
84193,CN,30,Chiaying,
84194,CN,7,Taipingyan,
84195,CN,7,Hinghwafu,
84196,CN,7,Fuding,
84197,CN,12,Dongcheng,
84198,CN,11,Xinshazhou,
84199,CN,12,Xiling Jiedao,
84200,CN,12,Baimiao Jiedao,
84201,CN,12,Fankouchieh,
84202,CN,7,Wutian,
84203,CN,11,Lianbinxiang,
84204,CN,11,Jiangyong,
84205,CN,4,Xingxiangcun,
84206,CN,4,Chinshan,
84207,CN,2,Sijiqing Jiedao,
84208,CN,20,Haibowan,
84209,CN,12,Jiangjiao,
84210,CN,3,Jiangyin,
84211,CN,4,Jingcheng,
84212,CN,7,Shihshih,
84213,CN,1,Jinjiazhuang Qu,
84214,CN,1,Yonghe,
84215,CN,23,Shijianong,
84216,CN,23,Hongkew,
84217,CN,23,Chingan,
84218,CN,23,Chenjiaqiao,
84219,CN,11,Xiatangyunxiang,
84220,CN,12,Liwa,
84221,CN,12,Yuanjiaqiao,
84222,CN,30,Chengjiao,
84223,CN,30,Shishan,
84224,CN,30,Guifeng,
84225,CN,19,Jiuli,
84226,CN,19,Yumincun,
84227,CN,31,Changjiang Lizu Zizhi Xian,
84228,CN,31,Chanhsien,
84229,CN,3,Hedong Xiang,
84230,CN,3,Juichinhsien,
84231,CN,7,Jiangjiacha,
84232,CN,11,Jiangzhi,
84233,CN,7,Fengting,
84234,CN,7,Zhaimenkou,
84235,CN,7,Lilin,
84236,CN,2,Feiyun,
84237,CN,15,Chiuchuan,
84238,CN,1,Zhaixi,
84239,CN,19,Qianyingzi,
84240,CN,5,Bahutun,
84241,CN,1,Heshuijian,
84242,CN,8,Hsian,
84243,CN,32,Tianyuanjing,
84244,CN,23,Yueyang Jiedao,
84245,CN,23,Hsinchiaochen,
84246,CN,11,Xingning,
84247,CN,32,Jingyang,
84248,CN,11,Huanglüchong,
84249,CN,26,Nanwucun,
84250,CN,24,Datong Xian,
84251,CN,32,Jiangaokou,
84252,CN,32,Jiancheng,
84253,CN,32,Lishangeng,
84254,CN,32,Chengnan,
84255,CN,32,Zaoerling,
84256,CN,32,Dongjiawan,
84257,CN,32,Yinjiaqiao,
84258,CN,11,Nanjindu,
84259,CN,11,Beizhiyuan,
84260,CN,11,Huojiaxu,
84261,CN,7,Gaoluo,
84262,CN,12,Nanjiao Jiedaobanshichu,
84263,CN,12,Wolong,
84264,CN,12,Lijiafan,
84265,CN,3,Aoyang,
84266,CN,3,Binjiang Xiang,
84267,CN,7,Guilin,
84268,CN,29,Jiasa,
84269,CN,32,Tsaopa,
84270,CN,4,Hsüchu,
84271,CN,11,Daojiang Zhen,
84272,CN,25,Linzi,
84273,CN,4,Lungkangchen,
84274,CN,30,Hongyang Zhen,
84275,CN,26,Bocun,
84276,CN,26,Tungchuanshih,
84277,CN,11,Xinhe,
84278,CN,29,Luchuan,
84279,CN,2,Xujiazhaiji,
84280,CN,24,Chincheng,
84281,CN,30,Nanshan,
84282,CN,30,Haicheng,
84283,CN,1,Zhuyaozhuang,
84284,CN,1,Xingengtou,
84285,CN,4,Tanyangcheng,
84286,CN,30,Cangzhou,
84287,CN,4,Yuelaizhen,
84288,CN,23,Yingpu Jiedao,
84289,CN,2,Chengguan,
84290,CN,2,Huangwagen,
84291,CN,2,Hsichang,
84292,CN,23,Gaochao,
84293,CN,4,Rucheng,
84294,CN,32,Kuanyin,
84295,CN,7,Xiudun,
84296,CN,11,Panlongqiao,
84297,CN,11,Xiaoyuwan,
84298,CN,30,Yingcheng,
84299,CN,3,Xinwulijia,
84300,CN,24,Hsinchianghsien,
84301,CN,7,Nanpu Zhen,
84302,CN,7,Hsienyuhsien,
84303,CN,15,Sangyuanli,
84304,CN,2,Hsunkeng,
84305,CN,1,Yuzhaizhen,
84306,CN,13,Atux,
84307,CN,16,Pingmachen,
84308,CN,11,Taipinghsu,
84309,CN,14,Linchih,
84310,CN,23,Hungchiaochen,
84311,CN,9,Sipo,
84312,CN,32,Jinjishan,
84313,CN,32,Zaoshan,
84314,CN,15,Hanan,
84315,CN,32,Jiannan,
84316,CN,30,Panyu,
84317,CN,26,Hongshan,
84318,CN,30,Shangcang,
84319,CN,30,Huiyuanfang,
84320,CN,3,Fengchuan,
84321,CN,30,Kuanshanhsü,
84322,CN,2,Luofu,
84323,CN,23,Liandong,
84324,CN,12,Bamao,
84325,CN,31,Tingchang,
84326,CN,2,Chingtien,
84327,CN,12,Miaoping,
84328,CN,32,Jinhuaqiao,
84329,CN,32,Wuliping,
84330,CN,29,Paoshanhsien,
84331,CN,7,Yuekeng,
84332,CN,13,Alaer,
84333,CN,2,Shihhuao,
84334,CN,2,Jintangbang,
84335,CN,2,Duchuantou,
84336,CN,31,Kuidu,
84337,CN,4,Gechang,
84338,CN,11,Songjiang,
84339,CN,3,Shangai,
84340,CN,24,Qingyang,
84341,CN,14,Sheng,
84342,CN,4,Ding,
84343,CN,7,Qilu,
84344,CN,32,Sanguo,
84345,CN,30,Xinrong,
84346,CN,30,Longtu,
84347,CN,7,Shangketang,
84348,CN,13,Karamay,
84349,CN,26,Xianning,
84350,CN,32,Dianzi,
84351,CN,30,Wanzhou,
84352,CN,30,Guanzhou,
84353,CN,30,Suicheng,
84354,CN,16,Chuan,
84355,CN,30,Longjiang,
84356,CN,30,Dongguang,
84357,CN,3,Fuzhoushi,
84358,CN,30,Shaoyang,
84359,CN,30,Xin Xiang,
84360,CN,4,Wujiang,
84361,CN,1,Ningguo,
84362,CN,9,Henan,
84363,CN,23,Huangpu,
84364,CN,3,Nanchangshi,
84365,CN,2,Beilun,
84366,CN,1,Cangnan,
84367,CN,3,Taibei,
84368,CN,20,Erenhot,
84369,CN,11,Langlong,
84370,CN,24,Baoji,
84371,CN,23,Xinqiao Zhen,
84372,CN,26,Luonan,
84373,CN,18,Longguang,
84374,CN,10,Jingzhou,
84375,CN,30,Jingmen,
84376,CN,30,Zhusha,
84377,CN,29,Lüxi,
84378,CN,29,Xiluodu,
84379,CN,30,Putian,
84380,CN,30,Fuxin,
84381,CN,14,Jin,
84382,CN,8,Lanxi,
84383,CN,30,Ronggui,
84384,CN,4,Guannan,
84385,CN,4,Lianyun,
84386,CN,23,Shenzhen,
84387,CN,2,Changsha,
84388,CN,7,Shizhen,
84389,CN,2,Shanghai,
84390,CN,32,Daxian,
84391,CN,30,Yiyan,
84392,CN,30,Yuan,
84393,CN,30,Kungpeikuan,
84394,CN,3,Longyanshi,
84395,CN,7,Fuzhou Shi,
84396,CN,13,Atushi,
84397,CN,4,Nanjin,
84398,CN,24,Yu Xian,
84399,CN,30,Gaoxiong,
84400,CN,30,Jinjiang,
84401,CN,12,Baisha,
84402,CN,16,Rongan,
84403,CN,23,Zhongxin,
84404,CN,30,Lanzhou,
84405,CN,30,Huidong,
84406,CN,7,Shaoguang,
84407,CN,30,Xian,
84408,CN,32,Wangcang,
84409,CN,19,Henan,
84410,CN,11,Shantou,
84411,CN,23,Jinghua,
84412,CN,7,Wuyi,
84413,CN,29,Ruili,
84414,CN,4,Suchenchuang,
84415,CN,11,Yashiping,
84416,CN,25,Dayuhe,
84417,CN,2,Cuitian,
84418,CN,30,Lanzhong,
84419,CN,11,Taoyuan,
84420,CN,4,Dagang,
84421,CN,19,Jingzhou,
84422,CN,24,Xiezhou,
84423,CN,14,Yong,
84424,CN,30,Jinhu,
84425,CN,16,Liucheng,
84426,CN,11,Xiamen,
84427,CN,13,Turpan,
84428,CN,25,Gaoqing,
84429,CN,16,Chennankuan,
84430,CN,23,Jinshan,
84431,CN,1,Weitzuchiaochen,
84432,CN,1,Xihemei,
84433,CN,4,Tili Sizu,
84434,CN,7,Yanhou,
84435,CN,7,Xiaoying,
84436,CN,31,Niutudu,
84437,CN,1,Maweihe,
84438,CN,2,Hetou,
84439,CN,2,Xiatayang,
84440,CN,2,Langshuqiao,
84441,CN,23,Xiejiajing,
84442,CN,4,Gaoming,
84443,CN,2,Xiayuan,
84444,CN,4,Diaoxiang,
84445,CN,32,Zoumiaozi,
84446,CN,25,Lancun,
84447,CN,26,Cuizhang,
84448,CN,4,Gaoqiao,
84449,CN,2,Shanhsiakeng,
84450,CN,11,Yezhuwan,
84451,CN,11,Yangliuting,
84452,CN,30,Yuanlong,
84453,CN,10,Shanhsiachen,
84454,CN,19,Shangdabeigou,
84455,CN,24,Taihe,
84456,CN,2,Dongshitang,
84457,CN,32,Yushansi Linchang,
84458,CN,4,Hsihsiashu,
84459,CN,30,Xuetangbu,
84460,CN,24,Hsiku,
84461,CN,10,Youzi,
84462,CN,10,Ssuchuangchen,
84463,CN,16,Changliushui,
84464,CN,4,Guanhecun,
84465,CN,24,Tunchang,
84466,CN,11,Hengdong,
84467,CN,1,Wuhu Shi,
84468,CN,4,Zhangjia,
84469,CN,31,Xinminxiang Nongchang,
84470,CN,23,Sanxiu,
84471,CN,30,Shijiao,
84472,CN,19,Jianchang,
84473,CN,15,Tangwangchuan,
84474,CN,31,Shihong,
84475,CN,23,Xinzhuang,
84476,CN,30,Guadong,
84477,CN,23,Shanhai,
84478,CN,30,Lianzhou,
84479,CN,26,Pin,
84480,CN,30,Daliu,
84481,CN,3,Xiugu,
84482,CN,18,Guzhou,
84483,CN,11,Nanzhou,
84484,CN,4,Xishan,
84485,CN,4,Xiangshui,
84486,CN,30,Sanzao,
84487,CN,30,Xinshi,
84488,CN,18,Zhenfeng,
84489,CN,32,Baiya,
84490,CN,11,Xian,
84491,CN,19,Ganjingzi,
84492,CN,2,Guanshe,
84493,CN,2,Jiezigang,
84494,CN,2,Xiewu,
84495,CN,1,Xiangshan,
84496,CN,8,Zhenhua,
84497,CN,3,Shangxi,
84498,CN,11,Anxiang,
84499,CN,2,Kaihua,
84500,CN,25,Zhuanshe,
84501,CN,24,Tonggezhan,
84502,CN,30,Jianxin,
84503,CN,29,Taishi,
84504,CN,25,Shigouhe,
84505,CN,26,Nanhan,
84506,CN,1,Taibai,
84507,CN,12,Chibi,
84508,CN,11,Jinchengshi,
84509,CN,23,Wujing,
84510,CN,11,Xiangtang,
84511,CN,31,Wuzhishan,
84512,CN,2,Changshan,
84513,CN,23,Yuqiao,
84514,CN,30,Baiyun,
84515,CN,31,Tuyan,
84516,CN,26,Xigaobao,
84517,CN,7,Houkengzi,
84518,CN,30,Xitian,
84519,CN,7,Changjian,
84520,CN,8,Fujin,
84521,CN,32,Xuanhan,
84522,CN,5,Qintian,
84523,CN,30,Xiongzhou,
84524,CN,3,Duchang,
84525,CN,2,Jinan,
84526,CN,14,Yuqin,
84527,CN,19,Taishanshi,
84528,CN,10,Jiuzhou,
84529,CN,4,Yanshancun,
84530,CN,4,Jiutiaoxiang,
84531,CN,31,Gaoan,
84532,CN,12,Sinkow,
84533,CN,2,Changtangtou,
84534,CN,5,Changshang Badui,
84535,CN,25,Licheng,
84536,CN,16,Shaniu,
84537,CN,19,Wulongbei,
84538,CN,25,Zhoucheng,
84539,CN,30,Nanshanqu,
84540,CN,2,Shanggao,
84541,CN,2,Nanxi Linchang,
84542,CN,18,Yanglang,
84543,CN,15,Jingan,
84544,CN,32,Yili,
84545,CN,16,Baise,
84546,CN,14,Zhêng,
84547,CN,2,Daqiaozhen,
84548,CN,2,Xianxiang,
84549,CN,10,Zunhua,
84550,CN,10,Zhuolu,
84551,CN,9,Qixian,
84552,CN,9,Mengjin,
84553,CN,29,Mangshi,
84554,CN,16,Rongxian,
84555,CN,1,Yangtangchi,
84556,CN,30,Dongfeng,
84557,CN,9,Xixia,
84558,CN,11,Longtoupu,
84559,CN,2,Wansuiqiao,
84560,CN,2,Dongtianbang,
84561,CN,25,Dongshanbeitou,
84562,CN,25,Yangguantun,
84563,CN,14,Gang,
84564,CN,7,Datian,
84565,CN,9,Songxian,
84566,CN,10,Xiangcheng,
84567,CN,1,Taihu,
84568,CN,2,Fangshanling,
84569,CN,2,Shisibao,
84570,CN,29,Zhaijiao,
84571,CN,3,Huanglingxiang,
84572,CN,11,Zhangshutingzi,
84573,CN,12,Chuyü,
84574,CN,30,Meizhuang,
84575,CN,2,Yingdianjie,
84576,CN,2,Xingmin,
84577,CN,30,Shichuan,
84578,CN,32,Xiaman,
84579,CN,11,Tongxin,
84580,CN,30,Lianshui,
84581,CN,18,Baiyun Qu,
84582,CN,1,Chienchi,
84583,CN,2,Meitan,
84584,CN,2,Chenshantou,
84585,CN,30,Beitai,
84586,CN,2,Weitang,
84587,CN,4,Yanghuachi,
84588,CN,24,Loufan,
84589,CN,3,Xingjiang,
84590,CN,14,Zhong,
84591,CN,2,Jingyuan,
84592,CN,20,Jining,
84593,CN,7,Haicang,
84594,CN,8,Tangyuan,
84595,CN,3,Baimiao,
84596,CN,15,Yaha,
84597,CN,2,Yangxunqiao,
84598,CN,2,Shewang,
84599,CN,22,Dahongmen,
84600,CN,25,Beiyan,
84601,CN,18,Yinjiang,
84602,CN,10,Shenze,
84603,CN,2,Lengshuiqiao,
84604,CN,16,Tatanghsu,
84605,CN,4,Guangxi,
84606,CN,32,Fujiang,
84607,CN,11,Yunnan,
84608,CN,32,Yiwu,
84609,CN,11,Heyuan,
84610,CN,2,Taizhou,
84611,CN,19,Panjin,
84612,CN,11,Zhaoyang,
84613,CN,4,Zhongyang,
84614,CN,4,Beixiao,
84615,CN,30,Guotai,
84616,CN,30,Changshachen,
84617,CN,30,Xingcheng,
84618,CN,30,Putian Zhen,
84619,CN,11,Liaojiaao,
84620,CN,11,Daohe,
84621,CN,11,Xiaopuzhen,
84622,CN,4,Pingjianglu Jiedao,
84623,CN,4,Shenglicun,
84624,CN,4,Chiangtu,
84625,CN,4,Zhongqiao Xincun,
84626,CN,4,Gaoyou Shi,
84627,CN,30,Shunde,
84628,CN,7,Jian,
84629,CN,2,Haiyan Xian,
84630,CN,1,Suoguanqiao,
84631,CN,4,Ichenghsien,
84632,CN,20,Heping Jiedao,
84633,CN,18,Rongjiang,
84634,CN,4,Siyang,
84635,CN,24,Beiguan,
84636,CN,30,Jiangpu,
84637,CN,30,Namtau,
84638,CN,4,Zhangao,
84639,CN,4,Zhangbei,
84640,CN,23,Songyin,
84641,CN,9,Neixiang,
84642,CN,4,Changbancun,
84643,CN,32,Dujiangyan,
84644,CN,30,Xinyi,
84645,CN,7,Changting,
84646,CN,10,Yanjiatun,
84647,CN,11,Muziping,
84648,CN,23,Jiadingzhen,
84649,CN,23,Huazhuang,
84650,CN,32,Xindu,
84651,CN,30,Hsintsao,
84652,CN,30,Kuanlanhsü,
84653,CN,30,Huaixiang,
84654,CN,15,Jingchuan,
84655,CN,16,Xian,
84656,CN,4,Yanhu,
84657,CN,2,Genliao,
84658,CN,12,Yufanfeng,
84659,CN,4,Cunqian,
84660,CN,4,Baonian,
84661,CN,18,Baoxing,
84662,CN,11,Beixingqiao,
84663,CN,11,Huiguping,
84664,CN,30,Tianshijie,
84665,CN,2,Luosixu,
84666,CN,2,Lidakangqiao,
84667,CN,4,Yingxing,
84668,CN,24,Huangchaichen,
84669,CN,19,Wanmi,
84670,CN,9,Langgongmiao,
84671,CN,4,Yangjiadu,
84672,CN,22,Taiziwu,
84673,CN,14,Rikaze,
84674,CN,31,Jinmao,
84675,CN,2,Xianlin,
84676,CN,9,Huaiyang,
84677,CN,26,Quan,
84678,CN,26,Danfeng,
84679,CN,26,Yulin,
84680,CN,30,Beijing,
84681,CN,30,Zhongtang,
84682,CN,7,Xieshan,
84683,CN,10,Yanjiao,
84684,CN,30,Fushan Zhen,
84685,CN,30,Yulin,
84686,CN,3,Fuzhou Shi,
84687,CN,30,Longmen,
84688,CN,30,Batou,
84689,CN,30,Maanshan,
84690,CN,31,Najing,
84691,CN,2,Xushan,
84692,CN,2,Yanchi,
84693,CN,8,Pingfang,
84694,CN,9,Minquan,
84695,CN,18,Puding,
84696,CN,25,Tangshan,
84697,CN,26,Heyang,
84698,CN,20,Ordos,
84699,CN,11,Lancaotian,
84700,CN,18,Fuquan,
84701,CN,10,Baian,
84702,CN,3,Yüshan,
84703,CN,3,Jian Shi,
84704,CN,3,Yifeng,
84705,CN,26,Xiangyang,
84706,CN,26,Chengguanzhen,
84707,CN,16,Lingyun,
84708,CN,32,Fuqing,
84709,CN,1,Sixian,
84710,CN,4,Zhang,
84711,CN,4,Wuhan,
84712,CN,4,Xinyi,
84713,CN,4,Sihong,
84714,CN,3,Chian,
84715,CN,9,Shangcai,
84716,CN,20,Wulanhaote,
84717,CN,30,Xili,
84718,CN,11,Yanchi,
84719,CN,26,Yanta,
84720,CN,1,Yuexi,
84721,CN,15,Hezuo,
84722,CN,24,Wuzhai,
84723,CN,30,Changzhou,
84724,CN,4,Lian,
84725,CN,7,Chaoyang,
84726,CN,30,Xintang,
84727,CN,8,Shanhe,
84728,CN,2,Wengyang,
84729,CN,2,Shanhouhu,
84730,CN,23,Changjiang,
84731,CN,2,Wuchen,
84732,CN,7,Luocheng,
84733,CN,23,Huacao,
84734,CN,25,Suozhen,
84735,CN,30,Jiujiang,
84736,CN,30,Fuyang,
84737,CN,1,Huoshan,
84738,CN,30,Fengxin,
84739,CN,2,Dangshan,
84740,CN,1,Tangshan,
84741,CN,2,Dalian,
84742,CN,7,Hubei,
84743,CN,4,Jinjiang,
84744,CN,30,Lingao,
84745,CN,4,Jiangning,
84746,CN,25,Chengwu,
84747,CN,5,Kaitong,
84748,CN,4,Xuxi,
84749,CN,18,Jinsha,
84750,CN,30,Beiyue,
84751,CN,30,Yancunzi,
84752,CN,9,Shanzhuang,
84753,CN,7,Xinmin,
84754,CN,4,Miaojiabian,
84755,CN,4,Yanglang,
84756,CN,4,Chengi,
84757,CN,25,Chiyu,
84758,CN,2,Chiuyühang,
84759,CN,3,Qimencun,
84760,CN,4,Chouchiao,
84761,CN,4,Yaolou,
84762,CN,2,Hushangyang,
84763,CN,24,Xiwenzhuang,
84764,CN,24,Yancunbu,
84765,CN,7,Sanluo,
84766,CN,30,Luodong,
84767,CN,2,Waishechieh,
84768,CN,2,Randianbang,
84769,CN,4,Erhfanglanghsiachen,
84770,CN,25,Shihlai,
84771,CN,19,Yuxin,
84772,CN,30,Chiwan,
84773,CN,25,Hanlou,
84774,CN,26,Hsiananning,
84775,CN,10,Lujiawu,
84776,CN,30,Lincuozhai,
84777,CN,4,Dinggouba,
84778,CN,4,Xingouqiao,
84779,CN,32,Mawang,
84780,CN,30,Dagang,
84781,CN,4,Tanxi,
84782,CN,30,Guanmukeng,
84783,CN,4,Senlin,
84784,CN,4,Zhangbaduo,
84785,CN,29,Sanchiachang,
84786,CN,4,Yizheng Shi,
84787,CN,30,Xiaonan,
84788,CN,11,Chuanyanshi,
84789,CN,4,Chaiwan,
84790,CN,1,Huanggang,
84791,CN,20,Huhehaote,
84792,CN,30,Lianjiang,
84793,CN,30,Heyuan,
84794,CN,29,Yuxi,
84795,CN,12,Huanggang,
84796,CN,4,Kunshan,
84797,CN,4,Tongzhou,
84798,CN,4,Suzhou Shi,
84799,CN,30,Guangzhou Shi,
84800,CN,30,Lufeng,
84801,CN,13,Wulumuqi,
84802,CN,29,Xuanwei,
84803,CN,2,Wenlin,
84804,CN,25,Qingdao Shi,
84805,CN,7,Longhai,
84806,CN,13,Ürümqi Shi,
84807,CN,20,Heping,
84808,CN,29,Wenshan,
84809,CN,4,Qidong,
84810,CN,4,Pizhou,
84811,CN,25,Penglai,
84812,CN,25,Wendeng,
84813,CN,25,Zhaoyuan,
84814,CN,26,Xian Shi,
84815,CN,16,Hepu,
84816,CN,19,Changtu Xian,
84817,CN,4,Yixin,
84818,CN,20,Ulanhot,
84819,CN,30,Linxiang,
84820,CN,19,Shenyang Shi,
84821,CN,30,Nanxiong,
84822,CN,32,Chengdu Shi,
84823,CN,32,Dazhou,
84824,CN,11,Hengnan,
84825,CN,19,Linghai,
84826,CN,30,Baoan,
84827,CN,25,Rongcheng,
84828,CN,22,Pekin,
84829,CN,7,Fuchou,
84830,CN,12,Zhongxiang,
84831,CN,5,Changchun Shi,
84832,CN,4,Suining,
84833,CN,33,Chongqing Shi,
84834,CN,8,Binxian,
84835,CN,2,Jinhua Shi,
84836,CN,4,Nanking,
84837,CN,16,Nanning Shi,
84838,CN,9,Shenqiu,
84839,CN,25,Huantai,
84840,CN,30,Shenchen,
84841,CN,20,Hohhot Shi,
84842,CN,7,Hsinchü,
84843,CN,32,Tianhuizhen,
84844,CN,5,Tongyu,
84845,CN,25,Tsingtao,
84846,CN,29,Hongta,
84847,CN,2,Xiajiaodao,
84848,CN,8,Haolichen,
84849,CN,4,Biancang,
84850,CN,2,Chengchiatai,
84851,CN,30,Chimi,
84852,CN,26,Nanzuocun,
84853,CN,11,Gulouting,
84854,CN,19,Nandianzi,
84855,CN,32,Dongxing,
84856,CN,4,Lingdian,
84857,CN,4,Shenyang,
84858,CN,2,Wanxing,
84859,CN,3,Linxu,
84860,CN,24,Chuhou,
84861,CN,24,Zuoquan,
84862,CN,11,Xijing,
84863,CN,30,Chencun,
84864,CN,7,Licheng,
84865,CN,4,Wuxi Shi,
84866,CN,23,Jiwang,
84867,CN,30,Xiangzhou,
84868,CN,30,Daojiao,
84869,CN,30,Guicheng,
84870,CN,16,Guanxi,
84871,CN,7,Ximei,
84872,CN,24,Yaocun,
84873,CN,25,Caomiao,
84874,CN,24,Yuanyu,
84875,CN,32,Tanguan,
84876,CN,32,Shachuchen,
84877,CN,32,Jingjiang,
84878,CN,11,Yuxi,
84879,CN,30,Hubei,
84880,CN,30,Nanyang,
84881,CN,7,Kangshan,
84882,CN,4,Binjiang,
84883,CN,2,Tungchia,
84884,CN,4,Qianbei,
84885,CN,5,Mapai,
84886,CN,19,Gaixian,
84887,CN,1,Wuxi,
84888,CN,29,Lufeng,
84889,CN,4,Shuangshan,
84890,CN,30,Dongzaocun,
84891,CN,2,Limei,
84892,CN,9,Chenchou,
84893,CN,4,Wangwan,
84894,CN,16,Yuli,
84895,CN,23,Baozhen,
84896,CN,2,Ningbo Shi,
84897,CN,2,Daishan,
84898,CN,2,Haiyouzhen,
84899,CN,30,Longtangxu,
84900,CN,4,Shoucheng,
84901,CN,4,Zhangpu,
84902,CN,4,Jinan,
84903,CN,19,Dalian Shi,
84904,CN,2,Hangchow,
84905,CN,30,Deqing,
84906,CN,7,Xiaku,
84907,CN,4,Jiaoxie,
84908,CN,16,Liuma,
84909,CN,5,Liulin,
84910,CN,10,Nanchitsun,
84911,CN,24,Jinci,
84912,CN,3,Xiamen,
84913,CN,3,Yingtang,
84914,CN,4,Jiagang,
84915,CN,26,Gaojia,
84916,CN,19,Langzhong,
84917,CN,30,Yonghe Jiedao,
84918,CN,26,Dongxujia,
84919,CN,26,Xunyang,
84920,CN,30,Lianhua,
84921,CN,26,Beilin,
84922,CN,32,Zizhong,
84923,CN,1,Sigang,
84924,CN,3,Tanggangcun,
84925,CN,19,Ningguantun,
84926,CN,7,Xiamen Shi,
84927,CN,25,Xigang,
84928,CN,8,Yabuli,
84929,CN,4,Feng,
84930,CN,9,Yucheng,
84931,CN,12,Hankou,
84932,CN,11,Maji,
84933,CN,11,Mingluqiao,
84934,CN,4,Nandun Erzu,
84935,CN,11,Huayuan,
84936,CN,7,Jianshi,
84937,CN,2,Anji,
84938,CN,11,Nanxian,
84939,CN,2,Xiajin,
84940,CN,5,Daan,
84941,CN,11,Bayi,
84942,CN,30,Shipai Zhen,
84943,CN,4,Lishui,
84944,CN,25,Xinwen,
84945,CN,3,Tianzhugang,
84946,CN,4,Chaichiao,
84947,CN,25,Laifeng,
84948,CN,4,Dongchencun,
84949,CN,9,Nanlicun,
84950,CN,26,Jiyang,
84951,CN,26,Changan,
84952,CN,32,Mengzi,
84953,CN,26,Hsinchu,
84954,CN,1,Xian,
84955,CN,4,Sanmaozhen,
84956,CN,2,Hengchia,
84957,CN,9,Puxian,
84958,CN,30,Shangtou,
84959,CN,11,Luocheng,
84960,CN,7,Guanzhou,
84961,CN,9,Jitun,
84962,CN,7,Houshantang,
84963,CN,2,Jianger Dadui,
84964,CN,4,Sanyue,
84965,CN,18,Baixiang,
84966,CN,2,Chenjiabang,
84967,CN,30,Xinpengcun,
84968,CN,4,Hanchi,
84969,CN,3,Shangbaocun,
84970,CN,29,Cengsuo,
84971,CN,7,Xingxian,
84972,CN,25,Yatzu,
84973,CN,24,Fenyang Shi,
84974,CN,30,Wanjiangqu,
84975,CN,4,Yishan,
84976,CN,1,Zhuji,
84977,CN,7,Zhenhou,
84978,CN,7,Huangshanqian,
84979,CN,1,Jiubao,
84980,CN,32,Lingshi,
84981,CN,9,Pindinshan,
84982,CN,30,Huichou,
84983,CN,4,Taiwan,
84984,CN,26,Hanzhongshi,
84985,CN,1,Shanghan,
84986,CN,11,Ruyiting,
84987,CN,24,Iwang,
84988,CN,4,Chaofengchen,
84989,CN,19,Yueliangshan,
84990,CN,4,Sanpailou,
84991,CN,30,Zhaoan,
84992,CN,24,Pinyao,
84993,CN,12,Wengang,
84994,CN,26,Weiyang,
84995,CN,4,Chunjiang,
84996,CN,4,Lianshui,
84997,CN,12,Xiangyang,
84998,CN,23,Gaohang,
84999,CN,3,Xiajiang,
85000,CN,30,Dali,
85001,CN,11,Bamaoxi,
85002,CN,26,Xiyang,
85003,CN,2,Xiaku,
85004,CN,24,Chinshanpu,
85005,CN,10,Gaomentun,
85006,CN,16,Tuohe,
85007,CN,18,Lebang,
85008,CN,7,Suqian,
85009,CN,3,Lichuan,
85010,CN,4,Songlingzhen,
85011,CN,11,Tiantang,
85012,CN,10,Wuji,
85013,CN,7,Zhangpu,
85014,CN,29,Shuifu,
85015,CN,30,Jiangmei,
85016,CN,10,Qingxian,
85017,CN,7,Taizhong,
85018,CN,1,Huhu,
85019,CN,30,Nanning,
85020,CN,7,Dongshan,
85021,CN,8,Yongchun,
85022,CN,2,Huimin,
85023,CN,4,Yangjiaba,
85024,CN,16,Guanjing,
85025,CN,11,Dajitou,
85026,CN,4,Zhuli,
85027,CN,2,Zhangjianong,
85028,CN,30,Qiyang,
85029,CN,1,Ernian,
85030,CN,10,Nanhuanglong,
85031,CN,4,Xinlongcun,
85032,CN,24,Xiao,
85033,CN,16,Tianyang,
85034,CN,30,Jingshan,
85035,CN,30,Minzhi,
85036,CN,2,Jinchuan,
85037,CN,1,Peihe,
85038,CN,32,Qilibei,
85039,CN,7,Tangfang,
85040,CN,5,Sanyuanpu,
85041,CN,10,Huangsi,
85042,CN,26,Linghui,
85043,CN,7,Gaoxing,
85044,CN,25,Mencun,
85045,CN,30,Hutong,
85046,CN,25,Yingzijie,
85047,CN,7,Dicun,
85048,CN,4,Taishan,
85049,CN,11,Yunan,
85050,CN,26,Yuanqu,
85051,CN,15,Lintao,
85052,CN,10,Jiaohe,
85053,CN,4,Nanchang,
85054,CN,2,Jiangkeng,
85055,CN,30,Tanzhou,
85056,CN,25,Nancun,
