locId,country,region,city,postcode
85057,CO,,,
85058,CO,33,Bogotá,
85059,CO,18,Atlántico,
85060,CO,21,Miami,
85061,CO,22,San Francisco,
85062,CO,5,Cartagena,
85063,CO,24,Pereira,
85064,CO,33,Valle,
85065,CO,16,Neiva,
85066,CO,33,Tocancipá,
85067,CO,4,Barranquilla,
85068,CO,33,Cundinamarca,
85069,CO,26,Bucaramanga,
85070,CO,7,Risaralda,
85071,CO,29,Cali,
85072,CO,2,Medellín,
85073,CO,2,Antioquia,
85074,CO,9,Bolívar,
85075,CO,29,Yumbo,
85076,CO,2,Itagüí,
85077,CO,29,Buga,
85078,CO,33,Girardot,
85079,CO,7,Manizales,
85080,CO,19,Villavicencio,
85081,CO,12,Popayán,
85082,CO,24,Columbia,
85083,CO,2,Envigado,
85084,CO,20,Pasto,
85085,CO,28,Ibagué,
85086,CO,6,Duitama,
85087,CO,26,Barrancabermeja,
85088,CO,21,Cúcuta,
85089,CO,27,Santander,
85090,CO,18,Estrella,
85091,CO,12,Montería,
85092,CO,29,Tuluá,
85093,CO,18,Santa Marta,
85094,CO,23,Armenia,
85095,CO,33,Chía,
85096,CO,33,Mosquera,
85097,CO,33,Fusagasuga,
85098,CO,21,Pamplona,
85099,CO,27,Sincelejo,
85100,CO,4,Soledad,
85101,CO,33,Facatativá,
85102,CO,32,Santa Martha,
85103,CO,32,Yopal,
85104,CO,26,San Gil,
85105,CO,27,Puerta,
85106,CO,29,Buenaventura,
85107,CO,19,El Dorado,
85108,CO,2,El Poblado,
85109,CO,33,Soacha,
85110,CO,33,Bavaria,
85111,CO,7,Unión,
85112,CO,4,Caja,
85113,CO,5,La Costa,
85114,CO,6,Boyacá,
85115,CO,16,Calle,
85116,CO,20,Alcantarilla,
85117,CO,26,Centro,
85118,CO,8,Florencia,
85119,CO,7,Riosucio,
85120,CO,12,Canalete,
85121,CO,2,Bello,
85122,CO,29,Cartago,
85123,CO,33,Cáqueza,
85124,CO,33,Cota,
85125,CO,23,Quimbaya,
85126,CO,29,Jamundí,
85127,CO,29,El Cerrito,
85128,CO,24,Dos Quebradas,
85129,CO,33,Dosquebradas,
85130,CO,29,Vijes,
85131,CO,24,Santa Rosa De Cabal,
85132,CO,7,Chinchiná,
85133,CO,7,Marmato,
85134,CO,26,Floridablanca,
85135,CO,33,Chocontá,
85136,CO,33,Ubaque,
85137,CO,33,Machetá,
85138,CO,33,Anapoima,
85139,CO,20,Ipiales,
85140,CO,24,Belén De Umbría,
85141,CO,33,Guatavita,
85142,CO,20,Tangua,
85143,CO,7,Supía,
85144,CO,24,Marsella,
85145,CO,33,Guasca,
85146,CO,33,Jerusalén,
85147,CO,33,Quetame,
85148,CO,33,Guayabetal,
85149,CO,12,Cotorra,
85150,CO,2,Rionegro,
85151,CO,2,Guarne,
85152,CO,2,Santa Rosa De Osos,
85153,CO,2,Concepción,
85154,CO,2,Sopetrán,
85155,CO,2,Caldas,
85156,CO,2,Angostura,
85157,CO,2,Belmira,
85158,CO,29,Roldanillo,
85159,CO,29,Zarzal,
85160,CO,29,Guacarí,
85161,CO,29,Dagua,
85162,CO,33,Funza,
85163,CO,33,Choachí,
85164,CO,33,Sesquilé,
85165,CO,33,Guataquí,
85166,CO,28,Roncesvalles,
85167,CO,11,Quibdó,
85168,CO,33,San Francisco,
85169,CO,16,Íquira,
85170,CO,33,Villagómez,
85171,CO,33,Zipaquirá,
85172,CO,33,San Cayetano,
85173,CO,6,Tunja,
85174,CO,33,Sopó,
85175,CO,33,Manta,
85176,CO,33,Nemocón,
85177,CO,18,Puebloviejo,
85178,CO,4,Sabanalarga,
85179,CO,29,Ginebra,
85180,CO,23,Calarcá,
85181,CO,29,Darién,
85182,CO,33,Fómeque,
85183,CO,33,Gachancipá,
85184,CO,28,Santa Isabel,
85185,CO,10,Valledupar,
85186,CO,5,Santa Catalina,
85187,CO,27,San Onofre,
85188,CO,21,Bochalema,
85189,CO,21,Chinácota,
85190,CO,21,Cucutilla,
85191,CO,21,Durania,
85192,CO,28,Melgar,
85193,CO,28,Piedras,
85194,CO,33,Nariño,
85195,CO,33,Tocaima,
85196,CO,28,Espinal,
85197,CO,33,Rafael Reyes,
85198,CO,16,Tesalia,
85199,CO,7,La Dorada,
85200,CO,26,Charta,
85201,CO,26,Vetas,
85202,CO,29,Candelaria,
85203,CO,2,Valparaíso,
85204,CO,7,Filadelfia,
85205,CO,7,Salamina,
85206,CO,29,Palmira,
85207,CO,33,Silvania,
85208,CO,2,Montebello,
85209,CO,19,San Martín,
85210,CO,19,Guamal,
85211,CO,29,Ulloa,
85212,CO,21,Lourdes,
85213,CO,26,California,
85214,CO,33,Carmen De Carupa,
85215,CO,33,Cogua,
85216,CO,7,Anserma,
85217,CO,2,Santa Bárbara,
85218,CO,33,Villapinzón,
85219,CO,33,Gama,
85220,CO,33,El Rosal,
85221,CO,33,Tenjo,
85222,CO,8,El Doncello,
85223,CO,33,Viotá,
85224,CO,33,Tausa,
85225,CO,25,San Andrés,
85226,CO,6,Chiquinquirá,
85227,CO,33,Palacio,
85228,CO,28,Honda,
85229,CO,20,Yacuanquer,
85230,CO,29,Andalucía,
85231,CO,16,La Plata,
85232,CO,26,Barichara,
85233,CO,24,La Virginia,
85234,CO,17,Sabana Del Potrero,
85235,CO,21,Bucarasica,
85236,CO,21,Gramalote,
85237,CO,17,Ríohacha,
85238,CO,18,Sabanagrande,
85239,CO,5,Arjona,
85240,CO,33,Sibaté,
85241,CO,2,Yarumal,
85242,CO,5,Córdoba,
85243,CO,7,Marquetalia,
85244,CO,33,Pachavita,
85245,CO,12,Chinú,
85246,CO,9,Páez,
85247,CO,26,Florián,
85248,CO,33,Chaguaní,
85249,CO,26,Landázuri,
85250,CO,6,Turmequé,
85251,CO,33,Suesca,
85252,CO,26,Socorro,
85253,CO,19,Cumaral,
85254,CO,29,La Victoria,
85255,CO,23,Circasia,
85256,CO,28,Rovira,
85257,CO,33,Madrid,
85258,CO,2,San Jerónimo,
85259,CO,12,Chimá,
85260,CO,2,La Ceja,
85261,CO,2,Ebéjico,
85262,CO,2,Sonsón,
85263,CO,12,Planeta Rica,
85264,CO,12,Ciénaga De Oro,
85265,CO,12,Sahagún,
85266,CO,12,Cereté,
85267,CO,32,Aguazul,
85268,CO,4,Luruaco,
85269,CO,6,San Luis De Gaceno,
85270,CO,2,San Luis,
85271,CO,23,Pijao,
85272,CO,33,Tabio,
85273,CO,5,Turbaco,
85274,CO,28,San Antonio,
85275,CO,16,Garzón,
85276,CO,33,Cajicá,
85277,CO,6,Coper,
85278,CO,23,Filandia,
85279,CO,28,Chaparral,
85280,CO,33,Une,
85281,CO,2,La Pintada,
85282,CO,2,Sabaneta,
85283,CO,23,Montenegro,
85284,CO,7,Belalcázar,
85285,CO,11,San José Del Palmar,
85286,CO,26,Jordán,
85287,CO,33,Nocaima,
85288,CO,33,Quipile,
85289,CO,6,Tuta,
85290,CO,4,Juan De Acosta,
85291,CO,28,Venadillo,
85292,CO,33,Pasca,
85293,CO,33,Gachetá,
85294,CO,2,Apartadó,
85295,CO,2,Yolombó,
85296,CO,29,El Cairo,
85297,CO,33,Junín,
85298,CO,6,Firavitoba,
85299,CO,6,Sogamoso,
85300,CO,33,Pacho,
85301,CO,28,Ortega,
85302,CO,28,Rioblanco,
85303,CO,17,El Placer,
85304,CO,6,Leiva,
85305,CO,26,Matanza,
85306,CO,28,Natagaima,
85307,CO,28,Coyaima,
85308,CO,16,Gigante,
85309,CO,28,Ataco,
85310,CO,7,Aguadas,
85311,CO,33,La Calera,
85312,CO,7,Villamaría,
85313,CO,18,Ciénaga,
85314,CO,26,Piedecuesta,
85315,CO,2,Caramanta,
85316,CO,33,Subachoque,
85317,CO,33,Villeta,
85318,CO,8,El Paujil,
85319,CO,6,Garagoa,
85320,CO,6,Guateque,
85321,CO,16,Teruel,
85322,CO,33,Fúquene,
85323,CO,33,Supatá,
85324,CO,6,Combita,
85325,CO,9,Piendamó,
85326,CO,7,San José,
85327,CO,29,Trujillo,
85328,CO,16,Paicol,
85329,CO,26,Hato,
85330,CO,18,Pivijay,
85331,CO,26,Santa Helena,
85332,CO,33,Bituima,
85333,CO,33,San Antonio Del Tequendama,
85334,CO,29,Bugalagrande,
85335,CO,33,Gutiérrez,
85336,CO,33,Sasaima,
85337,CO,26,Girón,
85338,CO,12,San Pelayo,
85339,CO,6,San Pablo De Borbur,
85340,CO,9,Puerto Tejada,
85341,CO,16,Yaguará,
85342,CO,4,Piojó,
85343,CO,17,Maicao,
85344,CO,33,El Manzano,
85345,CO,20,Gualmatán,
85346,CO,2,Santo Domingo,
85347,CO,33,Vergara,
85348,CO,23,Génova,
85349,CO,29,Sevilla,
85350,CO,5,El Carmen De Bolívar,
85351,CO,26,Suratá,
85352,CO,16,Santa María,
85353,CO,2,Nariño,
85354,CO,33,Gachalá,
85355,CO,5,María La Baja,
85356,CO,18,Aracataca,
85357,CO,29,Alcalá,
85358,CO,33,Albán,
85359,CO,19,Acacías,
85360,CO,33,Umbita,
85361,CO,33,Pulí,
85362,CO,33,Beltrán,
85363,CO,6,Sutamarchán,
85364,CO,16,Agrado,
85365,CO,16,Pital,
85366,CO,18,Fundación,
85367,CO,33,Ubaté,
85368,CO,26,Vélez,
85369,CO,2,Anorí,
85370,CO,2,Segovia,
85371,CO,12,Lorica,
85372,CO,33,Fosca,
85373,CO,9,Santander De Quilichao,
85374,CO,7,Victoria,
85375,CO,18,El Banco,
85376,CO,29,Pradera,
85377,CO,21,Villa Del Rosario,
85378,CO,9,Popayán,
85379,CO,2,Urrao,
85380,CO,2,Carepa,
85381,CO,2,Gómez Plata,
85382,CO,29,Caicedonia,
85383,CO,29,Restrepo,
85384,CO,33,Nariño,
85385,CO,29,Florida,
85386,CO,9,Huila,
85387,CO,2,La Estrella,
85388,CO,33,La Mesa,
85389,CO,6,Chinavita,
85390,CO,28,Alvarado,
85391,CO,33,Anolaima,
85392,CO,21,Cáchira,
85393,CO,18,El Piñón,
85394,CO,9,Miranda,
85395,CO,2,Caucasia,
85396,CO,33,Chipaque,
85397,CO,6,Zetaquira,
85398,CO,16,Pitalito,
85399,CO,2,Poblado,
85400,CO,21,Los Patios,
85401,CO,26,Zapatoca,
85402,CO,21,Tibú,
85403,CO,21,Sardinata,
85404,CO,6,Almeida,
85405,CO,33,Guaduas,
85406,CO,19,Puerto López,
85407,CO,14,Miraflores,
85408,CO,9,Inzá,
85409,CO,6,Macanal,
85410,CO,28,Murillo,
85411,CO,28,Villahermosa,
85412,CO,4,Santo Tomás,
85413,CO,32,San Luis De Palenque,
85414,CO,3,Tame,
85415,CO,9,Corinto,
85416,CO,28,Flandes,
85417,CO,6,Pesca,
85418,CO,2,Retiro,
85419,CO,27,Corozal,
85420,CO,29,La Unión,
85421,CO,17,Albania,
85422,CO,29,Yotoco,
85423,CO,19,Granada,
85424,CO,28,Mariquita,
85425,CO,33,Tenza,
85426,CO,5,Soplaviento,
85427,CO,5,Magangué,
85428,CO,3,Saravena,
85429,CO,33,La Carolina,
85430,CO,33,Agua De Dios,
85431,CO,27,Caimito,
85432,CO,2,Turbo,
85433,CO,22,Mocoa,
85434,CO,33,Susa,
85435,CO,17,Barrancas,
85436,CO,28,Guayabal,
85437,CO,9,Silvia,
85438,CO,26,Málaga,
85439,CO,2,Jericó,
85440,CO,2,Carmen De Viboral,
85441,CO,2,Puerto Berrío,
85442,CO,27,Palmito,
85443,CO,29,Bolívar,
85444,CO,28,Guamo,
85445,CO,2,Entrerríos,
85446,CO,28,Lérida,
85447,CO,18,Montelíbano,
85448,CO,16,Acevedo,
85449,CO,2,Santuario,
85450,CO,33,Simijaca,
85451,CO,6,Cucaita,
85452,CO,2,Marinilla,
85453,CO,7,Pensilvania,
85454,CO,2,Remedios,
85455,CO,6,Paipa,
85456,CO,21,Ocaña,
85457,CO,28,Tolima,
85458,CO,33,Arbeláez,
85459,CO,21,Puerto Santander,
85460,CO,23,La Tebaida,
85461,CO,33,La Vega,
85462,CO,4,Puerto Colombia,
85463,CO,17,Fonseca,
85464,CO,18,Mompos,
85465,CO,3,Arauca,
85466,CO,17,San Juan Del Cesar,
85467,CO,27,Sucre,
85468,CO,32,Monterrey,
85469,CO,4,Malambo,
85470,CO,19,El Calvario,
85471,CO,6,Puerto Boyacá,
85472,CO,28,Cajamarca,
85473,CO,1,Leticia,
85474,CO,22,Villagarzón,
85475,CO,2,San Rafael,
85476,CO,22,Orito,
85477,CO,20,Peñol,
85478,CO,6,Aquitania,
85479,CO,33,Casanare,
85480,CO,4,Campo De La Cruz,
85481,CO,10,Aguachica,
85482,CO,29,Ansermanuevo,
85483,CO,18,El Difícil,
85484,CO,32,Paz De Ariporo,
85485,CO,33,Bojacá,
85486,CO,28,Icononzo,
85487,CO,16,Rivera,
85488,CO,6,San Miguel De Sema,
85489,CO,2,Chigorodó,
85490,CO,2,Urabá,
85491,CO,2,Berrío,
85492,CO,22,Colón,
85493,CO,27,Barranca,
85494,CO,26,Lebrija,
85495,CO,2,Copacabana,
85496,CO,5,Calamar,
85497,CO,12,Tierralta,
85498,CO,12,San Antero,
85499,CO,2,La Linda,
85500,CO,26,Guapotá,
85501,CO,14,San José Del Guaviare,
85502,CO,6,Ráquira,
85503,CO,16,La Argentina,
85504,CO,2,Jardín,
85505,CO,6,Belén,
85506,CO,5,San Juan Nepomuceno,
85507,CO,12,Momil,
85508,CO,10,La Jagua De Ibirico,
85509,CO,2,Yondó,
85510,CO,2,Andes,
85511,CO,7,Cauca,
85512,CO,33,Vianí,
85513,CO,8,Valparaíso,
85514,CO,28,Carmen De Apicalá,
85515,CO,32,Maní,
85516,CO,22,Puerto Asís,
85517,CO,23,Buenavista,
85518,CO,23,Salento,
85519,CO,6,Ramiriquí,
85520,CO,9,Caloto,
85521,CO,29,El Águila,
85522,CO,6,Otanche,
85523,CO,33,Cachipay,
85524,CO,2,La Unión,
85525,CO,20,Tumaco,
85526,CO,20,Túquerres,
85527,CO,29,San Pedro,
85528,CO,27,Majagual,
85529,CO,12,Tuchín,
85530,CO,12,Moñitos,
85531,CO,32,Villanueva,
85532,CO,28,Líbano,
85533,CO,28,Saldaña,
85534,CO,2,Barbosa,
85535,CO,9,Padilla,
85536,CO,27,Tolú,
85537,CO,24,Risaralda,
85538,CO,33,Tena,
85539,CO,22,La Hormiga,
85540,CO,33,Barranquilla,
85541,CO,2,Carmen,
85542,CO,2,Granada,
85543,CO,4,Tubará,
85544,CO,21,Arboledas,
85545,CO,33,Puerto Salgar,
85546,CO,21,Toledo,
85547,CO,28,Purificación,
85548,CO,4,Baranoa,
85549,CO,6,Moniquirá,
85550,CO,2,Ciudad Bolívar,
85551,CO,26,Puerto Wilches,
85552,CO,6,Nobsa,
85553,CO,18,El Retén,
85554,CO,26,Oiba,
85555,CO,29,La Paila,
85556,CO,33,Suba,
85557,CO,8,Puerto Rico,
85558,CO,32,Tauramena,
85559,CO,33,San Bernardo,
85560,CO,16,Palermo,
85561,CO,26,Soatá,
85562,CO,6,Chita,
85563,CO,20,Barbacoas,
85564,CO,20,Pupiales,
85565,CO,20,Samaniego,
85566,CO,24,Quinchía,
85567,CO,16,Elías,
85568,CO,16,Suaza,
85569,CO,16,Guadalupe,
85570,CO,18,Chivolo,
85571,CO,18,Ariguaní,
85572,CO,11,Istmina,
85573,CO,17,Villanueva,
85574,CO,17,Distracción,
85575,CO,18,Plato,
85576,CO,10,Bosconia,
85577,CO,10,Chiriguaná,
85578,CO,31,Codazzi,
85579,CO,27,San Marcos,
85580,CO,17,Urumita,
85581,CO,20,Guachucal,
85582,CO,3,Arauquita,
85583,CO,5,Santa Rosa Del Sur,
85584,CO,6,Socha,
85585,CO,9,Timbío,
85586,CO,28,Fresno,
85587,CO,33,El Colegio,
85588,CO,15,Inírida,
85589,CO,28,Dolores,
85590,CO,9,Toribío,
85591,CO,33,Medina,
85592,CO,5,San Pablo,
85593,CO,3,Cravo Norte,
85594,CO,12,Purísima,
85595,CO,22,Sibundoy,
85596,CO,7,Manzanares,
85597,CO,26,Palmas Del Socorro,
85598,CO,28,Falan,
85599,CO,6,Pajarito,
85600,CO,6,Samacá,
85601,CO,29,Toro,
85602,CO,28,Coello,
85603,CO,2,Amalfi,
85604,CO,26,San Vicente De Chucurí,
85605,CO,5,Magdalena,
85606,CO,2,Guatapé,
85607,CO,20,Providencia,
85608,CO,5,Talaigua,
85609,CO,10,Gamarra,
85610,CO,2,Támesis,
85611,CO,2,Ituango,
85612,CO,19,Castilla La Nueva,
85613,CO,26,Charalá,
85614,CO,2,Campamento,
85615,CO,9,El Bordo,
85616,CO,28,Planadas,
85617,CO,26,San José De Miranda,
85618,CO,24,Mistrató,
85619,CO,7,La Guajira,
85620,CO,4,Palmar De Varela,
85621,CO,2,San Pedro,
85622,CO,27,Boston,
85623,CO,28,Palocabildo,
85624,CO,27,Sampués,
85625,CO,16,Aipe,
85626,CO,9,Cauca,
85627,CO,2,San Vicente,
85628,CO,2,Zaragoza,
85629,CO,9,Caldono,
85630,CO,11,Pureto,
85631,CO,2,Giradota,
85632,CO,29,El Dovio,
85633,CO,33,Pandi,
85634,CO,6,Ciénega,
85635,CO,33,Yerbabuena,
85636,CO,2,San Pedro De Urabá,
85637,CO,26,Barbosa,
85638,CO,22,Santiago,
85639,CO,20,Buesaco,
85640,CO,28,Chicoral,
85641,CO,2,Don Matías,
85642,CO,6,Tinjacá,
85643,CO,9,Guachené,
85644,CO,2,Concordia,
85645,CO,2,San Juan De Urabá,
85646,CO,2,Cisneros,
85647,CO,20,La Cruz,
85648,CO,10,Astrea,
85649,CO,21,Santa Teresa,
85650,CO,10,Corozal,
85651,CO,33,Manila,
85652,CO,29,Obando,
85653,CO,2,Frontino,
85654,CO,33,Cucunubá,
85655,CO,10,El Paso,
85656,CO,18,Colombiano,
85657,CO,33,Libertador,
85658,CO,11,Rosa,
85659,CO,16,Timaná,
85660,CO,2,Tarazá,
85661,CO,26,Marta,
85662,CO,6,Toca,
85663,CO,33,Nilo,
85664,CO,19,Restrepo,
85665,CO,26,Simacota,
85666,CO,26,Curití,
85667,CO,16,La Jagua,
85668,CO,12,San Andres De Sotavento,
85669,CO,27,Las Vegas,
85670,CO,17,Uribia,
85671,CO,2,Cocorná,
85672,CO,10,San Alberto,
85673,CO,26,Cimitarra,
85674,CO,6,Labranzagrande,
85675,CO,2,Fredonia,
85676,CO,2,Amagá,
85677,CO,10,Curumaní,
85678,CO,16,Altamira,
85679,CO,16,Campoalegre,
85680,CO,12,Valencia,
85681,CO,12,Santafe,
85682,CO,33,Santa María,
85683,CO,6,Paz De Río,
85684,CO,33,Utica,
85685,CO,26,Macaravita,
85686,CO,33,Quebradanegra,
85687,CO,2,Arboletes,
85688,CO,22,Puerto Caicedo,
85689,CO,2,Pueblorrico,
85690,CO,16,Villavieja,
85691,CO,20,Chachagüí,
85692,CO,18,Alicante,
85693,CO,28,Barcelona,
85694,CO,33,Valentín,
85695,CO,26,Concepción,
85696,CO,16,México,
85697,CO,9,Tarragona,
85698,CO,33,Panama,
85699,CO,33,Tolemaida,
85700,CO,21,Las Palmas,
85701,CO,12,Floral,
85702,CO,20,Tabiles,
85703,CO,33,Roma,
85704,CO,33,Fundación,
85705,CO,33,El Santuario,
85706,CO,4,Galapa,
85707,CO,2,Salgar,
85708,CO,33,Usaquén,
85709,CO,2,Abejorral,
85710,CO,4,Julio,
85711,CO,2,Briceño,
85712,CO,29,Florencia,
85713,CO,32,El Yopal,
85714,CO,33,Sutatausa,
85715,CO,33,Sur América,
85716,CO,2,San Carlos,
85717,CO,21,San Cayetano,
85718,CO,5,Bayunca,
85719,CO,20,Mayasquer,
85720,CO,2,Caracolí,
85721,CO,2,El Bagre,
85722,CO,33,Ceilán,
85723,CO,33,Villa Mejía,
85724,CO,33,Argelia,
85725,CO,29,El Faro,
85726,CO,18,Hacienda Barravieja,
85727,CO,33,El Tabor,
85728,CO,12,Mabobo,
85729,CO,26,Barranca,
85730,CO,33,La Loma,
85731,CO,26,Aratoca,
85732,CO,10,Agustín Codazzi,
85733,CO,33,El Toronjo,
85734,CO,29,La Providencia,
85735,CO,2,Alejandría,
85736,CO,2,Viva Dios,
85737,CO,24,Apía,
85738,CO,9,Morales,
85739,CO,21,Cuajadoras,
85740,CO,20,Consacá,
85741,CO,22,Puerto Leguízamo,
85742,CO,33,Nazareth,
85743,CO,28,El Aceituno,
85744,CO,24,San Felipe,
85745,CO,2,Cháquira,
85746,CO,2,Las Pavas,
85747,CO,33,Maryland,
85748,CO,33,Salitre,
85749,CO,21,El Zulia,
85750,CO,33,Barrio La Granja,
85751,CO,16,Nochebuena,
85752,CO,2,Hispania,
85753,CO,33,Mesitas,
85754,CO,7,Viterbo,
85755,CO,33,Espinal,
85756,CO,33,La Uribe,
85757,CO,29,La Rosa,
85758,CO,12,Corozalito,
85759,CO,4,José Antonio Galán,
85760,CO,33,Guachetá,
85761,CO,29,Dávila,
85762,CO,4,Corregimiento Palmer De Candelaria,
85763,CO,5,Santa Rosa,
85764,CO,2,Puerto Claver,
85765,CO,20,Sandoná,
85766,CO,33,Corales,
85767,CO,2,Necoclí,
85768,CO,6,Tibasosa,
85769,CO,20,Llorente,
85770,CO,19,Gutiérrez,
85771,CO,29,Perú,
85772,CO,33,Modelia,
85773,CO,20,Yapurquer,
85774,CO,18,La Guardia,
85775,CO,33,La Fiscala,
85776,CO,33,San Pablo,
85777,CO,33,El Páramo,
85778,CO,29,Arroyo Hondo,
85779,CO,26,El Naranjito,
85780,CO,26,Norte,
85781,CO,33,Gabriela Mistral,
85782,CO,29,Boca Tulua,
85783,CO,33,Holanda,
85784,CO,33,Puente Aranda,
85785,CO,27,Los Palmitos,
85786,CO,28,Cunday,
85787,CO,2,Caicedo,
85788,CO,33,Canadá,
85789,CO,2,Dabeiba,
85790,CO,2,El Salvador,
85791,CO,33,Colegio,
85792,CO,33,Barandillas,
85793,CO,6,Ciavita,
85794,CO,2,San Antonio De Prado,
85795,CO,28,El Mango,
85796,CO,17,Tutehón,
85797,CO,28,La Samaría,
85798,CO,33,Java,
85799,CO,29,La Cumbre,
85800,CO,27,San Pedro,
85801,CO,7,Neira,
85802,CO,33,Leticia,
85803,CO,33,El Retiro,
85804,CO,33,Tibabitá,
85805,CO,33,Las Tominejas,
85806,CO,23,Leona,
85807,CO,2,Guayaquil,
85808,CO,24,La Samaria,
85809,CO,2,San José De La Montaña,
85810,CO,17,Murillo,
85811,CO,29,Ocache,
85812,CO,7,Pácora,
85813,CO,33,Los Laureles,
85814,CO,4,Polonuevo,
85815,CO,29,Kilómetro Diez Y Ocho,
85816,CO,7,Rosario,
85817,CO,32,Orocué,
85818,CO,33,La Granja,
85819,CO,26,La Belleza,
85820,CO,26,Quindío,
85821,CO,33,Concentración Márquez,
85822,CO,20,Cumbal,
85823,CO,33,Fontibón,
85824,CO,18,Guamal,
85825,CO,33,Veracruz,
85826,CO,29,El Sinú,
85827,CO,21,Silos,
85828,CO,33,Brasil,
85829,CO,2,Mutatá,
85830,CO,29,Casanare,
85831,CO,26,Sabana De Torres,
85832,CO,29,La Magdalena,
85833,CO,2,Cáceres,
85834,CO,27,Coveñas,
85835,CO,33,Engativá,
85836,CO,6,Jenesano,
85837,CO,8,Curillo,
85838,CO,8,San José Del Fragua,
85839,CO,2,Betulia,
85840,CO,16,San Agustín,
85841,CO,5,San Jacinto,
85842,CO,2,Betania,
85843,CO,2,Liborina,
85844,CO,6,Arcabuco,
85845,CO,29,Casa Amarillo,
85846,CO,11,Mutis,
85847,CO,2,Pablo Guerrero,
85848,CO,6,Charalá,
85849,CO,33,Argentina,
85850,CO,7,Union,
85851,CO,34,Estanzuela,
85852,CO,2,Berlín,
85853,CO,36,Arcabuco,
85854,CO,37,Manizales,
85855,CO,16,Peña De Opia,
85856,CO,34,Madrid,
85857,CO,34,Bogotá,
85858,CO,36,Tunja,
85859,CO,37,Rosario,
85860,CO,35,Cartagena,
85861,CO,37,Risaralda,
85862,CO,35,San Pablo,
85863,CO,38,Santa Marta,
85864,CO,35,Turbaco,
85865,CO,33,Villa Rosa,
85866,CO,37,La Dorada,
85867,CO,29,Nayita,
85868,CO,38,Ciénaga,
85869,CO,36,Duitama,
85870,CO,36,Paipa,
85871,CO,38,Montelíbano,
85872,CO,36,Nobsa,
85873,CO,37,Viterbo,
85874,CO,34,Cundinamarca,
85875,CO,36,Sogamoso,
85876,CO,36,Boyacá,
85877,CO,16,Fosfaco,
85878,CO,33,El Jordán,
85879,CO,34,Class,
85880,CO,35,San Juan Nepomuceno,
85881,CO,37,Pácora,
85882,CO,36,Samacá,
85883,CO,37,Pensilvania,
85884,CO,37,Villamaría,
85885,CO,38,Plato,
85886,CO,38,Pivijay,
85887,CO,37,Chinchiná,
85888,CO,29,Guanabanal,
85889,CO,21,Castro,
85890,CO,38,Atlántico,
85891,CO,35,Valle,
85892,CO,38,Miami,
85893,CO,38,Cundinamarca,
85894,CO,35,Bayunca,
85895,CO,35,Santander,
85896,CO,35,Magdalena,
85897,CO,38,Bavaria,
85898,CO,1,Union,
85899,CO,35,La Costa,
85900,CO,38,Colombiano,
85901,CO,21,Labateca,
85902,CO,35,Magangué,
85903,CO,29,Calima,
85904,CO,34,Barrio Boyacá,
85905,CO,19,Puerto Gaitán,
85906,CO,37,Filadelfia,
85907,CO,38,Panamá,
85908,CO,34,Kennedy,
85909,CO,35,San Jacinto,
85910,CO,29,Riofrío,
85911,CO,34,Lucero,
85912,CO,38,Fundación,
85913,CO,38,Roma,
85914,CO,34,Portales Del Norte,
85915,CO,9,La Mesa,
85916,CO,38,Gobernación,
85917,CO,34,Carvajal Osorio,
85918,CO,34,Usaquén,
85919,CO,33,Santa Inés,
85920,CO,36,Oicatá,
85921,CO,29,El Retiro,
85922,CO,9,Guapi,
85923,CO,34,Ferrocaja,
85924,CO,33,La Tebaida,
85925,CO,34,Provenza,
85926,CO,34,Bosa,
85927,CO,32,La Copa,
85928,CO,33,San Juan De Rioseco,
85929,CO,33,Compartir,
85930,CO,34,Suba,
85931,CO,38,Pozo Colorado,
85932,CO,37,San José,
85933,CO,37,Marquetalia,
85934,CO,37,Salamina,
85935,CO,34,Jardines Del Recuerdo,
85936,CO,34,Fontibón,
85937,CO,33,Nuevo Edén,
85938,CO,27,Caracas,
85939,CO,4,Ponedera,
85940,CO,24,Anserma,
85941,CO,34,Engativá,
85942,CO,36,Puerto Boyacá,
85943,CO,26,Coromoro,
85944,CO,35,Arjona,
85945,CO,35,Córdoba,
85946,CO,33,Andorra,
85947,CO,35,El Carmen De Bolívar,
85948,CO,34,Barrios Unidos,
85949,CO,36,Chiquinquirá,
85950,CO,36,Tópaga,
85951,CO,34,Casanare,
85952,CO,34,Casandra,
85953,CO,34,Castilla,
85954,CO,36,Somondoco,
85955,CO,38,Aracataca,
85956,CO,3,Municipio De Arauquita,
85957,CO,38,China,
85958,CO,32,Cauca,
85959,CO,33,Porfia,
85960,CO,34,El Recuerdo,
85961,CO,34,Chicó,
85962,CO,34,Puente Aranda,
85963,CO,36,Guateque,
85964,CO,29,La Guajira,
85965,CO,29,Carmelo,
85966,CO,16,Chile,
85967,CO,29,Santiago De Cali,
85968,CO,2,El Retiro,
85969,CO,26,Florida,
85970,CO,34,Tunjuelito,
85971,CO,35,Santa Rosa,
85972,CO,2,Titiribí,
85973,CO,34,Pueblito,
85974,CO,9,Buenos Aires,
85975,CO,37,La Merced,
85976,CO,27,Morroa,
85977,CO,36,Socha,
85978,CO,4,Santa Lucía,
85979,CO,33,Patio Bonito,
85980,CO,10,San Martín,
85981,CO,36,Nueva,
85982,CO,33,Alsacia,
85983,CO,34,Gaitán,
85984,CO,27,Sincé,
85985,CO,34,Quirigua,
85986,CO,24,Cartago Viejo,
85987,CO,33,Asturias,
85988,CO,28,Anzoátegui,
85989,CO,33,Bucaramanga,
85990,CO,34,Florida Blanca,
85991,CO,27,San Juan De Betulia,
85992,CO,2,San Roque,
85993,CO,35,Morales,
85994,CO,36,Molinos,
85995,CO,34,Belén,
85996,CO,34,Bosques De Mariana,
85997,CO,2,Argelia,
85998,CO,2,Santa Fe De Antioquia,
85999,CO,20,El Tambo,
86000,CO,34,Bravo Páez,
86001,CO,4,Barrancas De San Nicolás,
86002,CO,20,San Pablo,
86003,CO,34,Teusaquillo,
86004,CO,34,Almendros,
86005,CO,27,Toluviejo,
86006,CO,33,Quito,
86007,CO,12,El Central,
86008,CO,33,Baltimore,
86009,CO,21,San José De Cùcuta,
86010,CO,2,Robledo,
86011,CO,33,Casa Blanca,
86012,CO,28,Calibio,
86013,CO,36,Aquitania,
86014,CO,19,El Chomito,
86015,CO,35,Bolivar,
86016,CO,35,Cospique,
86017,CO,29,Chontaduro Terronal,
86018,CO,34,Cedritos,
86019,CO,34,Ciudad Montes,
86020,CO,38,Zambrano,
86021,CO,34,Trinidad,
86022,CO,21,Santander,
