locId,country,region,city,postcode
86944,CZ,,,
86945,CZ,52,Prague,
86946,CZ,78,Brno,
86947,CZ,52,Hostivice,
86948,CZ,84,Prostejov,
86949,CZ,89,Ústí,
86950,CZ,90,Kromeriz,
86951,CZ,52,Praha,
86952,CZ,84,Olomouc,
86953,CZ,89,Zalhostice,
86954,CZ,70,Broumov,
86955,CZ,82,Hradec Králové,
86956,CZ,89,Kadan,
86957,CZ,33,Albrechtice,
86958,CZ,86,Pardubice,
86959,CZ,52,Jesenice,
86960,CZ,87,Plzen,
86961,CZ,83,Liberec,
86962,CZ,86,Svitavy,
86963,CZ,88,Votice,
86964,CZ,85,Ostrava,
86965,CZ,80,Jihlava,
86966,CZ,85,Frýdek-místek,
86967,CZ,41,Podebrady,
86968,CZ,88,Kolín,
86969,CZ,86,Chrudim,
86970,CZ,84,Prerov,
86971,CZ,85,Bohumín,
86972,CZ,79,Písek,
86973,CZ,90,Uherský Brod,
86974,CZ,85,Havirov,
86975,CZ,90,Uherske Hradiste,
86976,CZ,85,Karviná,
86977,CZ,79,Ceske Budejovice,
86978,CZ,70,Vrchlabí,
86979,CZ,86,Jablonné Nad Orlicí,
86980,CZ,89,Roudnice,
86981,CZ,90,Zlín,
86982,CZ,78,Hodonín,
86983,CZ,89,Teplice,
86984,CZ,85,Frenstat,
86985,CZ,81,Cheb,
86986,CZ,30,Celakovice,
86987,CZ,88,Horovice,
86988,CZ,88,Mladá Boleslav,
86989,CZ,88,Kladno,
86990,CZ,79,Protivín,
86991,CZ,86,Litomysl,
86992,CZ,52,Pruhonice,
86993,CZ,88,Melnik,
86994,CZ,30,Caslav,
86995,CZ,88,Neratovice,
86996,CZ,87,Holoubkov,
86997,CZ,85,Hranice,
86998,CZ,80,Hlinsko,
86999,CZ,85,Krnov,
87000,CZ,88,Kutná Hora,
87001,CZ,82,Rychnov Nad Kneznou,
87002,CZ,85,Opava,
87003,CZ,52,Kralupy Nad Vltavou,
87004,CZ,23,Horice,
87005,CZ,87,Kyjov,
87006,CZ,84,Sumperk,
87007,CZ,45,Sezemice,
87008,CZ,61,Lomnice Nad Popelkou,
87009,CZ,52,Odolena Voda,
87010,CZ,87,Nyrany,
87011,CZ,86,Zamberk,
87012,CZ,39,Dobruska,
87013,CZ,79,Budejovice,
87014,CZ,87,Rokycany,
87015,CZ,30,Kourim,
87016,CZ,80,Zdar Nad Sazavou,
87017,CZ,78,Ceska,
87018,CZ,61,Turnov,
87019,CZ,85,Cesky Tesin,
87020,CZ,79,Tábor,
87021,CZ,88,Nymburk,
87022,CZ,86,Ceska Trebova,
87023,CZ,82,Kostelec Nad Orlicí,
87024,CZ,82,Solnice,
87025,CZ,86,Policka,
87026,CZ,86,Chocen,
87027,CZ,85,Koprivnice,
87028,CZ,83,Castolovice,
87029,CZ,52,Brandýs Nad Labem,
87030,CZ,24,Dvur Kralove,
87031,CZ,86,Lanskroun,
87032,CZ,88,Sedlcany,
87033,CZ,90,Vsetín,
87034,CZ,90,Valasske Mezirici,
87035,CZ,30,Sázava,
87036,CZ,81,Karlovy Vary,
87037,CZ,84,Hradec,
87038,CZ,78,Dukovany,
87039,CZ,80,Trebic,
87040,CZ,87,Pilsen,
87041,CZ,83,Jablonec,
87042,CZ,87,Hrádek,
87043,CZ,78,Boskovice,
87044,CZ,52,Zizkov,
87045,CZ,83,Ceska Lipa,
87046,CZ,89,Novosedlice,
87047,CZ,78,Hustopece,
87048,CZ,79,Cimelice,
87049,CZ,45,Prelouc,
87050,CZ,89,Chomutov,
87051,CZ,33,Varnsdorf,
87052,CZ,87,Horni Briza,
87053,CZ,82,Náchod,
87054,CZ,78,Vyskov,
87055,CZ,80,Havlickuv Brod,
87056,CZ,82,Jicin,
87057,CZ,80,Moravske Budejovice,
87058,CZ,82,Cerveny Kostelec,
87059,CZ,61,Jilemnice,
87060,CZ,78,Znojmo,
87061,CZ,90,Stare Mesto,
87062,CZ,82,Trutnov,
87063,CZ,84,Uhelná,
87064,CZ,81,Hora,
87065,CZ,79,Strakonice,
87066,CZ,45,Holice,
87067,CZ,88,Lodenice,
87068,CZ,87,Domazlice,
87069,CZ,78,Rajecko,
87070,CZ,90,Dolni Nemci,
87071,CZ,90,Kunovice,
87072,CZ,78,Blansko,
87073,CZ,87,Nova Hut,
87074,CZ,89,Podborany,
87075,CZ,52,Vysocany,
87076,CZ,39,Jaromer,
87077,CZ,79,Pariz,
87078,CZ,45,Hermanuv Mestec,
87079,CZ,87,Folmava,
87080,CZ,39,Zdar,
87081,CZ,88,Benesov,
87082,CZ,52,Smíchov,
87083,CZ,21,Jiretin Pod Bukovou,
87084,CZ,84,Klasterec,
87085,CZ,45,Vysoké Mýto,
87086,CZ,90,Nivnice,
87087,CZ,87,Line,
87088,CZ,52,Braník,
87089,CZ,45,Recany Nad Labem,
87090,CZ,88,Vlasim,
87091,CZ,79,Milevsko,
87092,CZ,85,Bruntál,
87093,CZ,85,Svoboda,
87094,CZ,90,Veselí Nad Moravou,
87095,CZ,33,Rychnov,
87096,CZ,79,Cesky Krumlov,
87097,CZ,84,Jeseník,
87098,CZ,88,Bustehrad,
87099,CZ,89,Budyne Nad Ohri,
87100,CZ,81,Nove Mesto,
87101,CZ,78,Breclav,
87102,CZ,52,Jazlovice,
87103,CZ,78,Ivancice,
87104,CZ,89,Lovosice,
87105,CZ,89,Decin,
87106,CZ,88,Velvary,
87107,CZ,88,Vsenory,
87108,CZ,79,Sobeslav,
87109,CZ,84,Kostelec,
87110,CZ,70,Male Svatonovice,
87111,CZ,84,Zabreh,
87112,CZ,85,Frýdek,
87113,CZ,80,Velke Mezirici,
87114,CZ,52,Stodulky,
87115,CZ,52,Horni Mecholupy,
87116,CZ,89,Litomerice,
87117,CZ,78,Straznice,
87118,CZ,88,Beroun,
87119,CZ,89,Most,
87120,CZ,79,Jindrichuv Hradec,
87121,CZ,89,Terezín,
87122,CZ,90,Slusovice,
87123,CZ,81,Mokrá,
87124,CZ,78,Zdanice,
87125,CZ,78,Rosice,
87126,CZ,52,Roztoky,
87127,CZ,86,Techonin,
87128,CZ,81,Marianske Lazne,
87129,CZ,78,Hösting,
87130,CZ,80,Skrivanek,
87131,CZ,85,Bílovec,
87132,CZ,85,Bolatice,
87133,CZ,87,Rybnice,
87134,CZ,52,Kojetice,
87135,CZ,84,Horni Mostenice,
87136,CZ,88,Krusovice,
87137,CZ,85,Trinec,
87138,CZ,89,Chabarovice,
87139,CZ,52,Barrandov,
87140,CZ,78,Lednice,
87141,CZ,52,Zdiby,
87142,CZ,86,Letohrad,
87143,CZ,81,Hradiste,
87144,CZ,80,Zeletava,
87145,CZ,90,Morkovice,
87146,CZ,30,Zbraslavice,
87147,CZ,90,Holesov,
87148,CZ,87,Planá,
87149,CZ,81,Nejdek,
87150,CZ,85,Bystrice,
87151,CZ,84,Lutín,
87152,CZ,52,Prag,
87153,CZ,90,Vápenice,
87154,CZ,88,Kraluv Dvur,
87155,CZ,85,Velké Heraltice,
87156,CZ,80,Humpolec,
87157,CZ,81,Sokolov,
87158,CZ,52,Jinonice,
87159,CZ,87,Babylon,
87160,CZ,85,Roznov,
87161,CZ,52,Ricany,
87162,CZ,87,Nýrsko,
87163,CZ,33,Zásada,
87164,CZ,87,Klatovy,
87165,CZ,80,Pribyslav,
87166,CZ,88,Zebrak,
87167,CZ,79,Veseli Nad Luznici,
87168,CZ,85,Detmarovice,
87169,CZ,52,Bechovice,
87170,CZ,84,Litovel,
87171,CZ,45,Lazne Bohdanec,
87172,CZ,87,Kralovice,
87173,CZ,89,Trmice,
87174,CZ,87,Zbuch,
87175,CZ,84,Postrelmov,
87176,CZ,85,Velký,
87177,CZ,84,Unicov,
87178,CZ,88,Rakovník,
87179,CZ,78,Krtiny,
87180,CZ,39,Sedlec,
87181,CZ,85,Novy Jicin,
87182,CZ,85,Orlová,
87183,CZ,78,Kurim,
87184,CZ,87,Ceska Kubice,
87185,CZ,87,Horsovsky Tyn,
87186,CZ,84,Pencin,
87187,CZ,85,Paskov,
87188,CZ,80,Budisov,
87189,CZ,88,Pribram,
87190,CZ,87,Týnec,
87191,CZ,33,Frýdlant,
87192,CZ,87,Prestice,
87193,CZ,87,Stod,
87194,CZ,85,Vávrovice,
87195,CZ,90,Bojkovice,
87196,CZ,52,Horni Pocernice,
87197,CZ,90,Halenkovice,
87198,CZ,89,Chlumec,
87199,CZ,88,Rudná,
87200,CZ,88,Breznice,
87201,CZ,33,Chrastava,
87202,CZ,81,Nová Role,
87203,CZ,85,Dobrá,
87204,CZ,88,Bakov Nad Jizerou,
87205,CZ,88,Steti,
87206,CZ,23,Lazne Belohrad,
87207,CZ,88,Jenec,
87208,CZ,89,Dobrin,
87209,CZ,87,Kdyne,
87210,CZ,82,Úpice,
87211,CZ,89,Velvety,
87212,CZ,78,Pohorelice,
87213,CZ,87,Rozvadov,
87214,CZ,81,Chodov,
87215,CZ,87,Senec,
87216,CZ,78,Blucina,
87217,CZ,81,Kynsperk Nad Ohri,
87218,CZ,39,Hajnice,
87219,CZ,80,Velka Bites,
87220,CZ,81,Luby,
87221,CZ,81,Opatov,
87222,CZ,88,Petriny,
87223,CZ,52,Hostivar,
87224,CZ,52,Holesovice,
87225,CZ,89,Krupka,
87226,CZ,52,Vestec,
87227,CZ,89,Louny,
87228,CZ,88,Slaný,
87229,CZ,30,Uhlirske Janovice,
87230,CZ,84,Sternberk,
87231,CZ,84,Veselí,
87232,CZ,20,Novy Bydzov,
87233,CZ,80,Pelhrimov,
87234,CZ,33,Mnichovo Hradiste,
87235,CZ,30,Cesky Brod,
87236,CZ,79,Prachatice,
87237,CZ,84,Suchdol,
87238,CZ,80,Chotebor,
87239,CZ,52,Zlicin,
87240,CZ,52,Malesice,
87241,CZ,70,Hostinné,
87242,CZ,21,Desná,
87243,CZ,52,Bohnice,
87244,CZ,88,Bela Pod Bezdezem,
87245,CZ,52,Treboradice,
87246,CZ,85,Kunín,
87247,CZ,78,Troubsko,
87248,CZ,52,Cimice,
87249,CZ,79,Mlada Vozice,
87250,CZ,81,Ostrov,
87251,CZ,81,Kovarska,
87252,CZ,79,Mlyn,
87253,CZ,90,Hulín,
87254,CZ,88,Zihle,
87255,CZ,33,Cesky Dub,
87256,CZ,52,Dejvice,
87257,CZ,52,Mesice,
87258,CZ,30,Skrivany,
87259,CZ,84,Nezamyslice,
87260,CZ,81,Frantiskovy Lazne,
87261,CZ,84,Kohout,
87262,CZ,90,Otrokovice,
87263,CZ,84,Zálesí,
87264,CZ,30,Zruc Nad Sazavou,
87265,CZ,52,Cenkov,
87266,CZ,90,Jablunka,
87267,CZ,87,Mochov,
87268,CZ,52,Kolovraty,
87269,CZ,52,Kobylisy,
87270,CZ,52,Malá Strana,
87271,CZ,89,Litvínov,
87272,CZ,79,Oparany,
87273,CZ,82,Vamberk,
87274,CZ,90,Bzenec,
87275,CZ,78,Slavkov U Brna,
87276,CZ,90,Tasov,
87277,CZ,78,Pístovice,
87278,CZ,84,Konice,
87279,CZ,90,Vnorovy,
87280,CZ,78,Rohatec,
87281,CZ,78,Zarosice,
87282,CZ,90,Korycany,
87283,CZ,86,Letovice,
87284,CZ,84,Olesnice,
87285,CZ,78,Oslavany,
87286,CZ,88,Rousínov,
87287,CZ,80,Polná,
87288,CZ,78,Prusanky,
87289,CZ,81,Touzim,
87290,CZ,87,Tachov,
87291,CZ,78,Bucovice,
87292,CZ,78,Skalice Nad Svitavou,
87293,CZ,90,Spytihnev,
87294,CZ,52,Zabehlice,
87295,CZ,79,Blatná,
87296,CZ,52,Cakovice,
87297,CZ,52,Dolni Brezany,
87298,CZ,88,Revnice,
87299,CZ,90,Buchlovice,
87300,CZ,84,Smrzice,
87301,CZ,78,Rajhrad,
87302,CZ,84,Ptení,
87303,CZ,88,Bratrinov,
87304,CZ,52,Hlubocepy,
87305,CZ,30,Becvary,
87306,CZ,52,Michle,
87307,CZ,88,Mnisek Pod Brdy,
87308,CZ,52,Strasnice,
87309,CZ,52,Karlín,
87310,CZ,52,Bubenec,
87311,CZ,52,Kralupy,
87312,CZ,52,Stresovice,
87313,CZ,52,Cestlice,
87314,CZ,52,Vrsovice,
87315,CZ,52,Prosek,
87316,CZ,86,Predmesti,
87317,CZ,52,Libcice Nad Vltavou,
87318,CZ,88,Rynholec,
87319,CZ,84,Rozmital,
87320,CZ,52,Újezd Nad Lesy,
87321,CZ,30,Nehvizdy,
87322,CZ,52,Uhrineves,
87323,CZ,81,Josefov,
87324,CZ,33,Boleslav,
87325,CZ,52,Modrany,
87326,CZ,52,Brezineves,
87327,CZ,52,Kosire,
87328,CZ,52,Hodkovicky,
87329,CZ,80,Okrisky,
87330,CZ,78,Veverska Bityska,
87331,CZ,52,Horní Roztyly,
87332,CZ,52,Dolní Chabry,
87333,CZ,84,Hradcany,
87334,CZ,90,Velka Nad Velickou,
87335,CZ,78,Orechov,
87336,CZ,78,Mutenice,
87337,CZ,90,Hluk,
87338,CZ,78,Strelice,
87339,CZ,85,Horní Suchá,
87340,CZ,79,Nova Vcelnice,
87341,CZ,79,Kamenice Nad Lipou,
87342,CZ,79,Frymburk,
87343,CZ,52,Husinec,
87344,CZ,79,Hluboká Nad Vltavou,
87345,CZ,79,Studená,
87346,CZ,80,Dacice,
87347,CZ,85,Senov,
87348,CZ,79,Kaplice,
87349,CZ,70,Dolní Branná,
87350,CZ,70,Pec Pod Snezkou,
87351,CZ,37,Cernozice,
87352,CZ,84,Kuncice,
87353,CZ,23,Kopidlno,
87354,CZ,79,Slavonice,
87355,CZ,85,Hlucin,
87356,CZ,85,Odry,
87357,CZ,85,Osoblaha,
87358,CZ,84,Zlaté Hory,
87359,CZ,85,Rymarov,
87360,CZ,45,Tremosnice,
87361,CZ,80,Ronov,
87362,CZ,81,Libavské Údolí,
87363,CZ,90,Sady,
87364,CZ,85,Palkovice,
87365,CZ,84,Vilémov,
87366,CZ,87,Letiny,
87367,CZ,81,Loket,
87368,CZ,81,Bozicany,
87369,CZ,89,Rehlovice,
87370,CZ,33,Rumburk,
87371,CZ,88,Horni Berkovice,
87372,CZ,89,Tusimice,
87373,CZ,89,Velke Brezno,
87374,CZ,89,Mezibori,
87375,CZ,33,Sluknov,
87376,CZ,89,Osek,
87377,CZ,89,Zatec,
87378,CZ,21,Zelezny Brod,
87379,CZ,89,Hora Svate Kateriny,
87380,CZ,83,Straz Nad Nisou,
87381,CZ,21,Velké Hamry,
87382,CZ,89,Jedlka,
87383,CZ,21,Tanvald,
87384,CZ,85,Choltice,
87385,CZ,45,Skutec,
87386,CZ,30,Golcuv Jenikov,
87387,CZ,87,Zdirec,
87388,CZ,80,Ledec,
87389,CZ,85,Hyncice,
87390,CZ,84,Rovensko,
87391,CZ,30,Chlumec Nad Cidlinou,
87392,CZ,82,Stolín,
87393,CZ,84,Studenec,
87394,CZ,70,Dolní Kalná,
87395,CZ,86,Ceske Libchavy,
87396,CZ,45,Luze,
87397,CZ,61,Mladejov,
87398,CZ,78,Klobouky,
87399,CZ,78,Nesovice,
87400,CZ,84,Lhota,
87401,CZ,81,Dvorek,
87402,CZ,21,Paseky Nad Jizerou,
87403,CZ,84,Podolí,
87404,CZ,88,Lány,
87405,CZ,52,Brevnov,
87406,CZ,88,Lety,
87407,CZ,88,Divisov,
87408,CZ,79,Ktis,
87409,CZ,82,Police Nad Metují,
87410,CZ,79,Trebon,
87411,CZ,78,Ostopovice,
87412,CZ,78,Zebetin,
87413,CZ,89,Branany,
87414,CZ,88,Dobrovice,
87415,CZ,45,Jaroslav,
87416,CZ,88,Libis,
87417,CZ,80,Malé,
87418,CZ,88,Dobrichovice,
87419,CZ,30,Vysehorovice,
87420,CZ,79,Wall,
87421,CZ,84,Rudoltice,
87422,CZ,52,Stará Boleslav,
87423,CZ,33,Pole,
87424,CZ,78,Miroslav,
87425,CZ,78,Svatoborice,
87426,CZ,78,Hrusovany U Brna,
87427,CZ,90,Napajedla,
87428,CZ,90,Luhacovice,
87429,CZ,84,Olsany,
87430,CZ,80,Krátká,
87431,CZ,85,Mosty U Jablunkova,
87432,CZ,85,Staré Hamry,
87433,CZ,80,Pacov,
87434,CZ,79,Temelín,
87435,CZ,89,Lhenice,
87436,CZ,84,Raskov,
87437,CZ,84,Mostkov,
87438,CZ,85,Chuchelná,
87439,CZ,84,Vápenná,
87440,CZ,85,Bartosovice,
87441,CZ,87,Nový,
87442,CZ,78,Predklasteri,
87443,CZ,90,Chropyne,
87444,CZ,88,Mseno,
87445,CZ,79,Kasperske Hory,
87446,CZ,78,Modrice,
87447,CZ,33,Harrachov,
87448,CZ,81,Hradecká,
87449,CZ,33,Nová Ves,
87450,CZ,88,Holovousy,
87451,CZ,86,Trebarov,
87452,CZ,78,Slapanice,
87453,CZ,87,Plasy,
87454,CZ,80,Nove Mesto Na Morave,
87455,CZ,78,Hevlín,
87456,CZ,84,Doubravice,
87457,CZ,84,Hlubocky,
87458,CZ,90,Valasske Klobouky,
87459,CZ,79,Bechyne,
87460,CZ,45,Stare Hradiste,
87461,CZ,84,Karlovice,
87462,CZ,88,Bakov,
87463,CZ,89,Bílina,
87464,CZ,83,Ceska Kamenice,
87465,CZ,33,Malá Skála,
87466,CZ,89,Libochovice,
87467,CZ,88,Libusin,
87468,CZ,88,Mnichovice,
87469,CZ,52,Modletice,
87470,CZ,52,Nebusice,
87471,CZ,30,Sadská,
87472,CZ,52,Vokovice,
87473,CZ,89,Prestanov,
87474,CZ,84,Supíkovice,
87475,CZ,79,Zliv,
87476,CZ,87,Holysov,
87477,CZ,79,Vetrni,
87478,CZ,82,Hronov,
87479,CZ,23,Nová Paka,
87480,CZ,88,Lysá Nad Labem,
87481,CZ,79,Dolní Nerestce,
87482,CZ,52,Drevcice,
87483,CZ,52,Sarka,
87484,CZ,88,Podhorany,
87485,CZ,78,Tisnov,
87486,CZ,78,Zidlochovice,
87487,CZ,45,Cihelna,
87488,CZ,78,Cerna Hora,
87489,CZ,88,Prosenice,
87490,CZ,84,Rokytnice,
87491,CZ,52,Letnany,
87492,CZ,84,Kralicky,
87493,CZ,84,Újezd,
87494,CZ,78,Hlohovec,
87495,CZ,90,Horni Lidec,
87496,CZ,85,Svobodne Hermanice,
87497,CZ,33,Hejnice,
87498,CZ,70,Janske Lazne,
87499,CZ,37,Smirice,
87500,CZ,87,Susice,
87501,CZ,88,Neveklov,
87502,CZ,88,Kamýk Nad Vltavou,
87503,CZ,61,Rvacov,
87504,CZ,78,Cebin,
87505,CZ,83,Semily,
87506,CZ,81,Dlouhá,
87507,CZ,88,Kamenice,
87508,CZ,52,Statenice,
87509,CZ,83,Svor,
87510,CZ,81,Cihelny,
87511,CZ,52,Cakovicky,
87512,CZ,84,Lhotka,
87513,CZ,52,Zdibsko,
87514,CZ,52,Jiloviste,
87515,CZ,78,Moravský Krumlov,
87516,CZ,80,Jirikovice,
87517,CZ,90,Sazovice,
87518,CZ,90,Slavicin,
87519,CZ,81,Novosedly,
87520,CZ,30,Úvaly,
87521,CZ,33,Kunratice,
87522,CZ,81,Vintirov,
87523,CZ,80,Jámy,
87524,CZ,81,Nové Sedlo,
87525,CZ,81,Dolní Rychnov,
87526,CZ,81,Vojtanov,
87527,CZ,81,Kraslice,
87528,CZ,87,Dobrany,
87529,CZ,87,Pomezí,
87530,CZ,89,Turn,
87531,CZ,79,Trhové Sviny,
87532,CZ,81,Kostelní,
87533,CZ,81,Velka Hledsebe,
87534,CZ,80,Svetla Nad Sazavou,
87535,CZ,88,Nelahozeves,
87536,CZ,85,Vrbno Pod Pradedem,
87537,CZ,52,Otice,
87538,CZ,84,Hanusovice,
87539,CZ,84,Stará Ves,
87540,CZ,84,Cervena Voda,
87541,CZ,84,Víska,
87542,CZ,84,Vranová Lhota,
87543,CZ,70,Zacler,
87544,CZ,70,Borovnice,
87545,CZ,30,Chvaletice,
87546,CZ,85,Zubri,
87547,CZ,84,Vikyrovice,
87548,CZ,78,Lipuvka,
87549,CZ,78,Cejc,
87550,CZ,80,Hrotovice,
87551,CZ,90,Uherský Ostroh,
87552,CZ,86,Skrchov,
87553,CZ,78,Starovice,
87554,CZ,78,Stechov,
87555,CZ,86,Velké Opatovice,
87556,CZ,89,Komorany,
87557,CZ,78,Sebrov,
87558,CZ,84,Bílovice,
87559,CZ,78,Zelesice,
87560,CZ,45,Dolni Redice,
87561,CZ,84,Hrubcice,
87562,CZ,87,Otín,
87563,CZ,79,Sebirov,
87564,CZ,79,Volary,
87565,CZ,79,Zlivice,
87566,CZ,79,Chlum U Trebone,
87567,CZ,88,Nova Ves Pod Plesi,
87568,CZ,88,Hostomice,
87569,CZ,87,Stribro,
87570,CZ,85,Radim,
87571,CZ,87,Cerveny Ujezd,
87572,CZ,52,Klánovice,
87573,CZ,52,Vsechromy,
87574,CZ,41,Benátky Nad Jizerou,
87575,CZ,81,Mesto,
87576,CZ,81,Skalná,
87577,CZ,89,Korozluky,
87578,CZ,83,Nový Bor,
87579,CZ,89,Jirkov,
87580,CZ,87,Chotesov,
87581,CZ,81,Krásná,
87582,CZ,52,Veleslavín,
87583,CZ,30,Tehovec,
87584,CZ,87,Doudlevce,
87585,CZ,81,Rovná,
87586,CZ,89,Dobkovice,
87587,CZ,87,Strazov,
87588,CZ,87,Radkovice,
87589,CZ,81,Jáchymov,
87590,CZ,87,Starý Plzenec,
87591,CZ,87,Letkov,
87592,CZ,84,Lipová,
87593,CZ,87,Valcha,
87594,CZ,81,Kyselka,
87595,CZ,81,Horní Ves,
87596,CZ,89,Becov,
87597,CZ,88,Nucice,
87598,CZ,81,Zbraslav,
87599,CZ,33,Horni Podluzi,
87600,CZ,87,Svihov,
87601,CZ,88,Lochovice,
87602,CZ,87,Tremosna,
87603,CZ,52,Knezeves,
87604,CZ,86,Brandýs Nad Orlicí,
87605,CZ,87,Veselá,
87606,CZ,85,Háj Ve Slezsku,
87607,CZ,88,Unhost,
87608,CZ,80,Trest,
87609,CZ,83,Dubá,
87610,CZ,88,Opatovice,
87611,CZ,79,Obec,
87612,CZ,81,Ehrlich,
87613,CZ,81,Vítkovice,
87614,CZ,84,Lipník,
87615,CZ,81,Lomnice,
87616,CZ,87,Dysina,
87617,CZ,84,Ivan,
87618,CZ,86,Ostresany,
87619,CZ,87,Voltus,
87620,CZ,33,Lada,
87621,CZ,78,Zahrada,
87622,CZ,83,Slaná,
87623,CZ,84,Svetla,
87624,CZ,39,Mezirici,
87625,CZ,52,Chomutovice,
87626,CZ,85,Vratimov,
87627,CZ,88,Dobris,
87628,CZ,84,Kamenná,
87629,CZ,87,Kaznejov,
87630,CZ,39,Velichovky,
87631,CZ,52,Boranovice,
87632,CZ,79,Vimperk,
87633,CZ,88,Drásov,
87634,CZ,39,Rikov,
87635,CZ,30,Pecky,
87636,CZ,78,Damborice,
87637,CZ,52,Hostavice,
87638,CZ,52,Hloubetin,
87639,CZ,52,Davle,
87640,CZ,84,Radotín,
87641,CZ,52,Ruzyne,
87642,CZ,30,Trebestovice,
87643,CZ,88,Zdice,
87644,CZ,88,Kamenne Zehrovice,
87645,CZ,88,Repov,
87646,CZ,79,Ceske Velenice,
87647,CZ,52,Tousen,
87648,CZ,88,Poddubí,
87649,CZ,52,Cernosice,
87650,CZ,52,Dablice,
87651,CZ,52,Sulice,
87652,CZ,85,Lukavec,
87653,CZ,84,Horka Nad Moravou,
87654,CZ,87,Zbiroh,
87655,CZ,89,Cizkovice,
87656,CZ,88,Jablonce,
87657,CZ,83,Zandov,
87658,CZ,87,Hostka,
87659,CZ,79,Týn Nad Vltavou,
87660,CZ,79,Horazdovice,
87661,CZ,88,Bysice,
87662,CZ,87,Brand,
87663,CZ,88,Porici Nad Sazavou,
87664,CZ,85,Vítkov,
87665,CZ,79,Velesin,
87666,CZ,52,Klicany,
87667,CZ,52,Radosovice,
87668,CZ,81,Tesovice,
87669,CZ,84,Detrichov,
87670,CZ,89,Chuderov,
87671,CZ,88,Racice,
87672,CZ,89,Klasterec Nad Ohri,
87673,CZ,20,Tyniste Nad Orlici,
87674,CZ,86,Klasterec Nad Orlici,
87675,CZ,78,Adamov,
87676,CZ,90,Rudice,
87677,CZ,86,Retuvka,
87678,CZ,52,Velká Chuchle,
87679,CZ,89,Bynovec,
87680,CZ,78,Liderovice,
87681,CZ,89,Volyne,
87682,CZ,84,Úsobrno,
87683,CZ,86,Krasíkov,
87684,CZ,78,Lelekovice,
87685,CZ,87,Brasy,
87686,CZ,85,Silherovice,
87687,CZ,85,Frantisek,
87688,CZ,87,Jarov,
87689,CZ,79,Zirovnice,
87690,CZ,87,Blovice,
87691,CZ,87,Cernosin,
87692,CZ,33,Mukarov,
87693,CZ,33,Lesní,
87694,CZ,90,Vizovice,
87695,CZ,30,Zleby,
87696,CZ,84,Vysoká,
87697,CZ,86,Mikulec,
87698,CZ,90,Minarik,
87699,CZ,84,Lostice,
87700,CZ,52,Herink,
87701,CZ,90,Borsice,
87702,CZ,80,Urbanec,
87703,CZ,78,Borkovany,
87704,CZ,90,Ostrozska Nova Ves,
87705,CZ,81,Svatava,
87706,CZ,33,Rynoltice,
87707,CZ,89,Kostany,
87708,CZ,78,Holstejn,
87709,CZ,85,Studénka,
87710,CZ,52,Prace,
87711,CZ,52,Praga,
87712,CZ,37,Benátky,
87713,CZ,85,Ludgerovice,
87714,CZ,88,Kosmonosy,
87715,CZ,78,Branisovice,
87716,CZ,30,Vitice,
87717,CZ,83,Mlýny,
87718,CZ,86,Moravska Trebova,
87719,CZ,52,Radimovice,
87720,CZ,89,Palecek,
87721,CZ,80,Jinosov,
87722,CZ,82,Velke Porici,
87723,CZ,81,Chysky,
87724,CZ,85,Holasovice,
87725,CZ,84,Svésedlice,
87726,CZ,21,Spindleruv Mlyn,
87727,CZ,84,Bohuslavice,
87728,CZ,84,Zelechovice,
87729,CZ,80,Merin,
87730,CZ,78,Belvedere,
87731,CZ,80,Kridla,
87732,CZ,88,Zelevcice,
87733,CZ,52,Liben,
87734,CZ,85,Smilovice,
87735,CZ,88,Tvorsovice,
87736,CZ,82,Rtyne V Podkrkonosi,
87737,CZ,79,Pivovary,
87738,CZ,85,Stitina,
87739,CZ,52,Kostelec Nad Labem,
87740,CZ,86,Jaromerice,
87741,CZ,89,Dubí,
87742,CZ,81,Jenisov,
87743,CZ,87,Záchlumí,
87744,CZ,78,Austerlitz,
87745,CZ,89,Moravany,
87746,CZ,84,Paseka,
87747,CZ,88,Veltrusy,
87748,CZ,52,Horomerice,
87749,CZ,84,Krásné,
87750,CZ,87,Mirosov,
87751,CZ,89,Losan,
87752,CZ,88,Stredokluky,
87753,CZ,79,Vyssi Brod,
87754,CZ,89,Marketa,
87755,CZ,88,Nizbor,
87756,CZ,21,Koberovy,
87757,CZ,36,Hlusice,
87758,CZ,81,Hruskova,
87759,CZ,78,Pozorice,
87760,CZ,84,Horni Mesto,
87761,CZ,78,Sivice,
87762,CZ,85,Tesin,
87763,CZ,81,Tisová,
87764,CZ,52,Jenstejn,
87765,CZ,88,Cercany,
87766,CZ,52,Hodkovice,
87767,CZ,78,Podivín,
87768,CZ,88,Chvalovice,
87769,CZ,88,Zbozi,
87770,CZ,90,Tupesy,
87771,CZ,89,Tisá,
87772,CZ,88,Stochov,
87773,CZ,88,Vinarice,
87774,CZ,52,Chrastany,
87775,CZ,78,Ivanovice Na Hané,
87776,CZ,30,Vrdy,
87777,CZ,85,Místek,
87778,CZ,90,Vlachovice,
87779,CZ,79,Ponesice,
87780,CZ,84,Jansky Vrch,
87781,CZ,80,Cechtice,
87782,CZ,87,Úlice,
87783,CZ,81,Krajková,
87784,CZ,52,Nupaky,
87785,CZ,87,Stankov,
87786,CZ,52,Tursko,
87787,CZ,79,Vltava,
87788,CZ,87,Velhartice,
87789,CZ,78,Bantice,
87790,CZ,85,Jicina,
87791,CZ,79,Lipno Nad Vltavou,
87792,CZ,84,Slavkov,
87793,CZ,88,Belcice,
87794,CZ,88,Kacov,
87795,CZ,78,Suchý,
87796,CZ,89,Bynov,
87797,CZ,82,Kvasiny,
87798,CZ,52,Psáry,
87799,CZ,84,Protivanov,
87800,CZ,88,Nove Straseci,
87801,CZ,80,Horepnik,
87802,CZ,88,Komárov,
87803,CZ,84,Jezernice,
87804,CZ,87,Zelezna Ruda,
87805,CZ,21,Jiretin,
87806,CZ,81,Hájek,
87807,CZ,86,Klein,
87808,CZ,89,Barbora,
87809,CZ,88,Hvezda,
87810,CZ,33,Prisovice,
87811,CZ,83,Maxdorf,
87812,CZ,81,Loucna,
87813,CZ,81,Ratibor,
87814,CZ,82,Predmerice Nad Labem,
87815,CZ,52,Líbeznice,
87816,CZ,85,Baska,
87817,CZ,52,Velke Prilepy,
87818,CZ,85,Uhlirov,
87819,CZ,88,Sykorice,
87820,CZ,85,Vresina,
87821,CZ,87,Skvrnany,
87822,CZ,87,Manetin,
87823,CZ,52,Trnová,
87824,CZ,88,Netvorice,
87825,CZ,80,Nedvedice,
87826,CZ,45,Jezborice,
87827,CZ,79,Dolni Dvoriste,
87828,CZ,89,Hrensko,
87829,CZ,78,Mikulov,
87830,CZ,88,Chocerady,
87831,CZ,39,Kladruby,
87832,CZ,81,Tesov,
87833,CZ,52,Vsestary,
87834,CZ,33,Radl,
87835,CZ,80,Hartvíkovice,
87836,CZ,45,Opatovice Nad Labem,
87837,CZ,85,Pribor,
87838,CZ,85,Brusperk,
87839,CZ,88,Vranany,
87840,CZ,87,Cernovice,
87841,CZ,86,Orel,
87842,CZ,88,Liten,
87843,CZ,87,Pobezovice,
87844,CZ,87,Chrást,
87845,CZ,84,Stepanov,
87846,CZ,20,Trebechovice,
87847,CZ,80,Veverka,
87848,CZ,33,Raspenava,
87849,CZ,79,Dolní Bukovsko,
87850,CZ,81,Jankovice,
87851,CZ,78,Tvrdonice,
87852,CZ,78,Kunstat,
87853,CZ,89,Chuderice,
87854,CZ,85,Albrechticky,
87855,CZ,88,Horni Pocaply,
87856,CZ,80,Telc,
87857,CZ,85,Klimkovice,
87858,CZ,80,Bílek,
87859,CZ,88,Chotycany,
87860,CZ,87,Nepomuk,
87861,CZ,90,Chvalcov,
87862,CZ,81,Porici,
87863,CZ,52,Jirice,
87864,CZ,79,Kasejovice,
87865,CZ,89,Brnany,
87866,CZ,85,Sviadnov,
87867,CZ,87,Volduchy,
87868,CZ,82,Velke Svatonovice,
87869,CZ,88,Revnicov,
87870,CZ,45,Ústupky,
87871,CZ,52,Reporyje,
87872,CZ,79,Stachy,
87873,CZ,33,Svetlik,
87874,CZ,41,Mestec Kralove,
87875,CZ,85,Frydland,
87876,CZ,88,Kozlany,
87877,CZ,79,Cerna V Posumavi,
87878,CZ,90,Topolná,
87879,CZ,84,Lesany,
87880,CZ,84,Kralice,
87881,CZ,90,Martinice,
87882,CZ,84,Pisecna,
87883,CZ,85,Litultovice,
87884,CZ,78,Vracov,
87885,CZ,80,Vladislav,
87886,CZ,89,Libouchec,
87887,CZ,87,Svata Katerina,
87888,CZ,88,Týnec Nad Sázavou,
87889,CZ,88,Kovarna,
87890,CZ,78,Svitávka,
87891,CZ,30,Basty,
87892,CZ,78,Strachotice,
87893,CZ,88,Velké Popovice,
87894,CZ,88,Chotysany,
87895,CZ,87,Kapsch,
87896,CZ,81,Scheer,
87897,CZ,85,Darkov,
87898,CZ,88,Stirin,
87899,CZ,79,Jistebnice,
87900,CZ,85,Terlicko,
87901,CZ,88,Ledcice,
87902,CZ,79,Rzavá,
87903,CZ,39,Ceska Skalice,
87904,CZ,84,Hrabová,
87905,CZ,30,Vlková,
87906,CZ,89,Brná,
87907,CZ,45,Dasice,
87908,CZ,80,Moravec,
87909,CZ,78,Malhostovice,
87910,CZ,89,Sulejovice,
87911,CZ,88,Karlstejn,
87912,CZ,78,Olbramovice,
87913,CZ,87,Stara Hut,
87914,CZ,89,Nixdorf,
87915,CZ,78,Sokolnice,
87916,CZ,84,Hruska,
87917,CZ,87,Klenci Pod Cerchovem,
87918,CZ,79,Smrkovice,
87919,CZ,80,Namest Nad Oslavou,
87920,CZ,45,Rybitví,
87921,CZ,84,Chválkovice,
87922,CZ,88,Pletený Újezd,
87923,CZ,86,Borsov,
87924,CZ,81,Marienbad,
87925,CZ,88,Kuchar,
87926,CZ,87,Myslinka,
87927,CZ,78,Fram,
87928,CZ,85,Hukvaldy,
87929,CZ,33,Josefuv Dul,
87930,CZ,85,Jablunkov,
87931,CZ,81,Katerina,
87932,CZ,84,Radvanice,
87933,CZ,90,Vrba,
87934,CZ,78,Velké Bílovice,
87935,CZ,82,Skuhrov Nad Belou,
87936,CZ,79,Havel,
87937,CZ,78,Horni Vestonice,
87938,CZ,90,Nová Lhota,
87939,CZ,84,Lukavice,
87940,CZ,78,Dolní Bojanovice,
87941,CZ,88,Slapanov,
87942,CZ,84,Babice,
87943,CZ,88,Lazsko,
87944,CZ,89,Hrob,
87945,CZ,80,Jemnice,
87946,CZ,41,Milovice,
87947,CZ,88,Hosteradice,
87948,CZ,85,Hrabyne,
87949,CZ,78,Jedovnice,
87950,CZ,79,Laciná,
87951,CZ,79,Litvínovice,
87952,CZ,52,Radlice,
87953,CZ,88,Turany,
87954,CZ,90,Lidecko,
87955,CZ,52,Radonice,
87956,CZ,84,Zulova,
87957,CZ,52,Jirny,
87958,CZ,84,Velký Týnec,
87959,CZ,89,Hrobcice,
87960,CZ,88,Hradistko,
87961,CZ,45,Srch,
87962,CZ,85,Fulnek,
87963,CZ,52,Zdimerice,
87964,CZ,88,Broumovice,
87965,CZ,87,Janovice Nad Úhlavou,
87966,CZ,84,Zvole,
87967,CZ,84,Luzna,
87968,CZ,89,Rtyne Nad Bilinou,
87969,CZ,52,Svémyslice,
87970,CZ,88,Kolesovice,
87971,CZ,88,Bylany,
87972,CZ,30,Potehy,
87973,CZ,87,Techlovice,
87974,CZ,88,Luzec Nad Vltavou,
87975,CZ,84,Grygov,
87976,CZ,88,Obecnice,
87977,CZ,52,Butovice,
87978,CZ,85,Bridlicna,
87979,CZ,45,Prachovice,
87980,CZ,86,Utechov,
87981,CZ,84,Samotisky,
87982,CZ,84,Bedrichov,
87983,CZ,78,Velke Nemcice,
87984,CZ,81,Cerna,
87985,CZ,21,Lisny,
87986,CZ,87,Brod,
87987,CZ,79,Milicin,
87988,CZ,79,Prazak,
87989,CZ,86,Hnátnice,
87990,CZ,80,Naramec,
87991,CZ,81,Lísková,
87992,CZ,79,Vodnany,
87993,CZ,81,Zlatá,
87994,CZ,90,Zlechov,
87995,CZ,87,Bretislav,
87996,CZ,88,Tisice,
87997,CZ,81,Vrch,
87998,CZ,87,Myslív,
87999,CZ,70,Adrspach,
88000,CZ,87,Kozolupy,
88001,CZ,88,Dolní Cetno,
88002,CZ,79,Majdalena,
88003,CZ,86,Cerekvice,
88004,CZ,85,Lesy,
88005,CZ,89,Postoloprty,
88006,CZ,90,Krenovice,
88007,CZ,84,Náklo,
88008,CZ,84,Mohelnice,
88009,CZ,79,Chvalsiny,
88010,CZ,86,Orlík,
88011,CZ,87,Stahlavy,
88012,CZ,90,Bystricka,
88013,CZ,70,Babí,
88014,CZ,86,Koci,
88015,CZ,85,Karlova Studánka,
88016,CZ,81,Krasov,
88017,CZ,88,Moran,
88018,CZ,88,Zajeci,
88019,CZ,45,Uhretice,
88020,CZ,78,Vrbovec,
88021,CZ,88,Zaky,
88022,CZ,85,Grosse,
88023,CZ,52,Mratín,
88024,CZ,70,Svoboda Nad Úpou,
88025,CZ,81,Bozi Dar,
88026,CZ,86,Haná,
88027,CZ,89,Jílové,
88028,CZ,78,Milotice,
88029,CZ,85,Kuncicky,
88030,CZ,90,Ostrozska Lhota,
88031,CZ,85,Straník,
88032,CZ,80,Druhanov,
88033,CZ,87,Donau,
88034,CZ,81,Korunní,
88035,CZ,70,Prostredni Lanov,
88036,CZ,81,Rotava,
88037,CZ,84,Troubky,
88038,CZ,80,Malec,
88039,CZ,79,Úsilné,
88040,CZ,84,Praslavice,
88041,CZ,85,Vlcnov,
88042,CZ,80,Brtnice,
88043,CZ,88,Jince,
88044,CZ,82,Kacer,
88045,CZ,81,Dolina,
88046,CZ,81,Dalovice,
88047,CZ,30,Jirina,
88048,CZ,80,Horní Cerekev,
88049,CZ,85,Stepankovice,
88050,CZ,20,Cernilov,
88051,CZ,86,Kamenná Horka,
88052,CZ,84,Heroltice,
88053,CZ,81,Svatobor,
88054,CZ,23,Slatiny,
88055,CZ,90,Zdechov,
88056,CZ,52,Kyje,
88057,CZ,83,Mimon,
88058,CZ,84,Svinov,
88059,CZ,52,Miskovice,
88060,CZ,79,Strazny,
88061,CZ,81,Lubenec,
88062,CZ,88,Komorni,
88063,CZ,80,Bohdalec,
88064,CZ,23,Pecka,
88065,CZ,85,Bohusov,
88066,CZ,78,Mikulcice,
88067,CZ,30,Rataje Nad Sázavou,
88068,CZ,85,Staric,
88069,CZ,85,Rychvald,
88070,CZ,89,Nasi,
88071,CZ,23,Stav,
88072,CZ,89,Ledvice,
88073,CZ,87,Bucek,
88074,CZ,45,Kosumberk,
88075,CZ,90,Kanovice,
88076,CZ,79,Kájov,
88077,CZ,87,Plesnice,
88078,CZ,88,Tlustice,
88079,CZ,87,Prikosice,
88080,CZ,87,Horsice,
88081,CZ,87,Losina,
88082,CZ,87,Horní Lukavice,
88083,CZ,87,Spalene Porici,
88084,CZ,87,Zelezny Ujezd,
88085,CZ,20,Kosik,
88086,CZ,85,Raskovice,
88087,CZ,79,Hrdejovice,
88088,CZ,52,Seberov,
88089,CZ,81,Brezova,
88090,CZ,88,Krupá,
88091,CZ,79,Radimovice U Zelce,
88092,CZ,85,Prazmo,
88093,CZ,89,Povrly,
88094,CZ,87,Diana,
88095,CZ,85,Mosnov,
88096,CZ,87,Liska,
88097,CZ,87,Kosetice,
88098,CZ,90,Halenkov,
88099,CZ,87,Kozel,
88100,CZ,84,Brezina,
88101,CZ,81,Otovice,
88102,CZ,80,Plesice,
88103,CZ,85,Charova,
88104,CZ,80,Vlcek,
88105,CZ,90,Modrá,
88106,CZ,86,Cerna Za Bory,
88107,CZ,88,Lysá,
88108,CZ,78,Moravská Nová Ves,
88109,CZ,87,Blatnice,
88110,CZ,85,Brumovice,
88111,CZ,33,Straz Pod Ralskem,
88112,CZ,70,Fort,
88113,CZ,79,Pacejov,
88114,CZ,70,Mladé Buky,
88115,CZ,88,Boudy,
88116,CZ,45,Hrochuv Tynec,
88117,CZ,79,Dolni Trebonin,
88118,CZ,89,Vlastislav,
88119,CZ,52,Zlatníky,
88120,CZ,80,Stara Rise,
88121,CZ,78,Vacenovice,
88122,CZ,79,Zajíc,
88123,CZ,78,Doubravník,
88124,CZ,85,Belotin,
88125,CZ,83,Horky,
88126,CZ,52,Krenek,
88127,CZ,85,Petrvald,
88128,CZ,87,Ksice,
88129,CZ,88,Radec,
88130,CZ,87,Kopec,
88131,CZ,81,Warta,
88132,CZ,30,Velim,
88133,CZ,88,Zalány,
88134,CZ,82,Potstejn,
88135,CZ,84,Podlesí,
88136,CZ,84,Ústín,
88137,CZ,87,Stepanovice,
88138,CZ,81,Branisov,
88139,CZ,81,Dubina,
88140,CZ,80,Ruzena,
88141,CZ,52,Orech,
88142,CZ,84,Kralice Na Hané,
88143,CZ,33,Borek,
88144,CZ,85,Krizova,
88145,CZ,88,Uzice,
88146,CZ,82,Babý,
88147,CZ,80,Hudec,
88148,CZ,78,Kravsko,
88149,CZ,78,Greslove Myto,
88150,CZ,87,Sedlice,
88151,CZ,88,Moravsko,
88152,CZ,52,Strancice,
88153,CZ,85,Repiste,
88154,CZ,84,Kovarov,
88155,CZ,85,Trojanovice,
88156,CZ,85,Kuncicky U Basky,
88157,CZ,80,Hodice,
88158,CZ,33,Lichtenberg,
88159,CZ,80,Mrzkovice,
88160,CZ,80,Rudíkov,
88161,CZ,84,Hnojice,
88162,CZ,79,Drahotesice,
88163,CZ,78,Dubnany,
88164,CZ,78,Ratiskovice,
88165,CZ,88,Kostomlaty,
88166,CZ,80,Herman,
88167,CZ,79,Borovany,
88168,CZ,85,Moravice,
88169,CZ,85,Stramberk,
88170,CZ,88,Kryry,
88171,CZ,86,Ústí Nad Orlicí,
88172,CZ,80,Dobronín,
88173,CZ,78,Rajec-jestrebi,
88174,CZ,86,Jevicko,
88175,CZ,84,Pod Hurou,
88176,CZ,52,Jílové U Prahy,
88177,CZ,84,Nemcice Nad Hanou,
88178,CZ,89,Bohusovice Nad Ohri,
88179,CZ,85,Petrovice U Karviné,
88180,CZ,81,Krásno,
88181,CZ,88,Vsetaty,
88182,CZ,84,Bohunovice,
88183,CZ,52,Brandýs Nad Labem-stará Boleslav,
88184,CZ,87,Strasice,
88185,CZ,86,Prosec,
88186,CZ,84,Plumlov,
88187,CZ,90,Kojetín,
88188,CZ,81,Teplá,
88189,CZ,23,Dolní Bousov,
88190,CZ,90,Kvasice,
88191,CZ,81,Horní Slavkov,
88192,CZ,89,Ustek,
88193,CZ,90,Moravský Písek,
88194,CZ,88,Buda,
88195,CZ,85,Celadna,
88196,CZ,89,Cachovice,
88197,CZ,90,Zdounky,
88198,CZ,83,Doksy,
88199,CZ,84,Loucna Nad Desnou,
88200,CZ,88,Milín,
88201,CZ,79,Kremze,
88202,CZ,88,Zlonice,
88203,CZ,78,Zbysov,
88204,CZ,89,Prerov,
88205,CZ,79,Sezimovo Ústí,
88206,CZ,89,Peruc,
88207,CZ,88,Církvice,
88208,CZ,89,Obrnice,
88209,CZ,21,Smrzovka,
88210,CZ,78,Bílovice Nad Svitavou,
88211,CZ,85,Horni Benesov,
88212,CZ,87,Tlucna,
88213,CZ,89,Probostov,
88214,CZ,88,Tuchlovice,
88215,CZ,79,Plana Nad Luznici,
88216,CZ,33,Hodkovice Nad Mohelkou,
88217,CZ,78,Vinicne Sumice,
88218,CZ,85,Frýdlant Nad Ostravicí,
88219,CZ,85,Frycovice,
88220,CZ,88,Bystrice,
88221,CZ,30,Kostelec Nad Cernymi Lesy,
88222,CZ,78,Drnovice,
88223,CZ,85,Moravský Beroun,
88224,CZ,85,Budisov Nad Budisovkou,
88225,CZ,30,Velký Osek,
88226,CZ,37,Sobotka,
88227,CZ,78,Dolní Kounice,
88228,CZ,52,Klecany,
88229,CZ,89,Lom,
88230,CZ,78,Krásensko,
88231,CZ,88,Rozmital Pod Tremsinem,
88232,CZ,86,Dolni Dobrouc,
88233,CZ,85,Horni Becva,
88234,CZ,81,Oloví,
88235,CZ,81,Habartov,
88236,CZ,84,Dolany,
88237,CZ,84,Bludov,
88238,CZ,84,Kostelec Na Hané,
88239,CZ,90,Tlumacov,
88240,CZ,90,Polesovice,
88241,CZ,79,Chotoviny,
88242,CZ,84,Namest Na Hane,
88243,CZ,79,Netolice,
88244,CZ,89,Horni Jiretin,
88245,CZ,79,Rudolfov,
88246,CZ,87,Bor,
88247,CZ,83,Zákupy,
88248,CZ,78,Luzice,
88249,CZ,78,Sitborice,
88250,CZ,80,Pocatky,
88251,CZ,45,Byst,
88252,CZ,80,Milovy,
88253,CZ,33,Hrádek Nad Nisou,
88254,CZ,45,Borohrádek,
88255,CZ,82,Doudleby Nad Orlicí,
88256,CZ,33,Jablonne V Podjestedi,
88257,CZ,30,Miletín,
88258,CZ,87,Chlumcany,
88259,CZ,30,Kounice,
88260,CZ,84,Tovacov,
88261,CZ,89,Brozany,
88262,CZ,85,Verovice,
88263,CZ,81,Zlutice,
88264,CZ,52,Vrané,
88265,CZ,87,Stenovice,
88266,CZ,85,Lesna,
88267,CZ,80,Batelov,
88268,CZ,84,Lipinka,
88269,CZ,80,Rozna,
88270,CZ,85,Dolni Benesov,
88271,CZ,85,Kelc,
88272,CZ,84,Cakov,
88273,CZ,52,Lipence,
88274,CZ,87,Vejprnice,
88275,CZ,83,Kamenicky Senov,
88276,CZ,52,Swoll,
88277,CZ,78,Kobylí,
88278,CZ,78,Lanzhot,
88279,CZ,90,Bystrice Pod Hostynem,
88280,CZ,84,Nový Malín,
88281,CZ,78,Blazovice,
88282,CZ,79,Chýnov,
88283,CZ,90,Jaroslavice,
88284,CZ,85,Kravare,
88285,CZ,84,Brodek U Prerova,
88286,CZ,89,Msene,
88287,CZ,88,Pricina,
88288,CZ,86,Slatinany,
88289,CZ,84,Velka Bystrice,
88290,CZ,33,Hamr,
88291,CZ,52,Rez,
88292,CZ,79,Jungwirth,
88293,CZ,80,Bystrice Nad Pernstejnem,
88294,CZ,85,Stary Jicin,
88295,CZ,85,Gross Herrlitz,
88296,CZ,20,Trebechovice Pod Orebem,
88297,CZ,90,Frystak,
88298,CZ,85,Morkov,
88299,CZ,87,Sedliste,
88300,CZ,85,Horní Bludovice,
88301,CZ,86,Chornice,
88302,CZ,85,Dolni Lutyne,
88303,CZ,81,Bochov,
88304,CZ,85,Lichnov,
88305,CZ,88,Plazy,
88306,CZ,52,Pankrác,
88307,CZ,52,Sestajovice,
88308,CZ,20,Necas,
88309,CZ,84,Luká,
88310,CZ,89,Letov,
88311,CZ,87,Ejpovice,
88312,CZ,33,Noviny,
88313,CZ,52,Nová Hospoda,
88314,CZ,81,Tyniste,
88315,CZ,85,Trebovice,
88316,CZ,84,Velké Losiny,
88317,CZ,81,As,
88318,CZ,52,Satalice,
88319,CZ,85,Koberice,
88320,CZ,52,Zelenec,
88321,CZ,79,Kvilda,
88322,CZ,89,Duchcov,
88323,CZ,80,Hluboké,
88324,CZ,88,Ostrá,
88325,CZ,87,Anischau,
88326,CZ,88,Male Pritocno,
88327,CZ,52,Jenstein,
88328,CZ,52,Kbely,
88329,CZ,89,Benesov Nad Ploucnici,
88330,CZ,84,Sobotín,
88331,CZ,20,Nechanice,
88332,CZ,52,Ovcin,
88333,CZ,84,Stity,
88334,CZ,80,Luka Nad Jihlavou,
88335,CZ,85,Stara Ves Nad Ondrejnici,
88336,CZ,89,Kochovice,
88337,CZ,79,Nova Bystrice,
88338,CZ,78,Hovorany,
88339,CZ,78,Zastávka,
88340,CZ,88,Úhonice,
88341,CZ,85,Zasova,
88342,CZ,86,Nekor,
88343,CZ,78,Cejkovice,
88344,CZ,23,Knezmost,
88345,CZ,20,Opocno,
88346,CZ,87,Kares,
88347,CZ,87,Nezvestice,
88348,CZ,45,Ronov Nad Doubravou,
88349,CZ,80,Kovarova,
88350,CZ,88,Zadni Treban,
88351,CZ,87,Primda,
88352,CZ,87,Kysice,
88353,CZ,78,Velké Pavlovice,
88354,CZ,81,Petrov,
88355,CZ,78,Sardice,
88356,CZ,78,Vranovice,
88357,CZ,90,Strání,
88358,CZ,80,Velký Beranov,
88359,CZ,88,Meceriz,
88360,CZ,36,Vojice,
88361,CZ,52,Dvur Xaverov,
88362,CZ,80,Krivsoudov,
88363,CZ,70,Mezimesti,
88364,CZ,84,Rapotín,
88365,CZ,89,Krásná Lípa,
88366,CZ,78,Tesany,
88367,CZ,87,Unesov,
88368,CZ,87,Galtenstallung,
88369,CZ,90,Valasska Bystrice,
88370,CZ,52,Chvaly,
88371,CZ,45,Dobrenice,
88372,CZ,79,Kardasova Recice,
88373,CZ,79,Dubné,
88374,CZ,90,Hostalkova,
88375,CZ,88,Petersburg,
88376,CZ,52,Slivenec,
88377,CZ,87,Straziste,
88378,CZ,33,Wolfsberg,
88379,CZ,52,Jinocany,
88380,CZ,85,Návsí,
88381,CZ,41,Lustenice,
88382,CZ,70,Rokytnice Nad Jizerou,
88383,CZ,86,Vermerovice,
88384,CZ,88,Obristvi,
88385,CZ,52,Prezletice,
88386,CZ,78,Valtice,
88387,CZ,78,Kratochvilka,
88388,CZ,52,Sloup,
88389,CZ,70,Teplice Nad Metují,
88390,CZ,52,Chýnice,
88391,CZ,85,Hat,
88392,CZ,78,Senetarov,
88393,CZ,30,Doubravcice,
88394,CZ,81,Vejprty,
88395,CZ,80,Nové Veselí,
88396,CZ,85,Zátor,
88397,CZ,82,Nove Mesto Nad Metuji,
88398,CZ,88,Ovcary,
88399,CZ,30,Poricany,
88400,CZ,89,Hrusovany,
88401,CZ,78,Doubravice Nad Svitavou,
88402,CZ,89,Místo,
88403,CZ,87,Dobriv,
88404,CZ,87,Plánice,
88405,CZ,90,Prusinovice,
88406,CZ,70,Horní Branná,
88407,CZ,90,Vidce,
88408,CZ,84,Lestina,
88409,CZ,87,Litice,
88410,CZ,84,Javorník,
88411,CZ,90,Velehrad,
88412,CZ,20,Nepolisy,
88413,CZ,85,Velká Polom,
88414,CZ,78,Siluvky,
88415,CZ,80,Jaromerice Nad Rokytnou,
88416,CZ,79,Malenice,
88417,CZ,88,Bus,
88418,CZ,88,Orlov,
88419,CZ,79,Lisov,
88420,CZ,21,Vysoké Nad Jizerou,
88421,CZ,88,Senohraby,
88422,CZ,80,Dolni Mesto,
88423,CZ,81,Stará,
88424,CZ,81,Citice,
88425,CZ,52,Troja,
88426,CZ,30,Starý Vestec,
88427,CZ,81,Vranov,
88428,CZ,33,Janovice,
88429,CZ,86,Olsany,
88430,CZ,82,Dobré,
88431,CZ,88,Vrchotovy Janovice,
88432,CZ,88,Repin,
88433,CZ,84,Trsice,
88434,CZ,81,Lazne Kynzvart,
88435,CZ,79,Chroboly,
88436,CZ,85,Hustopece Nad Becvou,
88437,CZ,23,Sarovcova Lhota,
88438,CZ,80,Cervena Recice,
88439,CZ,30,Stribrna Skalice,
88440,CZ,81,Vojkovice,
88441,CZ,85,Vendryne,
88442,CZ,78,Hrusky,
88443,CZ,78,Olbramkostel,
88444,CZ,84,Cervenka,
88445,CZ,79,Simek,
88446,CZ,89,Haber,
88447,CZ,89,Uzin,
88448,CZ,89,Pröhl,
88449,CZ,86,Sedivec,
88450,CZ,88,Krivoklat,
88451,CZ,85,Mohyla,
88452,CZ,78,Repka,
88453,CZ,84,Zaludova,
88454,CZ,85,Vlcovice,
88455,CZ,89,Nová Ves V Horách,
88456,CZ,85,Brezi,
88457,CZ,78,Dolni Loucky,
88458,CZ,61,Valdice,
88459,CZ,20,Kosicky,
88460,CZ,85,Komorní Lhotka,
88461,CZ,41,Straky,
88462,CZ,82,Dolní Radechová,
88463,CZ,88,Otvovice,
88464,CZ,33,Jirikov,
88465,CZ,88,Cerhovice,
88466,CZ,88,Ritka,
88467,CZ,30,Zvánovice,
88468,CZ,21,Jablonec Nad Jizerou,
88469,CZ,52,Bast,
88470,CZ,81,Hroznetin,
88471,CZ,88,Hostín,
88472,CZ,83,Cvikov,
88473,CZ,84,Vidnava,
88474,CZ,30,Zásmuky,
88475,CZ,78,Otnice,
88476,CZ,88,Cítov,
88477,CZ,85,Kozlovice,
88478,CZ,81,Kolová,
88479,CZ,88,Stechovice,
88480,CZ,90,Zborovice,
88481,CZ,81,Ondrejov,
88482,CZ,33,Kobyly,
88483,CZ,84,Belkovice,
88484,CZ,79,Divcice,
88485,CZ,84,Otaslavice,
88486,CZ,84,Brodek,
88487,CZ,87,Prichovice,
88488,CZ,88,Nalzovice,
88489,CZ,30,Doubek,
88490,CZ,83,Brniste,
88491,CZ,85,Kyjovice,
88492,CZ,89,Háj U Duchcova,
88493,CZ,90,Nedakonice,
88494,CZ,81,Mostek,
88495,CZ,85,Dolní Domaslavice,
88496,CZ,88,Vonoklasy,
88497,CZ,90,Temice,
88498,CZ,52,Vrané Nad Vltavou,
88499,CZ,90,Brezolupy,
88500,CZ,89,Hrivice,
88501,CZ,81,Bublava,
88502,CZ,81,Mokriny,
88503,CZ,88,Mirosovice,
88504,CZ,84,Radnice,
88505,CZ,90,Liptál,
88506,CZ,80,Radesinska Svratka,
88507,CZ,87,Skelne Hute,
88508,CZ,82,Machov,
88509,CZ,87,Cachrov,
88510,CZ,85,Slatina,
88511,CZ,87,Starec,
88512,CZ,80,Krouna,
88513,CZ,84,Velký Újezd,
88514,CZ,52,Hovorcovice,
88515,CZ,61,Nová Ves Nad Popelkou,
88516,CZ,78,Ostrovacice,
88517,CZ,84,Ruda Nad Moravou,
88518,CZ,82,Robousy,
88519,CZ,79,Honsa,
88520,CZ,90,Skala,
88521,CZ,89,Kostalov,
88522,CZ,86,Kuncina,
88523,CZ,85,Sedliste,
88524,CZ,90,Traplice,
88525,CZ,79,Benesov Nad Cernou,
88526,CZ,84,Horni Stepanov,
88527,CZ,33,Rádlo,
88528,CZ,30,Planany,
88529,CZ,79,Srubec,
88530,CZ,86,Sloupnice,
88531,CZ,87,Kolinec,
88532,CZ,88,Mnetes,
88533,CZ,78,Pustimer,
88534,CZ,79,Loucovice,
88535,CZ,85,Nové Sedlice,
88536,CZ,83,Rybniste,
88537,CZ,87,Kokasice,
88538,CZ,88,Zverinek,
88539,CZ,88,Trebenice,
88540,CZ,90,Praksice,
88541,CZ,84,Rikovice,
88542,CZ,39,Nahorany,
88543,CZ,86,Vanovice,
88544,CZ,85,Destne,
88545,CZ,88,Pchery,
88546,CZ,84,Mostkovice,
88547,CZ,85,Nosovice,
88548,CZ,85,Dobratice,
88549,CZ,90,Lhoty,
88550,CZ,90,Przno,
88551,CZ,84,Cechy,
88552,CZ,70,Leopold,
88553,CZ,33,Okna,
88554,CZ,78,Nenkovice,
88555,CZ,84,Veselicko,
88556,CZ,79,Straz Nad Nezarkou,
88557,CZ,84,Králíky,
88558,CZ,88,Kly,
88559,CZ,78,Sakvice,
88560,CZ,30,Nasavrky,
88561,CZ,87,Meclov,
88562,CZ,88,Blatno,
88563,CZ,88,Zelivec,
88564,CZ,30,Starý Kolín,
88565,CZ,78,Dolní Dunajovice,
88566,CZ,90,Kudlovice,
88567,CZ,89,Cítoliby,
88568,CZ,30,Smrk,
88569,CZ,78,Dvor Haje,
88570,CZ,89,Dolní Zálezly,
88571,CZ,70,Rudník,
88572,CZ,84,Hvozd,
88573,CZ,90,Trnava,
88574,CZ,80,Pokojovice,
88575,CZ,90,Kasava,
88576,CZ,87,Pavlíkov,
88577,CZ,90,Karolinka,
88578,CZ,33,Svetla Pod Jestedem,
88579,CZ,85,Pustá Polom,
88580,CZ,70,Cerny Dul,
88581,CZ,87,Ostrau,
88582,CZ,85,Bobrovníky,
88583,CZ,80,Vyskytná Nad Jihlavou,
88584,CZ,85,Mokré Lazce,
88585,CZ,79,Kunzak,
88586,CZ,84,Charváty,
88587,CZ,82,Nový Hrádek,
88588,CZ,30,Vlkanec,
88589,CZ,78,Dobsice,
88590,CZ,85,Budisovice,
88591,CZ,52,Sibrina,
88592,CZ,78,Zabcice,
88593,CZ,78,Veverské Knínice,
88594,CZ,78,Neslovice,
88595,CZ,30,Kobylnice,
88596,CZ,45,Libisany,
88597,CZ,78,Nemcicky,
88598,CZ,83,Veselý,
88599,CZ,87,Kanice,
88600,CZ,90,Nedachlebice,
88601,CZ,45,Zdelov,
88602,CZ,88,Stehelceves,
88603,CZ,87,Postrekov,
88604,CZ,78,Menin,
88605,CZ,90,Bylnice,
88606,CZ,80,Snezne,
88607,CZ,52,Osnice,
88608,CZ,81,Hazlov,
88609,CZ,84,Potstat,
88610,CZ,88,Kunice,
88611,CZ,88,Velká Dobrá,
88612,CZ,90,Hovezi,
88613,CZ,88,Holcovice,
88614,CZ,79,Lenora,
88615,CZ,84,Senice,
88616,CZ,78,Uhorská Ves,
88617,CZ,84,Mikulovice,
88618,CZ,81,Vseborovice,
88619,CZ,84,Filipová,
88620,CZ,87,Branka,
88621,CZ,52,Ohrobec,
88622,CZ,85,Jakubcovice Nad Odrou,
88623,CZ,84,Kostelec U Holesova,
88624,CZ,78,Moravské Knínice,
88625,CZ,90,Jezov,
88626,CZ,88,Bratronice,
88627,CZ,21,Drzkov,
88628,CZ,81,Ebmeth,
88629,CZ,85,Krásné Pole,
88630,CZ,89,Trebiz,
88631,CZ,88,Olovnice,
88632,CZ,90,Hradcovice,
88633,CZ,78,Rakvice,
88634,CZ,52,Lichoceves,
88635,CZ,88,Bezno,
88636,CZ,89,Chbany,
88637,CZ,78,Sebetov,
88638,CZ,78,Lysice,
88639,CZ,85,Ostrava-zabreh,
88640,CZ,80,Strazek,
88641,CZ,89,Chotineves,
88642,CZ,84,Tucapy,
88643,CZ,89,Dobromerice,
88644,CZ,80,Míchov,
88645,CZ,88,Vysoký Újezd,
88646,CZ,85,Brantice,
88647,CZ,88,Bílkovice,
88648,CZ,86,Krizanovice,
88649,CZ,90,Myslocovice,
88650,CZ,90,Mistrice,
88651,CZ,78,Sloup,
88652,CZ,84,Dolní Studénky,
88653,CZ,87,Hostoun,
88654,CZ,52,Kosor,
88655,CZ,87,Hudlice,
88656,CZ,87,Polánka,
88657,CZ,45,Lhota Pod Libcany,
88658,CZ,84,Drahany,
88659,CZ,90,Lipov,
88660,CZ,88,Velke Pritocno,
88661,CZ,90,Selesovice,
88662,CZ,80,Dalecin,
88663,CZ,80,Frysava,
88664,CZ,52,Zahorany,
88665,CZ,90,Horni Nemci,
88666,CZ,88,Slapy,
88667,CZ,20,Tuchom,
88668,CZ,88,Necin,
88669,CZ,88,Brandýsek,
88670,CZ,52,Svetice,
88671,CZ,90,Prlov,
88672,CZ,33,Radostín,
88673,CZ,78,Holasice,
88674,CZ,21,Bratrikov,
88675,CZ,84,Stare Mesto,
88676,CZ,86,Kretin,
88677,CZ,80,Jimramov,
88678,CZ,88,Borotice,
88679,CZ,52,Trebonice,
88680,CZ,89,Podsedice,
88681,CZ,78,Sentice,
88682,CZ,90,Korytná,
88683,CZ,88,Druzec,
88684,CZ,78,Hodonice,
88685,CZ,84,Cechy Pod Kosirem,
88686,CZ,88,Libechov,
88687,CZ,90,Slopné,
88688,CZ,78,Rebesovice,
88689,CZ,88,Svinare,
88690,CZ,86,Liban,
88691,CZ,52,Chyne,
88692,CZ,30,Zehun,
88693,CZ,80,Lipnice Nad Sázavou,
88694,CZ,88,Treboc,
88695,CZ,86,Damníkov,
88696,CZ,30,Tuklaty,
88697,CZ,88,Pysely,
88698,CZ,33,Simonovice,
88699,CZ,88,Chrustenice,
88700,CZ,82,Zelenka,
88701,CZ,84,Skalicka,
88702,CZ,52,Mstetice,
88703,CZ,78,Babice Nad Svitavou,
88704,CZ,30,Libice Nad Cidlinou,
88705,CZ,39,Kuks,
88706,CZ,88,Hrebec,
88707,CZ,82,Horní Radechová,
88708,CZ,89,Novy Dvur,
88709,CZ,79,Horní Planá,
88710,CZ,86,Dolni Cermna,
88711,CZ,88,Stebno,
88712,CZ,78,Tesetice,
88713,CZ,89,Dolní Poustevna,
88714,CZ,33,Dubnice,
88715,CZ,24,Recice,
88716,CZ,86,Jamné Nad Orlicí,
88717,CZ,88,Belec,
88718,CZ,87,Vísky,
88719,CZ,85,Leskovec Nad Moravicí,
88720,CZ,88,Kamenny Privoz,
88721,CZ,86,Dlouha Loucka,
88722,CZ,84,Pnovice,
88723,CZ,41,Loucen,
88724,CZ,80,Krovi,
88725,CZ,84,Ochoz,
88726,CZ,85,Sudice,
88727,CZ,36,Ostromer,
88728,CZ,87,Hermanova Hut,
88729,CZ,82,Vrchoviny,
88730,CZ,87,Mesto Touskov,
88731,CZ,84,Svárov,
88732,CZ,89,Ludvíkovice,
88733,CZ,85,Tremesna,
88734,CZ,78,Letonice,
88735,CZ,84,Cehovice,
88736,CZ,90,Bánov,
88737,CZ,52,Sychrov,
88738,CZ,88,Kublov,
88739,CZ,52,Zloncice,
88740,CZ,88,Smecno,
88741,CZ,89,Vroutek,
88742,CZ,87,Lípa,
88743,CZ,30,Cerhenice,
88744,CZ,84,Mnichov,
88745,CZ,82,Batnovice,
88746,CZ,45,Holín,
88747,CZ,30,Vraník,
88748,CZ,70,Poniklá,
88749,CZ,21,Jesenný,
88750,CZ,88,Hrabesin,
88751,CZ,84,Slatinice,
88752,CZ,84,Pavlov,
88753,CZ,89,Ploskovice,
88754,CZ,85,Oldrisov,
88755,CZ,88,Predmerice Nad Jizerou,
88756,CZ,78,Bukovinka,
88757,CZ,81,Dolni Zandov,
88758,CZ,84,Dub Nad Moravou,
88759,CZ,85,Prostredni Becva,
88760,CZ,30,Trhovy Stepanov,
88761,CZ,84,Troubelice,
88762,CZ,86,Sebranice,
88763,CZ,83,Velenice,
88764,CZ,83,Horní Libchava,
88765,CZ,88,Nespeky,
88766,CZ,89,Sýrovice,
88767,CZ,80,Vyskytná,
88768,CZ,79,Rejstejn,
88769,CZ,81,Kralovske Porici,
88770,CZ,78,Strachotín,
88771,CZ,84,Sudkov,
88772,CZ,88,Mutejovice,
88773,CZ,80,Havlickova Borova,
88774,CZ,87,Cheznovice,
88775,CZ,78,Nemochovice,
88776,CZ,88,Solenice,
88777,CZ,85,Dolni Zivotice,
88778,CZ,87,Konstantinovy Lazne,
88779,CZ,88,Kacice,
88780,CZ,85,Zbyslavice,
88781,CZ,80,Vez,
88782,CZ,33,Ves,
88783,CZ,88,Skalice,
88784,CZ,84,Urcice,
88785,CZ,80,Bozejov,
88786,CZ,90,Horní Újezd,
88787,CZ,70,Stárkov,
88788,CZ,81,Chotíkov,
88789,CZ,87,Doly,
88790,CZ,80,Rancirov,
88791,CZ,81,Medenec,
88792,CZ,52,Kvetnice,
88793,CZ,78,Tucapy,
88794,CZ,79,Katovice,
88795,CZ,61,Rovensko Pod Troskami,
88796,CZ,79,Radomysl,
88797,CZ,87,Dolni Bela,
88798,CZ,52,Tuchomerice,
88799,CZ,80,Rozsochy,
88800,CZ,80,Velká Losenice,
88801,CZ,30,Chotusice,
88802,CZ,82,Rokytnice V Orlických Horách,
88803,CZ,78,Olomucany,
88804,CZ,87,Stare Sedliste,
88805,CZ,90,Strilky,
88806,CZ,85,Bruzovice,
88807,CZ,88,Tachlovice,
88808,CZ,80,Stoky,
88809,CZ,79,Suchdol Nad Luznici,
88810,CZ,84,Ceska Ves,
88811,CZ,88,Nový Knín,
88812,CZ,80,Pysel,
88813,CZ,85,Hodslavice,
88814,CZ,45,Kladruby Nad Labem,
88815,CZ,88,Lisany,
88816,CZ,89,Sporice,
88817,CZ,89,Moldava,
88818,CZ,84,Nemcice,
88819,CZ,84,Nové Dvory,
88820,CZ,88,Myslín,
88821,CZ,80,Popice,
88822,CZ,80,Dolní Kralovice,
88823,CZ,78,Suchohrdly,
88824,CZ,78,Jevisovice,
88825,CZ,88,Horni Bezdekov,
88826,CZ,88,Bradlec,
88827,CZ,88,Krnsko,
88828,CZ,30,Dritec,
88829,CZ,88,Kropacova Vrutice,
88830,CZ,85,Jakartovice,
88831,CZ,88,Hýskov,
88832,CZ,90,Hutisko,
88833,CZ,81,Asch,
88834,CZ,78,Lovcicky,
88835,CZ,78,Tetcice,
88836,CZ,37,Rasosky,
88837,CZ,85,Dvorce,
88838,CZ,85,Hrabetice,
88839,CZ,36,Smidary,
88840,CZ,89,Mikulasovice,
88841,CZ,85,Jakubcovice,
88842,CZ,78,Ricmanice,
88843,CZ,83,Staré Splavy,
88844,CZ,81,Nové Hamry,
88845,CZ,90,Pozlovice,
88846,CZ,84,Sobechleby,
88847,CZ,88,Skryje,
88848,CZ,79,Cizova,
88849,CZ,85,Dolní Bludovice,
88850,CZ,83,Kluk,
88851,CZ,85,Tichá,
88852,CZ,61,Prepere,
88853,CZ,87,Trhanov,
88854,CZ,85,Petrkovice,
88855,CZ,88,Kosice,
88856,CZ,78,Boleradice,
88857,CZ,78,Knínice U Boskovic,
88858,CZ,89,Vraný,
88859,CZ,89,Stankovice,
88860,CZ,90,Jalub,
88861,CZ,81,Kacerov,
88862,CZ,81,Mezí,
88863,CZ,84,Bouzov,
88864,CZ,80,Vílanec,
88865,CZ,85,Vrbice,
88866,CZ,33,Krizany,
88867,CZ,85,Pustejov,
88868,CZ,90,Jarosov,
88869,CZ,30,Laziste,
88870,CZ,33,Knezice,
88871,CZ,89,Staré,
88872,CZ,81,Oleska,
88873,CZ,85,Krmelín,
88874,CZ,78,Podomí,
88875,CZ,78,Bosovice,
88876,CZ,84,Morice,
88877,CZ,78,Syrovice,
88878,CZ,90,Marsov,
88879,CZ,85,Ropice,
88880,CZ,87,Dolní Lhota,
88881,CZ,81,Hranice,
88882,CZ,78,Saratice,
88883,CZ,89,Zabrusany,
88884,CZ,52,Predboj,
88885,CZ,80,Vojnuv Mestec,
88886,CZ,87,Pernarec,
88887,CZ,79,Nova Ves Nad Luznici,
88888,CZ,79,Sepekov,
88889,CZ,89,Libesice,
88890,CZ,88,Mala Hrastice,
88891,CZ,78,Resice,
88892,CZ,85,Mesto Albrechtice,
88893,CZ,84,Zelatovice,
88894,CZ,81,Louka,
88895,CZ,78,Kotvrdovice,
88896,CZ,87,Pocinovice,
88897,CZ,88,Braskov,
88898,CZ,84,Dubany,
88899,CZ,52,Mírovice,
88900,CZ,20,Librice,
88901,CZ,70,Lucni Bouda,
88902,CZ,84,Krizanov,
88903,CZ,61,Víchová Nad Jizerou,
88904,CZ,88,Kresice,
88905,CZ,81,Males,
88906,CZ,52,Zatisi,
88907,CZ,85,Radun,
88908,CZ,86,Dlouha Trebova,
88909,CZ,45,Mrákotín,
88910,CZ,89,Racineves,
88911,CZ,88,Hrusice,
88912,CZ,33,Mohelnice Nad Jizerou,
88913,CZ,33,Jindrichovice Pod Smrkem,
88914,CZ,78,Prasklice,
88915,CZ,86,Rovecne,
88916,CZ,78,Vazany Nad Litavou,
88917,CZ,41,Hrubý Jeseník,
88918,CZ,45,Bousov,
88919,CZ,45,Ráby,
88920,CZ,88,Nový Jáchymov,
88921,CZ,84,Hnevotin,
88922,CZ,89,Vernerice,
88923,CZ,88,Zvoleneves,
88924,CZ,20,Trnov,
88925,CZ,39,Horicky,
88926,CZ,87,Zaluzi,
88927,CZ,87,Nectiny,
88928,CZ,52,Horni Jircany,
88929,CZ,84,Senice Na Hané,
88930,CZ,87,Vesin,
88931,CZ,84,Pivín,
88932,CZ,89,Prosetín,
88933,CZ,52,Zbuzany,
88934,CZ,33,Dolni Oldris,
88935,CZ,88,Velká Buková,
88936,CZ,88,Hlubos,
88937,CZ,88,Pozden,
88938,CZ,82,Libnatov,
88939,CZ,86,Korouhev,
88940,CZ,79,Vlachovo Brezi,
88941,CZ,86,Bystrec,
88942,CZ,30,Opolany,
88943,CZ,30,Cesky Sternberk,
88944,CZ,78,Chudcice,
88945,CZ,85,Bernartice Nad Odrou,
88946,CZ,84,Doloplazy,
88947,CZ,85,Alodialna Ligota,
88948,CZ,88,Neumetely,
88949,CZ,88,Rovné,
88950,CZ,78,Archlebov,
88951,CZ,30,Tismice,
88952,CZ,33,Kozmice,
88953,CZ,33,Dolni Podluzi,
88954,CZ,88,Hospozín,
88955,CZ,21,Lucany Nad Nisou,
88956,CZ,80,Svratka,
88957,CZ,90,Jalubí,
88958,CZ,90,Hrubá Vrbka,
88959,CZ,78,Tvarozna,
88960,CZ,84,Tesetice,
88961,CZ,81,Krásné Údolí,
88962,CZ,88,Krásná Hora,
88963,CZ,88,Krabcice,
88964,CZ,61,Zeleznice,
88965,CZ,88,Honice,
88966,CZ,37,Holohlavy,
88967,CZ,80,Kozli,
88968,CZ,45,Vysoká Nad Labem,
88969,CZ,88,Hobsovice,
88970,CZ,78,Rapotice,
88971,CZ,89,Malsovice,
88972,CZ,88,Nebovidy,
88973,CZ,89,Zabovresky Nad Ohri,
88974,CZ,78,Rajhradice,
88975,CZ,84,Tri Dvory,
88976,CZ,84,Popovice,
88977,CZ,88,Brezno,
88978,CZ,90,Popuvky,
88979,CZ,88,Libcice,
88980,CZ,52,Dobrejovice,
88981,CZ,84,Vlkos,
88982,CZ,78,Lulec,
88983,CZ,90,Suchov,
88984,CZ,84,Medlov,
88985,CZ,85,Vetrkovice,
88986,CZ,52,Trebotov,
88987,CZ,88,Hredle,
88988,CZ,84,Moravicany,
88989,CZ,87,Lohhaeuser,
88990,CZ,90,Vazany,
88991,CZ,88,Velka Lecice,
88992,CZ,52,Hrdlorezy,
88993,CZ,84,Ruda,
88994,CZ,87,Hromnice,
88995,CZ,84,Jestrebi,
88996,CZ,89,Zitenice,
88997,CZ,84,Runarov,
88998,CZ,88,Liblice,
88999,CZ,89,Krasny Dvur,
89000,CZ,86,Hradec Nad Svitavou,
89001,CZ,79,Stribrec,
89002,CZ,80,Níhov,
89003,CZ,85,Vernovice,
89004,CZ,52,Písnice,
89005,CZ,90,Sumice,
89006,CZ,52,Kamýk,
89007,CZ,85,Slezáci,
89008,CZ,87,Mokrouse,
89009,CZ,79,Novosedly Nad Nezarkou,
89010,CZ,87,Kozojedy,
89011,CZ,87,Kout Na Sumave,
89012,CZ,30,Konárovice,
89013,CZ,88,Postupice,
89014,CZ,23,Stará Paka,
89015,CZ,45,Vraclav,
89016,CZ,89,Merunice,
89017,CZ,84,Detkovice,
89018,CZ,88,Zbecno,
89019,CZ,78,Cucice,
89020,CZ,87,Goldbach,
89021,CZ,88,Petrohrad,
89022,CZ,90,Vsechovice,
89023,CZ,79,Brabec,
89024,CZ,84,Bela,
89025,CZ,45,Kricen,
89026,CZ,90,Lubná,
89027,CZ,84,Prikazy,
89028,CZ,37,Rokytnice,
89029,CZ,79,Donov,
89030,CZ,87,Velký Malahov,
89031,CZ,87,Bystré,
89032,CZ,86,Boritov,
89033,CZ,84,Rohle,
89034,CZ,88,Chlumín,
89035,CZ,86,Tatenice,
89036,CZ,79,Jílovice,
89037,CZ,78,Moutnice,
89038,CZ,70,Pilníkov,
89039,CZ,90,Bystrice Pod Lopenikem,
89040,CZ,45,Susice,
89041,CZ,78,Korenec,
89042,CZ,84,Domasov,
89043,CZ,80,Jívoví,
89044,CZ,45,Zdechovice,
89045,CZ,37,Vsestary,
89046,CZ,45,Blansko,
89047,CZ,30,Mukarov,
89048,CZ,90,Suska,
89049,CZ,87,Plan,
89050,CZ,88,Rovina,
89051,CZ,45,Zivanice,
89052,CZ,87,Mýto,
89053,CZ,41,Dymokury,
89054,CZ,41,Opocnice,
89055,CZ,80,Dolni Nemcice,
89056,CZ,80,Svratouch,
89057,CZ,88,Tuhan,
89058,CZ,90,Stritez,
89059,CZ,81,Vysoká Pec,
89060,CZ,81,Mähring,
89061,CZ,30,Skvorec,
89062,CZ,79,Malsice,
89063,CZ,78,Jinacovice,
89064,CZ,39,Ceske Mezirici,
89065,CZ,85,Hladke Zivotice,
89066,CZ,70,Nemojov,
89067,CZ,88,Bobnice,
89068,CZ,88,Morina,
89069,CZ,33,Nove Mesto Pod Smrkem,
89070,CZ,89,Údlice,
89071,CZ,81,Staré Sedlo,
89072,CZ,85,Perná,
89073,CZ,90,Pohorelice,
89074,CZ,79,Vcelna,
89075,CZ,78,Prosimerice,
89076,CZ,79,Borová Lada,
89077,CZ,23,Vysoké Veselí,
89078,CZ,84,Celechovice Na Hane,
89079,CZ,78,Hosteradky-resov,
89080,CZ,88,Sternberk,
89081,CZ,79,Rosec,
89082,CZ,88,Branov,
89083,CZ,90,Hvozdná,
89084,CZ,85,Kylesovice,
89085,CZ,52,Sterboholy,
89086,CZ,78,Drazovice,
89087,CZ,52,Dolni Jircany,
89088,CZ,81,Mlýnská,
89089,CZ,79,Dynín,
89090,CZ,88,Hostim,
89091,CZ,82,Javornice,
89092,CZ,78,Kurimske Jestrabi,
89093,CZ,85,Velke Hostice,
89094,CZ,41,Prevysov,
89095,CZ,87,Lucina,
89096,CZ,88,Chynava,
89097,CZ,79,Svaty Jan Nad Malsi,
89098,CZ,52,Mechenice,
89099,CZ,85,Poruba,
89100,CZ,84,Vinary,
89101,CZ,90,Stitna Nad Vlari,
89102,CZ,85,Dolni Becva,
89103,CZ,78,Moravsky Zizkov,
89104,CZ,84,Loucky,
89105,CZ,45,Prosec,
89106,CZ,23,Zlunice,
89107,CZ,85,Skripov,
89108,CZ,85,Chvalíkovice,
89109,CZ,86,Cetkovice,
89110,CZ,87,Zadní Chodov,
89111,CZ,88,Semice,
89112,CZ,85,Jistebník,
89113,CZ,85,Markvartovice,
89114,CZ,84,Václavovice,
89115,CZ,61,Roztoky U Jilemnice,
89116,CZ,39,Velká Bukovina,
89117,CZ,85,Velké Albrechtice,
89118,CZ,79,Horni Dvoriste,
89119,CZ,24,Kocbere,
89120,CZ,33,Visnova,
89121,CZ,81,Dvorec,
89122,CZ,84,Drahotuse,
89123,CZ,90,Hustenovice,
89124,CZ,70,Rozmital,
89125,CZ,88,Chotetov,
89126,CZ,86,Radimer,
89127,CZ,45,Svítkov,
89128,CZ,45,Brehy,
89129,CZ,39,Rtyne,
89130,CZ,88,Velký Borek,
89131,CZ,84,Sisma,
89132,CZ,78,Ivanovice,
89133,CZ,90,Valasska Polanka,
89134,CZ,87,Jeníkovice,
89135,CZ,30,Stara Hut,
89136,CZ,80,Osova Bityska,
89137,CZ,33,Jenisovice,
89138,CZ,86,Miretice,
89139,CZ,39,Slatina Nad Úpou,
89140,CZ,88,Veliká Ves,
89141,CZ,80,Mohelno,
89142,CZ,88,Chleby,
89143,CZ,79,Vacov,
89144,CZ,45,Kamenicky,
89145,CZ,90,Pasovice,
89146,CZ,85,Horní Lomná,
89147,CZ,70,Marsov,
89148,CZ,79,Boletice,
89149,CZ,81,Becov Nad Teplou,
89150,CZ,52,Nové Jirny,
89151,CZ,20,Libcany,
89152,CZ,30,Vyzlovka,
89153,CZ,84,Biskupice,
89154,CZ,87,Kaliste,
89155,CZ,87,Blizejov,
89156,CZ,21,Harrachov,
89157,CZ,20,Stary Bydzov,
89158,CZ,78,Kuparovice,
89159,CZ,61,Libstat,
89160,CZ,84,Bílá Lhota,
89161,CZ,84,Hacky,
89162,CZ,84,Libos,
89163,CZ,85,Chlebovice,
89164,CZ,88,Dublovice,
89165,CZ,45,Horní Jelení,
89166,CZ,78,Krepice,
89167,CZ,89,Martineves,
89168,CZ,41,Mcely,
89169,CZ,84,Kladky,
89170,CZ,88,Senomaty,
89171,CZ,79,Ratibor,
89172,CZ,37,Dlouhé Dvory,
89173,CZ,90,Ludkovice,
89174,CZ,89,Marianske Radcice,
89175,CZ,85,Jeseník Nad Odrou,
89176,CZ,84,Dobromilice,
89177,CZ,88,Zilina,
89178,CZ,81,Bohuslav,
89179,CZ,80,Snet,
89180,CZ,88,Drisy,
89181,CZ,84,Bedihost,
89182,CZ,88,Predmerice,
89183,CZ,90,Osvetimany,
89184,CZ,85,Suchdol,
89185,CZ,41,Cineves,
89186,CZ,78,Tavíkovice,
89187,CZ,85,Morávka,
89188,CZ,88,Cisovice,
89189,CZ,87,Bdeneves,
89190,CZ,52,Radejovice,
89191,CZ,90,Nový Hrozenkov,
89192,CZ,79,Horni Pena,
89193,CZ,84,Brodek U Konice,
89194,CZ,88,Hlízov,
89195,CZ,85,Kunvald,
89196,CZ,90,Jasenná,
89197,CZ,86,Lány,
89198,CZ,89,Strekov,
89199,CZ,89,Pochvalov,
89200,CZ,80,Tri Studne,
89201,CZ,84,Osek Nad Becvou,
89202,CZ,84,Výkleky,
89203,CZ,82,Ceska Cermna,
89204,CZ,45,Louka,
89205,CZ,79,Nezamyslice,
89206,CZ,90,Zelechovice Nad Drevnici,
89207,CZ,84,Vlcice,
89208,CZ,84,Jindrichov,
89209,CZ,79,Nové Hrady,
89210,CZ,85,Úvalno,
89211,CZ,90,Petruvka,
89212,CZ,30,Týnec Nad Labem,
89213,CZ,45,Prosetín,
89214,CZ,86,Mestecko Trnavka,
89215,CZ,88,Mezoun,
89216,CZ,86,Dlouhonovice,
89217,CZ,88,Vraz,
89218,CZ,87,Rybník,
89219,CZ,84,Franková,
89220,CZ,89,Velke Zernoseky,
89221,CZ,87,Strazovice,
89222,CZ,89,Zelina,
89223,CZ,84,Vrbátky,
89224,CZ,84,Sumvald,
89225,CZ,45,Lestina,
89226,CZ,88,Kolec,
89227,CZ,88,Rosovice,
89228,CZ,86,Borotín,
89229,CZ,87,Osvracin,
89230,CZ,52,Nový Vestec,
89231,CZ,84,Krelov,
89232,CZ,78,Hajany,
89233,CZ,78,Rozdrojovice,
89234,CZ,90,Kozojídky,
89235,CZ,88,Nepomerice,
89236,CZ,80,Rynárec,
89237,CZ,83,Provodín,
89238,CZ,85,Lubojaty,
89239,CZ,80,Jeclov,
89240,CZ,85,Ondrejov,
89241,CZ,90,Velky Orechov,
89242,CZ,90,Zeranovice,
89243,CZ,88,Hvezdonice,
89244,CZ,81,Mirotice,
89245,CZ,90,Lukov,
89246,CZ,80,Breznik,
89247,CZ,33,Loukov,
89248,CZ,52,Sluhy,
89249,CZ,78,Kyjov,
89250,CZ,45,Rousínov,
89251,CZ,90,Rostin,
89252,CZ,78,Krumvir,
89253,CZ,89,Trebivlice,
89254,CZ,70,Horní Lánov,
89255,CZ,78,Jestrebi,
89256,CZ,30,Jevany,
89257,CZ,85,Ostravice,
89258,CZ,45,Újezd,
89259,CZ,45,Dolni Roven,
89260,CZ,30,Svojetice,
89261,CZ,41,Cachovice,
89262,CZ,85,Metylovice,
89263,CZ,45,Morasice,
89264,CZ,88,Drahelcice,
89265,CZ,80,Chudobín,
89266,CZ,41,Krinec,
89267,CZ,88,Zájezd,
89268,CZ,79,Nadejkov,
89269,CZ,89,Schoenwald,
89270,CZ,78,Kurdejov,
89271,CZ,86,Vitejeves,
89272,CZ,89,Oparno,
89273,CZ,80,Trhová Kamenice,
89274,CZ,84,Skorosice,
89275,CZ,89,Brloh,
89276,CZ,45,Zdislav,
89277,CZ,81,Cernava,
89278,CZ,90,Domanín,
89279,CZ,88,Pist,
89280,CZ,41,Oskorinek,
89281,CZ,86,Vendolí,
89282,CZ,30,Káraný,
89283,CZ,30,Klokocna,
89284,CZ,86,Rozsec,
89285,CZ,80,Herálec,
89286,CZ,79,Slavce,
89287,CZ,70,Suchy Dul,
89288,CZ,89,Vedomice,
89289,CZ,88,Praskolesy,
89290,CZ,79,Driten,
89291,CZ,89,Frantiskov Nad Ploucnici,
89292,CZ,85,Stonava,
89293,CZ,79,Strasice,
89294,CZ,84,Drahanovice,
89295,CZ,30,Mnichovice,
89296,CZ,78,Diváky,
89297,CZ,84,Kolsov,
89298,CZ,79,Komarice,
89299,CZ,86,Retova,
89300,CZ,20,Prasek,
89301,CZ,45,Stezery,
89302,CZ,79,Rodná,
89303,CZ,52,Vodochody,
89304,CZ,81,Abertamy,
89305,CZ,84,Hamberk,
89306,CZ,84,Loucka,
89307,CZ,85,Teplice Nad Becvou,
89308,CZ,88,Kotopeky,
89309,CZ,86,Brnenec,
89310,CZ,88,Melnicke Vtelno,
89311,CZ,45,Bojanov,
89312,CZ,20,Bolehost,
89313,CZ,84,Dolní Újezd,
89314,CZ,80,Hochberg,
89315,CZ,81,Vysoké,
89316,CZ,87,Knihy,
89317,CZ,81,Rybná,
89318,CZ,81,Neuhäuser,
89319,CZ,79,Ahorn,
89320,CZ,90,Brest,
89321,CZ,87,Kamenný Újezd,
89322,CZ,81,Plesná,
89323,CZ,88,Vysoký Chlumec,
89324,CZ,85,Dehylov,
89325,CZ,80,Blazejovice,
89326,CZ,52,Benice,
89327,CZ,61,Martinice,
89328,CZ,78,Bohdalice,
89329,CZ,85,Hradec,
89330,CZ,45,Sruby,
89331,CZ,84,Stribrnice,
89332,CZ,78,Omice,
89333,CZ,87,Vseruby,
89334,CZ,90,Provodov,
89335,CZ,45,Cerna U Bohdance,
89336,CZ,30,Zernovka,
89337,CZ,89,Drouzkovice,
89338,CZ,52,Velen,
89339,CZ,88,Ptice,
89340,CZ,80,Modlíkov,
89341,CZ,20,Boharyne,
89342,CZ,90,Rouské,
89343,CZ,88,Lounovice Pod Blanikem,
89344,CZ,87,Zruc,
89345,CZ,89,Zizelice,
89346,CZ,80,Úsobí,
89347,CZ,85,Drnholec,
89348,CZ,80,Habry,
89349,CZ,85,Kuncice,
89350,CZ,79,Bavorov,
89351,CZ,86,Cepi,
89352,CZ,88,Makotrasy,
89353,CZ,78,Deblín,
89354,CZ,87,Drmoul,
89355,CZ,45,Stepanov,
89356,CZ,23,Bila Tremesna,
89357,CZ,84,Majetín,
89358,CZ,88,Skalsko,
89359,CZ,79,Zdíkov,
89360,CZ,78,Velesovice,
89361,CZ,41,Vsejany,
89362,CZ,30,Cejkovice,
89363,CZ,82,Ohnisov,
89364,CZ,82,Sedlonov,
89365,CZ,88,Trencin,
89366,CZ,80,Dusejov,
89367,CZ,84,Nové Zámky,
89368,CZ,23,Tample,
89369,CZ,84,Paseky,
89370,CZ,88,Zaluzany,
89371,CZ,30,Ratbor,
89372,CZ,45,Ceperka,
89373,CZ,84,Újezdec,
89374,CZ,84,Rájec,
89375,CZ,41,Slovec,
89376,CZ,84,Police,
89377,CZ,52,Holubice,
89378,CZ,80,Bobruvka,
89379,CZ,78,Velatice,
89380,CZ,79,Choustník,
89381,CZ,88,Chorousky,
89382,CZ,61,Vsen,
89383,CZ,78,Pribice,
89384,CZ,21,Prichovice,
89385,CZ,52,Repy,
89386,CZ,52,Dobrocovice,
89387,CZ,86,Bohdalov,
89388,CZ,84,Ohrozim,
89389,CZ,87,Ledce,
89390,CZ,84,Palonín,
89391,CZ,45,Káranice,
89392,CZ,84,Ostruzna,
89393,CZ,88,Svaté Pole,
89394,CZ,20,Albrechtice Nad Orlicí,
89395,CZ,87,Druztová,
89396,CZ,85,Kuncice Pod Ondrejnikem,
89397,CZ,85,Dobroslavice,
89398,CZ,82,Janov,
89399,CZ,86,Jamne,
89400,CZ,79,Blazejov,
89401,CZ,52,Popovicky,
89402,CZ,79,Sevetin,
89403,CZ,84,Drzovice,
89404,CZ,45,Rusinov,
89405,CZ,88,Msec,
89406,CZ,89,Velky Senov,
89407,CZ,84,Horni Hermanice,
89408,CZ,87,Trpísty,
89409,CZ,84,Olbramice,
89410,CZ,89,Panenský Týnec,
89411,CZ,84,Kozusany,
89412,CZ,70,Otovice,
89413,CZ,89,Kostice,
89414,CZ,88,Cejetice,
89415,CZ,89,Jeníkov,
89416,CZ,52,Olesko,
89417,CZ,30,Srbín,
89418,CZ,45,Stradoun,
89419,CZ,85,Bohucovice,
89420,CZ,84,Skripov,
89421,CZ,89,München,
89422,CZ,85,Hrabuvka,
89423,CZ,89,Rachel,
89424,CZ,78,Nikolcice,
89425,CZ,84,Karlov,
89426,CZ,78,Jablonany,
89427,CZ,87,Horakov,
89428,CZ,88,Dolni Berkovice,
89429,CZ,87,Drslavice,
89430,CZ,87,Walk,
89431,CZ,87,Úherce,
89432,CZ,81,Neustadt,
89433,CZ,88,Langenfeld,
89434,CZ,78,Starovicky,
89435,CZ,80,Dolní Vilémovice,
89436,CZ,84,Krchleby,
89437,CZ,84,Krnov,
89438,CZ,89,Caslav,
89439,CZ,88,Tisek,
89440,CZ,45,Kostenice,
89441,CZ,88,Stara Hut,
89442,CZ,90,Medlovice,
89443,CZ,78,Dlhé Lúky,
89444,CZ,52,Chodov,
89445,CZ,33,Vselibice,
89446,CZ,85,Písek,
89447,CZ,88,Ondrejov,
89448,CZ,80,Radostín,
89449,CZ,78,Rousínov,
89450,CZ,52,Zvole,
89451,CZ,36,Trtenice,
89452,CZ,84,Klenovice Na Hané,
89453,CZ,78,Sanov,
89454,CZ,80,Krucemburk,
89455,CZ,88,Lubná,
89456,CZ,88,Luzna,
89457,CZ,78,Podolí,
89458,CZ,78,Újezd,
89459,CZ,90,Blatnice,
89460,CZ,79,Krizanov,
89461,CZ,89,Cerncice,
89462,CZ,78,Horákov,
89463,CZ,79,Tucapy,
89464,CZ,86,Bylany,
89465,CZ,30,Chrást,
89466,CZ,84,Starnov,
89467,CZ,86,Sulíkov,
89468,CZ,83,Svojkov,
89469,CZ,85,Otice,
89470,CZ,85,Slavkov,
89471,CZ,80,Lukavec,
89472,CZ,52,Pacov,
89473,CZ,78,Moravany,
89474,CZ,88,Plana,
89475,CZ,86,Bystré,
89476,CZ,86,Lubná,
89477,CZ,52,Královice,
89478,CZ,79,Jetetice,
89479,CZ,78,Prace,
89480,CZ,85,Polanka Nad Odrou,
89481,CZ,80,Bohdalov,
89482,CZ,78,Lomnice,
89483,CZ,84,Zerotin,
89484,CZ,52,Ostrov,
89485,CZ,89,Slatinice,
89486,CZ,83,Jáchymov,
89487,CZ,88,Vojkovice,
89488,CZ,41,Ledce,
89489,CZ,89,Male Zernoseky,
89490,CZ,88,Josefuv Dul,
89491,CZ,82,Kunvald,
89492,CZ,85,Bohuslavice,
89493,CZ,88,Tman,
89494,CZ,79,Mirotice,
89495,CZ,81,Valy,
89496,CZ,90,Valasska Senice,
89497,CZ,87,Mrákov,
89498,CZ,33,Loukovec,
89499,CZ,89,Nové Sedlo,
89500,CZ,85,Hostalkovy,
89501,CZ,78,Hrusovany Nad Jevisovkou,
89502,CZ,78,Brumovice,
89503,CZ,78,Vranov Nad Dyjí,
89504,CZ,82,Provodov,
89505,CZ,87,Chudenice,
89506,CZ,78,Výrovice,
89507,CZ,78,Hosteradice,
89508,CZ,41,Zizelice,
89509,CZ,88,Albrechtice,
89510,CZ,80,Starec,
89511,CZ,78,Ochoz,
89512,CZ,85,Pustkovec,
89513,CZ,89,Hostka,
89514,CZ,78,Drásov,
89515,CZ,90,Brezuvky,
89516,CZ,78,Drnholec,
89517,CZ,89,Trebenice,
89518,CZ,87,Radnice,
89519,CZ,52,Sázava,
89520,CZ,85,Dolní Lhota,
89521,CZ,86,Lukavice,
89522,CZ,88,Luby,
89523,CZ,30,Tlustovousy,
89524,CZ,79,Pomezí,
89525,CZ,82,Osecnice,
89526,CZ,80,Horní Dubenky,
89527,CZ,89,Dobrná,
89528,CZ,45,Opocno,
89529,CZ,52,Liber,
89530,CZ,87,Dvorec,
89531,CZ,80,Jeníkov,
89532,CZ,89,Jindrichov,
89533,CZ,30,Oleska,
89534,CZ,89,Louka,
89535,CZ,88,Dolní Slivno,
89536,CZ,41,Nové Hrady,
89537,CZ,84,Losov,
89538,CZ,86,Olesnice,
89539,CZ,45,Kostelec,
89540,CZ,88,Hranice,
89541,CZ,30,Hlavecnik,
89542,CZ,88,Hudlice,
89543,CZ,90,Bohuslavice,
89544,CZ,23,Liban,
89545,CZ,86,Dolní Újezd,
89546,CZ,87,Lestkov,
89547,CZ,78,Domasov,
89548,CZ,82,Destne,
89549,CZ,89,Klobuky,
89550,CZ,80,Slapanov,
89551,CZ,80,Nevcehle,
89552,CZ,80,Lípa,
89553,CZ,89,Velemín,
89554,CZ,90,Provodovice,
89555,CZ,84,Drevohostice,
89556,CZ,21,Korenov,
89557,CZ,88,Kokorin,
89558,CZ,45,Lipovec,
89559,CZ,81,Tasovice,
89560,CZ,87,Zinkovy,
89561,CZ,20,Rozdalovice,
89562,CZ,85,Dolni Datyne,
89563,CZ,89,Janská,
89564,CZ,36,Kovac,
89565,CZ,85,Deutsch,
89566,CZ,81,Horn,
89567,CZ,30,Blinka,
89568,CZ,81,Sadov,
89569,CZ,89,Pátek,
89570,CZ,33,Cetenov,
89571,CZ,88,Cervene Pecky,
89572,CZ,80,Kostelec,
89573,CZ,85,Chotebuz,
89574,CZ,88,Ctyrkoly,
89575,CZ,88,Hostoun,
89576,CZ,88,Suchomasty,
89577,CZ,85,Nový Bohumín,
89578,CZ,87,Haselbach,
89579,CZ,30,Lounovice,
89580,CZ,21,Lucany,
89581,CZ,88,Jesenice,
89582,CZ,84,Dubicko,
89583,CZ,79,Ckyne,
89584,CZ,88,Doksy,
89585,CZ,84,Radslavice,
89586,CZ,85,Malá Morávka,
89587,CZ,83,Polevsko,
89588,CZ,79,Studenec,
89589,CZ,88,Tetín,
89590,CZ,90,Záhorovice,
89591,CZ,30,Mochov,
89592,CZ,45,Osice,
89593,CZ,87,Luzany,
89594,CZ,78,Pritluky,
89595,CZ,78,Ladná,
89596,CZ,78,Lovcice,
89597,CZ,23,Stankov,
89598,CZ,88,Luka,
89599,CZ,81,Merklín,
89600,CZ,85,Karviná 4,
89601,CZ,80,Nimpsov,
89602,CZ,84,Skrben,
89603,CZ,85,Sluzovice,
89604,CZ,80,Vidonín,
89605,CZ,86,Nasavrky,
89606,CZ,88,Brezany,
89607,CZ,78,Ostrov U Macochy,
89608,CZ,78,Ricany,
89609,CZ,88,Lidice,
89610,CZ,80,Nemojov,
89611,CZ,88,Dubí,
89612,CZ,78,Visnove,
89613,CZ,80,Rozsochatec,
89614,CZ,90,Cakanov,
89615,CZ,52,Záryby,
89616,CZ,81,Nová Ves,
89617,CZ,89,Chotesov,
89618,CZ,79,Holubov,
89619,CZ,87,Blata,
89620,CZ,79,Stekre,
89621,CZ,84,Resov,
89622,CZ,84,Plinkout,
89623,CZ,90,Lhotsko,
89624,CZ,88,Klucenice,
89625,CZ,84,Tyn Nad Becvou,
89626,CZ,85,Doubrava,
89627,CZ,88,Suchodol,
89628,CZ,89,Doksany,
89629,CZ,90,Francova Lhota,
89630,CZ,90,Zadverice,
89631,CZ,61,Kostalov,
89632,CZ,79,Zbytiny,
89633,CZ,33,Krompach,
89634,CZ,78,Holubice,
89635,CZ,45,Horni Redice,
89636,CZ,52,Chvateruby,
89637,CZ,88,Ostrovec,
89638,CZ,88,Struharov,
89639,CZ,83,Horní Police,
89640,CZ,61,Mricna,
89641,CZ,88,Cernuc,
89642,CZ,52,Pakomerice,
89643,CZ,88,Karlík,
89644,CZ,88,Horesedly,
89645,CZ,80,Kostany,
89646,CZ,84,Kokory,
89647,CZ,52,Lipany,
89648,CZ,78,Zadovice,
89649,CZ,79,Pistin,
89650,CZ,78,Citonice,
89651,CZ,83,Blizevedly,
89652,CZ,86,Krenov,
89653,CZ,88,Kosova Hora,
89654,CZ,88,Kounov,
89655,CZ,80,Kamenice,
89656,CZ,45,Knezice,
89657,CZ,78,Kovalovice,
89658,CZ,89,Neudörfl,
89659,CZ,80,Nemecke,
89660,CZ,45,Dedek,
89661,CZ,87,Touskov,
89662,CZ,79,Friedberg,
89663,CZ,45,Chrast,
89664,CZ,78,Veterov,
89665,CZ,80,Obratan,
89666,CZ,80,Zachotín,
89667,CZ,78,Spesov,
89668,CZ,33,Fojtka,
89669,CZ,82,Zábrodí,
89670,CZ,78,Mokrá,
89671,CZ,80,Nová Cerekev,
89672,CZ,88,Srbsko,
89673,CZ,87,Stáhlavice,
89674,CZ,84,Trpín,
89675,CZ,86,Lichkov,
89676,CZ,78,Horní Dunajovice,
89677,CZ,88,Podlesin,
89678,CZ,85,Závada,
89679,CZ,30,Chotutice,
89680,CZ,88,Vysoká Pec,
89681,CZ,88,Semcice,
89682,CZ,80,Opatov,
89683,CZ,88,Cecelice,
89684,CZ,78,Sudomerice,
89685,CZ,39,Rohenice,
89686,CZ,84,Klopotovice,
89687,CZ,78,Oleksovice,
89688,CZ,78,Trbousany,
89689,CZ,85,Darkovice,
89690,CZ,79,Rozmital Na Sumave,
89691,CZ,30,Labske Chrcice,
89692,CZ,79,Lhenice,
89693,CZ,79,Horní Vltavice,
89694,CZ,89,Belusice,
89695,CZ,85,Horni Datyne,
89696,CZ,90,Újezd,
89697,CZ,52,Uholicky,
89698,CZ,85,Nizni Lhoty,
89699,CZ,45,Ostretin,
89700,CZ,45,Litetiny,
89701,CZ,89,Blsany,
89702,CZ,89,Nestemice,
89703,CZ,89,Valkerice,
89704,CZ,90,Vlcnov,
89705,CZ,88,Krhanice,
89706,CZ,84,Zeravice,
89707,CZ,88,Svinarov,
89708,CZ,78,Vlkos,
89709,CZ,89,Zichovec,
89710,CZ,89,Havran,
89711,CZ,90,Komárno,
89712,CZ,45,Vápno,
89713,CZ,84,Buková,
89714,CZ,78,Tesice,
89715,CZ,23,Obruby,
89716,CZ,52,Hole,
89717,CZ,88,Slabce,
89718,CZ,85,Hrádek,
89719,CZ,90,Branky,
89720,CZ,87,Halze,
89721,CZ,88,Dobrá Voda,
89722,CZ,88,Novosedly,
89723,CZ,89,Zahori,
89724,CZ,85,Nýdek,
89725,CZ,90,Rajnochovice,
89726,CZ,79,Vysne,
89727,CZ,84,Petrovice,
89728,CZ,37,Sendrazice,
89729,CZ,52,Kreslice,
89730,CZ,83,Ruzove,
89731,CZ,33,Vesec,
89732,CZ,86,Dolní Libchavy,
89733,CZ,81,Stará Voda,
89734,CZ,39,Krizanov,
89735,CZ,85,Kozmice,
89736,CZ,61,Tatobity,
89737,CZ,81,Wies,
89738,CZ,86,Zajecice,
89739,CZ,88,Ostredek,
89740,CZ,45,Chvojenec,
89741,CZ,88,Uhy,
89742,CZ,88,Sipy,
89743,CZ,88,Rudoltice,
89744,CZ,88,Bzová,
89745,CZ,80,Dolní Cerekev,
89746,CZ,88,Teptin,
89747,CZ,45,Lipoltice,
89748,CZ,52,Panenske Brezany,
89749,CZ,86,Gajer,
89750,CZ,87,Merklín,
89751,CZ,84,Topolany,
89752,CZ,79,Chrastany,
89753,CZ,45,Praskacka,
89754,CZ,85,Velopoli,
89755,CZ,79,Lomnice Nad Luznici,
89756,CZ,81,Rozhraní,
89757,CZ,85,Spálov,
89758,CZ,87,Chodová Planá,
89759,CZ,79,Roudné,
89760,CZ,90,Bratrejov,
89761,CZ,88,Netolice,
89762,CZ,45,Chroustovice,
89763,CZ,89,Libocany,
89764,CZ,90,Bobrovník,
89765,CZ,85,Bukovec,
89766,CZ,78,Na Hrázi,
89767,CZ,39,Zizeleves,
89768,CZ,85,Pulgrun,
89769,CZ,84,Loucany,
89770,CZ,90,Belov,
89771,CZ,70,Dedov,
89772,CZ,89,Platz,
89773,CZ,90,Gottwaldov,
89774,CZ,82,Rusek,
89775,CZ,84,Lipina,
89776,CZ,81,Olesovice,
89777,CZ,79,Waldhäuser,
89778,CZ,87,Opálka,
89779,CZ,80,Slavetice,
89780,CZ,45,Opocinek,
89781,CZ,61,Strelec,
89782,CZ,81,Sabina,
89783,CZ,81,Mariánská,
89784,CZ,36,Knezice,
89785,CZ,80,Dolni Vilimec,
89786,CZ,78,Nosislav,
89787,CZ,78,Starý Poddvorov,
89788,CZ,90,Ratibor,
89789,CZ,86,Rozsec Nad Kunstatem,
89790,CZ,84,Bousín,
89791,CZ,85,Vrablovec,
89792,CZ,30,Tuchoraz,
89793,CZ,61,Libun,
89794,CZ,70,Benesov,
89795,CZ,84,Úsov,
89796,CZ,78,Nasimerice,
89797,CZ,78,Krenovice,
89798,CZ,88,Vyssi Brod,
89799,CZ,83,Jiretin Pod Jedlovou,
89800,CZ,88,Knezeves,
89801,CZ,86,Trstenice,
89802,CZ,70,Sonov,
89803,CZ,88,Zajecov,
89804,CZ,90,Litencice,
89805,CZ,36,Chomutice,
89806,CZ,81,Úterý,
89807,CZ,78,Prstice,
89808,CZ,88,Strojetice,
89809,CZ,81,Nepomysl,
89810,CZ,90,Vrbka,
89811,CZ,82,Kvicala,
89812,CZ,52,Motol,
89813,CZ,88,Radic,
89814,CZ,23,Milovice,
89815,CZ,88,Libenice,
89816,CZ,80,Plandry,
89817,CZ,88,Prelic,
89818,CZ,90,Nedasov,
89819,CZ,45,Zdar Nad Orlici,
89820,CZ,78,Vísky,
89821,CZ,89,Keblice,
89822,CZ,61,Svijany,
89823,CZ,84,Cholina,
89824,CZ,84,Tover,
89825,CZ,78,Brankovice,
89826,CZ,84,Zavadilka,
89827,CZ,78,Radslavice,
89828,CZ,80,Brtnicka,
89829,CZ,84,Chromec,
89830,CZ,80,Nové Syrovice,
89831,CZ,79,Rabí,
89832,CZ,80,Oponesice,
89833,CZ,83,Chribska,
89834,CZ,45,Uhersko,
89835,CZ,86,Gruna,
89836,CZ,45,Uhercice,
89837,CZ,36,Ohnistany,
89838,CZ,84,Oskava,
89839,CZ,33,Sychrov,
89840,CZ,33,Pencin,
89841,CZ,80,Lucice,
89842,CZ,80,Skrinarov,
89843,CZ,80,Vír,
89844,CZ,84,Vrchoslavice,
89845,CZ,84,Králová,
89846,CZ,39,Velky Trebesov,
89847,CZ,88,Male Kysice,
89848,CZ,88,Voznice,
89849,CZ,89,Lahost,
89850,CZ,83,Zdirec,
89851,CZ,33,Filipov,
89852,CZ,90,Merovice Nad Hanou,
89853,CZ,86,Horni Porici,
89854,CZ,39,Vrchovnice,
89855,CZ,70,Jívka,
89856,CZ,80,Ocmanice,
89857,CZ,87,Mlecice,
89858,CZ,23,Mlázovice,
89859,CZ,79,Pasek,
89860,CZ,80,Ceska Bela,
89861,CZ,85,Stara Bela,
89862,CZ,79,Jivno,
89863,CZ,88,Krásná Hora Nad Vltavou,
89864,CZ,87,Lisov,
89865,CZ,78,Jaroslavice,
89866,CZ,85,Laki,
89867,CZ,84,Hodolany,
89868,CZ,80,Ostrov Nad Oslavou,
89869,CZ,88,Kadlín,
89870,CZ,86,Hrusova,
89871,CZ,45,Biskupice,
89872,CZ,52,Sedlec,
89873,CZ,33,Habartice,
89874,CZ,85,Stritez,
89875,CZ,85,Hlavatá,
89876,CZ,85,Janci,
89877,CZ,45,Koudelka,
89878,CZ,20,Divec,
89879,CZ,90,Maratice,
89880,CZ,79,Horice Na Sumave,
89881,CZ,78,Chrlice,
89882,CZ,90,Stupava,
89883,CZ,83,Boretin,
89884,CZ,84,Bruchotin,
89885,CZ,86,Sopotnice,
89886,CZ,89,Straskov,
89887,CZ,86,Brezova Nad Svitavou,
89888,CZ,78,Sedlec,
89889,CZ,30,Miskovice,
89890,CZ,88,Oboriste,
89891,CZ,88,Vseradice,
89892,CZ,80,Trebenice,
89893,CZ,84,Verovany,
89894,CZ,39,Zvole,
89895,CZ,52,Psar,
89896,CZ,30,Morány,
89897,CZ,87,Lhota Pod Radcem,
89898,CZ,39,Choustnikovo Hradiste,
89899,CZ,89,Hrobce,
89900,CZ,21,Haratice,
89901,CZ,86,Siroky Dul,
89902,CZ,45,Moravany,
89903,CZ,33,Rozstání,
89904,CZ,90,Nezdenice,
89905,CZ,86,Jehnedi,
89906,CZ,79,Hosín,
89907,CZ,73,Krakovany,
89908,CZ,85,Sedlnice,
89909,CZ,84,Domazelice,
89910,CZ,30,Jelen,
89911,CZ,81,Doubrava,
89912,CZ,84,Andlerka,
89913,CZ,78,Horní Bojanovice,
89914,CZ,80,Preckov,
89915,CZ,85,Hlubocec,
89916,CZ,88,Broumy,
89917,CZ,88,Picin,
89918,CZ,45,Pobezovice,
89919,CZ,87,Vrazne,
89920,CZ,85,Liptan,
89921,CZ,84,Stara Cervena Voda,
89922,CZ,80,Dobroutov,
89923,CZ,30,Kácovec,
89924,CZ,90,Rusava,
89925,CZ,79,Volyne,
89926,CZ,52,Petrov,
89927,CZ,79,Strunkovice Nad Blanicí,
89928,CZ,90,Brestek,
89929,CZ,80,Nizkov,
89930,CZ,30,Církvice,
89931,CZ,81,Verusicky,
89932,CZ,89,Libochovany,
89933,CZ,83,Volfartice,
89934,CZ,89,Bystrany,
89935,CZ,78,Horní Kounice,
89936,CZ,88,Milostín,
89937,CZ,88,Hrimezdice,
89938,CZ,84,Chudobín,
89939,CZ,87,Vochov,
89940,CZ,88,Bukovno,
89941,CZ,85,Ryzoviste,
89942,CZ,89,Tuchorice,
89943,CZ,79,Dvory Nad Luznici,
89944,CZ,89,Postovice,
89945,CZ,84,Bochor,
89946,CZ,30,Klucov,
89947,CZ,80,Sloupno,
89948,CZ,21,Zásada,
89949,CZ,88,Hostokryje,
89950,CZ,88,Budimerice,
89951,CZ,78,Ketkovice,
89952,CZ,88,Horky Nad Jizerou,
89953,CZ,52,Unetice,
89954,CZ,52,Krenice,
89955,CZ,85,Male Hostice,
89956,CZ,80,Vetrny Jenikov,
89957,CZ,85,Libhost,
89958,CZ,88,Mscheno,
89959,CZ,89,Pohorsko,
89960,CZ,88,Kovanec,
89961,CZ,84,Trnávka,
89962,CZ,45,Rasovy,
89963,CZ,81,Loucky,
89964,CZ,89,Horesovice,
89965,CZ,41,Ostrov,
89966,CZ,80,Zelezne Horky,
89967,CZ,30,Brambory,
89968,CZ,84,Leipnik,
89969,CZ,89,Charvatce,
89970,CZ,85,Hermanky,
89971,CZ,89,Klucek,
89972,CZ,88,Teirowitz,
89973,CZ,78,Irritz,
89974,CZ,30,Okrinek,
89975,CZ,80,Boudy,
89976,CZ,80,Holubi Zhor,
89977,CZ,78,Dvur Jalovisko,
89978,CZ,78,Nemcice,
89979,CZ,33,Sedlisko,
89980,CZ,79,Platteschlag,
89981,CZ,80,Krauna,
89982,CZ,87,Bujesily,
89983,CZ,80,Kletecna,
89984,CZ,82,Giesshübel,
89985,CZ,78,Podivice,
89986,CZ,89,Loucká,
89987,CZ,82,Prestavlky,
89988,CZ,89,Kostomlaty Pod Milesovkou,
89989,CZ,89,Sobesuky,
89990,CZ,89,Neudorf,
89991,CZ,90,Polichno,
89992,CZ,87,Myslovice,
89993,CZ,79,Neradov,
89994,CZ,78,Nové Sady,
89995,CZ,36,Konecchlumí,
89996,CZ,30,Jestrabi Lhota,
89997,CZ,88,Dolní Hbity,
89998,CZ,86,Nový Rybník,
89999,CZ,88,Tisovnice,
90000,CZ,85,Kajlovec,
90001,CZ,30,Pucery,
90002,CZ,80,Sedletín,
90003,CZ,83,Kunnersdorfer Feldhäuser,
90004,CZ,88,Dolní Vidim,
90005,CZ,86,Vysoký Les,
90006,CZ,45,Mravín,
90007,CZ,88,Boretice,
90008,CZ,85,Pohl,
90009,CZ,88,Nebrich,
90010,CZ,78,Ludíkov,
90011,CZ,85,Rudelsau,
90012,CZ,89,Destnice,
90013,CZ,89,Nové Dvory,
90014,CZ,89,Libceves,
90015,CZ,88,Nebuschel,
90016,CZ,86,Hájek,
90017,CZ,79,Nemetice,
90018,CZ,45,Plchuvky,
90019,CZ,80,Vrbice,
90020,CZ,30,Jedlá,
90021,CZ,82,Markausch,
90022,CZ,88,Kamenná Lhota,
90023,CZ,86,Ubusinek,
90024,CZ,52,Cholupice,
90025,CZ,30,Senice,
90026,CZ,30,Krychnov,
90027,CZ,85,Gaisdorf,
90028,CZ,84,Ludmírov,
90029,CZ,82,Gruenborn,
90030,CZ,89,Denetice,
90031,CZ,86,Gratzl,
90032,CZ,45,Lipec,
90033,CZ,90,Zastrizly,
90034,CZ,80,Strachujov,
90035,CZ,81,Gesmesgrün,
90036,CZ,80,Krizanau,
90037,CZ,88,Braum,
90038,CZ,87,Blazim,
90039,CZ,79,Ledenice,
90040,CZ,90,Malenovice,
90041,CZ,79,Dobesice,
90042,CZ,52,Dubec,
90043,CZ,90,Police,
90044,CZ,52,Repora,
90045,CZ,88,Nimerice,
90046,CZ,89,Horany,
90047,CZ,78,Nítkovice,
90048,CZ,85,Dolejsi Kuncice,
90049,CZ,88,Radous,
90050,CZ,88,Skupá,
90051,CZ,87,Starý Smolivec,
90052,CZ,78,Reckovice,
90053,CZ,45,Horní Bradlo,
90054,CZ,79,Bila Hurka,
90055,CZ,52,Dolni Mecholupy,
90056,CZ,85,Neplachovice,
90057,CZ,89,Milý,
90058,CZ,84,Podhori,
90059,CZ,80,Vilémovské Chaloupky,
90060,CZ,86,Bohunovice,
90061,CZ,88,Blatecky,
90062,CZ,84,Jesernik,
90063,CZ,90,Zlámanec,
90064,CZ,88,Jablonná,
90065,CZ,89,Velemysleves,
90066,CZ,85,Lippin,
90067,CZ,81,Zahrádka,
90068,CZ,85,Salajka,
90069,CZ,33,Bílá,
90070,CZ,88,Cernin,
90071,CZ,85,Radkov,
90072,CZ,79,Rimov,
90073,CZ,89,Málkov,
90074,CZ,85,Altwasser,
90075,CZ,88,Klínec,
90076,CZ,81,Libá,
90077,CZ,78,Bulhary,
90078,CZ,88,Marsovice,
90079,CZ,88,Miretice,
90080,CZ,37,Dobsin,
90081,CZ,87,Cizice,
90082,CZ,87,Kolovec,
90083,CZ,78,Pouzdrany,
90084,CZ,87,Lednice,
90085,CZ,79,Sumavske Hostice,
90086,CZ,45,Rohovladova Bela,
90087,CZ,85,Brezova,
90088,CZ,81,Perstejn,
90089,CZ,88,Zákolany,
90090,CZ,90,Rataje,
90091,CZ,33,Chotyne,
90092,CZ,52,Predni Kopanina,
90093,CZ,81,Bezverov,
90094,CZ,84,Krizov,
90095,CZ,86,Cerekvice Nad Loucnou,
90096,CZ,85,Melc,
90097,CZ,84,Mírov,
90098,CZ,87,Klabava,
90099,CZ,78,Moravské Bránice,
90100,CZ,84,Vsisko,
90101,CZ,23,Pribyslav,
90102,CZ,84,Bernartice,
90103,CZ,89,Jetrichovice,
90104,CZ,88,Polepy,
90105,CZ,52,Brezova,
90106,CZ,78,Nevojice,
90107,CZ,86,Osík,
90108,CZ,88,Pocaply,
90109,CZ,45,Semín,
90110,CZ,80,Konesin,
90111,CZ,89,Racetice,
90112,CZ,70,Klebs,
90113,CZ,80,Novy Teleckov,
90114,CZ,79,Lomy,
90115,CZ,23,Zabrezi,
90116,CZ,82,Borová,
90117,CZ,82,Prim,
90118,CZ,80,Mihoukovice,
90119,CZ,89,Lkan,
90120,CZ,89,Hertine,
90121,CZ,90,Dolní Lhota,
90122,CZ,78,Netcice,
90123,CZ,82,Kronstadt,
90124,CZ,84,Kriegsdorf,
90125,CZ,33,Donín,
90126,CZ,88,Velbehy,
90127,CZ,79,Riste,
90128,CZ,88,Kostelní Hlavno,
90129,CZ,52,Certousy,
90130,CZ,79,Trebelice,
90131,CZ,88,Hradischko,
90132,CZ,23,Rehnice,
90133,CZ,23,Lhotky,
90134,CZ,45,Dolní Jelení,
90135,CZ,78,Krouzek,
90136,CZ,78,Kunkovice,
90137,CZ,41,Detenice,
90138,CZ,41,Dvur Filipin,
90139,CZ,45,Chlum,
90140,CZ,88,Bezdez,
90141,CZ,88,Kostelík,
90142,CZ,84,Repechy,
90143,CZ,78,Kasnice,
90144,CZ,87,Bítov,
90145,CZ,80,Kladno,
90146,CZ,23,Lestina,
90147,CZ,88,Tloskov,
90148,CZ,81,Suchá,
90149,CZ,87,Horní Lhota,
90150,CZ,84,Zelezna,
90151,CZ,45,Vanice,
90152,CZ,79,Slapy,
90153,CZ,88,Bojov,
90154,CZ,45,Prepychy,
90155,CZ,33,Klaster Hradiste Nad Jizerou,
90156,CZ,87,Zilov,
90157,CZ,85,Gorna Åomna,
90158,CZ,88,Zajecice,
90159,CZ,85,Cavisov,
90160,CZ,85,Darkovicky,
90161,CZ,45,Vysoké Chvojno,
90162,CZ,84,Jívová,
90163,CZ,33,Bedrichov,
90164,CZ,21,Louznice,
90165,CZ,88,Stará Lysá,
90166,CZ,33,Osecna,
90167,CZ,39,Velky Vrestov,
90168,CZ,61,Perimov,
90169,CZ,87,Mecin,
90170,CZ,30,Brezany,
90171,CZ,79,Albrechtice Nad Vltavou,
90172,CZ,84,Trestina,
90173,CZ,82,Pecin,
90174,CZ,52,Strasin,
90175,CZ,88,Visnova,
90176,CZ,80,Krelovice,
90177,CZ,88,Krásná Ves,
90178,CZ,83,Marenice,
90179,CZ,88,Olsany,
90180,CZ,81,Jindrichovice,
90181,CZ,30,Rostoklaty,
90182,CZ,61,Krecovice,
90183,CZ,79,Stádlec,
90184,CZ,90,Zeravice,
90185,CZ,33,Oldrichov Na Hranicich,
90186,CZ,80,Senozaty,
90187,CZ,85,Chlebicov,
90188,CZ,85,Mikolajice,
90189,CZ,84,Hlusovice,
90190,CZ,89,Mecholupy,
90191,CZ,88,Na Januskach,
90192,CZ,30,Strechov Nad Sazavou,
90193,CZ,80,Valec,
90194,CZ,78,Milovice,
90195,CZ,79,Horni Chrastany,
90196,CZ,41,Dimokur,
90197,CZ,82,Cíhalka,
90198,CZ,83,Destna,
90199,CZ,52,Nové Dvory,
90200,CZ,45,Prestavlky,
90201,CZ,88,Zupanovice,
90202,CZ,88,Cernoucek,
90203,CZ,79,Hroznejovice,
90204,CZ,79,Komusin,
90205,CZ,89,Úlovice,
90206,CZ,88,Kolesov,
90207,CZ,79,Libetice,
90208,CZ,88,Skrei,
90209,CZ,84,Gnoiz,
90210,CZ,78,Nesvacilka,
90211,CZ,78,Sudice,
90212,CZ,78,Richtarzow,
90213,CZ,85,Skrochovice,
90214,CZ,80,Breziny,
90215,CZ,90,Hlinsko Pod Hostýnem,
90216,CZ,37,Doubravice,
90217,CZ,89,Privlaky,
90218,CZ,87,Stenovicky Borek,
90219,CZ,20,Luzec Nad Cidlinou,
90220,CZ,86,Mikulovice,
90221,CZ,79,Jamné,
90222,CZ,90,Chomyz,
90223,CZ,88,Pucher,
90224,CZ,80,Rosicka,
90225,CZ,81,Stern,
90226,CZ,84,Hostice,
90227,CZ,85,Karlovec,
90228,CZ,84,Hamry,
90229,CZ,86,Lisnice,
90230,CZ,82,Chleny,
90231,CZ,89,Julcin,
90232,CZ,79,Besednice,
90233,CZ,86,Janov,
90234,CZ,79,Hlinice,
90235,CZ,80,Predin,
90236,CZ,80,Katov,
90237,CZ,87,Chotíkov,
90238,CZ,79,Ratiborske Hory,
90239,CZ,79,Kostelec Nad Vltavou,
90240,CZ,82,Zdarky,
90241,CZ,78,Jamolice,
90242,CZ,88,Trebichovice,
90243,CZ,88,Bohutín,
90244,CZ,79,Nove Hute,
90245,CZ,88,Risuty,
90246,CZ,83,Horni Chribska,
90247,CZ,87,Mecholupy,
90248,CZ,21,Plavy,
90249,CZ,86,Opatov,
90250,CZ,20,Seletice,
90251,CZ,80,Dudín,
90252,CZ,52,Premysleni,
90253,CZ,87,Lochousice,
90254,CZ,30,Hetlín,
90255,CZ,90,Bliznaky,
90256,CZ,45,Rosice,
90257,CZ,89,Semec,
90258,CZ,30,Kolaje,
90259,CZ,52,Hájek,
90260,CZ,89,Líský,
90261,CZ,79,Vlkov,
90262,CZ,82,Sudin,
90263,CZ,80,Gross Losenitz,
90264,CZ,89,Racice,
90265,CZ,86,Pohodlí,
90266,CZ,81,Prassles,
90267,CZ,80,Morawetz,
90268,CZ,80,Smrk,
90269,CZ,85,Barnov,
90270,CZ,36,Saplava,
90271,CZ,85,Lindava,
90272,CZ,88,Unhoscht,
90273,CZ,89,Schneppendorf,
90274,CZ,80,Jerisno,
90275,CZ,88,Brezinka,
90276,CZ,89,Rusová,
90277,CZ,33,Chocnejovice,
90278,CZ,80,Horní Studenec,
90279,CZ,85,Borová,
90280,CZ,80,Cervena Lhota,
90281,CZ,88,Zlaté Hory,
90282,CZ,85,Bratrikovice,
90283,CZ,89,Kvílice,
90284,CZ,79,Cestice,
90285,CZ,89,Snedovice,
90286,CZ,88,Sudovo Hlavno,
90287,CZ,80,Oudolen,
90288,CZ,82,Vysokov,
90289,CZ,84,Tvrdkov,
90290,CZ,45,Rohozná,
90291,CZ,80,Lesní Hluboké,
90292,CZ,85,Kruzberk,
90293,CZ,23,Bile Policany,
90294,CZ,89,Modlany,
90295,CZ,82,Cernikovice,
90296,CZ,85,Zenklava,
90297,CZ,21,Bedrichov,
90298,CZ,78,Troskotovice,
90299,CZ,78,Vranov,
90300,CZ,79,Kamenný Újezd,
90301,CZ,88,Skorkov,
90302,CZ,23,Basnice,
90303,CZ,61,Radim,
90304,CZ,89,Litochovice,
90305,CZ,88,Nebuzely,
90306,CZ,88,Mrac,
90307,CZ,88,Nedrahovice,
90308,CZ,80,Zeliv,
90309,CZ,87,Tene,
90310,CZ,87,Nehodiv,
90311,CZ,87,Piwana,
90312,CZ,86,Herbortice,
90313,CZ,89,Nová Ves,
90314,CZ,88,Stremy,
90315,CZ,84,Geppertsau,
90316,CZ,79,Sedlo,
90317,CZ,85,Podvihov,
90318,CZ,82,Mitteldorf,
90319,CZ,86,Kaliste,
90320,CZ,90,Podolí,
90321,CZ,80,Brusovec,
90322,CZ,30,Tunochody,
90323,CZ,85,Bilcice,
90324,CZ,79,Olsi,
90325,CZ,70,Roprachtice,
90326,CZ,85,Lubomer,
90327,CZ,79,Lazany,
90328,CZ,83,Nedomeska,
90329,CZ,89,Horenice,
90330,CZ,41,Lautschin,
90331,CZ,90,Lipové,
90332,CZ,30,Chotouchov,
90333,CZ,89,Redhost,
90334,CZ,80,Stecken,
90335,CZ,85,Brandzeif,
90336,CZ,30,Skramniky,
90337,CZ,80,Dul,
90338,CZ,78,Nový Poddvorov,
90339,CZ,78,Dúbrava,
90340,CZ,78,Habruvka,
90341,CZ,90,Komna,
90342,CZ,83,Okrouhlá,
90343,CZ,88,Amalie,
90344,CZ,33,Jezová,
90345,CZ,82,Mnichová,
90346,CZ,89,Sumna,
90347,CZ,84,Premyslovice,
90348,CZ,88,Lazovice,
90349,CZ,78,Stosikovice Na Louce,
90350,CZ,83,Pihel,
90351,CZ,85,Skrecon,
90352,CZ,86,Budislav,
90353,CZ,87,Bolesiny,
90354,CZ,80,Kamenná Lhota,
90355,CZ,84,Hermanice,
90356,CZ,80,Helenín,
90357,CZ,79,Rapsach,
90358,CZ,52,Postrizin,
90359,CZ,83,Kunratice,
90360,CZ,33,Arnoltice,
90361,CZ,81,Ruzova,
90362,CZ,30,Dobrichov,
90363,CZ,87,Skupec,
90364,CZ,84,Hrabisin,
90365,CZ,78,Trnové Pole,
90366,CZ,87,Bezdruzice,
90367,CZ,90,Doubravy,
90368,CZ,79,Luznice,
90369,CZ,78,Boretice,
90370,CZ,89,Domousice,
90371,CZ,41,Licno,
90372,CZ,79,Rohanov,
90373,CZ,33,Rudolfov,
90374,CZ,86,Ceske Hermanice,
90375,CZ,88,Jankov,
90376,CZ,20,Opatov,
90377,CZ,80,Cechtin,
90378,CZ,78,Bozice,
90379,CZ,79,Bosilec,
90380,CZ,86,Borová,
90381,CZ,86,Pardubicky,
90382,CZ,89,Holedec,
90383,CZ,87,Neznasovy,
90384,CZ,78,Milonice,
90385,CZ,33,Frydstejn,
90386,CZ,20,Librantice,
90387,CZ,89,Petlery,
90388,CZ,78,Rostenice,
90389,CZ,78,Moravské Málkovice,
90390,CZ,90,Bohuslawitz,
90391,CZ,81,Ehmet,
90392,CZ,90,Kosiky,
90393,CZ,78,Rupprecht,
90394,CZ,84,Bonkov,
90395,CZ,20,Zdechovice,
90396,CZ,88,Kozolupy,
90397,CZ,88,Libecov,
90398,CZ,45,Radhost,
90399,CZ,88,Joachimstahl,
90400,CZ,86,Suchá Lhota,
90401,CZ,73,Lipec,
90402,CZ,86,Dzbanov,
90403,CZ,80,Kobylí,
90404,CZ,79,Malschitz,
90405,CZ,78,Velke Hosteradky,
90406,CZ,88,Skripel,
90407,CZ,70,Mastig,
90408,CZ,80,Trhonice,
90409,CZ,88,Sudovice,
90410,CZ,79,Budyne,
90411,CZ,89,Moraveves,
90412,CZ,85,Eckersdorf,
90413,CZ,88,Kletice,
90414,CZ,88,Brekova Lhota,
90415,CZ,89,Hospozínek,
90416,CZ,88,Bukov,
90417,CZ,87,Bohy,
90418,CZ,78,Koberice,
90419,CZ,84,Norbercany,
90420,CZ,88,Wysoka,
90421,CZ,84,Skalka,
90422,CZ,88,Neustupov,
90423,CZ,45,Kratonohy,
90424,CZ,88,Bechlín,
90425,CZ,84,Stren,
90426,CZ,86,Bítovany,
90427,CZ,87,Jivina,
90428,CZ,88,Trebesice,
90429,CZ,78,Brno-kralovo,
90430,CZ,88,Chric,
90431,CZ,30,Zehusice,
90432,CZ,87,Neurazy,
90433,CZ,90,Kostelany Nad Moravou,
90434,CZ,78,Knezdub,
90435,CZ,52,Zápy,
90436,CZ,88,Knovíz,
90437,CZ,78,Blanné,
90438,CZ,88,Cervene Janovice,
90439,CZ,89,Prackovice Nad Labem,
90440,CZ,45,Srnojedy,
90441,CZ,33,Jermanice,
90442,CZ,23,Vrsce,
90443,CZ,30,Zabori Nad Labem,
90444,CZ,90,Brusné,
90445,CZ,78,Blizkovice,
90446,CZ,89,Lenesice,
90447,CZ,90,Hroznová Lhota,
90448,CZ,33,Svijanský Újezd,
90449,CZ,79,Volenice,
90450,CZ,89,Klíny,
90451,CZ,36,Chotesice,
90452,CZ,82,Liberk,
90453,CZ,90,Hrivinuv Ujezd,
90454,CZ,80,Veprova,
90455,CZ,86,Malá Roudka,
90456,CZ,79,Strunkovice,
90457,CZ,79,Kozmice,
90458,CZ,30,Sány,
90459,CZ,90,Lechotice,
90460,CZ,52,Tehov,
90461,CZ,80,Kojcice,
90462,CZ,30,Ohare,
90463,CZ,30,Predhradi,
90464,CZ,88,Sobesovice,
90465,CZ,78,Pánov,
90466,CZ,80,Matejov,
90467,CZ,70,Martínkovice,
90468,CZ,78,Bohutice,
90469,CZ,78,Vémyslice,
90470,CZ,88,Dubenec,
90471,CZ,89,Chodouny,
90472,CZ,79,Cesky Rudolec,
90473,CZ,79,Velke Hydcice,
90474,CZ,79,Locenice,
90475,CZ,81,Sedlecko,
90476,CZ,88,Blevice,
90477,CZ,88,Hrdlív,
90478,CZ,85,Kosatka,
90479,CZ,82,Cestice,
90480,CZ,90,Lukovecek,
90481,CZ,87,Chrastavice,
90482,CZ,88,Kolomuty,
90483,CZ,87,Birkov,
90484,CZ,90,Brumov,
90485,CZ,78,Dyjákovice,
90486,CZ,45,Urbanice,
90487,CZ,86,Koclirov,
90488,CZ,90,Tecovice,
90489,CZ,79,Zlatá Koruna,
90490,CZ,30,Prebozy,
90491,CZ,30,Hostovlice,
90492,CZ,84,Dobrochov,
90493,CZ,84,Nenakonice,
90494,CZ,78,Tistin,
90495,CZ,83,Obrok,
90496,CZ,87,Kanicky,
90497,CZ,81,Deutschbundesort,
90498,CZ,89,Holesice,
90499,CZ,85,Girsig,
90500,CZ,86,Bosov,
90501,CZ,88,Brezovice,
90502,CZ,85,Koschendorf,
90503,CZ,45,Tetov,
90504,CZ,52,Skochovice,
90505,CZ,86,Vlckov,
90506,CZ,79,Javornice,
90507,CZ,89,Birnai,
90508,CZ,88,Bezdedice,
90509,CZ,89,Pocedelice,
90510,CZ,88,Susno,
90511,CZ,89,Blazim,
90512,CZ,45,Cicova,
90513,CZ,89,Deutsch Trebetitsch,
90514,CZ,89,Polepy,
90515,CZ,84,Frantiskov,
90516,CZ,88,Dolni Lisnice,
90517,CZ,88,Bojau,
90518,CZ,80,Hrobská Zahrádka,
90519,CZ,41,Smilovice,
90520,CZ,70,Anseith,
90521,CZ,30,Zalesany,
90522,CZ,39,Choteborky,
90523,CZ,88,Kostomlat,
90524,CZ,84,Malé Hradisko,
90525,CZ,84,Luderov,
90526,CZ,88,Gross-tschernitz,
90527,CZ,88,Nepomuk,
90528,CZ,45,Sticany,
90529,CZ,86,Bucina,
90530,CZ,89,Roudnicek,
90531,CZ,85,Vrsovice,
90532,CZ,90,Machová,
90533,CZ,89,Brandov,
90534,CZ,79,Lnare,
90535,CZ,52,Libus,
90536,CZ,78,Únanov,
90537,CZ,89,Borislav,
90538,CZ,61,Struzinec,
90539,CZ,85,Smolkov,
90540,CZ,41,Berunice,
90541,CZ,80,Vecov,
90542,CZ,89,Bystrice,
90543,CZ,89,Mstisov,
90544,CZ,90,Horní Lhota,
90545,CZ,78,Milesovice,
90546,CZ,87,Strelice,
90547,CZ,78,Satov,
90548,CZ,87,Pnovany,
90549,CZ,30,Cerhýnky,
90550,CZ,79,Halámky,
90551,CZ,78,Nové Bránice,
90552,CZ,84,Sec,
90553,CZ,84,Benov,
90554,CZ,82,Byzhradec,
90555,CZ,80,Budkov,
90556,CZ,81,Svetec,
90557,CZ,88,Sovínky,
90558,CZ,90,Suchá Loz,
90559,CZ,85,Detrichov Nad Bystrici,
90560,CZ,85,Horni Tosanovice,
90561,CZ,52,Svojsovice,
90562,CZ,90,Sulimov,
90563,CZ,85,Mladecko,
90564,CZ,78,Zakrany,
90565,CZ,85,Milíkov,
90566,CZ,84,Dlouhomilov,
90567,CZ,45,Spytovice,
90568,CZ,88,Koneprusy,
90569,CZ,84,Janousov,
90570,CZ,89,Dittersbach,
90571,CZ,90,Lhota,
90572,CZ,45,Horelec,
90573,CZ,79,Svojnice,
90574,CZ,88,Kaunowa,
90575,CZ,88,Bedrichovice,
90576,CZ,80,Najdek,
90577,CZ,52,Lahovicky,
90578,CZ,88,Prestavlky,
90579,CZ,70,Dolní Brusnice,
90580,CZ,45,Strihanov,
90581,CZ,80,Odranec,
90582,CZ,80,Dolní Bory,
90583,CZ,45,Cankovice,
90584,CZ,88,Prilep,
90585,CZ,21,Helkovice,
90586,CZ,84,Strupsin,
90587,CZ,89,Stachov,
90588,CZ,86,Brezinka,
90589,CZ,30,Svata Katerina,
90590,CZ,52,Dolni Pocernice,
90591,CZ,86,Dobrá Voda,
90592,CZ,79,Lásenice,
90593,CZ,90,Ludslavice,
90594,CZ,80,Puklice,
90595,CZ,81,Popov,
90596,CZ,79,Cervena,
90597,CZ,70,Vápenka,
90598,CZ,78,Synalov,
90599,CZ,88,Radovic,
90600,CZ,90,Podkopná Lhota,
90601,CZ,45,Klesice,
90602,CZ,30,Dolni Bucice,
90603,CZ,84,Parsovice,
90604,CZ,83,Zahrádky,
90605,CZ,78,Lazanky,
90606,CZ,88,Naceradec,
90607,CZ,79,Sindlovy Dvory,
90608,CZ,36,Chroustov,
90609,CZ,88,Hradecno,
90610,CZ,78,Vedrovice,
90611,CZ,90,Blatnicka,
90612,CZ,84,Kyselovice,
90613,CZ,70,Benecko,
90614,CZ,30,Radvanice,
90615,CZ,80,Dedova,
90616,CZ,90,Velké Karlovice,
90617,CZ,23,Jerice,
90618,CZ,84,Libavá,
90619,CZ,87,Milec,
90620,CZ,78,Damnice,
90621,CZ,87,Drahkov,
90622,CZ,88,Drazice,
90623,CZ,79,Cehnice,
90624,CZ,88,Písty,
90625,CZ,78,Královo Pole,
90626,CZ,88,Katusice,
90627,CZ,86,Horni Cermna,
90628,CZ,90,Kostelany,
90629,CZ,88,Petihosty,
90630,CZ,78,Deven,
90631,CZ,45,Veliny,
90632,CZ,85,Pist,
90633,CZ,52,Dobric,
90634,CZ,80,Stonarov,
90635,CZ,80,Urbanov,
90636,CZ,84,Bystrovany,
90637,CZ,84,Schlock,
90638,CZ,80,Nepomuky,
90639,CZ,87,Písek,
90640,CZ,89,Lipá,
90641,CZ,30,Launiowitz,
90642,CZ,36,Sekerice,
90643,CZ,88,Vrbice,
90644,CZ,80,Uncin,
90645,CZ,86,Brtovi,
90646,CZ,86,Nedvezi,
90647,CZ,80,Rikonin,
90648,CZ,79,Ovcin,
90649,CZ,81,Girschen,
90650,CZ,83,Hermanky,
90651,CZ,88,Karlova Ves,
90652,CZ,41,Studce,
90653,CZ,86,Ridky,
90654,CZ,84,Blazov,
90655,CZ,87,Ctibor,
90656,CZ,85,Hlinka,
90657,CZ,87,Klicov,
90658,CZ,88,Houska,
90659,CZ,87,Teskov,
90660,CZ,78,Ctidruzice,
90661,CZ,80,Lesonice,
90662,CZ,78,Kucharovice,
90663,CZ,85,Stanislavice,
90664,CZ,88,Hate,
90665,CZ,78,Tvarozna Lhota,
90666,CZ,85,Býkov,
90667,CZ,88,Slap,
90668,CZ,88,Hvozdec,
90669,CZ,52,Kostelec U Krizku,
90670,CZ,78,Kelcany,
90671,CZ,89,Telnice,
90672,CZ,87,Tymákov,
90673,CZ,79,Chysky,
90674,CZ,70,Hodkovice,
90675,CZ,78,Mladkov,
90676,CZ,89,Malecov,
90677,CZ,41,Vlkava,
90678,CZ,85,Stablovice,
90679,CZ,87,Nové Mitrovice,
90680,CZ,45,Stéblová,
90681,CZ,79,Clunek,
90682,CZ,70,Horní Brusnice,
90683,CZ,86,Nýrov,
90684,CZ,78,Senorady,
90685,CZ,80,Caslavice,
90686,CZ,61,Studenany,
90687,CZ,80,Cechocovice,
90688,CZ,88,Vysoka Liben,
90689,CZ,84,Vlaice,
90690,CZ,84,Cerna Voda,
90691,CZ,90,Lopeník,
90692,CZ,80,Slavíkov,
90693,CZ,39,Brzice,
90694,CZ,78,Herspice,
90695,CZ,45,Zámrsk,
90696,CZ,78,Skoronice,
90697,CZ,90,Vésky,
90698,CZ,89,Milbohov,
90699,CZ,81,Kamenná Hora,
90700,CZ,80,Cibotín,
90701,CZ,80,Brodce,
90702,CZ,80,Cejkov,
90703,CZ,80,Marsov,
90704,CZ,79,Blanicka,
90705,CZ,88,Velká Lhota,
90706,CZ,89,Slabisch,
90707,CZ,30,Babicky,
90708,CZ,41,Novy Dvur,
90709,CZ,52,Tocna,
90710,CZ,81,Gässing,
90711,CZ,45,Rohoznice,
90712,CZ,80,Loucky,
90713,CZ,84,Liebesdorf,
90714,CZ,45,Tisovec,
90715,CZ,52,Lahovice,
90716,CZ,37,Vysker,
90717,CZ,88,Sojovice,
90718,CZ,82,Hroska,
90719,CZ,88,Bratkovice,
90720,CZ,80,Telecí,
90721,CZ,70,Strazne,
90722,CZ,81,Zavisin,
90723,CZ,70,Prosecne,
90724,CZ,81,Bernklau,
90725,CZ,88,Velké Zamachy,
90726,CZ,80,Nový Hubenov,
90727,CZ,79,Malý Bor,
90728,CZ,88,Písková Lhota,
90729,CZ,89,Schima,
90730,CZ,80,Borowa,
90731,CZ,79,Val,
90732,CZ,79,Klecaty,
90733,CZ,84,Hartinkau,
90734,CZ,89,Launken,
90735,CZ,86,Mendryka,
90736,CZ,89,Stary Sachov,
90737,CZ,81,Treben,
90738,CZ,78,Zerutky,
90739,CZ,52,Sobín,
90740,CZ,45,Hroubovice,
90741,CZ,80,Malá Losenice,
90742,CZ,79,Popelín,
90743,CZ,88,Smilkov,
90744,CZ,78,Prisnotice,
90745,CZ,30,Kozovazy,
90746,CZ,90,Karolín,
90747,CZ,85,Hlavnice,
90748,CZ,90,Hrobice,
90749,CZ,41,Jizbice,
90750,CZ,80,Vrist,
90751,CZ,30,Hradcany,
90752,CZ,78,Brod Nad Dyjí,
90753,CZ,87,Luby,
90754,CZ,86,Tremosna,
90755,CZ,85,Choryne,
90756,CZ,90,Pozdechov,
90757,CZ,78,Jevisovka,
90758,CZ,30,Skvrnov,
90759,CZ,45,Litosice,
90760,CZ,78,Pulkov,
90761,CZ,23,Dobes,
90762,CZ,79,Obst,
90763,CZ,81,Zelená,
90764,CZ,80,Litohor,
90765,CZ,85,Suché Lazce,
90766,CZ,45,Choltice,
90767,CZ,88,Tochovice,
90768,CZ,80,Rokytnice Nad Rokytnou,
90769,CZ,30,Kojice,
90770,CZ,80,Jizbice,
90771,CZ,85,Liebenthal,
90772,CZ,85,Hory,
90773,CZ,78,Nemojany,
90774,CZ,20,Sadová,
90775,CZ,78,Sobulky,
90776,CZ,30,Koblasko,
90777,CZ,88,Kresetice,
90778,CZ,45,Vcelakov,
90779,CZ,82,Castolovice,
90780,CZ,78,Safov,
90781,CZ,80,Budiskovice,
90782,CZ,45,Malé Výkleky,
90783,CZ,84,Mastník,
90784,CZ,41,Dvur Karlov,
90785,CZ,88,Hermanov,
90786,CZ,30,Malá Skalice,
90787,CZ,41,Prodasice,
90788,CZ,86,Dolni Hermanice,
90789,CZ,80,Zalíbené,
90790,CZ,82,Kuncina Ves,
90791,CZ,89,Voderady,
90792,CZ,78,Zbraslavec,
90793,CZ,78,Rouchovany,
90794,CZ,79,Strizovice,
90795,CZ,79,Steken,
90796,CZ,79,Lodherov,
90797,CZ,79,Zimutice,
90798,CZ,84,Kozov,
90799,CZ,88,Zebice,
90800,CZ,85,Steborice,
90801,CZ,80,Ceske Krizanek,
90802,CZ,88,Dlouhá Lhota,
90803,CZ,79,Hartmanice,
90804,CZ,84,Gross-waltersdorf,
90805,CZ,30,Bosice,
90806,CZ,80,Cetoraz,
90807,CZ,88,Vsedobrovice,
90808,CZ,79,Kváskovice,
90809,CZ,78,Klentnice,
90810,CZ,88,Jírovice,
90811,CZ,84,Lobodice,
90812,CZ,80,Cejle,
90813,CZ,84,Jesov,
90814,CZ,80,Javorek,
90815,CZ,88,Krupná,
90816,CZ,79,Schewetin,
90817,CZ,82,Kamenec,
90818,CZ,30,Hriby,
90819,CZ,86,Bestovice,
90820,CZ,78,Postorna,
90821,CZ,41,Lovcice,
90822,CZ,78,Kaly,
90823,CZ,82,Bezdekov Nad Metuji,
90824,CZ,85,Strahovice,
90825,CZ,87,Strizovice,
90826,CZ,80,Rezencice,
90827,CZ,80,Vepri,
90828,CZ,88,Kanina,
90829,CZ,86,Bítovánky,
90830,CZ,30,Dedice,
90831,CZ,45,Libecina,
90832,CZ,85,Vysni Lhoty,
90833,CZ,82,Úlibice,
90834,CZ,87,Letovy,
90835,CZ,70,Mostek,
90836,CZ,79,Pribraz,
90837,CZ,88,Krusiny,
90838,CZ,87,Mostiste,
90839,CZ,80,Kuklík,
90840,CZ,88,Obory,
90841,CZ,23,Vlhost,
90842,CZ,86,Strenice,
90843,CZ,80,Staré Ransko,
90844,CZ,88,Chotilsko,
90845,CZ,88,Dobrovíz,
90846,CZ,88,Trebusice,
90847,CZ,70,Chotevice,
90848,CZ,78,Pravlov,
90849,CZ,89,Klapý,
90850,CZ,30,Tatce,
90851,CZ,80,Odunec,
90852,CZ,89,Hradiste,
90853,CZ,84,Sklená Hut',
90854,CZ,89,Otvice,
90855,CZ,30,Stankovice,
90856,CZ,88,Zabori,
90857,CZ,39,Neznasov,
90858,CZ,78,Borac,
90859,CZ,52,Lochkov,
90860,CZ,87,Olesna,
90861,CZ,89,Sirejovice,
90862,CZ,30,Sokolec,
90863,CZ,87,Ceminy,
90864,CZ,79,Temesvar,
90865,CZ,41,Trní,
90866,CZ,88,Vizina,
90867,CZ,88,Loucká,
90868,CZ,88,Roztez,
90869,CZ,81,Drevohryzy,
90870,CZ,37,Dobsice,
90871,CZ,90,Ruzdka,
90872,CZ,78,Hýsly,
90873,CZ,79,Zverotice,
90874,CZ,79,Novosedly,
90875,CZ,88,Kluky,
90876,CZ,80,Rimov,
90877,CZ,80,Hodov,
90878,CZ,30,Hryzely,
90879,CZ,83,Hermanice,
90880,CZ,41,Sovenice,
90881,CZ,87,Habr,
90882,CZ,89,Sedcice,
90883,CZ,84,Stetovice,
90884,CZ,88,Krusna Hora,
90885,CZ,88,Velis,
90886,CZ,88,Jenisovice,
90887,CZ,89,Vinarice,
90888,CZ,89,Mladé,
90889,CZ,81,Briza,
90890,CZ,30,Zbysov,
90891,CZ,87,Trstenice,
90892,CZ,78,Pasohlávky,
90893,CZ,85,Grafendorf,
90894,CZ,85,Hausdorf,
90895,CZ,79,Borecnice,
90896,CZ,79,Popovec,
90897,CZ,45,Chuderice,
90898,CZ,83,Benesov U Semil,
90899,CZ,81,Vrbice,
90900,CZ,79,Bílovice,
90901,CZ,81,Stedra,
90902,CZ,89,Mastov,
90903,CZ,80,Mysliborice,
90904,CZ,88,Zelizy,
90905,CZ,20,Bristany,
90906,CZ,78,Pavlovice,
90907,CZ,45,Kolesa,
90908,CZ,78,Radslavicky,
90909,CZ,88,Dvur Zebice,
90910,CZ,84,Thein,
90911,CZ,45,Pokrikov,
90912,CZ,79,Chanovice,
90913,CZ,88,Turice,
90914,CZ,87,Lovcice,
90915,CZ,52,Dehtáry,
90916,CZ,88,Svermov,
90917,CZ,81,Valec,
90918,CZ,85,Muglinov,
90919,CZ,45,Bohdanec,
90920,CZ,83,Jezvé,
90921,CZ,81,Cista,
90922,CZ,87,Tupadly,
90923,CZ,33,Sovenice,
90924,CZ,89,Netluk,
90925,CZ,88,Horní Harbasko,
90926,CZ,84,Laznicky,
90927,CZ,88,Horní Slivno,
90928,CZ,33,Kracmanov,
90929,CZ,80,Sedlejov,
90930,CZ,89,Poplze,
90931,CZ,87,Medový Újezd,
90932,CZ,79,Pojbuky,
90933,CZ,88,Chotetice,
90934,CZ,90,Mikuluvka,
90935,CZ,78,Chlupice,
90936,CZ,79,Rozmberk Nad Vltavou,
90937,CZ,88,Pavlíkov,
90938,CZ,86,Mladkov,
90939,CZ,33,Prosicka,
90940,CZ,88,Kotencice,
90941,CZ,85,Jarkovice,
90942,CZ,85,Dibalka,
90943,CZ,81,Straz,
90944,CZ,82,Svobodné Dvory,
90945,CZ,88,Amschelberg,
90946,CZ,30,Dalkovice,
90947,CZ,82,Slatina Nad Zdobnicí,
90948,CZ,81,Sovolusky,
90949,CZ,88,Horní Podkozí,
90950,CZ,20,Doubravany,
90951,CZ,52,Lhota,
90952,CZ,84,Novy Dvur,
90953,CZ,78,Baldovec,
90954,CZ,84,Dremovice,
90955,CZ,30,Pristoupim,
90956,CZ,79,Zihobce,
90957,CZ,84,Polkovice,
90958,CZ,78,Vysoké Popovice,
90959,CZ,78,Plenkovice,
90960,CZ,78,Malesovice,
90961,CZ,84,Vresovice,
90962,CZ,23,Jicineves,
90963,CZ,88,Jevineves,
90964,CZ,87,Wierau,
90965,CZ,83,Straussnitz,
90966,CZ,88,Jelence,
90967,CZ,85,Teskovice,
90968,CZ,84,Pisarov,
90969,CZ,84,Velke Kunetice,
90970,CZ,82,Kramolna,
90971,CZ,88,Plchov,
90972,CZ,84,Hermanovice,
90973,CZ,88,Masecin,
90974,CZ,79,Skvoretice,
90975,CZ,84,Eulenberg,
90976,CZ,88,Libowis,
90977,CZ,86,Dolní Lhota,
90978,CZ,90,Vicanov,
90979,CZ,80,Pobistrýce,
90980,CZ,24,Lanzov,
90981,CZ,87,Besiny,
90982,CZ,81,Útvina,
90983,CZ,79,Strelske Hostice,
90984,CZ,88,Rpety,
90985,CZ,84,Nedvezi,
90986,CZ,89,Srbec,
90987,CZ,80,Nový Rychnov,
90988,CZ,86,Rabstejnska Lhota,
90989,CZ,90,Zalkovice,
90990,CZ,82,Tur,
90991,CZ,87,Cerveny Hradek,
90992,CZ,80,Jenisovice,
90993,CZ,88,Maly Zivonin,
90994,CZ,88,Dolní Láz,
90995,CZ,79,Moravec,
90996,CZ,86,Rviste,
90997,CZ,90,Kosovy,
90998,CZ,81,Leopoldov,
90999,CZ,78,Novy Prerov,
91000,CZ,87,Dolní Lukavice,
91001,CZ,41,Zbozicko,
91002,CZ,52,Strizkov,
91003,CZ,78,Lukovany,
91004,CZ,78,Svabenice,
91005,CZ,30,Kozohlody,
91006,CZ,86,Topol,
91007,CZ,39,Rychnovek,
91008,CZ,88,Jemníky,
91009,CZ,30,Klipec,
91010,CZ,52,Pitkovice,
91011,CZ,88,Kochánky,
91012,CZ,88,Smolotely,
91013,CZ,88,Libkovice Pod Ripem,
91014,CZ,84,Habartice,
91015,CZ,52,Slustice,
91016,CZ,90,Nedasova Lhota,
91017,CZ,89,Rochov,
91018,CZ,88,Blatce,
91019,CZ,85,Dolní Lomná,
91020,CZ,80,Rudikau,
91021,CZ,84,Velka Kras,
91022,CZ,88,Libochovicky,
91023,CZ,88,Hlasna Treban,
91024,CZ,45,Otradov,
91025,CZ,80,Dolni Rozinka,
91026,CZ,86,Sudislav Nad Orlicí,
91027,CZ,87,Trebcice,
91028,CZ,30,Horní Kruty,
91029,CZ,80,Polnicka,
91030,CZ,52,Rozkos,
91031,CZ,80,Trebelovice,
91032,CZ,79,Lcovice,
91033,CZ,88,Skury,
91034,CZ,90,Jarohnevice,
91035,CZ,85,Bravantice,
91036,CZ,80,Kejzlice,
91037,CZ,87,Skocice,
91038,CZ,85,Blahutovice,
91039,CZ,88,Stasov,
91040,CZ,87,Roupov,
91041,CZ,80,Veznice,
91042,CZ,80,Temice,
91043,CZ,87,Teresov,
91044,CZ,87,Vlcice,
91045,CZ,45,Pravy,
91046,CZ,37,Libosovice,
91047,CZ,86,Orlicky,
91048,CZ,88,Vojkov,
91049,CZ,78,Otinoves,
91050,CZ,88,Zidneves,
91051,CZ,85,Milotice Nad Becvou,
91052,CZ,45,Vrbatuv Kostelec,
91053,CZ,85,Hostasovice,
91054,CZ,70,Dolni Dvur,
91055,CZ,90,Strabenice,
91056,CZ,78,Neu-prerau,
91057,CZ,33,Gorsbach,
91058,CZ,86,Brlenka,
91059,CZ,84,Lastany,
91060,CZ,81,Chlum Svate Mari,
91061,CZ,78,Vranovská Ves,
91062,CZ,78,Zeletice,
91063,CZ,70,Dolni Olesnice,
91064,CZ,78,Dolenice,
91065,CZ,52,Chotec,
91066,CZ,86,Chrastavec,
91067,CZ,90,Drinov,
91068,CZ,82,Tutleky,
91069,CZ,89,Bolebor,
91070,CZ,85,Horní Domaslavice,
91071,CZ,88,Stratov,
91072,CZ,90,Kurovice,
91073,CZ,87,Dnesice,
91074,CZ,89,Sabenice,
91075,CZ,80,Kotlasy,
91076,CZ,89,Trebusin,
91077,CZ,84,Svojanov,
91078,CZ,89,Chozov,
91079,CZ,78,Lhota U Lysic,
91080,CZ,30,Vrbcany,
91081,CZ,30,Veltruby,
91082,CZ,80,Vortová,
91083,CZ,80,Osová,
91084,CZ,90,Knezpole,
91085,CZ,89,Tlucen,
91086,CZ,20,Puchlovice,
91087,CZ,79,Strmilov,
91088,CZ,85,Stritez Nad Ludinou,
91089,CZ,88,Kozárovice,
91090,CZ,88,Týnec,
91091,CZ,84,Dobrcice,
91092,CZ,45,Slepotice,
91093,CZ,86,Stolany,
91094,CZ,88,Psovlky,
91095,CZ,78,Muschau,
91096,CZ,33,Christiansthal,
91097,CZ,81,Andelska Hora,
91098,CZ,88,Sedlec,
91099,CZ,30,Sirákovice,
91100,CZ,84,Klokoci,
91101,CZ,80,Vanuvek,
91102,CZ,87,Tisová,
91103,CZ,84,Hartmanice,
91104,CZ,21,Bratrouchov,
91105,CZ,89,Klenec,
91106,CZ,39,Nový Ples,
91107,CZ,83,Novy Oldrichov,
91108,CZ,84,Krcman,
91109,CZ,88,Strasnov,
91110,CZ,80,Víska,
91111,CZ,87,Kbel,
91112,CZ,81,Karlsbad,
91113,CZ,87,Klattau,
91114,CZ,79,Budweis,
91115,CZ,87,Tremesne,
91116,CZ,90,Návojná,
91117,CZ,89,Velké Chvojno,
91118,CZ,84,Starechovice,
91119,CZ,84,Lovesice,
91120,CZ,61,Ktová,
91121,CZ,20,Výrava,
91122,CZ,87,Johannesdorf,
91123,CZ,82,Vitineves,
91124,CZ,87,Stupno,
91125,CZ,79,Dubí Hora,
91126,CZ,80,Skrdlovice,
91127,CZ,86,Cenkovice,
91128,CZ,78,Dolni Dubnany,
91129,CZ,52,Zlonín,
91130,CZ,84,Laskov,
91131,CZ,45,Plch,
91132,CZ,85,Sosnová,
91133,CZ,80,Netín,
91134,CZ,89,Prackovice,
91135,CZ,80,Pustá Kamenice,
91136,CZ,78,Vícemilice,
91137,CZ,30,Libodrice,
91138,CZ,81,Chyse,
91139,CZ,36,Záhornice,
91140,CZ,90,Vysoké Pole,
91141,CZ,84,Zabestni Lhota,
91142,CZ,80,Pocitky,
91143,CZ,87,Zivotice,
91144,CZ,78,Vila,
91145,CZ,78,Zatcany,
91146,CZ,85,Kladeruby,
91147,CZ,80,Horní Holetín,
91148,CZ,89,Sebusein,
91149,CZ,41,Bílé Vchynice,
91150,CZ,70,Hostinne,
91151,CZ,89,Usti,
91152,CZ,90,Zlin,
91153,CZ,88,Rudna,
91154,CZ,85,Frydek-mistek,
91155,CZ,88,Kolin,
91156,CZ,85,Bohumin,
91157,CZ,79,Pisek,
91158,CZ,90,Uhersky Brod,
91159,CZ,85,Karvina,
91160,CZ,70,Vrchlabi,
91161,CZ,86,Jablonne Nad Orlici,
91162,CZ,78,Hodonin,
91163,CZ,82,Hradec Kralove,
91164,CZ,88,Mlada Boleslav,
91165,CZ,79,Protivin,
91166,CZ,88,Kutna Hora,
91167,CZ,79,Tabor,
91168,CZ,82,Kostelec Nad Orlici,
91169,CZ,52,Brandys Nad Labem,
91170,CZ,30,Sazava,
91171,CZ,87,Hradek,
91172,CZ,82,Nachod,
91173,CZ,84,Uhelna,
91174,CZ,52,Branik,
91175,CZ,85,Bruntal,
91176,CZ,90,Veseli Nad Moravou,
91177,CZ,84,Jesenik,
91178,CZ,89,Terezin,
91179,CZ,90,Vsetin,
91180,CZ,81,Mokra,
91181,CZ,78,Hosting,
91182,CZ,87,Plana,
91183,CZ,84,Lutin,
91184,CZ,90,Vapenice,
91185,CZ,85,Velke Heraltice,
91186,CZ,87,Nyrsko,
91187,CZ,52,Smichov,
91188,CZ,85,Velky,
91189,CZ,88,Rakovnik,
91190,CZ,85,Orlova,
91191,CZ,87,Tynec,
91192,CZ,33,Frydlant,
91193,CZ,85,Vavrovice,
91194,CZ,85,Frydek,
91195,CZ,88,Slany,
91196,CZ,84,Veseli,
91197,CZ,21,Desna,
91198,CZ,84,Zalesi,
91199,CZ,85,Horni Sucha,
91200,CZ,78,Pistovice,
91201,CZ,88,Rousinov,
91202,CZ,80,Polna,
91203,CZ,79,Blatna,
91204,CZ,52,Karlin,
91205,CZ,52,Mala Strana,
91206,CZ,52,Ujezd Nad Lesy,
91207,CZ,52,Horni Roztyly,
91208,CZ,52,Dolni Chabry,
91209,CZ,79,Hluboka Nad Vltavou,
91210,CZ,79,Studena,
91211,CZ,70,Dolni Branna,
91212,CZ,85,Kunin,
91213,CZ,85,Bilovec,
91214,CZ,84,Zlate Hory,
91215,CZ,81,Libavske Udoli,
91216,CZ,84,Vilemov,
91217,CZ,89,Litvinov,
91218,CZ,21,Velke Hamry,
91219,CZ,82,Stolin,
91220,CZ,70,Dolni Kalna,
91221,CZ,84,Podoli,
91222,CZ,88,Lany,
91223,CZ,80,Male,
91224,CZ,52,Stara Boleslav,
91225,CZ,80,Kratka,
91226,CZ,85,Stare Hamry,
91227,CZ,79,Temelin,
91228,CZ,85,Chuchelna,
91229,CZ,84,Vapenna,
91230,CZ,78,Hevlin,
91231,CZ,89,Bilina,
91232,CZ,33,Mala Skala,
91233,CZ,23,Nova Paka,
91234,CZ,88,Lysa Nad Labem,
91235,CZ,84,Ujezd,
91236,CZ,88,Kamyk Nad Vltavou,
91237,CZ,78,Moravsky Krumlov,
91238,CZ,81,Nove Sedlo,
91239,CZ,81,Dolni Rychnov,
91240,CZ,87,Pomezi,
91241,CZ,84,Stara Ves,
91242,CZ,84,Viska,
91243,CZ,84,Vranova Lhota,
91244,CZ,85,Dobra,
91245,CZ,90,Uhersky Ostroh,
91246,CZ,86,Velke Opatovice,
91247,CZ,84,Bilovice,
91248,CZ,87,Otin,
91249,CZ,52,Klanovice,
91250,CZ,41,Benatky Nad Jizerou,
91251,CZ,81,Skalna,
91252,CZ,83,Novy Bor,
91253,CZ,52,Veleslavin,
91254,CZ,81,Rovna,
91255,CZ,81,Jachymov,
91256,CZ,87,Stary Plzenec,
91257,CZ,84,Lipova,
91258,CZ,81,Horni Ves,
91259,CZ,86,Brandys Nad Orlici,
91260,CZ,83,Duba,
91261,CZ,81,Vitkovice,
91262,CZ,83,Slana,
91263,CZ,84,Kamenna,
91264,CZ,88,Drasov,
91265,CZ,84,Radotin,
91266,CZ,88,Poddubi,
91267,CZ,79,Tyn Nad Vltavou,
91268,CZ,85,Vitkov,
91269,CZ,52,Velka Chuchle,
91270,CZ,84,Usobrno,
91271,CZ,86,Krasikov,
91272,CZ,84,Vysoka,
91273,CZ,83,Mlyny,
91274,CZ,30,Sadska,
91275,CZ,90,Hulin,
91276,CZ,84,Svesedlice,
91277,CZ,87,Zachlumi,
91278,CZ,78,Podivin,
91279,CZ,78,Ivanovice Na Hane,
91280,CZ,78,Suchy,
91281,CZ,52,Psary,
91282,CZ,81,Hajek,
91283,CZ,52,Libeznice,
91284,CZ,52,Trnova,
91285,CZ,85,Studenka,
91286,CZ,87,Novy,
91287,CZ,80,Hartvikovice,
91288,CZ,79,Dolni Bukovsko,
91289,CZ,80,Bilek,
91290,CZ,78,Svitavka,
91291,CZ,79,Rzava,
91292,CZ,84,Hrabova,
91293,CZ,30,Vlkova,
91294,CZ,84,Lipnik,
91295,CZ,45,Rybitvi,
91296,CZ,84,Chvalkovice,
91297,CZ,82,Police Nad Metuji,
91298,CZ,90,Nova Lhota,
91299,CZ,79,Lacina,
91300,CZ,79,Litvinovice,
91301,CZ,84,Velky Tynec,
91302,CZ,52,Svemyslice,
91303,CZ,89,Neudorfl,
91304,CZ,88,Tynec Nad Sazavou,
91305,CZ,86,Hana,
91306,CZ,86,Hnatnice,
91307,CZ,81,Liskova,
91308,CZ,81,Zlata,
91309,CZ,85,Haj Ve Slezsku,
91310,CZ,87,Mysliv,
91311,CZ,88,Dolni Cetno,
91312,CZ,84,Naklo,
91313,CZ,86,Orlik,
91314,CZ,85,Karlova Studanka,
91315,CZ,70,Svoboda Nad Upou,
91316,CZ,85,Stranik,
91317,CZ,87,Vesela,
91318,CZ,30,Rataje Nad Sazavou,
91319,CZ,88,Komarov,
91320,CZ,82,Upice,
91321,CZ,79,Trhove Sviny,
91322,CZ,88,Krupa,
91323,CZ,90,Modra,
91324,CZ,70,Mlade Buky,
91325,CZ,78,Doubravnik,
91326,CZ,79,Zajic,
91327,CZ,80,Rudikov,
91328,CZ,90,Kojetin,
91329,CZ,85,Navsi,
91330,CZ,89,Prohl,
91331,CZ,81,Vysoke,
91332,CZ,78,Moravska Nova Ves,
91333,CZ,84,Bukova,
91334,CZ,21,Vysoke Nad Jizerou,
91335,CZ,85,Mistek,
91336,CZ,83,Vesely,
91337,CZ,52,Pankrac,
91338,CZ,45,Holin,
91339,CZ,30,Vranik,
91340,CZ,21,Jesenny,
91341,CZ,89,Janska,
91342,CZ,70,Starkov,
91343,CZ,84,Kralice Na Hane,
91344,CZ,81,Chotikov,
91345,CZ,88,Lysa,
91346,CZ,85,Dolni Bludovice,
91347,CZ,85,Ticha,
91348,CZ,79,Kajov,
91349,CZ,89,Stare,
91350,CZ,90,Topolna,
91351,CZ,84,Podlesi,
91352,CZ,84,Frankova,
91353,CZ,87,Chrast,
91354,CZ,81,Rybna,
91355,CZ,70,Horni Branna,
91356,CZ,70,Ponikla,
91357,CZ,80,Dolni Vilemovice,
91358,CZ,89,Patek,
91359,CZ,78,Zastavka,
91360,CZ,82,Baby,
91361,CZ,89,Jilove,
91362,CZ,81,Nova Role,
91363,CZ,86,Damnikov,
91364,CZ,78,Krasensko,
91365,CZ,52,Vrane Nad Vltavou,
91366,CZ,79,Waldhauser,
91367,CZ,87,Opalka,
91368,CZ,81,Marianska,
91369,CZ,84,Filipova,
91370,CZ,84,Kralova,
91371,CZ,85,Horni Bludovice,
91372,CZ,81,Sucha,
91373,CZ,87,Horni Lhota,
91374,CZ,90,Domanin,
91375,CZ,70,Pilnikov,
91376,CZ,78,Dolni Bojanovice,
91377,CZ,78,Novy Poddvorov,
91378,CZ,78,Dubrava,
91379,CZ,90,Zahorovice,
91380,CZ,83,Okrouhla,
91381,CZ,81,Plesna,
91382,CZ,82,Mnichova,
91383,CZ,90,Korytna,
91384,CZ,90,Machova,
91385,CZ,84,Krasne,
91386,CZ,70,Vapenka,
91387,CZ,81,Zelena,
91388,CZ,87,Janovice Nad Uhlavou,
91389,CZ,89,Mlade,
91390,CZ,89,Brna,
91391,CZ,85,Uvalno,
91392,CZ,85,Haatsch,
91393,CZ,78,Letovice,
91394,CZ,88,Horni Mecholupy,
91395,CZ,85,Mahrisch-ostrau,
91396,CZ,88,Velke Popovice,
91397,CZ,85,Sosnova,
91398,CZ,81,Kadan,
91399,CZ,83,Vselibice,
91400,CZ,81,Golddorf,
91401,CZ,81,Berghauseln,
91402,CZ,82,Pecka,
91403,CZ,86,Usti Nad Orlici,
91404,CZ,86,Lipoltice,
91405,CZ,88,Velke Prilepy,
91406,CZ,88,Zdiby,
91407,CZ,88,Velim,
91408,CZ,88,Hruby Jesenik,
91409,CZ,81,Anenska Ves,
91410,CZ,88,Chodov,
91411,CZ,88,Chodovlice,
91412,CZ,83,Hodkovice Nad Mohelkou,
91413,CZ,83,Provodin,
91414,CZ,83,Smrzovka,
91415,CZ,86,Sezemice,
91416,CZ,86,Chroustovice,
91417,CZ,82,Dobruska,
91418,CZ,83,Nova Paka,
91419,CZ,84,Vrbatky,
91420,CZ,90,Horni Becva,
91421,CZ,90,Podkopna Lhota,
91422,CZ,82,Horice,
91423,CZ,83,Cesky Dub,
91424,CZ,88,Podebrady,
91425,CZ,88,Milovice,
91426,CZ,78,Vnorovy,
91427,CZ,88,Cesky Brod,
91428,CZ,88,Pristoupim,
91429,CZ,88,Kostelec Nad Cernymi Lesy,
91430,CZ,78,Vranov Nad Dyji,
91431,CZ,88,Mesice,
91432,CZ,85,Katerinky,
91433,CZ,86,Hlinsko,
91434,CZ,78,Stary Poddvorov,
91435,CZ,85,Frydlant Nad Ostravici,
91436,CZ,89,Michanice,
91437,CZ,83,Podmoklice,
91438,CZ,90,Roznov,
91439,CZ,90,Prostredni Becva,
91440,CZ,85,Bogumin,
91441,CZ,88,Hostivice,
91442,CZ,88,Vrsovice,
91443,CZ,89,Prosetice,
91444,CZ,88,Skvorec,
91445,CZ,88,Chyne,
91446,CZ,88,Psary,
91447,CZ,84,Hranice,
91448,CZ,85,Podoli,
91449,CZ,88,Ricany,
91450,CZ,82,Novy Bydzov,
91451,CZ,86,Sudislav Nad Orlici,
91452,CZ,86,Kraliky,
91453,CZ,82,Trebechovice Pod Orebem,
91454,CZ,82,Libcany,
91455,CZ,88,Brandys Nad Labem-stara Boleslav,
91456,CZ,88,Velka Viska,
91457,CZ,88,Nucitz,
91458,CZ,88,Poplze,
91459,CZ,78,Uhersky Ostroh,
91460,CZ,87,Rail,
91461,CZ,83,Nackovice,
91462,CZ,86,Lazne Bohdanec,
91463,CZ,84,Bukovany,
91464,CZ,84,Dolni Ujezd,
91465,CZ,78,Blatnice,
91466,CZ,88,Jirina,
91467,CZ,88,Predboj,
91468,CZ,82,Stezery,
91469,CZ,81,Sumburk,
91470,CZ,88,Zatec,
91471,CZ,88,Pakomerice,
91472,CZ,87,Jenikovice,
91473,CZ,85,Petrovice U Karvine,
91474,CZ,82,Svoboda Nad Upou,
91475,CZ,81,Krasno,
91476,CZ,86,Holice,
91477,CZ,88,Oleska,
91478,CZ,85,Leskovec Nad Moravici,
91479,CZ,86,Dasice,
91480,CZ,86,Hermanuv Mestec,
91481,CZ,87,Horazd'ovice,
91482,CZ,82,Spy,
91483,CZ,81,Horni Slavkov,
91484,CZ,81,Krasna,
91485,CZ,83,Radlo,
91486,CZ,88,Velky Osek,
91487,CZ,86,Brozany,
91488,CZ,85,Komorni Lhotka,
91489,CZ,82,Nechanice,
91490,CZ,82,Vysoka Nad Labem,
91491,CZ,86,Srch,
91492,CZ,89,Strimice,
91493,CZ,88,Hyskov,
91494,CZ,88,Jarov,
91495,CZ,84,Prusy,
91496,CZ,84,Hustopece Nad Becvou,
91497,CZ,90,Tylovice,
91498,CZ,87,Kasejovice,
91499,CZ,88,Ujkovice,
91500,CZ,88,Tursko,
91501,CZ,88,Velka Dobra,
91502,CZ,78,Na Hrazi,
91503,CZ,80,Doubravnik,
91504,CZ,88,Sestajovice,
91505,CZ,88,Jenstein,
91506,CZ,90,Strani,
91507,CZ,78,Dolni Kounice,
91508,CZ,88,Chodoun,
91509,CZ,88,Ronov Nad Doubravou,
91510,CZ,88,Dolni Bucice,
91511,CZ,88,Vrdy,
91512,CZ,86,Prelouc,
91513,CZ,88,Mratin,
91514,CZ,87,Kamenny Ujezd,
91515,CZ,87,Vlkys,
91516,CZ,87,Maly Bor,
91517,CZ,78,Bzenec,
91518,CZ,90,Ostrozske Predmesti,
91519,CZ,86,Mrakotin,
91520,CZ,79,Dacice,
91521,CZ,82,Jaromer,
91522,CZ,88,Kralovice,
91523,CZ,82,Smidary,
91524,CZ,82,Ostromer,
91525,CZ,88,Vinor,
91526,CZ,88,Jenstejn,
91527,CZ,88,Mestec Kralove,
91528,CZ,90,Banov,
91529,CZ,78,Hruba Vrbka,
91530,CZ,78,Jezov,
91531,CZ,90,Hvozdna,
91532,CZ,83,Rumburk,
91533,CZ,89,Gesteinigt,
91534,CZ,83,Varnsdorf,
91535,CZ,88,Dolni Brezany,
91536,CZ,88,Letnany,
91537,CZ,88,Kobylisy,
91538,CZ,88,Seberov,
91539,CZ,85,Dolni Lhota,
91540,CZ,83,Frydstejn,
91541,CZ,83,Sedlisko,
91542,CZ,88,Cerhenice,
91543,CZ,88,Prepere,
91544,CZ,88,Lubna,
91545,CZ,81,Klasterec Nad Ohri,
91546,CZ,88,Ohrobec,
91547,CZ,88,Doksany,
91548,CZ,88,Zehusice,
91549,CZ,88,Roudnice,
91550,CZ,88,Klenec,
91551,CZ,88,Rovne,
91552,CZ,78,Blanne,
91553,CZ,79,Jemnice,
91554,CZ,80,Zirovnice,
91555,CZ,78,Horni Kounice,
91556,CZ,78,Vranovska Ves,
91557,CZ,80,Trest',
91558,CZ,78,Unanov,
91559,CZ,85,Hradek,
91560,CZ,88,Uhrineves,
91561,CZ,88,Sasau,
91562,CZ,78,Osvetimany,
91563,CZ,85,Moravska Ostrava,
91564,CZ,88,Odolena Voda,
91565,CZ,88,Brandys Nad Labem,
91566,CZ,80,Velka Losenice,
91567,CZ,82,Mlade Buky,
91568,CZ,82,Smirice,
91569,CZ,83,Turnov,
91570,CZ,84,Sobotin,
91571,CZ,88,Velky Borek,
91572,CZ,88,Kralupy Nad Vltavou,
91573,CZ,78,Veseli Nad Moravou,
91574,CZ,83,Jermanice,
91575,CZ,90,Strbkova,
91576,CZ,90,Zubri,
91577,CZ,85,Nova Ves,
91578,CZ,85,Spalov,
91579,CZ,80,Kamenitz,
91580,CZ,80,Zaseka,
91581,CZ,80,Nadejov,
91582,CZ,88,Trebotov,
91583,CZ,88,Cernosice,
91584,CZ,82,Stara Paka,
91585,CZ,83,Velke Hamry,
91586,CZ,82,Zeleznice,
91587,CZ,83,Horni Branna,
91588,CZ,83,Jilemnice,
91589,CZ,83,Tample,
91590,CZ,83,Paseky Nad Jizerou,
91591,CZ,83,Lomnice Nad Popelkou,
91592,CZ,82,Bedrichov,
91593,CZ,83,Hejnice,
91594,CZ,83,Mala Skala,
91595,CZ,82,Dvur Kralove,
91596,CZ,78,Rousinov,
91597,CZ,88,Hovorcovice,
91598,CZ,88,Celakovice,
91599,CZ,88,Scheliwetz,
91600,CZ,80,Mesto Zd'ar A Zamek Zd'ar,
91601,CZ,84,Velke Losiny,
91602,CZ,89,Krasna Lipa,
91603,CZ,88,Sadska,
91604,CZ,82,Kopidlno,
91605,CZ,88,Loucen,
91606,CZ,80,Nove Veseli,
91607,CZ,88,Podmoran,
91608,CZ,88,Roztoky,
91609,CZ,88,Klecany,
91610,CZ,88,Liben,
91611,CZ,83,Ustek,
91612,CZ,81,Drmoul,
91613,CZ,78,Velke Pavlovice,
91614,CZ,78,Strachotin,
91615,CZ,87,Chodova Plana,
91616,CZ,84,Stritez,
91617,CZ,78,Bilovice Nad Svitavou,
91618,CZ,78,Ladna,
91619,CZ,78,Velke Bilovice,
91620,CZ,88,Brevnov,
91621,CZ,88,Kostelec U Krizku,
91622,CZ,84,Kostelec Na Hane,
91623,CZ,88,Statenice,
91624,CZ,78,Suchov,
91625,CZ,88,Uvaly,
91626,CZ,84,Belotin,
91627,CZ,88,Kostice,
91628,CZ,79,Sezimovo Usti,
91629,CZ,83,Tanvald,
91630,CZ,88,Mnichovo Hradiste,
91631,CZ,88,Benatky Nad Jizerou,
91632,CZ,83,Chocnejovice,
91633,CZ,78,Bedrichovice,
91634,CZ,84,Blumenbach,
91635,CZ,79,Chynov,
91636,CZ,79,Strunkovice Nad Blanici,
91637,CZ,88,Mandersejd Chrast,
91638,CZ,88,Hodkovice,
91639,CZ,88,Brandysek,
91640,CZ,82,Cernozice,
91641,CZ,87,Netunice,
91642,CZ,84,Kojetin,
91643,CZ,82,Vrchlabi,
91644,CZ,88,Horni Kruty,
91645,CZ,88,Vitice,
91646,CZ,82,Ceska Skalice,
91647,CZ,83,Jindrichovice Pod Smrkem,
91648,CZ,78,Visky,
91649,CZ,83,Frydlant,
91650,CZ,88,Mochov,
91651,CZ,86,Blatnikovska Lhotka,
91652,CZ,82,Slatina Nad Zdobnici,
91653,CZ,83,Dolni Podluzi,
91654,CZ,83,Arnsdorf,
91655,CZ,83,Jablonne V Podjestedi,
91656,CZ,83,Chrastava,
91657,CZ,88,Bast',
91658,CZ,88,Kvetnice,
91659,CZ,82,Vrsce,
91660,CZ,88,Dymokury,
91661,CZ,88,Krinec,
91662,CZ,82,Chlumec Nad Cidlinou,
91663,CZ,88,Zahornice,
91664,CZ,83,Rokytnice Nad Jizerou,
91665,CZ,82,Broumov,
91666,CZ,83,Straz Pod Ralskem,
91667,CZ,83,Bratrikov,
91668,CZ,83,Raspenava,
91669,CZ,83,Benesov Nad Ploucnici,
91670,CZ,87,Dolni Stupno,
91671,CZ,83,Bedrichov,
91672,CZ,83,Vysker,
91673,CZ,83,Novina,
91674,CZ,88,Postoloprty,
91675,CZ,87,Svetec,
91676,CZ,87,Merklin,
91677,CZ,90,Ujezd,
91678,CZ,78,Ujezd,
91679,CZ,85,Stary Dvur,
91680,CZ,78,Kretin,
91681,CZ,82,Lany,
91682,CZ,82,Lhota Pod Libcany,
91683,CZ,86,Telcice,
91684,CZ,88,Kosor,
91685,CZ,83,Zelezny Brod,
91686,CZ,83,Nove Mesto Pod Smrkem,
91687,CZ,80,Nova Cerekev,
91688,CZ,79,Gatterschlag,
91689,CZ,88,Zernovka,
91690,CZ,83,Albrechtice,
91691,CZ,83,Hoheneck,
91692,CZ,87,Alt Possigkau,
91693,CZ,88,Tetin,
91694,CZ,83,Jirikov,
91695,CZ,86,Cervena Voda,
91696,CZ,88,Bschesowa,
91697,CZ,88,Vysoka Pec,
91698,CZ,88,Zamecek,
91699,CZ,82,Borohradek,
91700,CZ,79,Dubenec,
91701,CZ,79,Horni Plana,
91702,CZ,80,Namest' Nad Oslavou,
91703,CZ,80,Jamy,
91704,CZ,86,Vysoke Myto,
91705,CZ,78,Borova,
91706,CZ,86,Luze,
91707,CZ,86,Jaroslav,
91708,CZ,79,Vitineves,
91709,CZ,82,Tyniste Nad Orlici,
91710,CZ,86,Vysoke Chvojno,
91711,CZ,88,Hostovnice,
91712,CZ,88,Jirny,
91713,CZ,88,Cechtice,
91714,CZ,88,Tousen,
91715,CZ,87,Planice,
91716,CZ,88,Horomerice,
91717,CZ,79,Dubi Hora,
91718,CZ,78,Nova Lhota,
91719,CZ,78,Velka Nad Velickou,
91720,CZ,83,Struzinec,
91721,CZ,83,Hradek Nad Nisou,
91722,CZ,85,Prelac,
91723,CZ,85,Bobrovniky,
91724,CZ,85,Stikovec,
91725,CZ,88,Stranka,
91726,CZ,88,Zvole,
91727,CZ,88,Libochovice,
91728,CZ,88,Jilove U Prahy,
91729,CZ,88,Stara Boleslav,
91730,CZ,86,Dolni Ujezd,
91731,CZ,88,Tehau,
91732,CZ,88,Mukarov,
91733,CZ,82,Chotevice,
91734,CZ,88,Vrane Nad Vltavou,
91735,CZ,89,Kuclin,
91736,CZ,88,Romanov,
91737,CZ,83,Ebersdorf,
91738,CZ,88,Dolni Jircany,
91739,CZ,88,Satalice,
91740,CZ,86,Svratouch,
91741,CZ,81,Podborany,
91742,CZ,83,Jachymov,
91743,CZ,88,Martineves,
91744,CZ,88,Jezovice,
91745,CZ,82,Spindleruv Mlyn,
91746,CZ,86,Bojanov,
91747,CZ,88,Zruc Nad Sazavou,
91748,CZ,81,Trstenice,
91749,CZ,78,Horakov,
91750,CZ,90,Navojna,
91751,CZ,88,Zelenec,
91752,CZ,88,Zlatniky,
91753,CZ,82,Chuderice,
91754,CZ,82,Rokytnice V Orlickych Horach,
91755,CZ,88,Basty,
91756,CZ,88,Pruhonice,
91757,CZ,88,Kozomin,
91758,CZ,88,Stribrna Skalice,
91759,CZ,87,Stahlau,
91760,CZ,88,Tehovec,
91761,CZ,82,Kasalice,
91762,CZ,86,Bystre,
91763,CZ,81,Utvina,
91764,CZ,81,Ullersloh,
91765,CZ,84,Cernotin,
91766,CZ,84,Rajec,
91767,CZ,90,Lesna,
91768,CZ,90,Bad Luhatschowitz,
91769,CZ,90,Zasova,
91770,CZ,88,Pavlikov,
91771,CZ,87,Tymakov,
91772,CZ,82,Pec Pod Snezkou,
91773,CZ,88,Cirkvice,
91774,CZ,88,Klanovice,
91775,CZ,88,Sibrina,
91776,CZ,88,Bechovice,
91777,CZ,88,Cestlice,
91778,CZ,79,Halamky,
91779,CZ,84,Stritez Nad Ludinou,
91780,CZ,82,Stankov,
91781,CZ,88,Poucnik,
91782,CZ,84,Rapotin,
91783,CZ,82,Novy Ples,
91784,CZ,88,Vyzlovka,
91785,CZ,83,Plavy,
91786,CZ,83,Schelten,
91787,CZ,88,Novy Knin,
91788,CZ,88,Tesnov,
91789,CZ,80,Dobronin,
91790,CZ,88,Trebivlice,
91791,CZ,84,Chropyne,
91792,CZ,78,Vojkovice,
91793,CZ,84,Vaclavov,
91794,CZ,79,Jarosov Nad Nezarkou,
91795,CZ,88,Certousy,
91796,CZ,86,Lubna,
91797,CZ,86,Hroubovice,
91798,CZ,86,Svratka,
91799,CZ,86,Lamberk,
91800,CZ,86,Pusta Kamenice,
91801,CZ,86,Skutec,
91802,CZ,86,Vcelakov,
91803,CZ,82,Zd'ar Nad Orlici,
91804,CZ,83,Zahradky,
91805,CZ,83,Sluknov,
91806,CZ,86,Opocno,
91807,CZ,82,Praskacka,
91808,CZ,82,Zeli,
91809,CZ,82,Nedeliste,
91810,CZ,90,Kladeruby,
91811,CZ,90,Perna,
91812,CZ,84,Cermna,
91813,CZ,88,Wodochod,
91814,CZ,83,Vichova Nad Jizerou,
91815,CZ,83,Stare Splavy,
91816,CZ,88,Schorov,
91817,CZ,85,Moravsky Beroun,
91818,CZ,83,Mikulasovice,
91819,CZ,82,Podbrezi,
91820,CZ,88,Tuchomerice,
91821,CZ,86,Borova,
91822,CZ,88,Dolni Kralovice,
91823,CZ,86,Horni Redice,
91824,CZ,78,Zeraviny,
91825,CZ,79,Zdikov,
91826,CZ,88,Jevany,
91827,CZ,81,Repany,
91828,CZ,85,Velka Polom,
91829,CZ,88,Bschesek,
91830,CZ,79,Hamr,
91831,CZ,88,Svetice,
91832,CZ,88,Libcice Nad Vltavou,
91833,CZ,83,Roztoky U Jilemnice,
91834,CZ,86,Usobrno,
91835,CZ,88,Sazava,
91836,CZ,88,Karany,
91837,CZ,88,Pecky,
91838,CZ,90,Kelc,
91839,CZ,84,Jachymov,
91840,CZ,87,Cerhovice,
91841,CZ,88,Nehvizdy,
91842,CZ,83,Libun,
91843,CZ,82,Dolni Jeleni,
91844,CZ,83,Harrachsthal,
91845,CZ,79,Lasenice,
91846,CZ,79,Choustnik,
91847,CZ,87,Mrakov,
91848,CZ,83,Skuhrov,
91849,CZ,89,Velemin,
91850,CZ,80,Golcuv Jenikov,
91851,CZ,86,Vrbatuv Kostelec,
91852,CZ,78,Ves Blizkovice,
91853,CZ,84,Velky Ujezd,
91854,CZ,88,Zantov,
91855,CZ,88,Krivenice,
91856,CZ,88,Uhonice,
91857,CZ,88,Tehov,
91858,CZ,88,Citov,
91859,CZ,88,Horatev,
91860,CZ,88,Poricany,
91861,CZ,88,Libice Nad Cidlinou,
91862,CZ,88,Herrndorf,
91863,CZ,88,Knezmost,
91864,CZ,78,Kloboucky,
91865,CZ,88,Bechlin,
91866,CZ,88,Zasmuky,
91867,CZ,84,Vsechovice,
91868,CZ,86,Herman,
91869,CZ,82,Plotiste Nad Labem,
91870,CZ,84,Supikovice,
91871,CZ,82,Hostinne,
91872,CZ,82,Adrspach,
91873,CZ,82,Vysoke Veseli,
91874,CZ,82,Pilnikov,
91875,CZ,79,Nove Hrady,
91876,CZ,80,Horni Cerekev,
91877,CZ,79,Na Kopecku,
91878,CZ,80,Heralec,
91879,CZ,84,Novy Malin,
91880,CZ,84,Mirov,
91881,CZ,84,Usov,
91882,CZ,84,Javornik,
91883,CZ,88,Prerov Nad Labem,
91884,CZ,88,Trebestovice,
91885,CZ,81,Sankt Adalbert,
91886,CZ,87,Nove Mitrovice,
91887,CZ,87,Druztova,
91888,CZ,85,Dolni Domaslavice,
91889,CZ,85,Mala Moravka,
91890,CZ,88,Nove Hrady,
91891,CZ,88,Svojetice,
91892,CZ,89,Haj U Duchcova,
91893,CZ,81,Tepla,
91894,CZ,89,Kost'any,
91895,CZ,88,Vrapice,
91896,CZ,80,Dukovany,
91897,CZ,88,Modrany,
91898,CZ,82,Sonov,
91899,CZ,82,Zabrodi,
91900,CZ,82,Zacler,
91901,CZ,82,Dolni Radechova,
91902,CZ,82,Doudleby Nad Orlici,
91903,CZ,90,Jalubi,
91904,CZ,88,Pacov,
91905,CZ,80,Cetoras,
91906,CZ,88,Pitkovicky,
91907,CZ,78,Vyrovice,
91908,CZ,84,Dolni Otaslavice,
91909,CZ,82,Bolehoscht,
91910,CZ,90,V Luzku,
91911,CZ,86,Sirakovice,
91912,CZ,84,Horni Otaslavice,
91913,CZ,78,Moravske Kninice,
91914,CZ,86,Kladrub,
91915,CZ,82,Trtenice,
91916,CZ,90,Novy Hrozenkov,
91917,CZ,83,Jablonec Nad Jizerou,
91918,CZ,85,Stary Bohumin,
91919,CZ,83,Dobrna,
91920,CZ,79,Stadlec,
91921,CZ,81,Olovi,
91922,CZ,85,Morgenland,
91923,CZ,88,Jazlovice,
91924,CZ,85,Mokre Lazce,
91925,CZ,88,Lipiny,
91926,CZ,80,Jahodov,
91927,CZ,84,Petrov Nad Desnou,
91928,CZ,84,Poruba,
91929,CZ,87,Olsany,
91930,CZ,85,Milikov,
91931,CZ,81,Kladruby,
91932,CZ,88,Blsany,
91933,CZ,80,Horni Dubenky,
91934,CZ,86,Horni Holetin,
91935,CZ,83,Janov Nad Nisou,
91936,CZ,80,Modlikov,
91937,CZ,83,Zakupy,
91938,CZ,88,Straky,
91939,CZ,86,Krasnice,
91940,CZ,88,Klinec,
91941,CZ,84,Dolni Studenky,
91942,CZ,82,Snezne,
91943,CZ,83,Neu Kribitz,
91944,CZ,86,Slepotice,
91945,CZ,88,Klapy,
91946,CZ,83,Ktova,
91947,CZ,82,Teplice Nad Metuji,
91948,CZ,84,Klenovice Na Hane,
91949,CZ,83,Hamr,
91950,CZ,88,Cizkovice,
91951,CZ,88,Zapy,
91952,CZ,83,Chotovice,
91953,CZ,78,Svinosice,
91954,CZ,88,Pisty,
91955,CZ,81,Merklin,
91956,CZ,88,Kolovraty,
91957,CZ,88,Chvaletice,
91958,CZ,88,Milin,
91959,CZ,78,Vysoke Popovice,
91960,CZ,88,Kostelec Nad Labem,
91961,CZ,82,Opocno,
91962,CZ,88,Dobrejovice,
91963,CZ,82,Rudnik,
91964,CZ,82,Lazne Belohrad,
91965,CZ,89,Dubi,
91966,CZ,83,Hilgersdorf,
91967,CZ,88,Zlonin,
91968,CZ,86,Hrochuv Tynec,
91969,CZ,84,Senice Na Hane,
91970,CZ,79,Horni Stropnice,
91971,CZ,85,Pusta Polom,
91972,CZ,88,Senecka,
91973,CZ,84,Namest' Na Hane,
91974,CZ,88,Strancice,
91975,CZ,88,Vrany,
91976,CZ,78,Dolni Dunajovice,
91977,CZ,80,Viden,
91978,CZ,80,Kamenice Nad Lipou,
91979,CZ,88,Hlubocepy,
91980,CZ,88,Lounovice,
91981,CZ,84,Rakodavy,
91982,CZ,89,Citoliby,
91983,CZ,88,Uhlirske Janovice,
91984,CZ,88,Vrbcany,
91985,CZ,88,Planany,
91986,CZ,88,Slavkov,
91987,CZ,80,Vir,
91988,CZ,83,Krasne Pole,
91989,CZ,83,Simonovice,
91990,CZ,83,Bad Licbwerda,
91991,CZ,83,Svarov,
91992,CZ,88,Olesko,
91993,CZ,84,Majetin,
91994,CZ,81,Heinersdorf,
91995,CZ,83,Michovka,
91996,CZ,88,Hlavecnik,
91997,CZ,88,Prezletice,
91998,CZ,88,Berunice,
91999,CZ,86,Horni Jeleni,
92000,CZ,83,Dolni Branna,
92001,CZ,83,Mricna,
92002,CZ,87,Kozlany,
92003,CZ,81,Klemensdorf,
92004,CZ,87,Mirovice,
92005,CZ,88,Kojetice,
92006,CZ,82,Sobotka,
92007,CZ,82,Trnov,
92008,CZ,86,Dolni Roven,
92009,CZ,86,Moravany,
92010,CZ,79,Krenovice,
92011,CZ,79,Dubne,
92012,CZ,81,Maschau,
92013,CZ,81,Hrusovany,
92014,CZ,86,Zdechovice,
92015,CZ,84,Vykleky,
92016,CZ,88,Caslav,
92017,CZ,86,Tremosnice,
92018,CZ,79,Zahradky,
92019,CZ,88,Jenikov,
92020,CZ,88,Klucov,
92021,CZ,80,Nove Syrovice,
92022,CZ,80,Lukovany,
92023,CZ,78,Drasov,
92024,CZ,80,Novy Rounek,
92025,CZ,89,Kvitkov,
92026,CZ,78,Podbrezice,
92027,CZ,88,Vrane,
92028,CZ,84,Rokliny,
92029,CZ,83,Harrachov,
92030,CZ,83,Voderady,
92031,CZ,83,Rychnov,
92032,CZ,86,Marianska Hora,
92033,CZ,90,Karolin,
92034,CZ,84,Krenovice,
92035,CZ,78,Moravsky Pisek,
92036,CZ,88,Strasnice,
92037,CZ,88,Kochanky,
92038,CZ,88,Smichov,
92039,CZ,85,Jistebnik,
92040,CZ,88,Dolni Bousov,
92041,CZ,80,Dvur Terezin,
92042,CZ,88,Trebiz,
92043,CZ,88,Klobuky,
92044,CZ,88,Mirovice,
92045,CZ,88,Trebonin,
92046,CZ,83,Alt-paulsdorf,
92047,CZ,83,Stary Sachov,
92048,CZ,81,Krasny Dvur,
92049,CZ,88,Velen,
92050,CZ,83,Mnisek,
92051,CZ,88,Tynec Nad Labem,
92052,CZ,82,Mezimesti,
92053,CZ,88,Brozany,
92054,CZ,87,Kasperske Hory,
92055,CZ,88,Osnice,
92056,CZ,81,Manetin,
92057,CZ,83,Rudolfov,
92058,CZ,84,Vojnice,
92059,CZ,85,Zator,
92060,CZ,83,Horni Libchava,
92061,CZ,90,Horni Lhota,
92062,CZ,88,Nedomice,
92063,CZ,88,Chotutice,
92064,CZ,84,Otinoves,
92065,CZ,84,Rozstani,
92066,CZ,88,Kourim,
92067,CZ,82,Dolni Kalna,
92068,CZ,82,Prosecne,
92069,CZ,89,Dolni Zalezly,
92070,CZ,78,Dyjakovice,
92071,CZ,88,Tatce,
92072,CZ,88,Orech,
92073,CZ,88,Trubska,
92074,CZ,88,Milostin,
92075,CZ,80,Novy Rychnov,
92076,CZ,82,Jicineves,
92077,CZ,88,Konigsaal,
92078,CZ,90,U Vaculu,
92079,CZ,88,Holubice,
92080,CZ,85,Nydek,
92081,CZ,90,Sucha Loz,
92082,CZ,85,Horni Mesto,
92083,CZ,86,Kladruby Nad Labem,
92084,CZ,84,Popuvky,
92085,CZ,84,Bedihoscht,
92086,CZ,84,Pivin,
92087,CZ,88,Vodochody,
92088,CZ,88,Bosice,
92089,CZ,88,Voderady,
92090,CZ,88,Miletin,
92091,CZ,88,Mohelnice Nad Jizerou,
92092,CZ,88,Sovolusky,
92093,CZ,82,Zliv,
92094,CZ,86,Vendoli,
92095,CZ,86,Osik,
92096,CZ,88,Hlizov,
92097,CZ,86,Stare Hradiste,
92098,CZ,80,Dolni Dvur,
92099,CZ,88,Tupadly,
92100,CZ,87,Zihle,
92101,CZ,87,Cirk,
92102,CZ,88,Velka Bukova,
92103,CZ,88,Kosik,
92104,CZ,86,Brehy,
92105,CZ,86,Spytovice,
92106,CZ,79,Jamne,
92107,CZ,80,Dolni Cerekev,
92108,CZ,80,Velky Beranov,
92109,CZ,83,Knezice,
92110,CZ,80,Vanov,
92111,CZ,80,Lipa,
92112,CZ,88,Vsestary,
92113,CZ,78,Svetla,
92114,CZ,90,Vysoke Pole,
92115,CZ,89,Tisa,
92116,CZ,81,Volyne,
92117,CZ,88,Dalkovice,
92118,CZ,83,Ponikla,
92119,CZ,88,Streschowitz,
92120,CZ,88,Kbely,
92121,CZ,90,Podhradi,
92122,CZ,80,Trsov,
92123,CZ,88,Cholupice,
92124,CZ,88,Mala Chuchle,
92125,CZ,89,Arnsdorf,
92126,CZ,87,Obytce,
92127,CZ,88,Butovice,
92128,CZ,88,Zatisi,
92129,CZ,88,Velka Chuchle,
92130,CZ,84,Schutzendorf,
92131,CZ,88,Kosire,
92132,CZ,88,Chvaly,
92133,CZ,82,Hajek,
92134,CZ,88,Ploscha,
92135,CZ,80,Vysoke,
92136,CZ,88,Cakowice,
92137,CZ,88,Dubec,
92138,CZ,88,Ochrobetz,
92139,CZ,86,Barchov,
92140,CZ,80,Jankov,
92141,CZ,90,Sehradice,
92142,CZ,84,Kraliky,
92143,CZ,52,Mratin,
92144,CZ,83,Rovensko Pod Troskami,
92145,CZ,88,Krasna Hora,
92146,CZ,52,Brandys Nad Labem-stara Boleslav,
92147,CZ,52,Kralovice,
92148,CZ,88,Knoviz,
92149,CZ,89,Ludvikovice,
92150,CZ,88,Dolni Hbity,
92151,CZ,82,Bila Tremesna,
92152,CZ,78,Podoli,
92153,CZ,81,Knezice,
92154,CZ,82,Rohovladova Bela,
92155,CZ,90,Brusne,
92156,CZ,88,Stankovice,
92157,CZ,85,Harrachov,
92158,CZ,82,Neznasov,
92159,CZ,52,Jilove U Prahy,
92160,CZ,88,Krasna Hora Nad Vltavou,
92161,CZ,52,Mirovice,
92162,CZ,88,Stary Kolin,
92163,CZ,88,Koblasko,
92164,CZ,84,Nova Ves,
92165,CZ,85,Chvalikovice,
92166,CZ,86,Zamrsk,
92167,CZ,52,Vrane,
92168,CZ,83,Horni Police,
92169,CZ,80,Kadov,
92170,CZ,88,Cerhynky,
92171,CZ,84,Pavlovice U Prerova,
92172,CZ,84,Mladec,
92173,CZ,89,Nove Sedlo,
92174,CZ,88,Dobra Voda,
92175,CZ,82,Bile Vchynice,
92176,CZ,78,Tulesice,
92177,CZ,83,Kneznice,
92178,CZ,85,Krmelin,
92179,CZ,80,Vyskytna Nad Jihlavou,
92180,CZ,80,Dolni Kralovice,
92181,CZ,52,Vetrusice,
92182,CZ,52,Zaryby,
92183,CZ,84,Huzova,
92184,CZ,87,Havlovice,
92185,CZ,85,Jesenik Nad Odrou,
92186,CZ,88,Zleby,
92187,CZ,78,Pasohlavky,
92188,CZ,85,Jilesovice,
92189,CZ,86,Morasice,
92190,CZ,90,Valasske Prikazy,
92191,CZ,88,Lipovec,
92192,CZ,81,Cachovice,
92193,CZ,83,Fojtka,
92194,CZ,88,Lustenice,
92195,CZ,88,Seletice,
92196,CZ,81,Nova Ves,
92197,CZ,88,Nasavrky,
92198,CZ,90,Zlamanec,
92199,CZ,82,Bejscht,
92200,CZ,84,Kripa Voda,
92201,CZ,88,Strizkov,
92202,CZ,82,Starkov,
92203,CZ,83,Dolni Poustevna,
92204,CZ,83,Slunecna,
92205,CZ,81,Kyjov,
92206,CZ,88,Vlkova,
92207,CZ,81,Vysocany,
92208,CZ,83,Jiretin Pod Bukovou,
92209,CZ,88,Branik,
92210,CZ,86,Recany Nad Labem,
92211,CZ,88,Budyne Nad Ohri,
92212,CZ,82,Male Svatonovice,
92213,CZ,86,Prachovice,
92214,CZ,88,Barrandov,
92215,CZ,88,Zizkov,
92216,CZ,90,Morkovice-slizany,
92217,CZ,88,Zbraslavice,
92218,CZ,88,Jinonice,
92219,CZ,81,Zasada,
92220,CZ,88,Horni Pocernice,
92221,CZ,81,Dlouha,
92222,CZ,88,Dobrin,
92223,CZ,88,Pankrac,
92224,CZ,82,Hajnice,
92225,CZ,88,Hostivar,
92226,CZ,88,Vestec,
92227,CZ,83,Desna,
92228,CZ,88,Treboradice,
92229,CZ,88,Dejvice,
92230,CZ,88,Holesovice,
92231,CZ,85,Frantiska,
92232,CZ,89,Brany,
92233,CZ,89,Tasov,
92234,CZ,88,Zabehlice,
92235,CZ,88,Cakovice,
92236,CZ,88,Nusle,
92237,CZ,88,Becvary,
92238,CZ,88,Michle,
92239,CZ,87,Malesice,
92240,CZ,88,Karlin,
92241,CZ,88,Bubenec,
92242,CZ,88,Kralupy,
92243,CZ,88,Troja,
92244,CZ,88,Mala Strana,
92245,CZ,88,Stresovice,
92246,CZ,79,Zitna,
92247,CZ,88,Stare,
92248,CZ,88,Prosek,
92249,CZ,87,Stodulky,
92250,CZ,88,Rozmital,
92251,CZ,88,Motol,
92252,CZ,88,Ujezd Nad Lesy,
92253,CZ,83,Boleslav,
92254,CZ,88,Libus,
92255,CZ,88,Brezineves,
92256,CZ,88,Hodkovicky,
92257,CZ,88,Horni Roztyly,
92258,CZ,88,Dolni Chabry,
92259,CZ,88,Dolni Mecholupy,
92260,CZ,88,Husinec,
92261,CZ,85,Zlate Hory,
92262,CZ,88,Ronov,
92263,CZ,81,Tusimice,
92264,CZ,81,Hora Svate Kateriny,
92265,CZ,83,Jedlka,
92266,CZ,83,Mladejov,
92267,CZ,84,Kvetna,
92268,CZ,88,Vysehorovice,
92269,CZ,83,Pole,
92270,CZ,87,Holovousy,
92271,CZ,88,Modletice,
92272,CZ,88,Nebusice,
92273,CZ,81,Teplicka,
92274,CZ,88,Drevcice,
92275,CZ,88,Sarka,
92276,CZ,82,Janske Lazne,
92277,CZ,83,Rvacov,
92278,CZ,88,Cakovicky,
92279,CZ,88,Zdibsko,
92280,CZ,88,Jiloviste,
92281,CZ,81,Kamyk,
92282,CZ,88,Otice,
92283,CZ,86,Vranova Lhota,
92284,CZ,82,Slatiny,
92285,CZ,88,Borovnice,
92286,CZ,78,Skrchov,
92287,CZ,86,Dolni Redice,
92288,CZ,88,Sebirov,
92289,CZ,88,Radim,
92290,CZ,87,Dubec,
92291,CZ,88,Vsechromy,
92292,CZ,88,Veleslavin,
92293,CZ,81,Korunni,
92294,CZ,83,Horni Podluzi,
92295,CZ,88,Repy,
92296,CZ,83,Lada,
92297,CZ,80,Zahrada,
92298,CZ,88,Svetla,
92299,CZ,88,Chomutovice,
92300,CZ,82,Velichovky,
92301,CZ,88,Boranovice,
92302,CZ,88,Rikov,
92303,CZ,88,Hostavice,
92304,CZ,88,Hloubetin,
92305,CZ,88,Davle,
92306,CZ,88,Ruzyne,
92307,CZ,88,Dablice,
92308,CZ,88,Sulice,
92309,CZ,88,Zandov,
92310,CZ,88,Klicany,
92311,CZ,88,Radosovice,
92312,CZ,81,Racice,
92313,CZ,83,Bynovec,
92314,CZ,87,Kozi,
92315,CZ,88,Vokovice,
92316,CZ,88,Herink,
92317,CZ,79,Urbanec,
92318,CZ,83,Rynoltice,
92319,CZ,88,Branisovice,
92320,CZ,84,Opatovice,
92321,CZ,87,Radimovice,
92322,CZ,88,Palecek,
92323,CZ,88,Smilovice,
92324,CZ,83,Koberovy,
92325,CZ,82,Hlusice,
92326,CZ,88,Nupaky,
92327,CZ,81,Mezi,
92328,CZ,81,Losan,
92329,CZ,83,Jiretin,
92330,CZ,83,Prisovice,
92331,CZ,88,Libeznice,
92332,CZ,87,Trnova,
92333,CZ,86,Jezborice,
92334,CZ,83,Hrensko,
92335,CZ,83,Nixdorf,
92336,CZ,83,Radl,
92337,CZ,81,Stara,
92338,CZ,88,Jirice,
92339,CZ,88,Reporyje,
92340,CZ,85,Nadrazi,
92341,CZ,88,Prace,
92342,CZ,83,Severni,
92343,CZ,86,Rybitvi,
92344,CZ,88,Nova Lhota,
92345,CZ,87,Silnice,
92346,CZ,88,Kyje,
92347,CZ,89,Jindrisska,
92348,CZ,81,Radonice,
92349,CZ,88,Svemyslice,
92350,CZ,81,Neudorfl,
92351,CZ,88,Potehy,
92352,CZ,83,Lisny,
92353,CZ,88,Milicin,
92354,CZ,83,Lesni,
92355,CZ,87,Kbely,
92356,CZ,87,Malec,
92357,CZ,82,Cernilov,
92358,CZ,86,Heroltice,
92359,CZ,88,Rataje Nad Sazavou,
92360,CZ,81,Nasi,
92361,CZ,86,Kosumberk,
92362,CZ,83,Kralovstvi,
92363,CZ,88,Vlastislav,
92364,CZ,83,Marketa,
92365,CZ,87,Horky,
92366,CZ,88,Krenek,
92367,CZ,86,Hudec,
92368,CZ,82,Trebechovice,
92369,CZ,82,Necas,
92370,CZ,81,Prohl,
92371,CZ,90,Mohyla,
92372,CZ,83,Vysoke Nad Jizerou,
92373,CZ,82,Leopold,
92374,CZ,88,Kounice,
92375,CZ,81,Sedlec,
92376,CZ,82,Stav,
92377,CZ,88,Mstetice,
92378,CZ,86,Holin,
92379,CZ,88,Vranik,
92380,CZ,83,Jesenny,
92381,CZ,83,Janska,
92382,CZ,88,Zlicin,
92383,CZ,88,Slivenec,
92384,CZ,78,Obrany,
92385,CZ,81,Zelina,
92386,CZ,86,Zdislav,
92387,CZ,85,Oborna,
92388,CZ,88,Pitkovice,
92389,CZ,88,Radlice,
92390,CZ,82,Cerny Dul,
92391,CZ,88,Blinka,
92392,CZ,88,Patek,
92393,CZ,88,Doubek,
92394,CZ,86,Dedek,
92395,CZ,87,Janovice,
92396,CZ,88,Malinova,
92397,CZ,88,Sendrazice,
92398,CZ,88,Kreslice,
92399,CZ,83,Vesec,
92400,CZ,81,Hory,
92401,CZ,84,Michalov,
92402,CZ,88,Jelen,
92403,CZ,86,Opocinek,
92404,CZ,83,Strelec,
92405,CZ,82,Dedov,
92406,CZ,82,Koudelka,
92407,CZ,83,Noviny,
92408,CZ,86,Kostenice,
92409,CZ,90,Branek,
92410,CZ,88,Zelezna,
92411,CZ,86,Vanice,
92412,CZ,80,Habrek,
92413,CZ,88,Ladvi,
92414,CZ,80,Domanin,
92415,CZ,81,Jeleni,
92416,CZ,88,Ruda,
92417,CZ,82,Prasek,
92418,CZ,78,Lipov,
92419,CZ,88,Lipence,
92420,CZ,83,Osecna,
92421,CZ,81,Sumna,
92422,CZ,81,Mezihorska,
92423,CZ,86,Vapenka,
92424,CZ,87,Brezi,
92425,CZ,83,Houska,
92426,CZ,82,Dobes,
92427,CZ,83,Mlade,
92428,CZ,88,Dolni Pocernice,
92429,CZ,83,Bratrouchov,
92430,CZ,86,Libecina,
92431,CZ,88,Okna,
92432,CZ,83,Velka Bukovina,
92433,CZ,80,Kurimske Jestrabi,
92434,CZ,87,Myto,
92435,CZ,88,Dubi,
92436,CZ,88,Zbuzany,
92437,CZ,78,Kobyli,
92438,CZ,86,Tisovec,
92439,CZ,87,Dolni Lukavice,
92440,CZ,88,Horousanky,
92441,CZ,88,Podveky,
92442,CZ,83,Vernerice,
92443,CZ,84,Mladejovice,
92444,CZ,88,Kozarovice,
92445,CZ,82,Mastig,
92446,CZ,90,Loukov,
92447,CZ,82,Opatovice Nad Labem,
92448,CZ,81,Neusattel,
92449,CZ,87,Loza,
92450,CZ,88,Krakovany,
92451,CZ,78,Rozsicka,
92452,CZ,78,Nyrov,
92453,CZ,86,Ceska Rybna,
92454,CZ,80,Usobi,
92455,CZ,87,Pacejov,
92456,CZ,88,Zlate Hory,
92457,CZ,87,Vrcen,
92458,CZ,88,Bohutin,
92459,CZ,78,Horni Dunajovice,
92460,CZ,87,Chvalenice,
92461,CZ,80,Svatoslav,
92462,CZ,80,Valdikov,
92463,CZ,90,Jorni Lapac,
92464,CZ,83,Drzkov,
92465,CZ,83,Vitanovice,
92466,CZ,86,Darilek,
92467,CZ,88,Aloisov,
92468,CZ,81,Kolova,
92469,CZ,78,Vrbice,
92470,CZ,78,Perna,
92471,CZ,88,Brvany,
92472,CZ,78,Novosedly,
92473,CZ,86,Prosetin,
92474,CZ,78,Moravske Malkovice,
92475,CZ,82,Stare Zdanice,
92476,CZ,83,Sychrov,
92477,CZ,86,Svojsice,
92478,CZ,86,Liciborice,
92479,CZ,89,Brezno,
92480,CZ,90,Dolni Becva,
92481,CZ,87,Vreskovice,
92482,CZ,80,Olsi,
92483,CZ,90,Brezova,
92484,CZ,88,Kostomlatky,
92485,CZ,85,Albrechtice,
92486,CZ,90,Babice,
92487,CZ,84,Velka,
92488,CZ,83,Kobyly,
92489,CZ,89,Vysoka Pec,
92490,CZ,80,Netin,
92491,CZ,88,Rez,
92492,CZ,78,Kostice,
92493,CZ,86,Chrast,
92494,CZ,78,Sebranice,
92495,CZ,86,Lovcice,
92496,CZ,88,Oskorinek,
92497,CZ,89,Svetec,
92498,CZ,82,Ceske Mezirici,
92499,CZ,88,Benatky,
92500,CZ,82,Detenice,
92501,CZ,83,Nova Ves,
92502,CZ,79,Kosice,
92503,CZ,79,Zabori,
92504,CZ,82,Kostelecke Horky,
92505,CZ,86,Sruby,
92506,CZ,86,Pomezi,
92507,CZ,85,Horni Lomna,
92508,CZ,79,Bernartice,
92509,CZ,83,Habartice,
92510,CZ,78,Lipovec,
92511,CZ,85,Svetla,
92512,CZ,78,Mokra,
92513,CZ,82,Karanice,
92514,CZ,89,Velke Chvojno,
92515,CZ,90,Liptal,
92516,CZ,86,Sec,
92517,CZ,86,Choltice,
92518,CZ,90,Mrlinek,
92519,CZ,89,Kresice,
92520,CZ,82,Mostek,
92521,CZ,80,Dolni Loucky,
92522,CZ,78,Tynec,
92523,CZ,83,Arnoltice,
92524,CZ,88,Vsejany,
92525,CZ,87,Dobric,
92526,CZ,81,Stare Sedlo,
92527,CZ,78,Hroznova Lhota,
92528,CZ,83,Vilemov,
92529,CZ,85,Slezska Ostrava,
92530,CZ,88,Trhovy Stepanov,
92531,CZ,88,Loukovec,
92532,CZ,78,Vicemilice,
92533,CZ,82,Svobodne Dvory,
92534,CZ,80,Nova Rise,
92535,CZ,84,Cotkytle,
92536,CZ,82,Vlcice,
92537,CZ,81,Stara Voda,
92538,CZ,87,Ostrovec,
92539,CZ,79,Olesnice,
92540,CZ,78,Brezi,
92541,CZ,90,Bilovice,
92542,CZ,82,Bohuslavice,
92543,CZ,82,Vsestary,
92544,CZ,78,Strazovice,
92545,CZ,88,Postrizin,
92546,CZ,79,Nisovice,
92547,CZ,83,Blatce,
92548,CZ,86,Horni Hermanice,
92549,CZ,80,Zdirec,
92550,CZ,82,Novy Hradek,
92551,CZ,88,Zehun,
92552,CZ,82,Chomutice,
92553,CZ,83,Lobendava,
92554,CZ,78,Domanin,
92555,CZ,79,Destna,
92556,CZ,79,Mirovice,
92557,CZ,79,Borek,
92558,CZ,86,Uhercice,
92559,CZ,89,Jenikov,
92560,CZ,79,Dobra Voda,
92561,CZ,86,Kamenicky,
92562,CZ,86,Rudoltice,
92563,CZ,88,Vysoka,
92564,CZ,80,Sebkovice,
92565,CZ,78,Kozojidky,
92566,CZ,82,Vernerovice,
92567,CZ,88,Konarovice,
92568,CZ,87,Bezverov,
92569,CZ,90,Dolni Lhota,
92570,CZ,88,Jinocany,
92571,CZ,88,Dusniky,
92572,CZ,88,Petrovice,
92573,CZ,88,Prebozy,
92574,CZ,82,Liban,
92575,CZ,86,Nove Hrady,
92576,CZ,86,Ostrov,
92577,CZ,87,Kladruby,
92578,CZ,88,Nova Ves,
92579,CZ,80,Jamne,
92580,CZ,80,Jersin,
92581,CZ,80,Smrcna,
92582,CZ,88,Msene,
92583,CZ,87,Janov,
92584,CZ,86,Vitanov,
92585,CZ,86,Rasovy,
92586,CZ,81,Denetice,
92587,CZ,80,Roketnitz,
92588,CZ,80,Sedliste,
92589,CZ,78,Zajeci,
92590,CZ,83,Kochovice,
92591,CZ,82,Valdice,
92592,CZ,82,Kuks,
92593,CZ,78,Uhercice,
92594,CZ,86,Rohozna,
92595,CZ,82,Albrechtice Nad Orlici,
92596,CZ,82,Ujezd U Chocne,
92597,CZ,84,Bila Lhota,
92598,CZ,82,Chvalec,
92599,CZ,79,Husinec,
92600,CZ,82,Studnice,
92601,CZ,90,Stipa,
92602,CZ,80,Rouchovany,
92603,CZ,87,Unetice,
92604,CZ,86,Stradoun,
92605,CZ,86,Jedlova,
92606,CZ,84,Bystrocice,
92607,CZ,80,Racovice,
92608,CZ,90,Kelniky,
92609,CZ,89,Chanov,
92610,CZ,90,Mikovice,
92611,CZ,80,Police,
92612,CZ,82,Hermanice,
92613,CZ,79,Orlik,
92614,CZ,85,Karvina 4,
92615,CZ,86,Vraclav,
92616,CZ,79,Borova Lada,
92617,CZ,85,Zimrovice,
92618,CZ,88,Malesov,
92619,CZ,81,Struzna,
92620,CZ,88,Rohatce,
92621,CZ,85,Dolni Moravice,
92622,CZ,88,Cenkov,
92623,CZ,84,Bohutin,
92624,CZ,83,Korenov,
92625,CZ,89,Udlice,
92626,CZ,79,Drazice,
92627,CZ,78,Bavory,
92628,CZ,83,Dubnice,
92629,CZ,79,Kvetov,
92630,CZ,88,Pribyslavice,
92631,CZ,88,Mecholupy,
92632,CZ,88,Struhy,
92633,CZ,80,Frischau,
92634,CZ,83,Horeni Paseky,
92635,CZ,82,Kocbere,
92636,CZ,79,Pecnov,
92637,CZ,88,Liber,
92638,CZ,81,Vroutek,
92639,CZ,82,Stary Bydzov,
92640,CZ,82,Belec Nad Orlici,
92641,CZ,88,Ratbor,
92642,CZ,82,Kratonohy,
92643,CZ,85,Slezske Rudoltice,
92644,CZ,83,Sedlec,
92645,CZ,84,Hluchov,
92646,CZ,88,Cerne Voderady,
92647,CZ,85,Velke Albrechtice,
92648,CZ,82,Choustnikovo Hradiste,
92649,CZ,81,Zizelice,
92650,CZ,88,Peruc,
92651,CZ,83,Jenisovice,
92652,CZ,87,Zihobce,
92653,CZ,83,Loukov,
92654,CZ,88,Kvetus,
92655,CZ,88,Krinian,
92656,CZ,89,Bilence,
92657,CZ,84,Partutovice,
92658,CZ,78,Rozarin,
92659,CZ,83,Polepy,
92660,CZ,88,Nouzov,
92661,CZ,85,Karlovice,
92662,CZ,79,Kamenny Ujezd,
92663,CZ,88,Petrov,
92664,CZ,85,Zavisice,
92665,CZ,88,Strezimir,
92666,CZ,88,Borova,
92667,CZ,88,Horni Jircany,
92668,CZ,89,Strbice,
92669,CZ,83,Malesov,
92670,CZ,79,Cizkrajov,
92671,CZ,81,Krajkova,
92672,CZ,87,Nevid,
92673,CZ,90,Biskupice,
92674,CZ,89,Hostomice,
92675,CZ,85,Vaclavovice U Frydku,
92676,CZ,88,Skvrnov,
92677,CZ,84,Bratrusov,
92678,CZ,86,Trhova Kamenice,
92679,CZ,90,Sanov,
92680,CZ,88,Hrobce,
92681,CZ,84,Charvaty,
92682,CZ,80,Benetice,
92683,CZ,86,Cerna U Bohdance,
92684,CZ,87,Chotikov,
92685,CZ,88,Dalve,
92686,CZ,78,Borotin,
92687,CZ,83,Libstat,
92688,CZ,87,Klenovice,
92689,CZ,88,Jemniky,
92690,CZ,88,Dobroviz,
92691,CZ,82,Luzec Nad Cidlinou,
92692,CZ,81,Misto,
92693,CZ,78,Jirice,
92694,CZ,88,Brodce,
92695,CZ,88,Libesice,
92696,CZ,87,Chric,
92697,CZ,88,Zelenice,
92698,CZ,88,Vesin,
92699,CZ,83,Vitkovice,
92700,CZ,84,Niva,
92701,CZ,84,Citov,
92702,CZ,83,Drausendorf,
92703,CZ,88,Libusch,
92704,CZ,85,Lesni Albrechtice,
92705,CZ,79,Sedlice,
92706,CZ,83,Zlata Olesnice,
92707,CZ,88,Pnov,
92708,CZ,88,Dalesice,
92709,CZ,83,Nova Ves Nad Popelkou,
92710,CZ,83,Trebusin,
92711,CZ,88,Cista,
92712,CZ,86,Dedova,
92713,CZ,88,Chrast Nad Sazavou,
92714,CZ,80,Vyskytna,
92715,CZ,87,Nevolice,
92716,CZ,87,Stahlavice,
92717,CZ,81,Nova Ves V Horach,
92718,CZ,89,Ujezdecek,
92719,CZ,87,Hradec,
92720,CZ,88,Kamenne Zbozi,
92721,CZ,88,Pasinka,
92722,CZ,88,Rejsice,
92723,CZ,80,Scheletau,
92724,CZ,86,Podlesi,
92725,CZ,80,Onsovice,
92726,CZ,88,Vratkov,
92727,CZ,88,Hlavenec,
92728,CZ,78,Drazuvky,
92729,CZ,88,Karlik,
92730,CZ,88,Rehenice,
92731,CZ,90,Oznice,
92732,CZ,88,Vysoky Ujezd,
92733,CZ,88,Mechenice,
92734,CZ,85,Huzova,
92735,CZ,80,Radostin,
92736,CZ,83,Louznice,
92737,CZ,88,Doubravicka,
92738,CZ,88,Mcely,
92739,CZ,79,Kroclov,
92740,CZ,86,Vysoka U Holic,
92741,CZ,86,Licomelice,
92742,CZ,80,Svetnov,
92743,CZ,88,Veltruby,
92744,CZ,80,Domamil,
92745,CZ,83,Lucany Nad Nisou,
92746,CZ,78,Petrov,
92747,CZ,88,Vavrinec,
92748,CZ,82,Luzany,
92749,CZ,80,Pokojov,
92750,CZ,87,Blatno,
92751,CZ,80,Vlceves,
92752,CZ,88,Libceves,
92753,CZ,88,Tismice,
92754,CZ,85,Tisek,
92755,CZ,85,Pisek,
92756,CZ,86,Mestec,
92757,CZ,88,Klucke Chvalovice,
92758,CZ,81,Vikletice,
92759,CZ,87,Kotoun,
92760,CZ,88,Strenice,
92761,CZ,82,Vidonice,
92762,CZ,81,Milikov,
92763,CZ,84,Uhrinov,
92764,CZ,85,Rybi,
92765,CZ,82,Knezice,
92766,CZ,79,Podoli I,
92767,CZ,82,Dubenec,
92768,CZ,78,Lhota Rapotina,
92769,CZ,82,Tetov,
92770,CZ,87,Chudenin,
92771,CZ,88,Radvanice,
92772,CZ,86,Udavy,
92773,CZ,78,Melcany,
92774,CZ,88,Ostra,
92775,CZ,88,Zdimerice,
92776,CZ,83,Stare Krecany,
92777,CZ,88,Sokolec,
92778,CZ,88,Piskova Lhota,
92779,CZ,88,Kroucova,
92780,CZ,87,Vojovice,
92781,CZ,90,Jasenna,
92782,CZ,80,Heraltice,
92783,CZ,81,Smolne Pece,
92784,CZ,79,Zelec,
92785,CZ,82,Sovetice,
92786,CZ,82,Jivka,
92787,CZ,80,Rozsec,
92788,CZ,80,Libkova Voda,
92789,CZ,82,Butoves,
92790,CZ,88,Decany,
92791,CZ,82,Skrivany,
92792,CZ,78,Cetkovice,
92793,CZ,88,Kolaje,
92794,CZ,88,Vedomice,
92795,CZ,78,Nasedlovice,
92796,CZ,83,Chotyne,
92797,CZ,88,Jedla,
92798,CZ,88,Hrivcice,
92799,CZ,88,Debrno,
92800,CZ,79,Malonty,
92801,CZ,88,Bilichov,
92802,CZ,88,Novy Jachymov,
92803,CZ,79,Smetanova Lhota,
92804,CZ,87,Lite,
92805,CZ,83,Vratislavice Nad Nisou,
92806,CZ,82,Holohlavy,
92807,CZ,80,Bohumilice,
92808,CZ,88,Bozec,
92809,CZ,87,Sytno,
92810,CZ,81,Liba,
92811,CZ,88,Stare Mesto,
92812,CZ,82,Dobre,
92813,CZ,78,Hodejice,
92814,CZ,82,Petrovice,
92815,CZ,79,Jilovice,
92816,CZ,88,Besno,
92817,CZ,85,Hnevosice,
92818,CZ,84,Bilsko,
92819,CZ,83,Plouznice,
92820,CZ,80,Vilanec,
92821,CZ,87,Resanice,
92822,CZ,88,Osecek,
92823,CZ,88,Bzova,
92824,CZ,88,Ocihov,
92825,CZ,78,Sumna,
92826,CZ,90,Choryne,
92827,CZ,86,Svidnice,
92828,CZ,81,Stara Role,
92829,CZ,86,Srnojedy,
92830,CZ,82,Nemojov,
92831,CZ,82,Drazkov,
92832,CZ,87,Lom,
92833,CZ,82,Kacakova Lhota,
92834,CZ,88,Dolni Zimor,
92835,CZ,89,Strupcice,
92836,CZ,85,Janovice,
92837,CZ,84,Hradecna,
92838,CZ,83,Pulecny,
92839,CZ,78,Uhorska Ves,
92840,CZ,88,Hermanicky,
92841,CZ,85,Moravka,
92842,CZ,84,Vicemerice,
92843,CZ,86,Bohmische Lichwe,
92844,CZ,90,Lubna,
92845,CZ,79,Budiskovice,
92846,CZ,82,Velka Jesenice,
92847,CZ,78,Mistrin,
92848,CZ,87,Svojsin,
92849,CZ,88,Nove Ouholice,
92850,CZ,88,Sedlcanky,
92851,CZ,84,Rakov,
92852,CZ,82,Strazne,
92853,CZ,83,Krizany,
92854,CZ,85,Zaben,
92855,CZ,88,Nove Dvory,
92856,CZ,88,Vlkava,
92857,CZ,86,Kladno,
92858,CZ,78,Unkovice,
92859,CZ,81,Racetice,
92860,CZ,86,Malikov,
92861,CZ,81,Hurz,
92862,CZ,80,Borac,
92863,CZ,85,Tyra,
92864,CZ,80,Viska,
92865,CZ,86,Svitkov,
92866,CZ,81,Velika Ves,
92867,CZ,83,Vsen,
92868,CZ,87,Slovice,
92869,CZ,88,Chlumin,
92870,CZ,86,Kunetice,
92871,CZ,81,Miretice U Vintirova,
92872,CZ,78,Veverske Kninice,
92873,CZ,80,Horni Smrcne,
92874,CZ,88,Okrouhlo,
92875,CZ,86,Brezovice,
92876,CZ,88,Opatovice I,
92877,CZ,80,Lipnice Nad Sazavou,
92878,CZ,88,Telce,
92879,CZ,88,Predhradi,
92880,CZ,88,Premysleni,
92881,CZ,83,Martinice,
92882,CZ,88,Panenske Brezany,
92883,CZ,83,Svijansky Ujezd,
92884,CZ,88,Kralovky,
92885,CZ,85,Kameralna Ligotka,
92886,CZ,80,Mastnik,
92887,CZ,80,Kaliste,
92888,CZ,82,Velis,
92889,CZ,78,Zeravice,
92890,CZ,79,Hury,
92891,CZ,79,Zahori,
92892,CZ,88,Ohare,
92893,CZ,88,Stara Lysa,
92894,CZ,84,Bousin,
92895,CZ,90,Rymice,
92896,CZ,88,Chotusice,
92897,CZ,88,Cesky Sternberk,
92898,CZ,80,Zvole,
92899,CZ,88,Opocnice,
92900,CZ,80,Pobistryce,
92901,CZ,84,Vicov,
92902,CZ,85,Guty,
92903,CZ,78,Hosteradky,
92904,CZ,80,Metanov,
92905,CZ,78,Kralovo Pole,
92906,CZ,83,Struznice,
92907,CZ,78,Javurek,
92908,CZ,86,Horni Ujezd,
92909,CZ,90,Vigantice,
92910,CZ,84,Palonin,
92911,CZ,87,Krimice,
92912,CZ,84,Lindava,
92913,CZ,88,Klipec,
92914,CZ,79,Rojsin,
92915,CZ,79,Roudne,
92916,CZ,88,Zbizuby,
92917,CZ,82,Prepychy,
92918,CZ,83,Pencin,
92919,CZ,82,Trebnouseves,
92920,CZ,90,Vsemina,
92921,CZ,89,Bartelsdorf,
92922,CZ,83,Nantiskov,
92923,CZ,83,Nahlov,
92924,CZ,88,Javornik,
92925,CZ,83,Gerstorf,
92926,CZ,88,Zmrzlik,
92927,CZ,79,Zelenov,
92928,CZ,82,Hoch-wesley,
92929,CZ,88,Osluchov,
92930,CZ,85,Drzkovice,
92931,CZ,79,Bilina,
92932,CZ,80,Krizanov,
92933,CZ,89,Usti Nad Labem,
92934,CZ,83,Jablonec Nad Nisou,
92935,CZ,90,Roznov Pod Radhostem,
92936,CZ,81,Bukovany,
92937,CZ,82,Cermna,
92938,CZ,88,Sedlice,
92939,CZ,82,Cerekvice,
92940,CZ,78,Borsice,
92941,CZ,80,Ledec Nad Sazavou,
92942,CZ,87,Chanovice,
92943,CZ,79,Mecichov,
92944,CZ,88,Roudnice Nad Labem,
92945,CZ,85,Bystrzyca,
92946,CZ,85,Frenstat Pod Radhostem,
92947,CZ,82,Dvur Kralove Nad Labem,
92948,CZ,80,Uhrinov,
92949,CZ,88,Kysice,
92950,CZ,88,Valdek,
92951,CZ,88,Svarov,
92952,CZ,78,Zastavka U Brna,
92953,CZ,78,Kninice U Boskovic,
92954,CZ,78,Ludikov,
92955,CZ,81,Hradek,
92956,CZ,85,Novy Bohumin,
92957,CZ,80,Jitkov,
92958,CZ,78,Louka,
92959,CZ,79,Trebovice,
92960,CZ,84,Polom,
92961,CZ,79,Kluky,
92962,CZ,85,Stara Ves,
92963,CZ,88,Lahovice,
92964,CZ,84,Vezky,
92965,CZ,80,Lisek,
92966,CZ,86,Svojanov,
92967,CZ,86,Vojnuv Mestec,
92968,CZ,79,Kovarov,
92969,CZ,86,Zumberk,
92970,CZ,83,Lipova,
92971,CZ,79,Krumlov,
92972,CZ,89,Chlumcany,
92973,CZ,88,Cerveny Ujezd,
92974,CZ,80,Kralice,
92975,CZ,87,Zahori,
92976,CZ,86,Lipova,
92977,CZ,78,Popice,
92978,CZ,81,Carlsbad,
92979,CZ,84,Horka,
92980,CZ,80,Cernovice,
92981,CZ,87,Kotovice,
92982,CZ,80,Rosice,
92983,CZ,82,Hribiny,
92984,CZ,88,Libice,
92985,CZ,85,Haj,
92986,CZ,83,Krasna Lipa,
92987,CZ,88,Pavlov,
92988,CZ,86,Chlum,
92989,CZ,87,Rejstejn,
92990,CZ,83,Skalice,
92991,CZ,81,Kynsperk,
92992,CZ,83,Nove Dvory,
92993,CZ,80,Dobra,
92994,CZ,80,Bolikov,
92995,CZ,85,Jindrichov,
92996,CZ,81,Brezno,
92997,CZ,84,Prestavlky,
92998,CZ,82,Jasenna,
92999,CZ,80,Vilemov,
93000,CZ,89,Lom U Mostu,
93001,CZ,88,Osov,
93002,CZ,81,Radosov,
93003,CZ,79,Stepanovice,
93004,CZ,84,Male Hradisko,
93005,CZ,80,Dalesice,
93006,CZ,78,Drahany,
93007,CZ,89,Mojzir,
93008,CZ,80,Ujezd,
93009,CZ,82,Miletin,
93010,CZ,87,Hlohovcice,
93011,CZ,78,Bohuslavice,
93012,CZ,78,Bukovany,
93013,CZ,82,Radvanice,
93014,CZ,88,Zhery,
93015,CZ,83,Hohenleipa,
93016,CZ,88,Swolenowes,
93017,CZ,86,Spelkov,
93018,CZ,88,Castonice,
93019,CZ,82,Cisteves,
93020,CZ,83,Havrani,
93021,CZ,88,Chodom,
93022,CZ,82,Dolni Zd'ar,
93023,CZ,81,Privlaky,
93024,CZ,83,Borovnice,
93025,CZ,78,Kunicky,
93026,CZ,88,Nove Jirny,
93027,CZ,85,Suche Lazce,
93028,CZ,84,Mesto Libava,
93029,CZ,82,Lukavice,
93030,CZ,86,Pisecna,
93031,CZ,83,Loveckovice,
93032,CZ,87,Prasily,
93033,CZ,89,Nova Ves,
93034,CZ,86,Turkovice,
93035,CZ,78,Brezany,
93036,CZ,83,Horka U Stare Paky,
93037,CZ,82,Brzice,
93038,CZ,86,Svoboda,
93039,CZ,88,Labut',
93040,CZ,80,Hreben,
93041,CZ,80,Svabov,
93042,CZ,88,Zabori Nad Labem,
93043,CZ,81,Chbany,
93044,CZ,88,Slustice,
93045,CZ,80,Kamen,
93046,CZ,86,Horni Bradlo,
93047,CZ,85,Nove Sedlice,
93048,CZ,84,Jivova,
93049,CZ,86,Jamne Nad Orlici,
93050,CZ,79,Kraslovice,
93051,CZ,90,Velke Karlovice,
93052,CZ,78,Nove Branice,
93053,CZ,81,Skrle,
93054,CZ,80,Cizkov,
93055,CZ,78,Klein Kinitz,
93056,CZ,86,Steblova,
93057,CZ,88,Predonin,
93058,CZ,83,Sukorady,
93059,CZ,83,Prepere,
93060,CZ,88,Petrovice Ii,
93061,CZ,88,Zbrasin,
93062,CZ,84,Luka,
93063,CZ,85,Lomnice,
93064,CZ,90,Rackova,
93065,CZ,88,Zvanovice,
93066,CZ,80,Dlouha Brtnice,
93067,CZ,81,Rokle,
93068,CZ,78,Rudka,
93069,CZ,88,Uhelnice,
93070,CZ,79,Mladejovice,
93071,CZ,84,Doloplas,
93072,CZ,88,Horni Krnsko,
93073,CZ,83,Dlouhy,
93074,CZ,81,Cira,
93075,CZ,83,Sloup,
93076,CZ,88,Kovanice,
93077,CZ,86,Sudislav,
93078,CZ,83,Tatobity,
93079,CZ,83,Frantiskov Nad Ploucnici,
93080,CZ,82,Slemeno,
93081,CZ,83,Libesice,
93082,CZ,78,Mikulovice,
93083,CZ,80,Sirakov,
93084,CZ,82,Strazkovice,
93085,CZ,87,Podmokly,
93086,CZ,88,Chvateruby,
93087,CZ,82,Skorenice,
93088,CZ,88,Na Kamenici,
93089,CZ,88,Sloup,
93090,CZ,88,Horni Podkozi,
93091,CZ,83,Studenec,
93092,CZ,90,Zahnasovice,
93093,CZ,80,Backovice,
93094,CZ,80,Hojanovice,
93095,CZ,80,Kosetice,
93096,CZ,88,Doubravice,
93097,CZ,88,Suchdol,
93098,CZ,79,Hlavatce,
93099,CZ,88,Brodec,
93100,CZ,88,Dobrichov,
93101,CZ,83,Benecko,
93102,CZ,88,Zloncice,
93103,CZ,88,Neumerice,
93104,CZ,88,Dretovice,
93105,CZ,84,Postrelmuvek,
93106,CZ,81,Semnice,
93107,CZ,84,Merovice Nad Hanou,
93108,CZ,82,Zachlumi,
93109,CZ,83,Jeseney,
93110,CZ,80,Martinkov,
93111,CZ,88,Jirovice,
93112,CZ,84,Slatinky,
93113,CZ,80,Krasna Hora,
93114,CZ,79,Slabcice,
93115,CZ,86,Kutiny,
93116,CZ,80,Neu Jngrowitz,
93117,CZ,87,Prehysov,
93118,CZ,78,Ostrovanky,
93119,CZ,82,Veliny,
93120,CZ,90,Krhova,
93121,CZ,82,Stare Misto,
93122,CZ,88,Horesovice,
93123,CZ,88,Odrepsy,
93124,CZ,83,Kytlice,
93125,CZ,88,Kostelni Hlavno,
93126,CZ,89,Velteze,
93127,CZ,79,Repec,
93128,CZ,83,Holenice,
93129,CZ,80,Benatky,
93130,CZ,90,Nitkovice,
93131,CZ,78,Horni Bojanovice,
93132,CZ,83,Srbska Kamenice,
93133,CZ,88,Libodrice,
93134,CZ,88,Osek,
93135,CZ,83,Vesele,
93136,CZ,80,Rouckovice,
93137,CZ,82,Markvartice,
93138,CZ,86,Casy,
93139,CZ,86,Lubnik,
93140,CZ,88,Zakolany,
93141,CZ,82,Marsov,
93142,CZ,86,Semanin,
93143,CZ,78,Hostim,
93144,CZ,83,Dlouhy Most,
93145,CZ,78,Temice,
93146,CZ,88,Panensky Tynec,
93147,CZ,78,Radejov,
93148,CZ,80,Stepanov,
93149,CZ,88,Zdislavice,
93150,CZ,88,Hrebecniky,
93151,CZ,88,Hospozin,
93152,CZ,80,Lipnik,
93153,CZ,81,Malkov,
93154,CZ,80,Kvetinov,
93155,CZ,84,Horni Ujezd,
93156,CZ,80,Pisecne,
93157,CZ,83,Kriesdorf,
93158,CZ,80,Krasonice,
93159,CZ,79,Usilne,
93160,CZ,88,Jedomelice,
93161,CZ,78,Benesov,
93162,CZ,84,Jedli,
93163,CZ,81,Alberice,
93164,CZ,86,Jenisovice,
93165,CZ,83,Dolni Chribska,
93166,CZ,83,Velky Senov,
93167,CZ,82,Nepolisy,
93168,CZ,84,Brezsko,
93169,CZ,86,Bitovany,
93170,CZ,88,Studeny,
93171,CZ,81,Nove Hamry,
93172,CZ,86,Stremosice,
93173,CZ,87,Bela Nad Radbuzou,
93174,CZ,90,Barice,
93175,CZ,80,Bitov,
93176,CZ,79,Bechyn,
93177,CZ,87,Ulice,
93178,CZ,90,Leskovec,
93179,CZ,84,Zarici,
93180,CZ,86,Mladocov,
93181,CZ,83,Hluboka,
93182,CZ,80,Dolni Krupa,
93183,CZ,81,Letov,
93184,CZ,88,Ohrada,
93185,CZ,88,Popovicky,
93186,CZ,87,Krenice,
93187,CZ,80,Skuhrov,
93188,CZ,78,Hluboke Masuvky,
93189,CZ,79,Horni Vltavice,
93190,CZ,87,Ostretice,
93191,CZ,88,Sobin,
93192,CZ,88,Jizerni Vtelno,
93193,CZ,83,Dolni Habartice,
93194,CZ,88,Polerady,
93195,CZ,86,Lhota U Chroustovic,
93196,CZ,88,Hostovlice,
93197,CZ,88,Radetice,
93198,CZ,88,Umonin,
93199,CZ,87,Karez,
93200,CZ,90,Hostetin,
93201,CZ,80,Stritez,
93202,CZ,78,Podomi,
93203,CZ,87,Velke Hydcice,
93204,CZ,88,Tuklaty,
93205,CZ,78,Blatnicka,
93206,CZ,88,Pochvalov,
93207,CZ,79,Nebahovy,
93208,CZ,88,Tlustovousy,
93209,CZ,83,Jestrebi,
93210,CZ,85,Horni Domaslavice,
93211,CZ,87,Medovy Ujezd,
93212,CZ,84,Nemilany,
93213,CZ,83,Stary Jirikov,
93214,CZ,81,Ostrov Nad Ohri,
93215,CZ,84,Svaty Kopecek,
93216,CZ,88,Dlouha Lhota,
93217,CZ,88,Vlkanec,
93218,CZ,84,Kelcice,
93219,CZ,82,Klasterska Lhota,
93220,CZ,87,Horni Bela,
93221,CZ,80,Bacice,
93222,CZ,87,Horni Nemcice,
93223,CZ,88,Stodulky,
93224,CZ,86,Breziny,
93225,CZ,79,Svatkovice,
93226,CZ,83,Mickenhan,
93227,CZ,88,Letnan,
93228,CZ,80,Lysa,
93229,CZ,88,Orasice,
93230,CZ,81,Brandov,
93231,CZ,79,Dirna,
93232,CZ,79,Vitkov,
93233,CZ,84,Neueigen,
93234,CZ,88,Snepov,
93235,CZ,86,Borova Krcma,
93236,CZ,88,Kamenny Most,
93237,CZ,83,Svojek,
93238,CZ,88,Letky,
93239,CZ,88,Mecir,
93240,CZ,88,Uholicky,
93241,CZ,87,Busovice,
93242,CZ,78,Moravske Branice,
93243,CZ,82,Jerice,
93244,CZ,79,Brloh,
93245,CZ,82,Krivice,
93246,CZ,78,Hysly,
93247,CZ,88,Stary Vestec,
93248,CZ,88,Vyzerky,
93249,CZ,87,Zebraky,
93250,CZ,88,Bykev,
93251,CZ,81,Libedice,
93252,CZ,90,Komarno,
93253,CZ,78,Jehnice,
93254,CZ,90,Veletiny,
93255,CZ,86,Horky,
93256,CZ,82,Svinary,
93257,CZ,79,Kolisov,
93258,CZ,84,Radkovy,
93259,CZ,78,Strilky,
93260,CZ,79,Kladruby,
93261,CZ,82,Rasosky,
93262,CZ,82,Zamel,
93263,CZ,88,Slapanice,
93264,CZ,81,Libocany,
93265,CZ,86,Rosice,
93266,CZ,78,Kostelec,
93267,CZ,88,Vanovice,
93268,CZ,79,Karbova Hut',
93269,CZ,84,Male Prosenice,
93270,CZ,80,Vidonin,
93271,CZ,82,Lipovka,
93272,CZ,88,Hrdliv,
93273,CZ,88,Felbabka,
93274,CZ,80,Vechnov,
93275,CZ,81,Damice,
93276,CZ,87,Drazenov,
93277,CZ,88,Rohatsko,
93278,CZ,83,Tetcineves,
93279,CZ,88,Velenka,
93280,CZ,88,Roblin,
93281,CZ,89,Zalany,
93282,CZ,88,Jarpice,
93283,CZ,82,Proruby,
93284,CZ,90,Sarovy,
93285,CZ,88,Klaster Hradiste Nad Jizerou,
93286,CZ,78,Schebetein,
93287,CZ,88,Prague-vinohrady,
93288,CZ,82,Licno,
93289,CZ,79,Dynin,
93290,CZ,83,Krompach,
93291,CZ,86,Dolni Morava,
93292,CZ,80,Vezna,
93293,CZ,90,Potec,
93294,CZ,82,Divec,
93295,CZ,86,Brezina,
93296,CZ,88,Ptyrov,
93297,CZ,90,Vesky,
93298,CZ,88,Nalzovicke Podhaji,
93299,CZ,86,Slavikov,
93300,CZ,86,Cista,
93301,CZ,88,Kozmice,
93302,CZ,88,Kabat,
93303,CZ,84,Klopina,
93304,CZ,83,Bily Kostel Nad Nisou,
93305,CZ,80,Rynarec,
93306,CZ,82,Chvalkovice,
93307,CZ,84,Hrdiborice,
93308,CZ,82,Stezirky,
93309,CZ,88,Rabakov,
93310,CZ,81,Vysluni,
93311,CZ,90,Pitin,
93312,CZ,88,Rostoklaty,
93313,CZ,84,Senicka,
93314,CZ,88,Maly Ujezd,
93315,CZ,80,Zadni Zhorec,
93316,CZ,82,Horicky,
93317,CZ,82,Dolni Mala Upa,
93318,CZ,90,Osicko,
93319,CZ,83,Zdislava,
93320,CZ,80,Radnoves,
93321,CZ,81,Presau,
93322,CZ,86,Dvakacovice,
93323,CZ,90,Tichov,
93324,CZ,86,Trebovice,
93325,CZ,88,Kresin,
93326,CZ,78,Brod Nad Dyji,
93327,CZ,83,Bozkov,
93328,CZ,80,Knezice,
93329,CZ,89,Laun,
93330,CZ,88,Chotec,
93331,CZ,78,Dolni Vestonice,
93332,CZ,86,Pobezovice,
93333,CZ,83,Huhnerwasser,
93334,CZ,81,Korbitz,
93335,CZ,87,Jetenovice,
93336,CZ,85,Michalkovice,
93337,CZ,79,Zlata Koruna,
93338,CZ,78,Sosuvka,
93339,CZ,88,Novy Vestec,
93340,CZ,82,Jetrichov,
93341,CZ,88,Stare Ouholice,
