locId,country,region,city,postcode
133415,DK,,,
133416,DK,5,Gentofte,
133417,DK,6,Copenhagen,
133418,DK,3,Valby,
133419,DK,5,Søborg,
133420,DK,5,Albertslund,
133421,DK,3,Espergærde,
133422,DK,5,Taastrup,
133423,DK,6,Vanløse,
133424,DK,5,Tåstrup,
133425,DK,3,Allerød,
133426,DK,13,Vejle,
133427,DK,5,Hellerup,
133428,DK,1,Aarhus,
133429,DK,1,Hasselager,
133430,DK,15,Viborg,
133431,DK,5,Hedehusene,
133432,DK,5,Nærum,
133433,DK,1,Bryrup,
133434,DK,3,Frederikssund,
133435,DK,5,Ballerup,
133436,DK,9,Alle,
133437,DK,11,Kastrup,
133438,DK,5,Bagsværd,
133439,DK,13,Horsens,
133440,DK,1,Hadsten,
133441,DK,3,Slangerup,
133442,DK,9,Struer,
133443,DK,12,Nykøbing,
133444,DK,7,Hjallerup,
133445,DK,1,Højbjerg,
133446,DK,13,Kolding,
133447,DK,9,Herning,
133448,DK,12,Norre,
133449,DK,5,Herlev,
133450,DK,8,Esbjerg,
133451,DK,1,Århus,
133452,DK,1,Tranbjerg,
133453,DK,4,Tommerup,
133454,DK,7,Frederikshavn,
133455,DK,10,Viby,
133456,DK,11,Højer,
133457,DK,7,Hjørring,
133458,DK,9,Ikast,
133459,DK,11,Tinglev,
133460,DK,9,Hemmet,
133461,DK,9,Ulfborg,
133462,DK,4,Odense,
133463,DK,10,Roskilde,
133464,DK,1,Brabrand,
133465,DK,5,Holte,
133466,DK,12,Næstved,
133467,DK,1,Beder,
133468,DK,3,Fredensborg,
133469,DK,5,Virum,
133470,DK,12,Nakskov,
133471,DK,11,Aller,
133472,DK,14,Høng,
133473,DK,11,Sønderborg,
133474,DK,8,Billund,
133475,DK,5,Brøndby Strand,
133476,DK,3,Stenløse,
133477,DK,9,Skjern,
133478,DK,4,Svendborg,
133479,DK,7,Nibe,
133480,DK,14,Frederiksberg,
133481,DK,1,Risskov,
133482,DK,11,Aabenraa,
133483,DK,1,Silkeborg,
133484,DK,14,Slagelse,
133485,DK,7,Brovst,
133486,DK,9,Tarm,
133487,DK,9,Ringkøbing,
133488,DK,5,Ishøj,
133489,DK,1,Skanderborg,
133490,DK,5,Hvidovre,
133491,DK,3,Helsinge,
133492,DK,7,Taars,
133493,DK,1,Randers,
133494,DK,1,Grenaa,
133495,DK,15,Roslev,
133496,DK,1,Mariager,
133497,DK,13,Tørring,
133498,DK,7,Hobro,
133499,DK,12,Sakskøbing,
133500,DK,11,Haderslev,
133501,DK,4,Brenderup,
133502,DK,14,Skælskør,
133503,DK,12,Rødby,
133504,DK,9,Lemvig,
133505,DK,7,Lyngby,
133506,DK,3,Birkerød,
133507,DK,4,Ferritslev,
133508,DK,13,Jelling,
133509,DK,1,Agri,
133510,DK,14,Haslev,
133511,DK,7,Sæby,
133512,DK,11,Toftlund,
133513,DK,9,Holstebro,
133514,DK,5,Glostrup,
133515,DK,7,Kongerslev,
133516,DK,3,Farum,
133517,DK,5,Dragør,
133518,DK,7,Godthaab,
133519,DK,15,Snedsted,
133520,DK,10,Køge,
133521,DK,3,Helsingør,
133522,DK,11,Løgumkloster,
133523,DK,5,Værløse,
133524,DK,9,Vildbjerg,
133525,DK,11,Nordborg,
133526,DK,3,Frederiksværk,
133527,DK,4,Nyborg,
133528,DK,12,Højreby,
133529,DK,15,Skive,
133530,DK,15,Højslev,
133531,DK,7,Taarup,
133532,DK,15,Bjerringbro,
133533,DK,1,Aabyhöj,
133534,DK,14,Holbæk,
133535,DK,4,Aarup,
133536,DK,1,Odder,
133537,DK,12,Fakse,
133538,DK,8,Ølgod,
133539,DK,15,Centrum,
133540,DK,13,Fredericia,
133541,DK,11,Christiansfeld,
133542,DK,7,Skagen,
133543,DK,4,Middelfart,
133544,DK,11,Bodum,
133545,DK,10,Greve Strand,
133546,DK,3,Kvistgaard,
133547,DK,1,Laasby,
133548,DK,5,Charlottenlund,
133549,DK,5,Rødovre,
133550,DK,8,Varde,
133551,DK,7,Pandrup,
133552,DK,7,Salling,
133553,DK,1,Galten,
133554,DK,14,Sorø,
133555,DK,5,Skovlunde,
133556,DK,1,Hammel,
133557,DK,5,Klampenborg,
133558,DK,7,Aars,
133559,DK,3,Humlebæk,
133560,DK,1,Hinnerup,
133561,DK,14,Svinninge,
133562,DK,7,Aabybro,
133563,DK,2,Rønne,
133564,DK,7,Vadum,
133565,DK,10,Karlslunde,
133566,DK,11,Holm,
133567,DK,3,Hørsholm,
133568,DK,4,Gelsted,
133569,DK,12,Boge,
133570,DK,9,Højmark,
133571,DK,12,Vordingborg,
133572,DK,15,Hanstholm,
133573,DK,7,Arden,
133574,DK,8,Vejen,
133575,DK,14,Gørlev,
133576,DK,1,Solbjerg,
133577,DK,7,Nørresundby,
133578,DK,1,Lystrup,
133579,DK,9,Brande,
133580,DK,13,Vingsted,
133581,DK,4,Marslev,
133582,DK,1,Sabro,
133583,DK,3,Rungsted,
133584,DK,14,Rørvig,
133585,DK,9,Frølund,
133586,DK,3,Lynge,
133587,DK,2,Lars,
133588,DK,15,Levring,
133589,DK,11,Krusaa,
133590,DK,11,Bredebro,
133591,DK,7,Faarup,
133592,DK,11,Padborg,
133593,DK,13,Ollerup,
133594,DK,13,Viuf,
133595,DK,4,Ryslinge,
133596,DK,15,Thisted,
133597,DK,4,Kerteminde,
133598,DK,3,Ølstykke,
133599,DK,14,Ringsted,
133600,DK,13,Brædstrup,
133601,DK,8,Ribe,
133602,DK,14,Kalundborg,
133603,DK,11,Graasten,
133604,DK,15,Vesløs,
133605,DK,11,Aarslev,
133606,DK,1,Slet,
133607,DK,7,Skørping,
133608,DK,4,Ullerslev,
133609,DK,1,Hornslet,
133610,DK,5,Lejre,
133611,DK,10,Greve,
133612,DK,11,Rødekro,
133613,DK,15,Glyngøre,
133614,DK,3,Hillerød,
133615,DK,5,Vallensbæk,
133616,DK,10,Jyllinge,
133617,DK,13,Hedensted,
133618,DK,1,Ebeltoft,
133619,DK,7,Støvring,
133620,DK,13,Vamdrup,
133621,DK,10,Vallö,
133622,DK,5,Vedbæk,
133623,DK,7,Hadsund,
133624,DK,1,Gjern,
133625,DK,11,Bedsted,
133626,DK,1,Mundelstrup,
133627,DK,11,Lund,
133628,DK,4,Ringe,
133629,DK,15,Krogsgaard,
133630,DK,11,Nybo,
133631,DK,10,Borup,
133632,DK,8,Debel,
133633,DK,8,Bramming,
133634,DK,8,Grindsted,
133635,DK,9,Bjert,
133636,DK,7,Stenhøj,
133637,DK,11,Broager,
133638,DK,1,Skødstrup,
133639,DK,9,Bording,
133640,DK,9,Lind,
133641,DK,13,Gedved,
133642,DK,9,Dalager,
133643,DK,1,Ryomgaard,
133644,DK,8,Krog,
133645,DK,1,Auning,
133646,DK,10,Himmelev,
133647,DK,13,Hornsyld,
133648,DK,7,Tranekær,
133649,DK,7,Rebild,
133650,DK,5,Veksø,
133651,DK,13,Lunderskov,
133652,DK,9,Opstrup,
133653,DK,5,Sengeløse,
133654,DK,7,Trend,
133655,DK,8,Bramminge,
133656,DK,9,Venø,
133657,DK,14,Dianalund,
133658,DK,4,Langeskov,
133659,DK,9,Kibæk,
133660,DK,4,Rudkøbing,
133661,DK,7,Aalbæk,
133662,DK,12,Maribo,
133663,DK,1,Egaa,
133664,DK,12,Faxe,
133665,DK,8,Kolle,
133666,DK,14,Ugerløse,
133667,DK,4,Faaborg,
133668,DK,14,Korsør,
133669,DK,14,Dalmose,
133670,DK,15,Hurup,
133671,DK,15,Rønbjerg,
133672,DK,12,Holeby,
133673,DK,7,Ørum,
133674,DK,11,Tønder,
133675,DK,11,Vojens,
133676,DK,3,Skibby,
133677,DK,14,Stenlille,
133678,DK,9,Ferring,
133679,DK,14,Asnæs,
133680,DK,11,Bylderup-bov,
133681,DK,13,Egtved,
133682,DK,12,Klippinge,
133683,DK,12,Store Heddinge,
133684,DK,3,Kokkedal,
133685,DK,7,Fjerritslev,
133686,DK,13,Løsning,
133687,DK,1,Ølsted,
133688,DK,7,Jerslev,
133689,DK,14,Vemmelev,
133690,DK,12,Guldborg,
133691,DK,1,Glesborg,
133692,DK,9,Lønborg,
133693,DK,15,Ulstrup,
133694,DK,15,Kjellerup,
133695,DK,8,Billum,
133696,DK,12,Rønnede,
133697,DK,7,Løgstør,
133698,DK,15,Karup,
133699,DK,15,Vandet,
133700,DK,9,Thyborøn,
133701,DK,12,Snertinge,
133702,DK,2,Svaneke,
133703,DK,2,Nexø,
133704,DK,12,Horslunde,
133705,DK,2,Aakirkeby,
133706,DK,13,Give,
133707,DK,14,Svebölle,
133708,DK,7,Aaby,
133709,DK,8,Oksbøl,
133710,DK,1,Flensted,
133711,DK,11,Vestergaard,
133712,DK,1,Faarvang,
133713,DK,9,Avlum,
133714,DK,1,Maarslet,
133715,DK,3,Jægerspris,
133716,DK,1,Trige,
133717,DK,7,Vraa,
133718,DK,15,Mønsted,
133719,DK,7,Skaarup,
133720,DK,4,Oure,
133721,DK,11,Bolderslev,
133722,DK,15,Balling,
133723,DK,4,Marstal,
133724,DK,4,Munkebo,
133725,DK,3,Nivaa,
133726,DK,11,Borg,
133727,DK,7,Svenstrup,
133728,DK,14,Grevinge,
133729,DK,7,Brønderslev,
133730,DK,9,Spjald,
133731,DK,3,Gilleleje,
133732,DK,4,Ladegaard,
133733,DK,7,Østerled,
133734,DK,7,Farsø,
133735,DK,1,Hørning,
133736,DK,3,Græsted,
133737,DK,8,Forum,
133738,DK,1,Them,
133739,DK,12,Stensved,
133740,DK,11,Vilstrup,
133741,DK,7,Lundby,
133742,DK,8,Brørup,
133743,DK,4,Hesselager,
133744,DK,13,Daugaard,
133745,DK,12,Glumsø,
133746,DK,13,Hampen,
133747,DK,11,Tandslet,
133748,DK,13,Almind,
133749,DK,11,Augustenborg,
133750,DK,7,Lyngsø,
133751,DK,1,Sander,
133752,DK,7,Hirtshals,
133753,DK,12,Gedser,
133754,DK,6,Amagerbro,
133755,DK,12,Væggerløse,
133756,DK,8,Frøstrup,
133757,DK,12,Særslev,
133758,DK,10,Bjæverskov,
133759,DK,4,Haarby,
133760,DK,15,Rødkærsbro,
133761,DK,9,Vinderup,
133762,DK,11,Skærbæk,
133763,DK,1,Halling,
133764,DK,10,Strøby,
133765,DK,13,Børkop,
133766,DK,14,Fjenneslev,
133767,DK,13,Juelsminde,
133768,DK,12,Stege,
133769,DK,4,Kværndrup,
133770,DK,7,Sulsted,
133771,DK,1,Kolind,
133772,DK,8,Holsted,
133773,DK,12,Stubbekøbing,
133774,DK,10,Gadstrup,
133775,DK,3,Hornbæk,
133776,DK,1,Hasle,
133777,DK,4,Otterup,
133778,DK,15,Vestervig,
133779,DK,7,Terndrup,
133780,DK,7,Vodskov,
133781,DK,2,Neksø,
133782,DK,7,Vejstrup,
133783,DK,8,Gredstedbro,
133784,DK,1,Langaa,
133785,DK,8,Gørding,
133786,DK,4,Vissenbjerg,
133787,DK,10,Hårlev,
133788,DK,10,Solrød,
133789,DK,15,Karby,
133790,DK,11,Kettinge,
133791,DK,1,Søby,
133792,DK,15,Møldrup,
133793,DK,13,Stouby,
133794,DK,12,Holme-olstrup,
133795,DK,11,Havneby,
133796,DK,7,Strandby,
133797,DK,1,Erslev,
133798,DK,15,Bjerregrav,
133799,DK,3,Hellebæk,
133800,DK,4,Blommenslyst,
133801,DK,12,Præstø,
133802,DK,14,Jystrup,
133803,DK,7,Stenstrup,
133804,DK,1,Trustrup,
133805,DK,12,Bandholm,
133806,DK,2,Allinge,
133807,DK,14,Jyderup,
133808,DK,7,Ovtrup,
133809,DK,1,Rønde,
133810,DK,14,Undløse,
133811,DK,11,Rødding,
133812,DK,11,Agerskov,
133813,DK,10,Herfølge,
133814,DK,14,Boeslunde,
133815,DK,4,Vester-skerninge,
133816,DK,9,Videbæk,
133817,DK,3,Skævinge,
133818,DK,8,Tistrup,
133819,DK,11,Bevtoft,
133820,DK,3,Tisvildeleje,
133821,DK,14,Vipperød,
133822,DK,15,Løgstrup,
133823,DK,15,Aalestrup,
133824,DK,8,Nordby,
133825,DK,9,Bøvlingbjerg,
133826,DK,1,Mørke,
133827,DK,5,Hareskov,
133828,DK,12,Ulslev,
133829,DK,1,Spentrup,
133830,DK,1,Bering,
133831,DK,1,Knebel,
133832,DK,9,Bækmarksbro,
133833,DK,14,Føllenslev,
133834,DK,13,Hvidbjerg,
133835,DK,15,Skals,
133836,DK,14,Gislinge,
133837,DK,4,Regstrup,
133838,DK,14,Ruds-vedby,
133839,DK,1,Gjerlev,
133840,DK,4,Harndrup,
133841,DK,11,Gram,
133842,DK,7,Dronninglund,
133843,DK,1,Malling,
133844,DK,7,Saltum,
133845,DK,10,Ejby,
133846,DK,4,Ebberup,
133847,DK,13,Hovedgaard,
133848,DK,7,Nyrup,
133849,DK,4,Gamby,
133850,DK,8,Tjæreborg,
133851,DK,3,Aalsgaarde,
133852,DK,13,Vonge,
133853,DK,7,Vejby,
133854,DK,14,Eskebjerg,
133855,DK,13,Østbirk,
133856,DK,8,Aarre,
133857,DK,4,Højby,
133858,DK,14,Hørve,
133859,DK,9,Hvide Sande,
133860,DK,7,Håls,
133861,DK,4,Rynkeby,
133862,DK,10,Algestrup,
133863,DK,11,Bredsten,
133864,DK,7,Byrum,
133865,DK,4,Assens,
133866,DK,15,Stoholm,
133867,DK,4,Damgård,
133868,DK,13,Ørskov,
133869,DK,4,Vedby,
133870,DK,4,Gislev,
133871,DK,14,Sandved,
133872,DK,8,Hovborg,
133873,DK,11,Husum,
133874,DK,7,Tøttrup,
133875,DK,11,Hørup,
133876,DK,12,Bogø By,
133877,DK,1,Cimbria,
133878,DK,13,Hornstrup,
133879,DK,11,Gråsten,
133880,DK,4,Morud,
133881,DK,7,Ørbæk,
133882,DK,15,Redsted,
133883,DK,1,Tranebjerg,
133884,DK,9,Trans,
133885,DK,15,Jannerup,
133886,DK,13,Nørre Snede,
133887,DK,7,Hammershøj,
133888,DK,7,Torsted,
133889,DK,1,Skejby,
133890,DK,4,Bogense,
133891,DK,11,Ørsted,
133892,DK,1,Nimtofte,
133893,DK,7,Nörager,
133894,DK,1,Spøttrup,
133895,DK,15,Vils,
133896,DK,11,Egernsund,
133897,DK,13,Randbøl,
133898,DK,7,Smidstrup,
133899,DK,11,Rogstrup,
133900,DK,15,Kjær,
133901,DK,7,Dybvad,
133902,DK,10,Kirke Saaby,
133903,DK,8,Føvling,
133904,DK,8,Henne,
133905,DK,7,Ålborg,
133906,DK,10,Haarlev,
133907,DK,14,Faarevejle,
133908,DK,6,Ryvang,
133909,DK,3,Snekkersten,
133910,DK,1,Allingaabro,
133911,DK,5,Brøndbyvester,
133912,DK,13,Saaby,
133913,DK,11,Skrydstrup,
133914,DK,12,Idestrup,
133915,DK,7,Blokhus,
133916,DK,15,Bystrup,
133917,DK,9,Green,
133918,DK,8,Gamst,
133919,DK,14,Fuglebjerg,
133920,DK,14,Merlöse,
133921,DK,1,Tilst,
133922,DK,5,Smørumnedre,
133923,DK,12,Langebæk,
133924,DK,5,Maaløv,
133925,DK,12,Vejrum,
133926,DK,8,Janderup,
133927,DK,9,Nykær,
133928,DK,4,Gudbjerg,
133929,DK,10,Højelse,
133930,DK,10,Tureby,
133931,DK,6,Bellahøj,
133932,DK,9,Vedersø,
133933,DK,13,Vandel,
133934,DK,4,Statene,
133935,DK,12,Mern,
133936,DK,14,Store Merløse,
133937,DK,12,Eskilstrup,
133938,DK,12,Tappernøje,
133939,DK,12,Rødvig,
133940,DK,3,Hundested,
133941,DK,11,Sjølund,
133942,DK,7,Gandrup,
133943,DK,1,Havndal,
133944,DK,12,Karise,
133945,DK,7,Bindslev,
133946,DK,7,Sindal,
133947,DK,12,Holtug,
133948,DK,3,Tikøb,
133949,DK,13,Flemming,
133950,DK,7,Blæsbjerg,
133951,DK,7,Bælum,
133952,DK,1,Edslev,
133953,DK,1,Linde,
133954,DK,10,Kirke-hyllinge,
133955,DK,9,Sørvad,
133956,DK,10,Lille Skensved,
133957,DK,10,Hyllinge,
133958,DK,3,Dronningmølle,
133959,DK,1,Lemming,
133960,DK,14,Asmindrup,
133961,DK,5,Skodsborg,
133962,DK,7,Lundgaard,
133963,DK,5,Herstedøster,
133964,DK,12,Herlufmagle,
133965,DK,4,Glamsbjerg,
133966,DK,10,Hvalsø,
133967,DK,12,Karrebæksminde,
133968,DK,9,Sunds,
133969,DK,10,Jersie,
133970,DK,7,Løkken,
133971,DK,5,Vridsløselille,
133972,DK,12,Kalvehave,
133973,DK,11,Lysabild,
133974,DK,10,Havdrup,
133975,DK,12,Rode,
133976,DK,15,Gedsted,
133977,DK,11,Sommersted,
133978,DK,9,Halby,
133979,DK,7,Jerup,
133980,DK,7,Odde,
133981,DK,12,Askeby,
133982,DK,4,Nørre Aaby,
133983,DK,8,Glejbjerg,
133984,DK,11,Kloster,
133985,DK,2,Gudhjem,
133986,DK,12,Søllested,
133987,DK,7,Gistrup,
133988,DK,9,Harboøre,
133989,DK,1,Dalby,
133990,DK,4,Humble,
133991,DK,13,Barrit,
133992,DK,13,Uldum,
133993,DK,13,Rask Mølle,
133994,DK,3,Blidstrup,
133995,DK,12,Bogö,
133996,DK,11,Rise,
133997,DK,11,Stenderup,
133998,DK,8,Ansager,
133999,DK,1,Hundslund,
134000,DK,11,Sandager,
134001,DK,11,Årø,
134002,DK,12,Næs,
134003,DK,10,Tune,
134004,DK,9,Søndbjerg,
134005,DK,13,Gadbjerg,
134006,DK,4,Bagenkop,
134007,DK,12,Nysted,
134008,DK,12,Eskildstrup,
134009,DK,1,Balle,
134010,DK,13,Ejstrupholm,
134011,DK,8,Sædding,
134012,DK,1,Vejlby,
134013,DK,7,Ranum,
134014,DK,5,Store Magleby,
134015,DK,7,Brøndum,
134016,DK,11,Frørup,
134017,DK,4,Agedrup,
134018,DK,8,Vorbasse,
134019,DK,12,Nørre Alslev,
134020,DK,1,Besser,
134021,DK,13,Sønder Stenderup,
134022,DK,9,Vemb,
134023,DK,1,Vinding,
134024,DK,1,Anholt,
134025,DK,5,Gladsaxe,
134026,DK,13,Snoghøj,
134027,DK,5,Taarbæk,
134028,DK,15,Agger,
134029,DK,13,Hauge,
134030,DK,12,Nyraad,
134031,DK,4,Strib,
134032,DK,9,Rindom,
134033,DK,4,Mesinge,
134034,DK,1,Alling,
134035,DK,9,Aulum,
134036,DK,10,Osted,
134037,DK,1,Hedegaard,
134038,DK,7,Bangsbostrand,
134039,DK,12,Horbelev,
134040,DK,9,Grove,
134041,DK,4,Hjortebjerg,
134042,DK,11,Dybbøl,
134043,DK,6,Sundbyøster,
134044,DK,5,Ordrup,
134045,DK,3,Kyndby,
134046,DK,4,Balslev,
134047,DK,7,Næsby,
134048,DK,12,Nørreballe,
134049,DK,9,Tang,
134050,DK,4,Stærmose,
134051,DK,7,Allerup,
134052,DK,7,Klarup,
134053,DK,3,Melby,
134054,DK,9,Gjellerup,
134055,DK,12,Bukkerup,
134056,DK,10,Hundige,
134057,DK,1,Skæring,
134058,DK,13,Erritsø,
134059,DK,8,Borre,
134060,DK,9,Hjerm,
134061,DK,1,Skaade,
134062,DK,10,Hundie,
134063,DK,12,Skallerup,
134064,DK,8,Vejrup,
134065,DK,5,Avedøre,
134066,DK,7,Suldrup,
134067,DK,9,Vind,
134068,DK,11,Nørby,
134069,DK,1,Klintrup,
134070,DK,7,Vestbjerg,
134071,DK,13,Bredballe,
134072,DK,7,Hald,
134073,DK,12,Stokkemarke,
134074,DK,15,Vammen,
134075,DK,4,Sanderum,
134076,DK,1,Åbyhøj,
134077,DK,13,Aagaard,
134078,DK,13,Ødsted,
134079,DK,7,Tårup,
134080,DK,7,Braarup,
134081,DK,9,Gullestrup,
134082,DK,4,Skamby,
134083,DK,13,Jordrup,
134084,DK,12,Torrig,
134085,DK,1,Scandia,
134086,DK,7,Højen,
134087,DK,11,Knud,
134088,DK,7,Bjergby,
134089,DK,1,Frederiksdal,
134090,DK,5,Kongens Lyngby,
134091,DK,15,Alsted,
134092,DK,9,Stadil,
134093,DK,13,Have,
134094,DK,6,Nyhavn,
134095,DK,5,Vesterled,
134096,DK,5,Ørholm,
134097,DK,3,Grønnegade,
134098,DK,12,Køng,
134099,DK,7,Haderup,
134100,DK,11,Høruphav,
134101,DK,8,Blaavand,
134102,DK,8,Henne Strand,
134103,DK,1,Grund,
134104,DK,12,Gevnø,
134105,DK,12,Toreby,
134106,DK,11,Sønderby,
134107,DK,9,Borris,
134108,DK,9,Sale,
134109,DK,11,Hejls,
134110,DK,9,Stakroge,
134111,DK,14,Fårevejle,
134112,DK,4,Ellekær,
134113,DK,1,Rude,
134114,DK,3,Liseleje,
134115,DK,12,Nybro,
134116,DK,4,Høje,
134117,DK,3,Paarup,
134118,DK,5,Ledøje,
134119,DK,6,Brønshøj,
134120,DK,8,Vejers Strand,
134121,DK,13,Egeskov,
134122,DK,1,Langå,
134123,DK,4,Ulbølle,
134124,DK,12,Hjertebjærg,
134125,DK,7,Stagsted,
134126,DK,5,Måløv,
134127,DK,7,Krogstrup,
134128,DK,7,Asaa,
134129,DK,4,Haarslev,
134130,DK,7,Tylstrup,
134131,DK,11,Mommark,
134132,DK,9,Birk,
134133,DK,11,Toft,
134134,DK,1,Trust,
134135,DK,1,Emborg,
134136,DK,4,Søndersø,
134137,DK,12,Fensmark,
134138,DK,7,Storvorde,
134139,DK,8,Bække,
134140,DK,1,Favrskov,
134141,DK,7,Ravnshøj,
134142,DK,14,Kværkeby,
134143,DK,8,Vester Nebel,
134144,DK,7,Klokkerholm,
134145,DK,7,Sønderholm,
134146,DK,7,Tversted,
134147,DK,8,Sønderho,
134148,DK,7,Lendum,
134149,DK,4,Gudme,
134150,DK,7,Skellerup,
134151,DK,4,Veflinge,
134152,DK,13,Taulov,
134153,DK,11,Kliplev,
134154,DK,11,Vesterhede,
134155,DK,8,Skovlund,
134156,DK,11,Starup,
134157,DK,13,Givskud,
134158,DK,13,Jerlev,
134159,DK,1,Norup,
134160,DK,7,Anderup,
134161,DK,9,Harreskov,
134162,DK,7,Bangsbo,
134163,DK,1,Sorring,
134164,DK,11,Lunden,
134165,DK,9,Kilde,
134166,DK,7,Heden,
134167,DK,7,Albæk,
134168,DK,3,Veksebo,
134169,DK,11,Dalsgaard,
134170,DK,8,Grene,
134171,DK,4,Båring,
134172,DK,15,Frederiks,
134173,DK,5,Fløng,
134174,DK,1,Søften,
134175,DK,5,Trørød,
134176,DK,13,Klovborg,
134177,DK,14,Tølløse,
134178,DK,3,Lillerød,
134179,DK,1,Virklund,
134180,DK,13,Sønder Bjert,
134181,DK,1,Assentoft,
134182,DK,3,Stavnsholt,
134183,DK,10,Gundsømagle,
134184,DK,10,Svogerslev,
134185,DK,7,Skårup,
134186,DK,1,Hjortshøj,
134187,DK,3,Nivå,
134188,DK,9,Hammerum,
134189,DK,4,Hillerslev,
134190,DK,15,Løvel,
134191,DK,7,Frejlev,
134192,DK,14,Forlev,
134193,DK,1,Ry,
134194,DK,12,Ørslev,
134195,DK,1,Svejbæk,
134196,DK,9,Uglev,
134197,DK,4,Neder Holluf,
134198,DK,3,Blovstrød,
134199,DK,10,Vindinge,
134200,DK,3,Ganløse,
134201,DK,14,Plejerup,
134202,DK,7,Vrå,
134203,DK,4,Thurø,
134204,DK,15,Toustrup,
134205,DK,1,Skovby,
134206,DK,7,Tårs,
134207,DK,4,Bullerup,
134208,DK,7,Vester Hassing,
134209,DK,1,Ryomgård,
134210,DK,12,Neder Vindinge,
134211,DK,10,Kirke Såby,
134212,DK,12,Fakse Ladeplads,
134213,DK,14,Nakke,
134214,DK,9,Sønder Felding,
134215,DK,15,Nykøbing,
134216,DK,1,Stavtrup,
134217,DK,1,Allingåbro,
134218,DK,12,Nyråd,
134219,DK,13,Brejning,
134220,DK,8,Nebel,
134221,DK,8,Årre,
134222,DK,4,Årslev,
134223,DK,1,Mårslet,
134224,DK,4,Bellinge,
134225,DK,1,Langöre,
134226,DK,12,Sundby,
134227,DK,7,Kås,
134228,DK,1,Framlev,
134229,DK,7,Lyngby Skov,
134230,DK,15,Resen,
134231,DK,10,Solrød Strand,
134232,DK,4,Brobyværk,
134233,DK,11,Kruså,
134234,DK,8,Gesten,
134235,DK,5,Höje Taastrup,
134236,DK,12,Læsø,
134237,DK,10,Strøby Egede,
134238,DK,7,Lem,
134239,DK,12,Toksværd,
134240,DK,13,Hostrup,
134241,DK,15,Ans,
134242,DK,1,Stilling,
134243,DK,14,Mørkøv,
134244,DK,2,Kirkeby,
134245,DK,15,Sønder Thise,
134246,DK,8,Sønder Omme,
134247,DK,4,Lakkendrup,
134248,DK,3,Nødebo,
134249,DK,8,Nørre Nebel,
134250,DK,11,Alslev,
134251,DK,9,Snejbjerg,
134252,DK,4,Asperup,
134253,DK,11,Lintrup,
134254,DK,15,Korning,
134255,DK,4,Ejby,
134256,DK,11,Løjt Kirkeby,
134257,DK,7,Brønden,
134258,DK,1,Løgten,
134259,DK,12,Ulkestrup,
134260,DK,15,Kjölseng,
134261,DK,2,Østermarie,
134262,DK,7,Kvissel,
134263,DK,5,Hvessinge,
134264,DK,4,Ærøskøbing,
134265,DK,9,Gjellerup Kirkeby,
134266,DK,15,Øster Assels,
134267,DK,1,Grauballe,
134268,DK,4,Martofte,
134269,DK,1,Kolt,
134270,DK,15,Harre,
134271,DK,1,Egå,
134272,DK,7,Vegger,
134273,DK,2,Stavsdal,
134274,DK,13,Nyby,
134275,DK,13,Glud,
134276,DK,7,Stenild,
134277,DK,9,Sønder Ingstrup,
134278,DK,1,Pederstrup,
134279,DK,11,Guderup,
134280,DK,9,Engesvang,
134281,DK,9,Tim,
134282,DK,15,Nørdam,
134283,DK,2,Godthaab,
134284,DK,1,Løve,
134285,DK,12,Stibanken,
134286,DK,9,Semb,
134287,DK,13,Neder Vrigsted,
134288,DK,1,Fårvang,
134289,DK,15,Kvols,
134290,DK,4,Seden,
134291,DK,3,Ålsgårde,
134292,DK,1,Låsby,
134293,DK,11,Branderup,
134294,DK,1,Glæsborg,
134295,DK,5,Fortunen,
134296,DK,6,Husum,
134297,DK,9,Skodborg Huse,
134298,DK,4,Tullebølle,
134299,DK,5,Buddinge,
134300,DK,1,Ring,
134301,DK,11,Visby,
134302,DK,4,Stige,
134303,DK,14,Frostrup,
134304,DK,8,Galstho,
134305,DK,12,Brandsmose,
134306,DK,8,Hallum,
134307,DK,9,Nissum,
134308,DK,14,Ordrup,
134309,DK,10,Torkilstrup,
134310,DK,14,Nykøbing Sjælland,
134311,DK,15,Bigum,
134312,DK,15,Vranum,
134313,DK,8,Vester Starup,
134314,DK,2,Glappe,
134315,DK,5,Vangede,
134316,DK,4,Højrup,
134317,DK,2,Ypnasted,
134318,DK,8,Hejnsvig,
134319,DK,2,Kongensmark,
134320,DK,1,Krarup,
134321,DK,8,Oved,
134322,DK,9,Sinkbæk,
134323,DK,11,Rabsted,
134324,DK,11,Nørre Sejerslev,
134325,DK,9,Smerup,
134326,DK,15,Hørdum,
134327,DK,15,Rettrup,
134328,DK,1,Grølsted,
134329,DK,15,Hjarbæk,
134330,DK,4,Vindeby,
134331,DK,3,Holløse,
134332,DK,14,Knabstrup,
134333,DK,9,Underbjærg,
134334,DK,11,Tombøl,
134335,DK,7,Kirkeholt,
134336,DK,6,Sundbyvester,
134337,DK,7,Østervrå,
134338,DK,15,Vadum,
134339,DK,11,Nederby,
134340,DK,8,Tranbjærg,
134341,DK,14,Vig,
134342,DK,4,Vittinge,
134343,DK,8,Omme,
134344,DK,9,Ramme,
134345,DK,11,Abterp,
134346,DK,11,Kolsnap,
134347,DK,7,Seem,
134348,DK,15,Nørre Andrup,
134349,DK,1,Gesing,
134350,DK,12,Vesterby,
134351,DK,12,Jysted,
134352,DK,9,Fabjærg,
134353,DK,15,Vester Assels,
134354,DK,14,Kirke Eskilstrup,
134355,DK,3,Melløse,
134356,DK,1,Gjesing,
134357,DK,8,Bordrup,
134358,DK,11,Halk,
134359,DK,11,Jels,
134360,DK,11,Lakolk,
134361,DK,11,Marstrup,
134362,DK,7,Granly,
134363,DK,6,Valby,
134364,DK,15,Sillerslev,
134365,DK,11,Bjerndrup,
134366,DK,9,Lem,
134367,DK,15,Nykøbing,
134368,DK,9,Haderup,
134369,DK,13,Hovedgård,
134370,DK,3,Gørløse,
134371,DK,14,Vandløse,
134372,DK,14,Regstrup,
134373,DK,15,Skelhøje,
134374,DK,5,Tårnby,
134375,DK,4,Frørup,
134376,DK,3,Ølsted,
134377,DK,3,Vejby,
134378,DK,3,Kvistgård,
134379,DK,15,Frøstrup,
134380,DK,12,Lundby,
134381,DK,12,Skørpinge,
134382,DK,8,Lintrup,
134383,DK,13,Ny Nørup,
134384,DK,4,Ejby,
134385,DK,14,Nyrup,
134386,DK,10,Lyndby,
134387,DK,1,Voldby,
134388,DK,8,Aalling,
134389,DK,7,Hvalpsund,
134390,DK,5,Brøndbyøster,
134391,DK,1,Ødum,
134392,DK,4,Tranekær,
134393,DK,1,Vorup,
134394,DK,4,Millinge,
134395,DK,8,Askov,
134396,DK,13,Barrithule,
134397,DK,11,Nybøl,
134398,DK,13,Daugård,
134399,DK,2,Hasle,
134400,DK,1,Gjerrild,
134401,DK,4,Ørbæk,
134402,DK,1,Spørring,
134403,DK,13,Grumstrup,
134404,DK,10,Snoldelev,
134405,DK,1,Elev,
134406,DK,11,Skodborg,
134407,DK,15,Benslehøj,
134408,DK,8,Henneby,
134409,DK,7,Agersted,
134410,DK,4,Vejstrup,
134411,DK,15,Selde,
134412,DK,7,Tornby,
134413,DK,1,Stødov,
134414,DK,4,Søby,
134415,DK,14,Stude,
134416,DK,15,Hundborg,
134417,DK,7,Dall,
134418,DK,7,Øster Vrå,
134419,DK,7,Haverslev,
134420,DK,15,Ramsing,
134421,DK,15,Håsum,
134422,DK,12,Keldernæsskov,
134423,DK,14,Ubby,
134424,DK,10,Gevninge,
134425,DK,4,Dalby,
134426,DK,8,Blåvand,
134427,DK,1,Eskerod,
134428,DK,1,Thorsø,
134429,DK,8,Agerbæk,
134430,DK,5,Hove,
134431,DK,13,Østerskov,
134432,DK,14,Rude,
134433,DK,15,Oddense,
134434,DK,3,Apperup,
134435,DK,15,Sallingsund,
134436,DK,2,Klemensker,
134437,DK,12,Rødbyhavn,
134438,DK,9,Barde,
134439,DK,3,Asserbo,
134440,DK,7,Ellidshøj,
134441,DK,14,Jerslev,
134442,DK,7,Aså,
134443,DK,1,Ramten,
134444,DK,1,Ørum,
134445,DK,12,Hejringe,
134446,DK,12,Brydebjærg,
134447,DK,7,Østerby Havn,
134448,DK,1,Nørbæk,
134449,DK,11,Kollund,
134450,DK,15,Sennels,
134451,DK,14,Hølkerup,
134452,DK,14,Store Fuglede,
134453,DK,13,Bredsten,
134454,DK,1,Oldrup,
134455,DK,12,Kettinge,
134456,DK,2,Olsker,
134457,DK,1,Stenvad,
134458,DK,3,Blistrup,
134459,DK,13,Såby,
134460,DK,1,Foldby,
134461,DK,7,Biersted,
134462,DK,14,Munke Bjergby,
134463,DK,9,Humlum,
134464,DK,12,Tybjærglille,
134465,DK,1,Borum,
134466,DK,9,Hanning,
134467,DK,7,Lunderhede,
134468,DK,7,Sortsø,
134469,DK,15,Tastum,
134470,DK,1,Fårup,
134471,DK,15,Vile,
134472,DK,4,Allested,
134473,DK,8,Næsbjerg,
134474,DK,15,Sjørring,
134475,DK,3,Meløse,
134476,DK,12,Errindlev,
134477,DK,12,Everdrup,
134478,DK,10,Gershøj,
134479,DK,12,Mørreby,
134480,DK,7,Ingstrup,
134481,DK,1,Laurbjerg,
134482,DK,5,Hvissinge,
134483,DK,9,Karstoft,
134484,DK,8,Vejers,
134485,DK,1,Sejs,
134486,DK,8,Filskov,
134487,DK,7,Blenstrup,
134488,DK,1,Kousted,
134489,DK,1,Gjandrup,
134490,DK,11,Bov,
134491,DK,7,Valsgaard,
134492,DK,15,Vinge,
134493,DK,8,Jernvedlund,
134494,DK,12,Harpelunde,
134495,DK,13,Stenderup,
134496,DK,7,Als,
134497,DK,3,Sonnerup,
134498,DK,12,Hellested,
134499,DK,4,Skallebølle,
134500,DK,12,Dannemare,
134501,DK,3,Skuldelev,
134502,DK,11,Vilsbæk,
134503,DK,14,Croneshvile,
134504,DK,7,Sejlflod,
134505,DK,11,Havnbjerg,
134506,DK,9,Ørnhøj,
134507,DK,4,Fraugde,
134508,DK,15,Lee,
134509,DK,9,Faster,
134510,DK,1,Voel,
134511,DK,9,Ilskov,
134512,DK,10,Vester Saaby,
134513,DK,4,Flemløse,
134514,DK,11,Sarup,
134515,DK,1,Feldballe,
134516,DK,11,Rens,
134517,DK,1,Stevnstrup,
134518,DK,1,Sejling,
134519,DK,1,Vinstrup,
134520,DK,8,Jernved,
134521,DK,11,Ballum,
134522,DK,1,Ørsted,
134523,DK,4,Lejbølle,
134524,DK,1,Ugelbølle,
134525,DK,3,Slagslunde,
134526,DK,13,Ødis,
134527,DK,11,Hjordkær,
134528,DK,8,Biltoft,
134529,DK,4,Espe,
134530,DK,4,Jullerup,
134531,DK,12,Vesterborg,
134532,DK,1,Sandby,
134533,DK,3,Ramløse,
134534,DK,14,Flakkebjerg,
134535,DK,11,Felsted,
134536,DK,11,Hessel,
134537,DK,8,Roager,
134538,DK,15,Daugbjerg,
134539,DK,7,Brastrup,
134540,DK,9,Tvis,
134541,DK,9,Troldhede,
134542,DK,2,Nyker,
134543,DK,4,Rønninge,
134544,DK,14,Ougtved,
134545,DK,12,Sageby,
134546,DK,12,Blangslev,
134547,DK,3,Vejby Strand,
134548,DK,3,Udsholt,
134549,DK,3,Lyngerup,
134550,DK,1,Over Fussing,
134551,DK,14,Terslev,
134552,DK,4,Dong,
134553,DK,1,Tirstrup,
134554,DK,8,Kærup,
134555,DK,9,Hee,
134556,DK,13,Søvind,
134557,DK,13,Føvling,
134558,DK,1,Jebjerg,
134559,DK,7,Tranum,
134560,DK,15,Thise,
134561,DK,1,Røgen,
134562,DK,4,Holev,
134563,DK,4,Snave,
134564,DK,1,Alken,
134565,DK,8,Nordenskov,
134566,DK,7,Hou,
134567,DK,8,Rousthøje,
134568,DK,1,Thorsager,
134569,DK,1,Gylling,
134570,DK,14,Rosted,
134571,DK,15,Øsløs,
134572,DK,7,Elling,
134573,DK,15,Tødsø,
134574,DK,7,Poulstrup,
134575,DK,12,Horreby,
134576,DK,7,Hulsig,
134577,DK,1,Nørager,
134578,DK,15,Nørskovlund,
134579,DK,9,Borbjerg,
134580,DK,4,Indslev,
134581,DK,10,Fredsgårde,
134582,DK,7,Vebbestrup,
134583,DK,4,Ommel,
134584,DK,12,Øster Ulslev,
134585,DK,10,Herringløse,
134586,DK,11,Hovslund,
134587,DK,7,Ulsted,
134588,DK,15,Klitmøller,
134589,DK,15,Sejerslev,
134590,DK,12,Brandelev,
134591,DK,1,Udbyneder,
134592,DK,1,Råby,
134593,DK,13,Thyregod,
134594,DK,7,Østerby,
134595,DK,14,Herrestrup,
134596,DK,4,Dalum,
134597,DK,9,Mejrup,
134598,DK,9,Fasterholt,
134599,DK,9,Vostrup,
134600,DK,8,Tofterup,
134601,DK,11,Troldkær,
134602,DK,15,Tange,
134603,DK,4,Orte,
134604,DK,9,Gren,
134605,DK,12,Magleby,
134606,DK,10,Slimminge,
134607,DK,3,Tisvilde,
134608,DK,1,Fløjstrup,
134609,DK,1,Sepstrup,
134610,DK,7,Flauenskjold,
134611,DK,1,Skovgaarde,
134612,DK,1,Tvede,
134613,DK,7,Veddum,
134614,DK,7,Mou,
134615,DK,7,Vaarst,
134616,DK,1,Vitten,
134617,DK,2,Østerlars,
134618,DK,4,Verninge,
134619,DK,4,Faldsled,
134620,DK,12,Æbelnæs,
134621,DK,14,Nørre Asmindrup,
134622,DK,3,Lynæs,
134623,DK,13,Kalhave,
134624,DK,14,Benløse,
134625,DK,12,Græshave,
134626,DK,1,Selling,
134627,DK,7,Gjøl,
134628,DK,1,Eg,
134629,DK,15,Lihme,
134630,DK,14,Gimlinge,
134631,DK,13,Gårslev,
134632,DK,14,Kundby,
134633,DK,7,Birkelse,
134634,DK,12,Ryde,
134635,DK,15,Risum,
134636,DK,15,Hassing,
134637,DK,7,Ravnkilde,
134638,DK,10,Uglestrup,
134639,DK,13,Ølholm,
134640,DK,11,Blans,
134641,DK,4,Kertinge,
134642,DK,9,Hogager,
134643,DK,11,Hammelev,
134644,DK,8,Lunde,
134645,DK,14,Trønninge,
134646,DK,13,Svömmehal,
134647,DK,11,Holbøl,
134648,DK,7,Klim,
134649,DK,15,Breum,
134650,DK,8,Darum,
134651,DK,11,Skelde,
134652,DK,1,Maarup,
134653,DK,10,Englerup,
134654,DK,9,Lyngs,
134655,DK,8,Hviding,
134656,DK,1,Lisbjerg,
134657,DK,13,Varmark,
134658,DK,7,Annerup,
134659,DK,7,Lørslev,
134660,DK,1,Todbjerg,
134661,DK,3,Esbönderup,
134662,DK,10,Kirke Sonnerup,
134663,DK,1,Rostved,
134664,DK,8,Roust,
134665,DK,11,Mjang,
134666,DK,10,Gundsølille,
134667,DK,13,Mørkholt,
134668,DK,13,Vestbirk,
134669,DK,7,Gudumholm,
134670,DK,1,Vrinners,
134671,DK,8,Krogager,
134672,DK,14,Søstrup,
134673,DK,12,Ønslev,
134674,DK,1,Linå,
134675,DK,1,Gjessø,
134676,DK,7,Hundelev,
134677,DK,1,Langkastrup,
134678,DK,4,Lyndelse,
134679,DK,1,Pindstrup,
134680,DK,13,Belle,
134681,DK,8,Grimstrup,
134682,DK,2,Rø,
134683,DK,7,Thorshøj,
134684,DK,7,Helberskov,
134685,DK,7,Ullits,
134686,DK,7,Halvrimmen,
134687,DK,12,Lov,
134688,DK,4,Brændekilde,
134689,DK,9,Ejsing,
134690,DK,4,Hårslev,
134691,DK,11,Abild,
134692,DK,14,Søndersted,
134693,DK,2,Sandvig,
134694,DK,13,Sandvad,
134695,DK,7,Næsborg,
134696,DK,4,Kullerup,
134697,DK,7,Byrsted,
134698,DK,8,Spandet,
134699,DK,11,Brøns,
134700,DK,15,Stenbjerg,
134701,DK,15,Villerslev,
134702,DK,7,Skørbæk,
134703,DK,7,Øster Hurup,
134704,DK,2,Bodilsker,
134705,DK,14,Udstrup,
134706,DK,14,Sejerby,
134707,DK,14,Stestrup,
134708,DK,3,Annisse,
134709,DK,13,Hammer,
134710,DK,6,Brøndshøj,
134711,DK,12,Rønnebæk,
134712,DK,7,Hellum,
134713,DK,1,Haldum,
134714,DK,13,Gaarslev,
134715,DK,4,Ravnebjerg,
134716,DK,15,Ørding,
134717,DK,7,Hune,
134718,DK,12,Karrebæk,
134719,DK,12,Kalby,
134720,DK,3,Mårum,
134721,DK,11,Ravsted,
134722,DK,15,Mausing,
134723,DK,14,Snertinge,
134724,DK,14,Frølunde,
134725,DK,13,Klakring,
134726,DK,7,Bonderup,
134727,DK,13,Gludsted,
134728,DK,15,Nors,
134729,DK,1,Uggelbølle,
134730,DK,11,Harreby,
134731,DK,15,Doverodde,
134732,DK,1,Mesing,
134733,DK,7,Hornum,
134734,DK,7,Volsted,
134735,DK,7,Havbro,
134736,DK,14,Bisserup,
134737,DK,1,Vivild,
134738,DK,15,Ø,
134739,DK,14,Klint,
134740,DK,15,Grønbæk,
134741,DK,5,Høje Tåstrup,
134742,DK,14,Lumsås,
134743,DK,12,Tillitse,
134744,DK,7,Aggersund,
134745,DK,15,Torup,
134746,DK,15,Skyum,
134747,DK,7,Stinesminde,
134748,DK,1,Blegind,
134749,DK,12,Dalby-borup,
134750,DK,8,Gjerndrup,
134751,DK,7,Overlade,
134752,DK,1,Voldum,
134753,DK,8,Donslund,
134754,DK,12,Sildestrup,
134755,DK,13,Pjedsted,
134756,DK,9,Nørre Bork,
134757,DK,7,Binderup,
134758,DK,15,Fjelsø,
134759,DK,4,Strammelse,
134760,DK,14,Havnebyen,
134761,DK,10,Assendløse,
134762,DK,7,Visse,
134763,DK,13,Gravens,
134764,DK,15,Demstrup,
134765,DK,12,Gundslevmagle,
134766,DK,9,Fjaltring,
134767,DK,1,Kolby Kås,
134768,DK,1,Lading,
134769,DK,1,Hadbjerg,
134770,DK,13,Hornborg,
134771,DK,1,Ørting,
134772,DK,9,Vorgod,
134773,DK,4,Hudevad,
134774,DK,8,Vilslev,
134775,DK,8,Gaarde,
134776,DK,7,Torup,
134777,DK,15,Lindum,
134778,DK,3,Munkerup,
134779,DK,5,Mørkhøj,
134780,DK,5,Lyngby,
134781,DK,5,Kastrup,
134782,DK,15,Erslev,
134783,DK,12,Borre,
134784,DK,14,Højby,
134785,DK,3,Stenlille,
134786,DK,15,Vraa,
134787,DK,8,Ovtrup,
134788,DK,1,Ulstrup,
134789,DK,5,Taarnby,
134790,DK,8,Aalbæk,
134791,DK,15,Øster Jølby,
134792,DK,15,Nederby,
134793,DK,11,Vester Sottrup,
134794,DK,9,Ådum,
134795,DK,15,Tapdrup,
134796,DK,13,Skibet,
134797,DK,7,Frederiksberg,
134798,DK,4,Nørreballe,
134799,DK,9,Bur,
134800,DK,15,Bedsted,
134801,DK,14,Eskilstrup,
134802,DK,9,Nørre Nissum,
134803,DK,11,Øster Lindet,
134804,DK,14,Uggerløse,
134805,DK,15,Ræhr,
134806,DK,14,Nordrup,
134807,DK,11,Stepping,
134808,DK,7,Sørå,
134809,DK,4,Aarslev,
134810,DK,1,Aaby,
134811,DK,11,Kolstrup,
134812,DK,7,Sofiedal,
134813,DK,15,Ydby,
134814,DK,1,Viby,
134815,DK,14,Værslev,
134816,DK,4,Stenstrup,
134817,DK,4,Skårup,
134818,DK,7,Voerså,
134819,DK,15,Mammen,
134820,DK,5,Kirke-værløse,
134821,DK,13,Boring,
134822,DK,7,Lekken,
134823,DK,2,Tejn,
134824,DK,1,Hvilsted,
134825,DK,12,Kragenæs,
134826,DK,13,Bråskov,
134827,DK,1,Fannerup,
134828,DK,1,Grundfør,
134829,DK,4,Sallinge,
134830,DK,12,Lille Heddinge,
134831,DK,1,Søballe,
134832,DK,11,Arrild,
134833,DK,2,Lobbæk,
134834,DK,12,Sandby,
134835,DK,1,Dalbyover,
134836,DK,13,Hatting,
134837,DK,7,Syvsten,
134838,DK,15,Kvorning,
134839,DK,8,Malt,
134840,DK,1,Harlev,
134841,DK,1,Vrads,
134842,DK,3,Holløselund,
134843,DK,14,Stillinge,
134844,DK,10,Lellinge,
134845,DK,15,Bested,
134846,DK,7,Thorup,
134847,DK,1,Onsbjerg,
134848,DK,13,Bredal,
134849,DK,5,Smidstrup,
134850,DK,9,Timring,
134851,DK,9,Fårbæk,
134852,DK,14,Højbjerg,
134853,DK,12,Tybjerglille,
134854,DK,3,Venslev,
134855,DK,7,Skelund,
134856,DK,8,Hinnum,
134857,DK,2,Nylars,
134858,DK,15,Låstrup,
134859,DK,11,Varnæs,
134860,DK,7,Vester Hornum,
134861,DK,10,Kirke-syv,
134862,DK,13,Sebberup,
134863,DK,10,Kløvested,
134864,DK,7,Hallund,
134865,DK,7,Vive,
134866,DK,1,Sall,
134867,DK,13,Randbøldal,
134868,DK,9,Herrup,
134869,DK,7,Buddum,
134870,DK,9,Herborg,
134871,DK,7,Moseby,
134872,DK,4,Ejlby,
134873,DK,11,Hoyer,
134874,DK,13,Ildved,
134875,DK,15,Hvorslev,
134876,DK,1,Velling,
134877,DK,3,Rågeleje,
134878,DK,13,Høl,
134879,DK,1,Serup,
134880,DK,7,Oudrup,
134881,DK,12,Vester Ulslev,
134882,DK,9,Kølkær,
134883,DK,1,Saksild,
134884,DK,9,Dejbjerg,
134885,DK,12,Nyord,
134886,DK,8,Lundtofte,
134887,DK,6,Emdrup,
134888,DK,14,Igelsø,
134889,DK,14,Bjergsted,
134890,DK,11,Frifelt,
134891,DK,15,Aidt,
134892,DK,7,Komdrup,
134893,DK,4,Såderup,
134894,DK,4,Fangel,
134895,DK,14,Buerup,
134896,DK,8,Ho,
134897,DK,4,Bred,
134898,DK,7,Aasted,
134899,DK,7,Lille Binderup,
134900,DK,1,Fuglsø,
134901,DK,10,Kattinge,
134902,DK,7,Lyngså,
134903,DK,12,Koster,
134904,DK,7,Fjellerad,
134905,DK,3,Esrum,
134906,DK,12,Øster Kippinge,
134907,DK,11,Bovrup,
134908,DK,15,Vester Jølby,
134909,DK,9,Jegindø,
134910,DK,13,Haldrup,
134911,DK,1,Laven,
134912,DK,7,Ilbro,
134913,DK,4,Birkende,
134914,DK,1,Houlbjerg,
134915,DK,7,Durup,
134916,DK,3,Aalsgaard,
134917,DK,15,Thorsø,
134918,DK,10,Vester Såby,
134919,DK,7,Stenum,
134920,DK,15,Dommerby,
134921,DK,9,Hodsager,
134922,DK,1,Gerlev,
134923,DK,14,Vigersted,
134924,DK,4,Kappendrup,
134925,DK,14,Bjerrede,
134926,DK,4,Gamborg,
134927,DK,11,Over Jerstal,
134928,DK,7,Gerå,
134929,DK,7,Søholt,
134930,DK,1,Lime,
134931,DK,3,Søsum,
134932,DK,3,Karlebo,
134933,DK,15,Simested,
134934,DK,11,Fjeldstrup,
134935,DK,8,Lindknud,
134936,DK,13,Ravning,
134937,DK,14,Lumsaas,
134938,DK,13,Gammelstrup,
134939,DK,14,Stenmagle,
134940,DK,4,Lindeskov,
134941,DK,14,Skellingsted,
134942,DK,11,Sønderhav,
134943,DK,7,Vilsted,
134944,DK,15,Ljørslev,
134945,DK,3,Saltrup,
134946,DK,8,Gejsing,
134947,DK,1,Farre,
134948,DK,7,Rörbæk,
134949,DK,7,Linderum,
134950,DK,14,Venslev,
134951,DK,8,Hunderup,
134952,DK,13,Skærup,
134953,DK,15,Sparkær,
134954,DK,7,Geraa,
134955,DK,1,Fjellerup,
134956,DK,7,Øster Hornum,
134957,DK,7,Staa,
134958,DK,4,Blanke,
134959,DK,12,Sprove,
134960,DK,10,Valløby,
134961,DK,10,Vedskølle,
134962,DK,10,Dåstrup,
134963,DK,8,Gårde,
134964,DK,10,Karlslunde Strand,
134965,DK,1,Horn,
134966,DK,1,Bjerre,
134967,DK,9,Kirkeby,
134968,DK,7,Egense,
134969,DK,10,Skalstrup,
134970,DK,11,Søgård,
134971,DK,1,Ballen,
134972,DK,1,Ebdrup,
134973,DK,8,Obbekær,
134974,DK,12,Falkerslev,
134975,DK,9,No,
134976,DK,1,Brundby,
134977,DK,8,Sejstrup,
134978,DK,14,Rørby,
134979,DK,4,Skovsbo,
134980,DK,9,Sperring,
134981,DK,1,Vissing,
134982,DK,15,Vorning,
134983,DK,7,Tolstrup,
134984,DK,2,Pedersker,
134985,DK,2,Rutsker,
134986,DK,4,Ellinge,
134987,DK,5,Øverød,
134988,DK,5,Vridsløsemagle,
134989,DK,11,Simmersted,
134990,DK,10,Ølby,
134991,DK,11,Vejstruprød,
134992,DK,3,Lappegrund,
134993,DK,12,Købelev,
134994,DK,15,Vellev,
134995,DK,7,Askildrup,
134996,DK,5,Hareskovby,
134997,DK,3,Gunderød,
134998,DK,7,Astrup,
134999,DK,10,Aagerup,
135000,DK,4,Turup,
135001,DK,1,Hylke,
135002,DK,5,Biltris,
135003,DK,1,Mårup,
135004,DK,4,Baaring,
135005,DK,13,Bjerlev,
135006,DK,13,Korning,
135007,DK,11,Arnum,
135008,DK,8,Tarp,
135009,DK,9,Nees,
135010,DK,1,Laurberg,
135011,DK,2,Snogebæk,
135012,DK,4,Brylle,
135013,DK,10,Himlingøje,
135014,DK,12,Arnøje,
135015,DK,3,Maarum,
135016,DK,10,Valore,
135017,DK,1,Ormslev,
135018,DK,11,Fjelstrup,
135019,DK,12,Asø,
135020,DK,10,Karlstrup,
135021,DK,7,Ravnstrup,
135022,DK,11,Genner,
135023,DK,9,Lomborg,
135024,DK,7,Gaaser,
135025,DK,7,Glerup,
135026,DK,7,Godthåb,
135027,DK,1,Haarup,
135028,DK,1,Gassum,
135029,DK,7,Mastrup,
135030,DK,9,Skibbild,
135031,DK,7,Solbjerg,
135032,DK,1,Uggelhuse,
135033,DK,7,Højstrup,
135034,DK,1,Øster Bjerregrav,
135035,DK,15,Vinderslev,
135036,DK,7,Nøvling,
135037,DK,13,Yding,
135038,DK,1,Hårup,
135039,DK,11,Rinkenæs,
135040,DK,4,Jordløse,
135041,DK,14,Teestrup,
135042,DK,9,Haunstrup,
135043,DK,7,Børglum,
135044,DK,7,Skærping,
135045,DK,4,Vantinge,
135046,DK,12,Klarskov,
135047,DK,1,Kastbjerg,
135048,DK,14,Hjembæk,
135049,DK,7,Hjedsbæk,
135050,DK,11,Mellerup,
135051,DK,1,Paderup,
135052,DK,4,Dang,
135053,DK,4,Vårø,
135054,DK,7,Vindblæs,
135055,DK,14,Skippinge,
135056,DK,7,Dokkedal,
135057,DK,13,Braa,
135058,DK,1,Vorre,
135059,DK,11,Stubbæk,
135060,DK,12,Hjertebjerg,
135061,DK,1,Sælvig,
135062,DK,12,Vandborg,
135063,DK,13,Mørup,
135064,DK,15,Svenstrup,
135065,DK,13,Gauerslund,
135066,DK,13,Rårup,
135067,DK,11,Bylderup,
135068,DK,1,Dejret,
135069,DK,9,Idom,
135070,DK,13,Egebjerg,
135071,DK,7,Melholt,
135072,DK,1,Øster Tørslev,
135073,DK,4,Søllinge,
135074,DK,10,Ny Tolstrup,
135075,DK,15,Vridsted,
135076,DK,13,Gramrode,
135077,DK,8,Veerst,
135078,DK,8,Skjoldbjerg,
135079,DK,11,Brede,
135080,DK,7,Vesterö,
135081,DK,7,Rold,
135082,DK,1,Mygind,
135083,DK,3,Østby,
135084,DK,7,Stae,
135085,DK,13,Voerladegård,
135086,DK,15,Finderup,
135087,DK,9,Arnborg,
135088,DK,1,Lindbjerg,
135089,DK,7,Bislev,
135090,DK,2,Muleby,
135091,DK,4,Korinth,
135092,DK,4,Voldtofte,
135093,DK,10,Vemmedrup,
135094,DK,12,Havnelev,
135095,DK,3,Saunte,
135096,DK,1,Kankbølle,
135097,DK,11,Taps,
135098,DK,11,Øsby,
135099,DK,11,Kjargaard,
135100,DK,5,Nybølle,
135101,DK,7,Vange,
135102,DK,13,Uhre,
135103,DK,9,Hvidbjerg,
135104,DK,9,Pårup,
135105,DK,7,Store Brøndum,
135106,DK,4,Aa,
135107,DK,13,Ågård,
135108,DK,13,Ødis Bramdrup,
135109,DK,7,Handest,
135110,DK,11,Gejlå,
135111,DK,1,Resenbro,
135112,DK,7,Skærum,
135113,DK,7,Mejlby,
135114,DK,4,Illebølle,
135115,DK,4,Vester Åby,
135116,DK,10,Gørslev,
135117,DK,10,Hastrup,
135118,DK,7,Sørup,
135119,DK,1,Hald,
135120,DK,15,Fly,
135121,DK,11,Nustrup,
135122,DK,1,Høbjerg,
135123,DK,11,Vellerup,
135124,DK,14,Sludstrup,
135125,DK,11,Hjerting,
135126,DK,9,Isenvad,
135127,DK,4,Å,
135128,DK,15,Aakjær,
135129,DK,11,Kær,
135130,DK,1,Lyngå,
135131,DK,1,Sjelle,
135132,DK,1,Femmøller,
135133,DK,11,Burkal,
135134,DK,8,Vrøgum,
135135,DK,12,Boestofte,
135136,DK,11,Møgeltønder,
135137,DK,3,Niverød,
135138,DK,12,Grænge,
135139,DK,12,Døllefjelde,
135140,DK,15,Ørum,
135141,DK,4,Tryggelev,
135142,DK,4,Barløse,
135143,DK,4,Skovs-højrup,
135144,DK,14,Vetterslev,
135145,DK,14,Hagested,
135146,DK,10,Kisserup,
135147,DK,7,Ejdrup,
135148,DK,1,Skannerup,
135149,DK,9,Jegind,
135150,DK,15,Vilsund,
135151,DK,9,Thorsminde,
135152,DK,5,Søllerød,
135153,DK,11,Adsbøl,
135154,DK,9,Søndervig,
135155,DK,7,Skibsby,
135156,DK,11,Hoptrup,
135157,DK,12,Myrup,
135158,DK,1,Tebstrup,
135159,DK,12,Sullerup,
135160,DK,14,Svallerup,
135161,DK,12,Vallensved,
135162,DK,13,Bisholt,
135163,DK,1,Torrild,
135164,DK,7,Vrensted,
135165,DK,1,Norring,
135166,DK,12,Tommestrup,
135167,DK,1,Bønnerup Strand,
135168,DK,1,Kolby Kaas,
135169,DK,5,Tårbæk,
135170,DK,10,Alkestrup,
135171,DK,11,Hejlsminde,
135172,DK,15,Tilsted,
135173,DK,15,Rind,
135174,DK,15,Foulum,
135175,DK,11,Rejsby,
135176,DK,7,Østrup,
135177,DK,11,Mintebjerg,
135178,DK,7,Sebbersund,
135179,DK,4,Dømmestrup,
135180,DK,1,Bjedstrup,
135181,DK,1,Rigtrup,
135182,DK,1,Tved,
135183,DK,3,Herlev,
135184,DK,3,Gurre,
135185,DK,1,Storring,
135186,DK,4,Klintebjerg,
135187,DK,4,Andebølle,
135188,DK,7,Farstrup,
135189,DK,1,Ommestrup,
135190,DK,1,Væth,
135191,DK,14,Sørbymagle,
135192,DK,12,Damme,
135193,DK,1,Koed,
135194,DK,1,Skåde,
135195,DK,3,Gadevang,
135196,DK,2,Listed,
135197,DK,15,Rindsholm,
135198,DK,15,Nisset,
135199,DK,4,Havndrup,
135200,DK,10,Kyndeløse,
135201,DK,3,Kregme,
135202,DK,13,Bøgballe,
135203,DK,4,Refsvindinge,
135204,DK,13,Sejet,
135205,DK,1,Grønfeld,
135206,DK,1,Ginnerup,
135207,DK,15,Overlund,
135208,DK,9,Handbjerg,
135209,DK,1,Asklev,
135210,DK,1,Fausing,
135211,DK,1,Stangerum,
135212,DK,12,Lille Torøje,
135213,DK,7,Arentsminde,
135214,DK,4,Svanninge,
135215,DK,4,Grønnemose,
135216,DK,7,Skivum,
135217,DK,10,Sædder,
135218,DK,12,Trælløse,
135219,DK,11,Lebøl,
135220,DK,4,Solevad,
135221,DK,3,Kvinderup,
135222,DK,15,Batum,
135223,DK,8,Hodde,
135224,DK,9,Høgild,
135225,DK,7,Lindholm,
135226,DK,4,Bøgebjerg,
135227,DK,14,Raklev,
135228,DK,11,Aastrup,
135229,DK,7,Ertebølle,
135230,DK,7,Mosbjerg,
135231,DK,1,Granslev,
135232,DK,11,Lysabildskov,
135233,DK,7,Torslev,
135234,DK,9,Staby,
135235,DK,1,Herskind,
135236,DK,14,Haraldsted,
135237,DK,13,Seest,
135238,DK,1,Termestrup,
135239,DK,7,Sønderup,
135240,DK,12,Aversi,
135241,DK,3,Kirkelte,
135242,DK,15,Havredal,
135243,DK,13,Lindved,
135244,DK,12,Leestrup,
135245,DK,14,Haldagerlille,
135246,DK,15,Legind,
135247,DK,1,Moeskjær,
135248,DK,15,Vindum,
135249,DK,13,Ferup,
135250,DK,1,Studstrup,
135251,DK,9,Skave,
135252,DK,4,Falsled,
135253,DK,4,Bredbjerg,
135254,DK,4,Skröbelev,
135255,DK,3,Nygård,
135256,DK,1,Stjær,
135257,DK,7,Guldbæk,
135258,DK,6,Bispebjerg,
135259,DK,3,Kulhuse,
135260,DK,7,Hasseris,
135261,DK,11,Hønkys,
135262,DK,15,Borridsø,
135263,DK,7,Bradsted,
135264,DK,14,Ortved,
135265,DK,11,Foldingbro,
135266,DK,11,Grønnebæk,
135267,DK,17,Gentofte,
135268,DK,17,Copenhagen,
135269,DK,18,Risskov,
135270,DK,17,Albertslund,
135271,DK,17,Helsingør,
135272,DK,17,Hellerup,
135273,DK,17,Frederiksværk,
135274,DK,17,Valby,
135275,DK,19,Ålborg,
135276,DK,17,Søborg,
135277,DK,17,Espergærde,
135278,DK,17,Vanløse,
135279,DK,17,Tåstrup,
135280,DK,20,Nykøbing,
135281,DK,17,Allerød,
135282,DK,21,Vejle,
135283,DK,17,Taastrup,
135284,DK,18,Borum,
135285,DK,18,Aarhus,
135286,DK,18,Hasselager,
135287,DK,18,Viborg,
135288,DK,17,Hedehusene,
135289,DK,17,Nærum,
135290,DK,17,Hellebæk,
135291,DK,20,Haslev,
135292,DK,18,Bryrup,
135293,DK,17,Frederikssund,
135294,DK,17,Ballerup,
135295,DK,18,Alle,
135296,DK,21,Kastrup,
135297,DK,18,Herning,
135298,DK,17,Herlev,
135299,DK,17,Rungsted,
135300,DK,21,Egernsund,
135301,DK,21,Esbjerg,
135302,DK,21,Grindsted,
135303,DK,17,Bagsværd,
135304,DK,21,Padborg,
135305,DK,18,Hadsten,
135306,DK,17,Slangerup,
135307,DK,18,Struer,
135308,DK,19,Hjallerup,
135309,DK,21,Kolding,
135310,DK,20,Norre,
135311,DK,18,Tranbjerg,
135312,DK,21,Tommerup,
135313,DK,19,Frederikshavn,
135314,DK,19,Hjørring,
135315,DK,21,Tinglev,
135316,DK,18,Hemmet,
135317,DK,18,Ulfborg,
135318,DK,20,Roskilde,
135319,DK,21,Holte,
135320,DK,20,Næstved,
135321,DK,18,Beder,
135322,DK,17,Fredensborg,
135323,DK,18,Horsens,
135324,DK,20,Nakskov,
135325,DK,21,Aller,
135326,DK,20,Høng,
135327,DK,21,Sønderborg,
135328,DK,21,Billund,
135329,DK,17,Brøndby Strand,
135330,DK,18,Ikast,
135331,DK,20,Viby,
135332,DK,17,Stenløse,
135333,DK,18,Skjern,
135334,DK,19,Nibe,
135335,DK,20,Frederiksberg,
135336,DK,21,Aabenraa,
135337,DK,18,Silkeborg,
135338,DK,20,Slagelse,
135339,DK,17,Ishøj,
135340,DK,18,Skanderborg,
135341,DK,17,Hvidovre,
135342,DK,18,Lyngby,
135343,DK,17,Birkerød,
135344,DK,21,Ferritslev,
135345,DK,21,Jelling,
135346,DK,18,Agri,
135347,DK,19,Sæby,
135348,DK,21,Toftlund,
135349,DK,17,Glostrup,
135350,DK,17,Farum,
135351,DK,18,Godthaab,
135352,DK,19,Snedsted,
135353,DK,21,Odense,
135354,DK,17,Dragør,
135355,DK,17,Værløse,
135356,DK,18,Vildbjerg,
135357,DK,21,Nordborg,
135358,DK,18,Holstebro,
135359,DK,17,Virum,
135360,DK,21,Nyborg,
135361,DK,20,Højreby,
135362,DK,18,Skive,
135363,DK,18,Højslev,
135364,DK,21,Taarup,
135365,DK,18,Lemvig,
135366,DK,18,Bjerringbro,
135367,DK,18,Aabyhöj,
135368,DK,20,Holbæk,
135369,DK,21,Aarup,
135370,DK,18,Odder,
135371,DK,20,Fakse,
135372,DK,21,Ølgod,
135373,DK,19,Centrum,
135374,DK,21,Fredericia,
135375,DK,21,Christiansfeld,
135376,DK,19,Skagen,
135377,DK,21,Middelfart,
135378,DK,18,Ringkøbing,
135379,DK,21,Bodum,
135380,DK,20,Greve Strand,
135381,DK,21,Haderslev,
135382,DK,17,Kvistgaard,
135383,DK,18,Laasby,
135384,DK,17,Charlottenlund,
135385,DK,17,Rødovre,
135386,DK,21,Varde,
135387,DK,19,Pandrup,
135388,DK,19,Salling,
135389,DK,18,Galten,
135390,DK,20,Sorø,
135391,DK,17,Skovlunde,
135392,DK,18,Randers,
135393,DK,18,Hammel,
135394,DK,17,Klampenborg,
135395,DK,19,Aars,
135396,DK,17,Humlebæk,
135397,DK,18,Hinnerup,
135398,DK,20,Svinninge,
135399,DK,19,Aabybro,
135400,DK,17,Rønne,
135401,DK,19,Vadum,
135402,DK,20,Karlslunde,
135403,DK,21,Holm,
135404,DK,17,Hørsholm,
135405,DK,21,Gelsted,
135406,DK,20,Boge,
135407,DK,20,Vordingborg,
135408,DK,19,Hanstholm,
135409,DK,19,Arden,
135410,DK,21,Vejen,
135411,DK,20,Gørlev,
135412,DK,18,Solbjerg,
135413,DK,19,Nørresundby,
135414,DK,18,Lystrup,
135415,DK,18,Brande,
135416,DK,21,Vingsted,
135417,DK,21,Marslev,
135418,DK,18,Sabro,
135419,DK,20,Rørvig,
135420,DK,18,Frølund,
135421,DK,21,Højbjerg,
135422,DK,17,Lynge,
135423,DK,17,Lars,
135424,DK,18,Levring,
135425,DK,21,Krusaa,
135426,DK,21,Bredebro,
135427,DK,18,Faarup,
135428,DK,21,Ollerup,
135429,DK,21,Ryslinge,
135430,DK,20,Køge,
135431,DK,21,Brenderup,
135432,DK,21,Ribe,
135433,DK,20,Kalundborg,
135434,DK,19,Thisted,
135435,DK,21,Graasten,
135436,DK,21,Aarslev,
135437,DK,18,Slet,
135438,DK,19,Skørping,
135439,DK,21,Ullerslev,
135440,DK,18,Hornslet,
135441,DK,20,Lejre,
135442,DK,20,Greve,
135443,DK,20,Ringsted,
135444,DK,18,Grenaa,
135445,DK,19,Glyngøre,
135446,DK,18,Roslev,
135447,DK,17,Vallensbæk,
135448,DK,20,Jyllinge,
135449,DK,18,Hedensted,
135450,DK,18,Ebeltoft,
135451,DK,19,Støvring,
135452,DK,21,Vamdrup,
135453,DK,20,Vallö,
135454,DK,17,Vedbæk,
135455,DK,19,Hadsund,
135456,DK,18,Gjern,
135457,DK,21,Bedsted,
135458,DK,18,Mundelstrup,
135459,DK,19,Brovst,
135460,DK,21,Lund,
135461,DK,21,Ringe,
135462,DK,18,Krogsgaard,
135463,DK,21,Nybo,
135464,DK,20,Borup,
135465,DK,21,Debel,
135466,DK,21,Bramming,
135467,DK,18,Bjert,
135468,DK,19,Stenhøj,
135469,DK,21,Broager,
135470,DK,21,Skødstrup,
135471,DK,18,Bording,
135472,DK,18,Lind,
135473,DK,18,Tarm,
135474,DK,18,Gedved,
135475,DK,18,Dalager,
135476,DK,18,Ryomgaard,
135477,DK,21,Krog,
135478,DK,18,Auning,
135479,DK,20,Himmelev,
135480,DK,18,Hornsyld,
135481,DK,19,Rebild,
135482,DK,17,Veksø,
135483,DK,21,Lunderskov,
135484,DK,18,Opstrup,
135485,DK,17,Sengeløse,
135486,DK,19,Trend,
135487,DK,21,Bramminge,
135488,DK,18,Venø,
135489,DK,20,Dianalund,
135490,DK,21,Langeskov,
135491,DK,21,Svendborg,
135492,DK,18,Kibæk,
135493,DK,21,Rudkøbing,
135494,DK,21,Aalbæk,
135495,DK,20,Maribo,
135496,DK,18,Egaa,
135497,DK,19,Hobro,
135498,DK,20,Faxe,
135499,DK,21,Kolle,
135500,DK,20,Ugerløse,
135501,DK,21,Faaborg,
135502,DK,20,Korsør,
135503,DK,17,Hillerød,
135504,DK,21,Nørre Nebel,
135505,DK,18,Rønbjerg,
135506,DK,20,Holeby,
135507,DK,18,Ørum,
135508,DK,21,Tønder,
135509,DK,21,Vojens,
135510,DK,17,Skibby,
135511,DK,20,Stenlille,
135512,DK,18,Ferring,
135513,DK,20,Asnæs,
135514,DK,18,Brabrand,
135515,DK,19,Svenstrup,
135516,DK,21,Bylderup-bov,
135517,DK,21,Egtved,
135518,DK,20,Klippinge,
135519,DK,20,Store Heddinge,
135520,DK,17,Kokkedal,
135521,DK,19,Fjerritslev,
135522,DK,18,Løsning,
135523,DK,21,Ølsted,
135524,DK,19,Jerslev,
135525,DK,20,Vemmelev,
135526,DK,18,Glesborg,
135527,DK,17,Helsinge,
135528,DK,18,Lønborg,
135529,DK,18,Ulstrup,
135530,DK,17,Ølstykke,
135531,DK,18,Kjellerup,
135532,DK,20,Rønnede,
135533,DK,19,Løgstør,
135534,DK,18,Vandet,
135535,DK,21,Rødekro,
135536,DK,18,Thyborøn,
135537,DK,20,Snertinge,
135538,DK,17,Svaneke,
135539,DK,20,Horslunde,
135540,DK,17,Aakirkeby,
135541,DK,21,Give,
135542,DK,20,Svebölle,
135543,DK,18,Aaby,
135544,DK,21,Oksbøl,
135545,DK,21,Ansager,
135546,DK,21,Vestergaard,
135547,DK,19,Mariager,
135548,DK,18,Brædstrup,
135549,DK,18,Faarvang,
135550,DK,18,Avlum,
135551,DK,18,Ring,
135552,DK,18,Maarslet,
135553,DK,17,Jægerspris,
135554,DK,18,Trige,
135555,DK,21,Vraa,
135556,DK,18,Karup,
135557,DK,18,Mønsted,
135558,DK,21,Skaarup,
135559,DK,21,Bolderslev,
135560,DK,18,Balling,
135561,DK,21,Marstal,
135562,DK,21,Munkebo,
135563,DK,17,Nivaa,
135564,DK,21,Borg,
135565,DK,18,Videbæk,
135566,DK,20,Grevinge,
135567,DK,19,Brønderslev,
135568,DK,18,Spjald,
135569,DK,17,Gilleleje,
135570,DK,21,Ladegaard,
135571,DK,19,Østerled,
135572,DK,19,Farsø,
135573,DK,18,Hørning,
135574,DK,20,Solrød,
135575,DK,17,Græsted,
135576,DK,21,Forum,
135577,DK,18,Them,
135578,DK,20,Stensved,
135579,DK,21,Vilstrup,
135580,DK,21,Lundby,
135581,DK,21,Brørup,
135582,DK,21,Hesselager,
135583,DK,18,Daugaard,
135584,DK,20,Glumsø,
135585,DK,18,Hampen,
135586,DK,21,Tandslet,
135587,DK,21,Almind,
135588,DK,21,Augustenborg,
135589,DK,18,Tørring,
135590,DK,20,Boeslunde,
135591,DK,19,Lyngsø,
135592,DK,18,Sander,
135593,DK,17,Buddinge,
135594,DK,19,Hirtshals,
135595,DK,20,Gedser,
135596,DK,17,Amagerbro,
135597,DK,20,Væggerløse,
135598,DK,21,Særslev,
135599,DK,20,Bjæverskov,
135600,DK,21,Haarby,
135601,DK,18,Rødkærsbro,
135602,DK,18,Vinderup,
135603,DK,21,Skærbæk,
135604,DK,18,Halling,
135605,DK,17,Strøby,
135606,DK,21,Børkop,
135607,DK,20,Fjenneslev,
135608,DK,18,Juelsminde,
135609,DK,20,Stege,
135610,DK,21,Kværndrup,
135611,DK,18,Kolind,
135612,DK,19,Vesløs,
135613,DK,21,Holsted,
135614,DK,21,Gadstrup,
135615,DK,17,Hornbæk,
135616,DK,18,Hasle,
135617,DK,21,Otterup,
135618,DK,19,Hurup,
135619,DK,19,Vestervig,
135620,DK,19,Terndrup,
135621,DK,19,Vodskov,
135622,DK,17,Neksø,
135623,DK,21,Vejstrup,
135624,DK,21,Gredstedbro,
135625,DK,21,Langaa,
135626,DK,21,Gørding,
135627,DK,21,Vissenbjerg,
135628,DK,20,Hårlev,
135629,DK,19,Karby,
135630,DK,21,Kettinge,
135631,DK,21,Søby,
135632,DK,18,Møldrup,
135633,DK,18,Stouby,
135634,DK,19,Kongerslev,
135635,DK,20,Holme-olstrup,
135636,DK,19,Strandby,
135637,DK,18,Erslev,
135638,DK,18,Bjerregrav,
135639,DK,21,Blommenslyst,
135640,DK,20,Præstø,
135641,DK,20,Jystrup,
135642,DK,21,Stenstrup,
135643,DK,18,Trustrup,
135644,DK,20,Bandholm,
135645,DK,17,Allinge,
135646,DK,20,Jyderup,
135647,DK,21,Ovtrup,
135648,DK,18,Rønde,
135649,DK,20,Undløse,
135650,DK,21,Rødding,
135651,DK,21,Agerskov,
135652,DK,21,Kerteminde,
135653,DK,20,Herfølge,
135654,DK,21,Vester-skerninge,
135655,DK,17,Skævinge,
135656,DK,21,Tistrup,
135657,DK,21,Bevtoft,
135658,DK,17,Tisvildeleje,
135659,DK,20,Vipperød,
135660,DK,20,Skælskør,
135661,DK,21,Billum,
135662,DK,19,Sulsted,
135663,DK,18,Løgstrup,
135664,DK,19,Aalestrup,
135665,DK,21,Nordby,
135666,DK,18,Bøvlingbjerg,
135667,DK,18,Mørke,
135668,DK,18,Hareskov,
135669,DK,20,Ulslev,
135670,DK,18,Spentrup,
135671,DK,18,Bering,
135672,DK,18,Knebel,
135673,DK,18,Bækmarksbro,
135674,DK,20,Føllenslev,
135675,DK,21,Hvidbjerg,
135676,DK,18,Skals,
135677,DK,20,Dalmose,
135678,DK,20,Gislinge,
135679,DK,21,Regstrup,
135680,DK,20,Ruds-vedby,
135681,DK,18,Gjerlev,
135682,DK,21,Harndrup,
135683,DK,21,Gram,
135684,DK,19,Dronninglund,
135685,DK,18,Malling,
135686,DK,19,Saltum,
135687,DK,21,Ejby,
135688,DK,21,Ebberup,
135689,DK,18,Hovedgaard,
135690,DK,20,Rødby,
135691,DK,21,Nyrup,
135692,DK,21,Gamby,
135693,DK,20,Sakskøbing,
135694,DK,21,Tjæreborg,
135695,DK,17,Aalsgaarde,
135696,DK,21,Vonge,
135697,DK,18,Vejby,
135698,DK,20,Eskebjerg,
135699,DK,18,Østbirk,
135700,DK,21,Aarre,
135701,DK,21,Højby,
135702,DK,20,Hørve,
135703,DK,18,Hvide Sande,
135704,DK,19,Hals,
135705,DK,21,Rynkeby,
135706,DK,20,Algestrup,
135707,DK,21,Bredsten,
135708,DK,18,Sønder Felding,
135709,DK,21,Assens,
135710,DK,18,Skejby,
135711,DK,18,Nørager,
135712,DK,18,Stoholm,
135713,DK,21,Damgård,
135714,DK,18,Ørskov,
135715,DK,21,Vedby,
135716,DK,20,Sandved,
135717,DK,21,Hovborg,
135718,DK,21,Husum,
135719,DK,19,Tøttrup,
135720,DK,21,Løgumkloster,
135721,DK,19,Cimbria,
135722,DK,21,Hornstrup,
135723,DK,21,Gråsten,
135724,DK,21,Ørbæk,
135725,DK,19,Redsted,
135726,DK,18,Tranebjerg,
135727,DK,18,Trans,
135728,DK,20,Hyllinge,
135729,DK,19,Jannerup,
135730,DK,18,Nørre Snede,
135731,DK,18,Hammershøj,
135732,DK,18,Torsted,
135733,DK,21,Ørsted,
135734,DK,18,Nimtofte,
135735,DK,21,Randbøl,
135736,DK,21,Øsby,
135737,DK,21,Bogense,
135738,DK,21,Smidstrup,
135739,DK,18,Åbyhøj,
135740,DK,18,Kjær,
135741,DK,19,Dybvad,
135742,DK,20,Kirke Saaby,
135743,DK,21,Føvling,
135744,DK,21,Henne,
135745,DK,19,Tylstrup,
135746,DK,20,Haarlev,
135747,DK,20,Faarevejle,
135748,DK,17,Ryvang,
135749,DK,17,Snekkersten,
135750,DK,18,Allingaabro,
135751,DK,17,Brøndbyvester,
135752,DK,21,Skrydstrup,
135753,DK,19,Blokhus,
135754,DK,18,Bystrup,
135755,DK,18,Green,
135756,DK,21,Gamst,
135757,DK,21,Kjargaard,
135758,DK,18,Tilst,
135759,DK,20,Langebæk,
135760,DK,18,Nykær,
135761,DK,20,Fuglebjerg,
135762,DK,21,Frøstrup,
135763,DK,20,Højelse,
135764,DK,20,Tureby,
135765,DK,21,Vandel,
135766,DK,21,Statene,
135767,DK,20,Mern,
135768,DK,20,Tappernøje,
135769,DK,20,Rødvig,
135770,DK,20,Stubbekøbing,
135771,DK,17,Hundested,
135772,DK,21,Gislev,
135773,DK,21,Sjølund,
135774,DK,19,Gandrup,
135775,DK,18,Havndal,
135776,DK,20,Karise,
135777,DK,19,Bindslev,
135778,DK,19,Sindal,
135779,DK,20,Holtug,
135780,DK,17,Tikøb,
135781,DK,18,Flemming,
135782,DK,18,Blæsbjerg,
135783,DK,18,Saaby,
135784,DK,19,Bælum,
135785,DK,18,Edslev,
135786,DK,18,Linde,
135787,DK,20,Kirke-hyllinge,
135788,DK,21,Tranekær,
135789,DK,20,Lille Skensved,
135790,DK,17,Dronningmølle,
135791,DK,18,Lemming,
135792,DK,20,Asmindrup,
135793,DK,19,Lundgaard,
135794,DK,17,Herstedøster,
135795,DK,20,Herlufmagle,
135796,DK,20,Hvalsø,
135797,DK,20,Karrebæksminde,
135798,DK,21,Hørup,
135799,DK,20,Jersie,
135800,DK,19,Løkken,
135801,DK,21,Højer,
135802,DK,17,Vridsløselille,
135803,DK,20,Havdrup,
135804,DK,21,Sommersted,
135805,DK,19,Jerup,
135806,DK,18,Odde,
135807,DK,21,Nørre Aaby,
135808,DK,21,Glejbjerg,
135809,DK,21,Kloster,
135810,DK,20,Bogø By,
135811,DK,21,Søllested,
135812,DK,19,Gistrup,
135813,DK,21,Dalby,
135814,DK,21,Humble,
135815,DK,18,Barrit,
135816,DK,18,Uldum,
135817,DK,18,Rask Mølle,
135818,DK,19,Blidstrup,
135819,DK,20,Bogö,
135820,DK,21,Rise,
135821,DK,18,Hundslund,
135822,DK,21,Sandager,
135823,DK,21,Årø,
135824,DK,21,Næs,
135825,DK,20,Tune,
135826,DK,18,Søndbjerg,
135827,DK,21,Glamsbjerg,
135828,DK,21,Gadbjerg,
135829,DK,17,Maaløv,
135830,DK,18,Spøttrup,
135831,DK,17,Skodsborg,
135832,DK,21,Sædding,
135833,DK,21,Vejlby,
135834,DK,17,Store Magleby,
135835,DK,21,Agedrup,
135836,DK,18,Besser,
135837,DK,18,Vemb,
135838,DK,21,Vinding,
135839,DK,21,Anholt,
135840,DK,17,Gladsaxe,
135841,DK,21,Snoghøj,
135842,DK,17,Taarbæk,
135843,DK,19,Agger,
135844,DK,21,Hauge,
135845,DK,20,Nyraad,
135846,DK,21,Strib,
135847,DK,21,Morud,
135848,DK,18,Rindom,
135849,DK,21,Gudbjerg,
135850,DK,21,Mesinge,
135851,DK,21,Ålling,
135852,DK,18,Aulum,
135853,DK,20,Osted,
135854,DK,21,Hedegaard,
135855,DK,19,Bangsbostrand,
135856,DK,20,Horbelev,
135857,DK,17,Nyhavn,
135858,DK,18,Grove,
135859,DK,20,Rode,
135860,DK,21,Dybbøl,
135861,DK,18,Sunds,
135862,DK,17,Sundbyøster,
135863,DK,17,Ordrup,
135864,DK,17,Kyndby,
135865,DK,19,Taars,
135866,DK,20,Idestrup,
135867,DK,21,Balslev,
135868,DK,21,Næsby,
135869,DK,21,Nørreballe,
135870,DK,19,Ranum,
135871,DK,18,Tang,
135872,DK,21,Stærmose,
135873,DK,21,Allerup,
135874,DK,21,Nybølle,
135875,DK,19,Klarup,
135876,DK,18,Ejstrupholm,
135877,DK,21,Melby,
135878,DK,18,Gjellerup,
135879,DK,21,Bukkerup,
135880,DK,20,Hundige,
135881,DK,18,Skæring,
135882,DK,21,Erritsø,
135883,DK,21,Borre,
135884,DK,18,Hjerm,
135885,DK,18,Skaade,
135886,DK,20,Hundie,
135887,DK,21,Vejrup,
135888,DK,17,Avedøre,
135889,DK,18,Vind,
135890,DK,21,Nørby,
135891,DK,18,Klintrup,
135892,DK,19,Vestbjerg,
135893,DK,21,Bredballe,
135894,DK,18,Hald,
135895,DK,20,Stokkemarke,
135896,DK,21,Sanderum,
135897,DK,21,Aagaard,
135898,DK,21,Ødsted,
135899,DK,21,Tårup,
135900,DK,18,Braarup,
135901,DK,21,Skamby,
135902,DK,21,Jordrup,
135903,DK,20,Torrig,
135904,DK,21,Viuf,
135905,DK,18,Scandia,
135906,DK,21,Højen,
135907,DK,17,Vesterled,
135908,DK,21,Knud,
135909,DK,19,Byrum,
135910,DK,21,Bjergby,
135911,DK,18,Frederiksdal,
135912,DK,21,Skærup,
135913,DK,17,Kongens Lyngby,
135914,DK,19,Alsted,
135915,DK,18,Stadil,
135916,DK,21,Have,
135917,DK,17,Nexø,
135918,DK,17,Grønnegade,
135919,DK,21,Køng,
135920,DK,18,Haderup,
135921,DK,19,Gedsted,
135922,DK,21,Balle,
135923,DK,21,Høruphav,
135924,DK,21,Hjortebjerg,
135925,DK,21,Blaavand,
135926,DK,21,Henne Strand,
135927,DK,19,Vange,
135928,DK,20,Gevnø,
135929,DK,20,Toreby,
135930,DK,21,Sønderby,
135931,DK,18,Borris,
135932,DK,18,Sale,
135933,DK,20,Nørre Alslev,
135934,DK,21,Hejls,
135935,DK,18,Stakroge,
135936,DK,20,Fårevejle,
135937,DK,21,Ellekær,
135938,DK,21,Rude,
135939,DK,17,Liseleje,
135940,DK,20,Nybro,
135941,DK,21,Høje,
135942,DK,21,Paarup,
135943,DK,17,Brønshøj,
135944,DK,21,Vejers Strand,
135945,DK,21,Egeskov,
135946,DK,17,Ledøje,
135947,DK,21,Ulbølle,
135948,DK,20,Hjertebjærg,
135949,DK,19,Stagsted,
135950,DK,21,Sønder Stenderup,
135951,DK,17,Måløv,
135952,DK,18,Krogstrup,
135953,DK,19,Asaa,
135954,DK,21,Haarslev,
135955,DK,21,Mommark,
135956,DK,21,Eskilstrup,
135957,DK,18,Birk,
135958,DK,17,Gudhjem,
135959,DK,18,Trust,
135960,DK,18,Emborg,
135961,DK,21,Søndersø,
135962,DK,20,Fensmark,
135963,DK,21,Vorbasse,
135964,DK,21,Bække,
135965,DK,21,Favrskov,
135966,DK,21,Ravnshöj,
135967,DK,20,Kværkeby,
135968,DK,21,Vester Nebel,
135969,DK,19,Klokkerholm,
135970,DK,19,Sønderholm,
135971,DK,19,Tversted,
135972,DK,21,Sønderho,
135973,DK,18,Lendum,
135974,DK,21,Gudme,
135975,DK,21,Skellerup,
135976,DK,21,Veflinge,
135977,DK,21,Taulov,
135978,DK,21,Kliplev,
135979,DK,21,Vesterhede,
135980,DK,21,Skovlund,
135981,DK,21,Starup,
135982,DK,21,Givskud,
135983,DK,21,Jerlev,
135984,DK,21,Norup,
135985,DK,18,Bjerre,
135986,DK,21,Anderup,
135987,DK,18,Harreskov,
135988,DK,19,Bangsbo,
135989,DK,18,Sorring,
135990,DK,21,Lunden,
135991,DK,18,Kilde,
135992,DK,21,Heden,
135993,DK,21,Ålbæk,
135994,DK,17,Veksebo,
135995,DK,18,Gullestrup,
135996,DK,21,Dalsgaard,
135997,DK,21,Stenderup,
135998,DK,21,Grene,
135999,DK,17,Bellahøj,
136000,DK,21,Båring,
136001,DK,18,Frederiks,
136002,DK,18,Belle,
136003,DK,17,Sundbyvester,
136004,DK,18,Halby,
136005,DK,21,Halk,
136006,DK,21,Jels,
136007,DK,21,Lakolk,
136008,DK,21,Marstrup,
136009,DK,19,Granly,
136010,DK,21,Skodborg,
136011,DK,18,Benslehøj,
136012,DK,18,Klovborg,
136013,DK,21,Henneby,
136014,DK,18,Hove,
136015,DK,21,Østerskov,
136016,DK,21,Kollund,
136017,DK,20,Sundby,
136018,DK,19,Storvorde,
136019,DK,18,Højmark,
136020,DK,21,Hejnsvig,
136021,DK,18,Sjørring,
136022,DK,21,Dong,
136023,DK,21,Kruså,
136024,DK,21,Svömmehal,
136025,DK,21,Holbøl,
136026,DK,21,Årslev,
136027,DK,21,Kolstrup,
136028,DK,21,Sofiedal,
136029,DK,21,Lundtofte,
136030,DK,21,Aasted,
136031,DK,21,Fjeldstrup,
136032,DK,18,Kirkeby,
136033,DK,18,Jebjerg,
136034,DK,19,Højstrup,
136035,DK,18,Paderup,
136036,DK,21,Dang,
136037,DK,21,Alslev,
136038,DK,21,Vårø,
136039,DK,19,Vindblæs,
136040,DK,21,Brede,
136041,DK,21,Uhre,
136042,DK,18,Aakjær,
136043,DK,21,Kær,
136044,DK,19,Tilsted,
136045,DK,19,Hassing,
136046,DK,18,Skade,
136047,DK,19,Lindholm,
136048,DK,21,Bøgebjerg,
136049,DK,20,Raklev,
136050,DK,19,Legind,
136051,DK,21,Rens,
136052,DK,21,Aastrup,
136053,DK,21,Hjerting,
136054,DK,21,Åstrup,
136055,DK,21,Lintrup,
136056,DK,21,Rejsby,
136057,DK,19,Ertebølle,
136058,DK,18,Moeskjær,
136059,DK,21,Emmerbølle,
136060,DK,21,Fuglsang,
136061,DK,18,Lihme,
136062,DK,21,Löjt,
136063,DK,21,Nørre Bramdrup,
136064,DK,20,Tølløse,
136065,DK,19,Haals,
136066,DK,19,Nykøbing,
136067,DK,21,Thyregod,
136068,DK,19,Bedsted,
136069,DK,18,Sørvad,
136070,DK,17,Kastrup,
136071,DK,17,Lyngby,
136072,DK,21,Nebel,
136073,DK,17,Frederiksberg,
136074,DK,18,Egå,
136075,DK,17,Nivå,
136076,DK,17,Ålsgårde,
136077,DK,17,Vejby,
136078,DK,20,Solrød Strand,
136079,DK,20,Assendrup,
136080,DK,20,Vig,
136081,DK,17,Gørløse,
136082,DK,20,Kettinge,
136083,DK,20,Gundsømagle,
136084,DK,21,Oure,
136085,DK,18,Allingåbro,
136086,DK,18,Viby,
136087,DK,18,Krogsager,
136088,DK,18,Harlev,
136089,DK,18,Engesvang,
136090,DK,19,Øster Assels,
136091,DK,18,Langå,
136092,DK,18,Ramsing,
136093,DK,18,Højbjerg,
136094,DK,18,Ry,
136095,DK,21,Ladby,
136096,DK,20,Regstrup,
136097,DK,18,Løvel,
136098,DK,21,Askov,
136099,DK,18,Hjortshøj,
136100,DK,18,Skødstrup,
136101,DK,19,Erslev,
136102,DK,19,Østervrå,
136103,DK,21,Lildfrost,
136104,DK,17,Holte,
136105,DK,18,Gylling,
136106,DK,21,Frørup,
136107,DK,20,Store Merløse,
136108,DK,20,Kirke Såby,
136109,DK,18,Harboøre,
136110,DK,18,Lem,
136111,DK,18,Hovedgård,
136112,DK,19,Aalbæk,
136113,DK,19,Vrå,
136114,DK,19,Agersted,
136115,DK,19,Rold,
136116,DK,19,Nörager,
136117,DK,18,Hvidbierg,
136118,DK,21,Ærøskøbing,
136119,DK,20,Staarup,
136120,DK,18,Ryomgård,
136121,DK,18,Villerslö,
136122,DK,20,Dannemare,
136123,DK,20,Eskilstrup,
136124,DK,21,Årre,
136125,DK,20,Vesterborg,
136126,DK,20,Rude,
136127,DK,20,Fakse Ladeplads,
136128,DK,20,Jerslev,
136129,DK,18,Fårvang,
136130,DK,19,Oudrup,
136131,DK,18,Ans,
136132,DK,20,Askeby,
136133,DK,18,Mårslet,
136134,DK,18,Tim,
136135,DK,21,Martofte,
136136,DK,20,Guldborg,
136137,DK,20,Munke Bjergby,
136138,DK,17,Gadevang,
136139,DK,21,Allested,
136140,DK,20,Kirke Eskilstrup,
136141,DK,17,Østermarie,
136142,DK,19,Flejsborg,
136143,DK,20,Svogerslev,
136144,DK,17,Kvistgård,
136145,DK,20,Vestenbæk,
136146,DK,19,Tårs,
136147,DK,21,Millinge,
136148,DK,19,Mosbjerg,
136149,DK,21,Skårup,
136150,DK,17,Ølsted,
136151,DK,17,Klemensker,
136152,DK,18,Stavtrup,
136153,DK,18,Balle,
136154,DK,18,Ørsted,
136155,DK,18,Stevnstrup,
136156,DK,19,Hallund,
136157,DK,19,Tranum,
136158,DK,19,Gjøl,
136159,DK,19,Voerså,
136160,DK,19,Astrup,
136161,DK,19,Syvsten,
136162,DK,20,Lundby,
136163,DK,18,Stenvad,
136164,DK,18,Låsby,
136165,DK,18,Rind,
136166,DK,18,Røgen,
136167,DK,18,Hornborg,
136168,DK,18,Virklund,
136169,DK,18,Thorsø,
136170,DK,21,Lysabild,
136171,DK,21,Hjordkær,
136172,DK,21,Blans,
136173,DK,20,Lyndby,
136174,DK,20,Mørkøv,
136175,DK,17,Høje Tåstrup,
136176,DK,17,Meløse,
136177,DK,20,Nørreballe,
136178,DK,20,Nysted,
136179,DK,20,Harpelunde,
136180,DK,19,Vester Hassing,
136181,DK,19,Ulsted,
136182,DK,19,Vraa,
136183,DK,18,Stilling,
136184,DK,21,Bellinge,
136185,DK,19,Birkelse,
136186,DK,18,Gerlev,
136187,DK,18,Lisbjerg,
136188,DK,21,Havneby,
136189,DK,21,Kærbølling,
136190,DK,17,Hasle,
136191,DK,21,Gaarde,
136192,DK,17,Vangede,
136193,DK,18,Feldballe,
136194,DK,18,Thorsager,
136195,DK,18,Assentoft,
136196,DK,18,Vrinners,
136197,DK,21,Janderup,
136198,DK,19,Ravnkilde,
136199,DK,18,Fårup,
136200,DK,18,Gjellerup Kirkeby,
136201,DK,17,Annisse,
136202,DK,17,Hareskovby,
136203,DK,20,Gershøj,
136204,DK,19,Store Brøndum,
136205,DK,21,Agerbæk,
136206,DK,20,Gadstrup,
136207,DK,21,Burkal,
136208,DK,17,Olsker,
136209,DK,17,Trørød,
136210,DK,20,Højbjerg,
136211,DK,21,Branderup,
136212,DK,18,Timring,
136213,DK,18,Nørskovlund,
136214,DK,19,Serritslev,
136215,DK,18,Overbroen,
136216,DK,17,Ganløse,
136217,DK,17,Ramløse,
136218,DK,19,Øster Hurup,
136219,DK,18,Sejs,
136220,DK,19,Hvalpsund,
136221,DK,20,Borre,
136222,DK,21,Blåvand,
136223,DK,18,Rindsholm,
136224,DK,21,Birkebjærg,
136225,DK,20,Alkestrup,
136226,DK,17,Fløng,
136227,DK,21,Hammelev,
136228,DK,21,Omme,
136229,DK,18,Daugård,
136230,DK,19,Suldrup,
136231,DK,18,Pindstrup,
136232,DK,18,Søften,
136233,DK,18,Haldum,
136234,DK,18,Nisset,
136235,DK,21,Sønder Omme,
136236,DK,21,Vrøgum,
136237,DK,21,Seden,
136238,DK,21,Havndrup,
136239,DK,18,Brundby,
136240,DK,18,Tjørring,
136241,DK,19,Lyngså,
136242,DK,19,Lekken,
136243,DK,17,Smørumnedre,
136244,DK,21,Korinth,
136245,DK,21,Asperup,
136246,DK,21,Gesten,
136247,DK,17,Melby,
136248,DK,20,Gørslev,
136249,DK,19,Østrup,
136250,DK,20,Hellested,
136251,DK,19,Frøstrup,
136252,DK,20,Kalvehave,
136253,DK,20,Himlingøje,
136254,DK,20,Toksværd,
136255,DK,20,Strøby,
136256,DK,19,Albæk,
136257,DK,21,Brøns,
136258,DK,20,Gundsølille,
136259,DK,20,Havnebyen,
136260,DK,21,Nørre Tarp,
136261,DK,18,Maarup,
136262,DK,20,Kyndeløse,
136263,DK,18,Kølkær,
136264,DK,18,Tastum,
136265,DK,19,Tornby,
136266,DK,17,Tårnby,
136267,DK,18,Ilskov,
136268,DK,17,Mørkhøj,
136269,DK,20,Store Fuglede,
136270,DK,21,Lysabildskov,
136271,DK,20,Vemmedrup,
136272,DK,19,Tødsø,
136273,DK,21,Ravsted,
136274,DK,20,Øster Ulslev,
136275,DK,20,Strøby Egede,
136276,DK,18,Tebstrup,
136277,DK,17,Kregme,
136278,DK,19,Kvissel,
136279,DK,17,Asserbo,
136280,DK,17,Venslev,
136281,DK,17,Lillerød,
136282,DK,17,Höje Taastrup,
136283,DK,18,Endelave,
136284,DK,20,Søllested,
136285,DK,18,Søvind,
136286,DK,20,Nykøbing Sjælland,
136287,DK,21,Løjt Kirkeby,
136288,DK,18,Nederby,
136289,DK,19,Torslev,
136290,DK,20,Errindlev,
136291,DK,17,Tisvilde,
136292,DK,20,Ubby,
136293,DK,20,Rørby,
136294,DK,20,Rugskov,
136295,DK,20,Bredetved,
136296,DK,20,Svallerup,
136297,DK,21,Baaring,
136298,DK,20,Ølsemagle,
136299,DK,20,Knabstrup,
136300,DK,21,Ferup,
136301,DK,18,Bjedstrup,
136302,DK,18,Glud,
136303,DK,18,Studstrup,
136304,DK,18,Bråskov,
136305,DK,18,Sejet,
136306,DK,21,Gejsing,
136307,DK,21,Ødis Bramdrup,
136308,DK,18,Staby,
136309,DK,18,Herskind,
136310,DK,20,Sandby,
136311,DK,18,Laurbjerg,
136312,DK,20,Haraldsted,
136313,DK,18,Mammen,
136314,DK,18,Voldum,
136315,DK,20,Teestrup,
136316,DK,18,Mesing,
136317,DK,20,Rødbyhavn,
136318,DK,18,Ørnhøj,
136319,DK,20,Vesterby,
136320,DK,18,Yding,
136321,DK,21,Strandelhjørn,
136322,DK,21,Spandet,
136323,DK,21,Bylderup,
136324,DK,21,Hoyer,
136325,DK,21,Filskov,
136326,DK,20,Horreby,
136327,DK,21,Ovstrup,
136328,DK,18,Handbjerg,
136329,DK,18,Skave,
136330,DK,19,Sillerslev,
136331,DK,18,Hem,
136332,DK,18,Ramme,
136333,DK,18,Korning,
136334,DK,21,Seest,
136335,DK,18,Raarup,
136336,DK,19,Fjelsø,
136337,DK,18,Foldby,
136338,DK,18,Resenbro,
136339,DK,18,Mejrup,
136340,DK,18,Barde,
136341,DK,18,Vorgod,
136342,DK,18,Arnborg,
136343,DK,18,Asklev,
136344,DK,18,Ørum Søndermark,
136345,DK,18,Foulum,
136346,DK,18,Vammen,
136347,DK,18,Hee,
136348,DK,18,Hodsager,
136349,DK,18,Demstrup,
136350,DK,18,Grauballe,
136351,DK,18,Høgild,
136352,DK,19,Biersted,
136353,DK,19,Vestermark,
136354,DK,19,Flauenskjold,
136355,DK,19,Hundelev,
136356,DK,19,Aså,
136357,DK,19,Melholt,
136358,DK,19,Sønderskov,
136359,DK,18,Mygind,
136360,DK,18,Rigtrup,
136361,DK,18,Ugelbølle,
136362,DK,18,Termestrup,
136363,DK,18,Fausing,
136364,DK,18,Dalbyover,
136365,DK,18,Stødov,
136366,DK,19,Vebbestrup,
136367,DK,19,Skelund,
136368,DK,21,Aabjerg,
136369,DK,20,Læsø,
136370,DK,19,Egense,
136371,DK,19,Stenild,
136372,DK,19,Binderup,
136373,DK,19,Fredbjerg,
136374,DK,19,Sønderup,
136375,DK,18,Norring,
136376,DK,18,Kolt,
136377,DK,18,Spørring,
136378,DK,17,Nylars,
136379,DK,17,Tejn,
136380,DK,17,Muleby,
136381,DK,17,Østerlars,
136382,DK,17,Snogebäk,
136383,DK,21,Bagenkop,
136384,DK,21,Kullerup,
136385,DK,21,Skallebølle,
136386,DK,21,Falsled,
136387,DK,21,Sallinge,
136388,DK,21,Tryggelev,
136389,DK,21,Barløse,
136390,DK,21,Fraugde,
136391,DK,21,Bredbjerg,
136392,DK,21,Lyndelse,
136393,DK,21,Skröbelev,
136394,DK,20,Merlöse,
136395,DK,20,Tommestrup,
136396,DK,20,Sneslev,
136397,DK,20,Aversi,
136398,DK,20,Benløse,
136399,DK,20,Lumsaas,
136400,DK,20,Sejerby,
136401,DK,20,Nørre Asmindrup,
136402,DK,17,Skuldelev,
136403,DK,17,Gurre,
136404,DK,20,Ny Tolstrup,
136405,DK,21,Guderup,
136406,DK,17,Brøndbyøster,
136407,DK,19,Simested,
136408,DK,19,Sejerslev,
136409,DK,18,Storring,
136410,DK,18,Stjær,
136411,DK,18,Løgten,
136412,DK,21,Svanninge,
136413,DK,21,Grønnemose,
136414,DK,21,Verninge,
136415,DK,19,Ullits,
136416,DK,19,Guldbæk,
136417,DK,19,Hornum,
136418,DK,21,Næsbjerg,
136419,DK,18,Vivild,
136420,DK,19,Haverslev,
136421,DK,17,Bispebjerg,
136422,DK,21,Kertinge,
136423,DK,18,Elev,
136424,DK,19,Dall,
136425,DK,19,Godthåb,
136426,DK,19,Frejlev,
136427,DK,18,Skivild,
136428,DK,18,Fly,
136429,DK,18,Vridsted,
136430,DK,17,Kulhuse,
136431,DK,19,Vils,
136432,DK,18,Jegind,
136433,DK,20,Karlslunde Strand,
136434,DK,21,Hovslund,
136435,DK,21,Arnum,
136436,DK,19,Farstrup,
136437,DK,19,Hasseris,
136438,DK,18,Grønfeld,
136439,DK,18,Tved,
136440,DK,18,Tirstrup,
136441,DK,18,Skørring,
136442,DK,20,Havrebjerg,
136443,DK,21,Øse,
136444,DK,18,Bur,
136445,DK,18,Nørre Nissum,
136446,DK,18,Ørting,
136447,DK,19,Vegger,
136448,DK,18,Ås,
136449,DK,21,Hviding,
136450,DK,21,Arrild,
136451,DK,19,Smidstrup,
136452,DK,18,Breum,
136453,DK,21,Hønkys,
136454,DK,20,Øster Kippinge,
136455,DK,18,Borridsø,
136456,DK,18,Thorsminde,
136457,DK,18,Bonnet,
136458,DK,21,Rousthøje,
136459,DK,19,Bradsted,
136460,DK,17,Horserød,
136461,DK,17,Klovtofte,
136462,DK,18,Stenholt,
136463,DK,17,Kikhavn,
136464,DK,18,Durup,
136465,DK,18,Lading,
136466,DK,18,Skelhøje,
136467,DK,21,Dalum,
136468,DK,21,Voldtofte,
136469,DK,19,Klitmøller,
136470,DK,21,Erlev,
136471,DK,17,Udsholt,
136472,DK,17,Kvinderup,
136473,DK,20,Slimminge,
136474,DK,20,Haldagerlille,
136475,DK,18,Batum,
136476,DK,21,Hodde,
136477,DK,20,Gimlinge,
136478,DK,20,Terslev,
136479,DK,21,Hillerslev,
136480,DK,21,Veerst,
136481,DK,21,Foldingbro,
136482,DK,21,Grønnebæk,
136483,DK,21,Øster Lindet,
136484,DK,18,Herrup,
136485,DK,17,Brøndshøj,
136486,DK,21,Roager,
136487,DK,19,Mou,
136488,DK,7,Hals,
136489,DK,1,Hårlev,
136490,DK,7,Ålbæk,
136491,DK,7,Nørager,
136492,DK,6,Christianshavn,
136493,DK,10,Ågerup,
136494,DK,1,Ris,
136495,DK,1,Farup,
136496,DK,11,Stevning,
136497,DK,4,Vester Hæsinge,
136498,DK,18,Vorning,
136499,DK,18,Tvis,
136500,DK,19,Aalborg,
136501,DK,17,Tågerup,
136502,DK,21,Gårslev,
136503,DK,18,Kousted,
136504,DK,18,Lyngå,
136505,DK,19,Gjurup,
136506,DK,19,Harken,
136507,DK,18,Pillemark,
136508,DK,18,Øster Tørslev,
136509,DK,18,Granslev,
136510,DK,18,Skovby,
136511,DK,18,Dejbjerg,
136512,DK,20,Myrup,
136513,DK,20,Everdrup,
136514,DK,17,Niverød,
136515,DK,18,Kysing,
136516,DK,17,Karlebo,
136517,DK,19,Odde,
136518,DK,18,Mårup,
136519,DK,21,Lindved,
136520,DK,21,Lundeborg,
136521,DK,21,Mørup,
136522,DK,17,Kirke-værløse,
136523,DK,20,Vallensved,
136524,DK,21,Refsvindinge,
136525,DK,21,Bredal,
136526,DK,17,Esrum,
136527,DK,18,Nissum,
136528,DK,21,Nørreby,
136529,DK,21,Lindknud,
136530,DK,18,Hoven,
136531,DK,21,Tråsbøl,
136532,DK,21,Hokkerup,
136533,DK,21,Havnbjerg,
136534,DK,21,Brunde,
136535,DK,20,Grænge,
136536,DK,18,Jegindø,
136537,DK,18,Vile,
136538,DK,18,Gjessø,
136539,DK,18,Harridslev,
136540,DK,19,Gudumholm,
136541,DK,19,Valsgaard,
136542,DK,17,Sandvig,
136543,DK,21,Horne,
136544,DK,20,Gevninge,
136545,DK,19,Villerslev,
136546,DK,21,Felsted,
136547,DK,21,Randbøldal,
136548,DK,18,Troldhede,
136549,DK,21,Grejs,
136550,DK,18,Thise,
136551,DK,20,Snoldelev,
136552,DK,17,Vejleby,
136553,DK,19,Veddum,
136554,DK,19,Overlade,
136555,DK,19,Valsted,
136556,DK,18,Skarrild,
136557,DK,18,Hatting,
136558,DK,21,Nustrup,
136559,DK,21,Søgaard,
136560,DK,19,Thorshøj,
136561,DK,21,Sig,
136562,DK,21,Ertebjerg,
136563,DK,18,Klejtrup,
136564,DK,17,Rågeleje,
136565,DK,18,Simmelkær,
136566,DK,20,Kundby,
136567,DK,18,Uggelhuse,
136568,DK,20,Karrebæk,
136569,DK,19,Livø,
136570,DK,18,Koed,
136571,DK,18,Oens,
136572,DK,21,Farup,
136573,DK,21,Jedsted,
136574,DK,19,Kås,
136575,DK,18,Oddense,
136576,DK,19,Børglum,
136577,DK,18,He,
136578,DK,18,Tørslev,
136579,DK,21,Kalvehave,
136580,DK,18,No,
136581,DK,17,Søllerød,
136582,DK,21,Holmstrup,
136583,DK,18,Todbjerg,
136584,DK,18,Sparkær,
136585,DK,20,Frølunde,
136586,DK,20,Kirke Helsinge,
136587,DK,19,Fjellerad,
136588,DK,21,Vesterby,
136589,DK,21,Kalvslund,
136590,DK,18,Ryde,
136591,DK,21,Nederby,
136592,DK,21,Gravens,
136593,DK,18,Voerladegård,
136594,DK,18,Mausing,
136595,DK,19,Åbyen,
136596,DK,21,Askeby,
136597,DK,21,Bullerup,
136598,DK,21,Faldsled,
136599,DK,20,Bisserup,
136600,DK,20,Menstrup,
136601,DK,21,Darum,
136602,DK,21,Fitting,
136603,DK,19,Nors,
136604,DK,20,Dåstrup,
136605,DK,19,Doense,
136606,DK,21,Ketting,
136607,DK,18,Ølholm,
136608,DK,18,Onsbjerg,
136609,DK,19,Lønstrup,
136610,DK,18,Vestbirk,
136611,DK,17,Taarnby,
136612,DK,21,Aalkær,
136613,DK,20,Skellebjerg,
136614,DK,18,Kristrup,
136615,DK,18,Ramten,
136616,DK,21,Brejning,
136617,DK,21,Aa,
136618,DK,20,Halseby,
136619,DK,21,Over Jerstal,
136620,DK,21,Tobøl,
136621,DK,21,Hygum,
136622,DK,21,Mynderup,
136623,DK,17,Sorgenfri,
136624,DK,18,Endelave By,
136625,DK,17,Stavnsholt,
136626,DK,19,Onsild Stationsby,
136627,DK,21,Bramdrup,
136628,DK,19,Østerby,
136629,DK,19,Rakkeby,
136630,DK,18,Brundbymark,
136631,DK,18,Ødum,
136632,DK,18,Svejbæk,
136633,DK,17,Blovstrød,
136634,DK,18,Lille Bredlund,
136635,DK,19,Barbarask,
136636,DK,20,Høed,
136637,DK,21,Havervad,
136638,DK,17,Gladsakse,
136639,DK,18,Langöre,
136640,DK,17,Grimstrup,
136641,DK,18,Store Nørlund,
136642,DK,18,Rise,
136643,DK,20,Yderby,
136644,DK,20,Nordby,
136645,DK,20,Nordrupvester,
136646,DK,18,Okslund,
136647,DK,18,Løndal,
136648,DK,18,Aasted Bro,
136649,DK,18,Løve,
136650,DK,17,Utterslev,
136651,DK,18,Framlev,
136652,DK,20,Hellevlille,
136653,DK,21,Vrenderup,
136654,DK,21,Okslund,
136655,DK,21,Gjörding Stationsby,
136656,DK,21,Vonsbæk,
136657,DK,19,Skarndal,
136658,DK,20,Vindinge,
136659,DK,18,Stourup,
136660,DK,18,Bottrup,
136661,DK,21,Lydinge Gaarde,
136662,DK,21,Sønderballe,
136663,DK,21,Medsted,
136664,DK,18,Sattrup,
136665,DK,19,Borregaard,
136666,DK,18,Iller Hede,
136667,DK,17,Harreshøj,
136668,DK,18,Hygild,
136669,DK,21,Bobjærg,
136670,DK,18,Tunø By,
136671,DK,21,Sønder Bjert,
136672,DK,20,Hølkerup,
136673,DK,20,Ejby,
136674,DK,21,Stige,
136675,DK,21,Nordenhuse,
136676,DK,18,Hedegaarde,
136677,DK,21,Eg,
136678,DK,18,Sønder Vissing,
136679,DK,21,Baagö By,
136680,DK,17,Nødebo,
136681,DK,21,Ejlskov,
136682,DK,17,Fortunen,
136683,DK,18,Århus,
136684,DK,20,Smerup,
136685,DK,20,Brandelev,
136686,DK,18,Navntoft,
136687,DK,21,Studsbøl,
136688,DK,21,Ornum,
136689,DK,19,Gundersted,
136690,DK,17,Nylarsker,
136691,DK,19,Øster Skærum,
136692,DK,17,Bodilsker,
136693,DK,18,Hammerum,
136694,DK,18,Askildrup,
136695,DK,20,Starreklinte,
136696,DK,20,Bønsvig,
136697,DK,20,Ørslev,
136698,DK,20,Ettehave,
136699,DK,21,Ravning,
136700,DK,18,Agestrup,
136701,DK,20,Trælløse,
136702,DK,18,Mondrup,
136703,DK,20,Bruntofte,
136704,DK,21,Hemmerslev,
136705,DK,18,Frisenvold,
136706,DK,21,Tørresø,
136707,DK,20,Vetterslev,
136708,DK,20,Næsby Fed,
136709,DK,21,Sottrupskov,
136710,DK,18,Rosmos,
136711,DK,17,Nejede,
136712,DK,20,Butterup,
136713,DK,18,Abildholt,
136714,DK,21,Kuldbjærg,
136715,DK,21,Tiufkær,
136716,DK,21,Glejbjerg Stationsby,
136717,DK,18,Nørre Lem,
136718,DK,17,Asseregaards Huse,
136719,DK,18,Vostrup,
136720,DK,18,Læsten,
136721,DK,18,Aale,
136722,DK,18,Harre,
136723,DK,21,Skaastrup,
136724,DK,21,Tarp,
136725,DK,18,Vrads,
136726,DK,20,Druestrup,
136727,DK,20,Frörslev,
136728,DK,17,Islemark,
136729,DK,21,Abkær,
136730,DK,17,Bakkegaarde,
136731,DK,19,Stenum,
136732,DK,19,Stensholt,
136733,DK,19,Blenstrup,
136734,DK,18,Estrup,
136735,DK,18,Bjørndal,
136736,DK,18,Fasterholt,
136737,DK,18,Snejbjerg,
136738,DK,18,Serup,
136739,DK,18,Ørre,
136740,DK,20,Farendløse,
136741,DK,20,Aase,
136742,DK,20,Tornemark,
136743,DK,20,Døjringe,
136744,DK,20,Forlev,
136745,DK,21,Sejrup,
136746,DK,18,Gammel Hampen,
136747,DK,21,Hindevad,
136748,DK,21,Vedsted,
136749,DK,21,Kelstrup Strand,
136750,DK,21,Hygum Nørremark,
136751,DK,19,Öster Vraa,
136752,DK,20,Vigersted,
136753,DK,20,Hegngaarde,
136754,DK,20,Vejrø,
136755,DK,21,Hejsager,
136756,DK,21,Lerte,
136757,DK,18,Ballen,
136758,DK,18,Hejring,
136759,DK,18,Binderup,
136760,DK,20,Kirke-fjenneslev,
136761,DK,21,Svejlund,
136762,DK,18,Hjøllund,
136763,DK,18,Stenhuse,
136764,DK,20,Mortenstrup,
136765,DK,21,Glejbjærg,
136766,DK,21,Nørre Starup,
136767,DK,21,Neder Holluf,
136768,DK,21,Frederikshaab,
136769,DK,18,Lemmer,
136770,DK,21,Hindsig,
136771,DK,18,Dyrvig,
136772,DK,18,Holmstol,
136773,DK,18,Hyllested,
136774,DK,19,Ingstrup,
136775,DK,19,Skallerup,
136776,DK,21,Rindebæk,
136777,DK,18,Grumstrup,
136778,DK,17,Listed,
136779,DK,17,Lobbæk,
136780,DK,19,Vejerslev,
136781,DK,19,Vester Hjermitslev,
136782,DK,18,Bruunshaab,
136783,DK,18,Albæk Hede,
136784,DK,18,Drastrup,
136785,DK,17,Græse,
136786,DK,21,Rolfsted,
136787,DK,21,Jegerup,
136788,DK,21,Bjerlev,
136789,DK,18,Testrup,
136790,DK,18,Lime,
136791,DK,18,Ginnerup,
136792,DK,19,Hvornum,
136793,DK,19,Hvilsom,
136794,DK,21,Torup,
136795,DK,21,Gejlaa,
136796,DK,18,Sjørup,
136797,DK,18,Ølstrup,
136798,DK,18,Langkastrup,
136799,DK,18,Kaatrup,
136800,DK,17,Rutsker,
136801,DK,21,Hundstrup,
136802,DK,21,Illebølle,
136803,DK,21,Ommel,
136804,DK,20,Lille Torøje,
136805,DK,20,Fodby,
136806,DK,17,Uvelse,
136807,DK,20,Bakkerup,
136808,DK,21,Bov,
136809,DK,21,Ho,
136810,DK,19,Sebbersund,
136811,DK,21,Ellerup,
136812,DK,21,Klintebjerg,
136813,DK,19,Gug,
136814,DK,19,Godthaab,
136815,DK,17,Raageleje,
136816,DK,19,Sennels,
136817,DK,20,Hekkerup,
136818,DK,17,Tårbæk,
136819,DK,20,Vandløse,
136820,DK,20,Viskinge,
136821,DK,18,Asferg,
136822,DK,21,Farre,
136823,DK,18,Vellev,
136824,DK,21,Vinum,
136825,DK,21,Fole,
136826,DK,18,Vinderslev,
136827,DK,21,Nørre Lyndelse,
136828,DK,21,Fynshav,
136829,DK,21,Stevning,
136830,DK,21,Abild,
136831,DK,21,Fjelstrup,
136832,DK,21,Sarup,
136833,DK,19,Ørding,
136834,DK,20,Lille Ebberup,
136835,DK,18,Ulkær,
136836,DK,20,Vester Broby,
136837,DK,18,Eg,
136838,DK,19,Kirkeholt,
136839,DK,18,Gantrup,
136840,DK,20,Store Ebberup,
136841,DK,19,Mejlby,
136842,DK,18,Brokkedal,
136843,DK,18,Graaskov,
136844,DK,21,Enebjærg,
136845,DK,21,Gadbjærg,
136846,DK,20,Kagerup,
136847,DK,18,Elling,
136848,DK,18,Over Fussing,
136849,DK,21,Vedtofte,
136850,DK,18,Brørup,
136851,DK,21,Vilsbæk,
136852,DK,20,Great Fuglede,
136853,DK,20,Snesere,
136854,DK,21,Aarö By,
136855,DK,20,Dramstrup,
136856,DK,21,Bovrup,
136857,DK,19,Skjörbæk,
136858,DK,18,Hvirring,
136859,DK,21,Slæbæk,
136860,DK,20,Firgaarde,
136861,DK,18,Gudumbro,
136862,DK,17,Husum,
136863,DK,21,Vodder,
136864,DK,19,Veggerby,
136865,DK,18,Over Barrit,
136866,DK,20,Vedbysønder,
136867,DK,18,Landtind,
136868,DK,20,Skrosbjærg,
136869,DK,21,Øster Snogbæk,
136870,DK,21,Højst,
136871,DK,19,Gønderup,
136872,DK,21,Bolsmose,
136873,DK,18,Nørre Søller,
136874,DK,20,Tvindelstrup,
136875,DK,17,Søvang,
136876,DK,18,Vrønding,
136877,DK,20,Aarslev,
136878,DK,17,Hvessinge,
136879,DK,19,Skrødstrup,
136880,DK,21,Nørre Bøel,
136881,DK,21,Jørgensø,
136882,DK,21,Galstho,
136883,DK,18,Braa,
136884,DK,21,Brobyværk,
136885,DK,18,Bigum,
136886,DK,18,Alling,
136887,DK,17,Jægersborg,
136888,DK,20,Gierslev,
136889,DK,18,Selling,
136890,DK,21,Thurø,
136891,DK,21,Hjarup,
136892,DK,21,Ødis,
136893,DK,18,Kvorning,
136894,DK,20,Herrestrup,
136895,DK,21,Brøndsted,
136896,DK,19,Kjallerup,
136897,DK,18,Aidt,
136898,DK,18,Toftebjerg,
136899,DK,21,Flemløse,
136900,DK,21,Tullebølle,
136901,DK,20,Varpelev,
136902,DK,17,Reerslev,
136903,DK,21,Espe,
136904,DK,19,Ferslev,
136905,DK,21,Andebølle,
136906,DK,18,Lyngs,
136907,DK,19,Vester Hornum,
136908,DK,18,Hylke,
136909,DK,19,Hjedsbæk,
136910,DK,19,Als,
136911,DK,20,Blæsebjerg,
136912,DK,17,Horneby,
136913,DK,18,Isenvad,
136914,DK,19,Svennum,
136915,DK,19,Løth,
136916,DK,20,Engelstofte,
136917,DK,17,Store Lyngby,
136918,DK,17,Borup,
136919,DK,18,Boest,
136920,DK,20,Havnemark,
136921,DK,18,Gludsted,
136922,DK,21,Daldover,
136923,DK,18,Stubkær,
136924,DK,18,Dejgret,
136925,DK,20,Valsölille Gaard,
136926,DK,20,Orsley,
136927,DK,20,Venemose,
136928,DK,20,Hallelev,
136929,DK,18,Omvraa,
136930,DK,18,Øster Bisholt,
136931,DK,19,Krogstrup,
136932,DK,20,Estrup,
136933,DK,18,Hvam,
136934,DK,20,Omø By,
136935,DK,20,Bjørnstrup,
136936,DK,19,Brændskov,
136937,DK,21,Gamle Skovböl,
136938,DK,18,Nissumby,
136939,DK,19,Sterup,
136940,DK,20,Krænkerup,
136941,DK,18,Kolby Kaas,
136942,DK,18,Eldrup,
136943,DK,21,Skovsgaarde,
136944,DK,18,Hulbæk,
136945,DK,20,Jydstrup,
136946,DK,21,Ferup Nyvang,
136947,DK,20,Kajemose,
136948,DK,21,Skærsig,
136949,DK,18,Over Viskum,
136950,DK,18,Voel,
136951,DK,19,Vilsted,
136952,DK,19,Hou Hals,
136953,DK,21,Gaarslev,
136954,DK,20,Veddelev,
136955,DK,20,Radsted Langet,
136956,DK,17,Kollerød,
136957,DK,17,Esbönderup,
136958,DK,19,Blære,
136959,DK,18,Havredal,
136960,DK,19,Halvrimmen,
136961,DK,21,Stepping,
136962,DK,20,Ønslev,
136963,DK,19,Durup,
136964,DK,20,Skee,
136965,DK,21,Vester Hæsinge,
136966,DK,17,Islev,
136967,DK,21,Troldkær,
136968,DK,21,Hjortkær,
136969,DK,21,Kragelund,
136970,DK,21,Brandbjerg,
136971,DK,18,Östermose,
136972,DK,20,Søtofte,
136973,DK,21,Bolbro,
136974,DK,18,Langemark,
136975,DK,21,Vilslev,
136976,DK,20,Vejringe,
136977,DK,19,Lyngsaa,
136978,DK,20,Vester Ulslev,
136979,DK,21,Gånsager,
136980,DK,18,Grønhøj,
136981,DK,19,Øster Hornum,
136982,DK,19,Bradstrup,
136983,DK,19,Byrsted,
136984,DK,21,Ålsbo,
136985,DK,20,Flinterup,
136986,DK,17,Slagslunde,
136987,DK,19,Heltborg,
136988,DK,19,Hellum,
136989,DK,21,Roust,
136990,DK,18,Tøndering,
136991,DK,18,Purhus,
136992,DK,18,Esby,
136993,DK,21,Sønderhav,
136994,DK,17,Avderød,
136995,DK,18,Breth,
136996,DK,18,Skibbild,
136997,DK,21,Freltofte,
136998,DK,20,Gyrstinge,
136999,DK,17,Nyker,
137000,DK,19,Gaardsholt,
137001,DK,18,Venø By,
137002,DK,20,Svinøvester,
137003,DK,20,Bildsø,
137004,DK,17,Alsønderup,
137005,DK,21,Fjærsted,
137006,DK,18,Grinderslev,
137007,DK,18,Frederikshöj,
137008,DK,20,Jenstrup,
137009,DK,18,Remmer Strand,
137010,DK,18,Norup Gaarde,
137011,DK,18,Kolby,
137012,DK,18,Dallerup,
137013,DK,18,Ørby,
137014,DK,18,Rönbjærg,
137015,DK,19,Als Hede,
137016,DK,20,Hav Borup,
137017,DK,20,Neder Vindinge,
137018,DK,20,Askø By,
137019,DK,18,Raadved,
137020,DK,20,Snævre,
137021,DK,19,Nymark,
137022,DK,20,Søstrup,
137023,DK,18,Sønder Hjerm,
137024,DK,20,Vindebyskov,
137025,DK,21,Karlsgaarde,
137026,DK,18,Trevad,
137027,DK,18,Haarup,
137028,DK,19,Vorsaa,
137029,DK,21,Hellevad,
137030,DK,18,Kattrup,
137031,DK,21,Kirkendrup,
137032,DK,17,Knardrup,
137033,DK,20,Nyråd,
137034,DK,21,Tofthøj,
137035,DK,18,Hadbjerg,
137036,DK,18,Sejling,
137037,DK,20,Sortsø,
137038,DK,20,Eggeslevmagle,
137039,DK,21,Sønder Hostrup,
137040,DK,19,Skjoldborg,
137041,DK,18,Kongstrup,
137042,DK,18,Vinstrup,
137043,DK,21,Aborg,
137044,DK,20,Tersløse,
137045,DK,20,Lille Karleby,
137046,DK,19,Glædeby,
137047,DK,18,Houlbjerg,
137048,DK,21,Møgeltønder,
137049,DK,21,Fjellerup,
137050,DK,21,Dryhus,
137051,DK,17,Østby,
137052,DK,21,Fjelby,
137053,DK,19,Ellidshøj,
137054,DK,21,Genner,
137055,DK,21,Nordenskov,
137056,DK,21,Jejsing,
137057,DK,21,Øster Højst,
137058,DK,19,Valsgård,
137059,DK,20,Halsted,
137060,DK,18,Vedersø,
137061,DK,19,Jespergaarde,
137062,DK,20,Lille Kongsmark,
137063,DK,18,Søby,
137064,DK,18,Verjerslev,
137065,DK,20,Øster Stillinge,
137066,DK,18,Alstrup,
137067,DK,21,Ørby,
137068,DK,20,Regerup,
137069,DK,18,Gesing,
137070,DK,21,Bjerndrup,
137071,DK,19,Nørredige,
137072,DK,18,Alrø By,
137073,DK,20,Holløse,
137074,DK,18,Brigsted,
137075,DK,18,Fogstrup,
137076,DK,19,Morild,
137077,DK,19,Lille Ajstrup,
137078,DK,20,Opager,
137079,DK,18,Hoager,
137080,DK,21,Klinte,
137081,DK,18,Vinkel,
137082,DK,21,Føns,
137083,DK,18,Over Feldborg,
137084,DK,19,Myrhøj,
137085,DK,19,Komdrup,
137086,DK,18,Store Tykskov,
137087,DK,18,Borre,
137088,DK,18,Dyngby,
137089,DK,17,Christianshavn,
137090,DK,18,Veggerslev,
137091,DK,18,Vorup,
137092,DK,18,Bendstrup,
137093,DK,19,Ilbro,
137094,DK,20,Fårevejle Stationsby,
137095,DK,19,Nøvling,
137096,DK,17,Stærkende,
137097,DK,18,Haunstrup,
137098,DK,21,Andkær,
137099,DK,18,Jeksen,
137100,DK,21,Åstorp,
137101,DK,21,Nagbøl,
137102,DK,18,Øster Alling,
137103,DK,18,Nim,
137104,DK,20,Taaderup,
137105,DK,21,Ballum,
137106,DK,19,Uggerby,
137107,DK,20,Kirke Sonnerup,
137108,DK,20,Jersie Strand,
137109,DK,17,Saunte,
137110,DK,21,Tistrup Stationsby,
137111,DK,19,Arentsminde,
137112,DK,17,Emdrup,
137113,DK,21,Gerskov,
137114,DK,19,Hune,
137115,DK,18,Kni,
137116,DK,19,Sæsing,
137117,DK,21,Ustrup,
137118,DK,18,Sjelle,
137119,DK,18,Spettrup,
137120,DK,21,Gjerndrup,
137121,DK,18,Elsborg,
137122,DK,21,Bøgeparken,
137123,DK,18,Karstoft,
137124,DK,20,Havnelev,
137125,DK,20,Assentorp,
137126,DK,20,Lille Næstved,
137127,DK,17,Marbjerg,
137128,DK,21,Svindinge,
137129,DK,19,Hou,
137130,DK,19,Nørre Söraa,
137131,DK,21,Hoborghus,
137132,DK,19,Sønderby,
137133,DK,19,Hinding,
137134,DK,20,Ørslevvester,
137135,DK,18,Hvolbæk,
137136,DK,21,Høllund,
137137,DK,18,Svejstrup,
137138,DK,19,Borup,
137139,DK,21,Strandtved,
137140,DK,18,Uth,
137141,DK,18,Svostrup,
137142,DK,18,Nederholm,
137143,DK,20,Lille Tvede,
137144,DK,18,Lille Agersende,
137145,DK,18,Hyrup,
137146,DK,20,Ryde,
137147,DK,18,Øster Lyby,
137148,DK,18,Haasum Torp,
137149,DK,21,Horsbyg,
137150,DK,18,Østermark,
137151,DK,19,Gerding,
137152,DK,18,Velgaarde,
137153,DK,20,Halkevad,
137154,DK,19,Sinnerup,
137155,DK,21,Kaleko,
137156,DK,18,Haldrup,
137157,DK,18,Hammer,
137158,DK,18,Lyne,
137159,DK,21,Vester Vedsted,
137160,DK,21,Nybøl,
137161,DK,18,Vindum,
137162,DK,21,Rinkenæs,
137163,DK,20,Marielyst,
137164,DK,17,Smørumovre,
137165,DK,18,Rårup,
137166,DK,21,Skanderup,
137167,DK,18,Søballe,
137168,DK,18,Vrold,
137169,DK,19,Manstrup,
137170,DK,18,Hanning,
137171,DK,21,Herrested,
137172,DK,21,Smedeby,
137173,DK,18,Ejsing,
137174,DK,19,Stenbjerg,
137175,DK,18,Sinding,
137176,DK,18,Fannerup,
137177,DK,19,Snæbum,
137178,DK,18,Vitten,
137179,DK,18,Kasted,
137180,DK,21,Å,
137181,DK,21,Haagerup,
137182,DK,21,Haastrup,
137183,DK,20,Herringløse,
137184,DK,17,Plejelt,
137185,DK,18,Mogenstrup,
137186,DK,21,Skalbjerg,
137187,DK,19,Allingdam,
137188,DK,18,Selde,
137189,DK,18,Åle,
137190,DK,18,Vissing,
137191,DK,21,Nymindegab,
137192,DK,18,Strands,
137193,DK,21,Jydemark,
137194,DK,21,Grimstrup,
137195,DK,21,Kværs,
137196,DK,18,Hinge,
137197,DK,18,Hjarbæk,
137198,DK,21,Sottrup,
137199,DK,20,Tybjerg,
137200,DK,20,Birket,
137201,DK,18,Vinge,
137202,DK,21,Sjellerup,
137203,DK,20,Søndersted,
137204,DK,20,Vedde,
137205,DK,19,Mejeriby,
137206,DK,18,Neder Ustrup,
137207,DK,18,Tambohuse,
137208,DK,18,Lindbjærg,
137209,DK,20,Læstrup,
137210,DK,18,Haslum,
137211,DK,18,Nyby,
137212,DK,20,Ondløse,
137213,DK,17,Store Hagelse,
137214,DK,20,Abbetved,
137215,DK,21,Vedbøl,
137216,DK,18,Skringstrup,
137217,DK,21,Jersore,
137218,DK,18,Nordby,
137219,DK,21,Skovs-højrup,
137220,DK,21,Mellerup,
137221,DK,18,Nørhoved,
137222,DK,18,Venge,
137223,DK,20,Øllerup,
137224,DK,20,Drosselbierg,
137225,DK,20,Kirke-stillinge Strand,
137226,DK,21,Helnæs By,
137227,DK,18,Alken,
137228,DK,21,Tirsbæk,
137229,DK,19,Gammel Nørager,
137230,DK,18,Skiffard,
137231,DK,18,Dalbyneder,
137232,DK,18,Hestbjærg,
137233,DK,20,Sidinge,
137234,DK,19,Oppelstrup,
137235,DK,19,Vægger,
137236,DK,19,Sønder Onsild,
137237,DK,18,Egelund,
137238,DK,19,Dværgetved,
137239,DK,21,Hesselballe,
137240,DK,18,Hov,
137241,DK,18,Vranum,
137242,DK,20,Lille Torp,
137243,DK,18,Molgær,
137244,DK,18,Blaahöj,
137245,DK,20,Mastrup,
137246,DK,18,Hylken,
137247,DK,20,Fulby,
137248,DK,18,Linnerup,
137249,DK,19,Laage,
137250,DK,21,Uhe,
137251,DK,19,Skovsgaard,
137252,DK,18,Sangstrup,
137253,DK,19,Holtet,
137254,DK,17,Snogebæk,
137255,DK,19,Dybvad Stationsby,
137256,DK,21,Dømmestrup,
137257,DK,18,Sødring,
137258,DK,18,Hevring,
137259,DK,18,Herborg,
137260,DK,19,Hundborg,
137261,DK,18,Tanderupkær,
137262,DK,19,Uggerhalne,
137263,DK,21,Kappendrup,
137264,DK,20,Sageby,
137265,DK,20,Bårse,
137266,DK,20,Nidløse,
137267,DK,20,Vester Såby,
137268,DK,20,Store Tårnby,
137269,DK,18,Faster,
137270,DK,20,Arnøje,
137271,DK,18,Laven,
137272,DK,21,Birkende,
137273,DK,21,Lohals,
137274,DK,18,Finderup,
137275,DK,19,Flade,
137276,DK,21,Haved,
137277,DK,18,Truust,
137278,DK,21,Tørsbøl,
137279,DK,21,Visby,
137280,DK,21,Birkum,
137281,DK,19,Dokkedal,
137282,DK,17,Sundbyerne,
137283,DK,18,Gerning,
137284,DK,18,Honum,
137285,DK,18,Grønbæk,
137286,DK,21,Sønder Hygum,
137287,DK,20,Nørre Vedby,
137288,DK,20,Hjembæk,
137289,DK,17,Bistrup,
137290,DK,20,Øm,
137291,DK,20,Eskebierg,
137292,DK,20,Ømark,
137293,DK,18,Enner,
137294,DK,17,Sigerslevvester,
137295,DK,18,Nørre Bjerre,
137296,DK,21,Hasmark,
137297,DK,21,Brænderup,
137298,DK,18,Birkild,
137299,DK,20,Kaldred,
137300,DK,19,Lendum,
137301,DK,21,Mejsling,
137302,DK,20,Keldernæsskov,
137303,DK,17,Bølshavn,
137304,DK,18,Resen,
137305,DK,20,Karrebækstorp,
137306,DK,21,Sverdrup,
137307,DK,18,Lomborg,
137308,DK,18,Østrup,
137309,DK,18,Tørring Kær,
137310,DK,18,Gammelby,
137311,DK,21,Vindelev,
137312,DK,20,Neble Torp,
137313,DK,20,Kollekolle,
137314,DK,21,Højrup,
137315,DK,21,Kelstrup,
137316,DK,18,Fuglsø,
137317,DK,18,Virring,
137318,DK,20,Skellingsted,
137319,DK,19,Sejlflod,
137320,DK,18,Vrigsted,
137321,DK,21,Pjedsted,
137322,DK,21,Taps,
137323,DK,18,Bønnerup,
137324,DK,20,Høsten,
137325,DK,17,Skibstrup,
137326,DK,21,Vester Aaby,
137327,DK,18,Saksild,
137328,DK,19,Skarp-salling,
137329,DK,21,Uggerslev,
137330,DK,20,Højsted,
137331,DK,19,Visse,
137332,DK,18,Skjød,
137333,DK,18,Bremdal,
137334,DK,18,Tvingstrup,
137335,DK,18,Abildå,
137336,DK,18,Linå,
137337,DK,21,Nyborg Strand,
137338,DK,20,Faareveile,
137339,DK,21,Harreby,
137340,DK,21,Egebjærg,
137341,DK,19,Mejling,
137342,DK,20,Alleshave,
137343,DK,20,Hæggerup,
137344,DK,17,Avedøre Holme,
137345,DK,19,Glenstrup,
137346,DK,21,Baldersbæk,
137347,DK,18,Vorbjærg,
137348,DK,20,Agersø,
137349,DK,20,Sørbylille,
137350,DK,17,Freerslev,
137351,DK,18,Vejrum,
137352,DK,18,Eriknauer,
137353,DK,19,Langdal,
137354,DK,20,Flintinge,
137355,DK,20,Virket,
137356,DK,20,Løserup,
137357,DK,18,Sminge,
137358,DK,18,Lyby,
137359,DK,19,Skram,
137360,DK,18,Sundstrup,
137361,DK,18,Vester Børsting,
137362,DK,18,Løvskal,
137363,DK,21,Bovlundbjærg,
137364,DK,20,Mørreby,
137365,DK,21,Vargaarde,
137366,DK,21,Ravnholt,
137367,DK,18,Norsminde,
137368,DK,21,Lunding,
137369,DK,21,Brandsbøl,
137370,DK,18,Ålum,
137371,DK,18,Tindbæk,
137372,DK,18,Sall,
137373,DK,20,Englerup,
137374,DK,17,Jonstrup,
137375,DK,21,Strynø,
137376,DK,21,Lumby,
137377,DK,20,Hallenslev,
137378,DK,21,Mjang,
137379,DK,18,Ulfborg Kirkeby,
137380,DK,18,Ravnstrup,
137381,DK,18,Spjald Stationsby,
137382,DK,17,Tranegilde,
137383,DK,21,Tommerup Stationsby,
137384,DK,21,Bred,
137385,DK,20,Reersø,
137386,DK,20,Buerup,
137387,DK,20,Kisserup,
137388,DK,18,Veng,
137389,DK,19,Skivum,
137390,DK,21,Krarup,
137391,DK,21,Hoptrup,
137392,DK,21,Kærup,
137393,DK,20,Lundby Stationsby,
137394,DK,21,Sejstrup,
137395,DK,19,Øster Hassing,
137396,DK,19,Visborg,
137397,DK,18,Sønder Nissum,
137398,DK,21,Kollund Østerskov,
137399,DK,17,Vassingerød,
137400,DK,18,Ommestrup,
137401,DK,18,Fåre,
137402,DK,21,Skjoldbjerg,
137403,DK,20,Aspa,
137404,DK,18,Tvede,
137405,DK,18,Tanderup,
137406,DK,18,Barrithule,
137407,DK,20,Mosebølle,
137408,DK,19,Seem,
137409,DK,21,Almstok,
137410,DK,18,Skærlund,
137411,DK,19,Tidselbak,
137412,DK,18,Randbæk,
137413,DK,20,Fløjterup,
137414,DK,21,Gjöding Huse,
137415,DK,19,Emb,
137416,DK,21,Salby,
137417,DK,21,Radby,
137418,DK,21,Bredbjærg,
137419,DK,18,Trebjærg,
137420,DK,20,Lumbsaas,
137421,DK,18,Söndbierg,
137422,DK,17,Borren,
137423,DK,19,Horsens,
137424,DK,20,Nykiöbing,
137425,DK,20,Lekkende,
137426,DK,18,Rettrup,
137427,DK,18,Gammelstrup,
137428,DK,20,Klint,
137429,DK,18,Rostved,
137430,DK,21,Måre,
137431,DK,20,Strøby Ladeplads,
137432,DK,18,Følle,
137433,DK,18,Værum,
137434,DK,19,Kjölby,
137435,DK,21,Farstrup,
137436,DK,18,Hvidsten,
137437,DK,18,Borbjerg,
137438,DK,21,Nybölle Gaard,
137439,DK,20,Gudum,
137440,DK,18,Bøgelund,
137441,DK,18,Smerup,
137442,DK,18,Snaptun,
137443,DK,17,Aarsdale,
137444,DK,19,Vodstrup,
137445,DK,19,Aggersborg,
137446,DK,19,Bislev,
137447,DK,19,Thorup,
137448,DK,20,Leestrup,
137449,DK,19,Aggersund,
137450,DK,18,Roum,
137451,DK,18,Vilholt,
137452,DK,20,Stigsnæs,
137453,DK,21,Kestrup,
137454,DK,20,Knudsskov,
137455,DK,18,Begtrup,
137456,DK,21,Rugbjerg,
137457,DK,21,Hågerup,
137458,DK,17,Lyngerup,
137459,DK,21,Skibet,
137460,DK,21,Tofterup,
137461,DK,20,Ortved,
137462,DK,21,Holsted Station,
137463,DK,18,Hesselballe,
137464,DK,18,Glattrup,
137465,DK,18,Christianshede Stationsby,
137466,DK,20,Bæl,
137467,DK,21,Simmersted,
137468,DK,18,Vognstrup,
137469,DK,20,Mærn,
137470,DK,18,Basballe,
137471,DK,18,Bøgballe,
137472,DK,21,Helletofte,
137473,DK,21,Ringive,
137474,DK,18,Neder Vrigsted,
137475,DK,21,Høl,
137476,DK,21,Håstrup,
137477,DK,21,Ris,
137478,DK,20,Ulkestrup,
137479,DK,21,Husby,
137480,DK,18,Kølsen,
137481,DK,19,Østerby Havn,
137482,DK,18,Klank,
137483,DK,21,Hudevad,
137484,DK,21,Asserballe,
137485,DK,19,Nebstrup,
137486,DK,18,Humlum,
137487,DK,17,Kyndby Huse,
137488,DK,19,Røgelhede,
137489,DK,18,Korsvej,
137490,DK,18,Stanghede,
137491,DK,21,Render,
137492,DK,21,Urup,
137493,DK,20,Rosted,
137494,DK,21,Krogager,
137495,DK,18,Kåtrup,
137496,DK,18,Hjarnø By,
137497,DK,20,Ny Hagested,
137498,DK,21,Bredevad,
137499,DK,18,Almind,
137500,DK,20,Bonderup,
137501,DK,18,Addit,
137502,DK,18,Nørre Vium,
137503,DK,18,Hvilsted,
137504,DK,21,Mjels,
137505,DK,18,Uglev,
137506,DK,21,Vester Sottrup,
137507,DK,18,Bønnerup Strand,
137508,DK,21,Lunde,
137509,DK,18,Hårup,
137510,DK,18,Underup,
137511,DK,19,Ejdrup,
137512,DK,18,Flensted,
137513,DK,20,Vielsted,
137514,DK,18,Lerbjerg,
137515,DK,20,Brændholt,
137516,DK,19,Østerild,
137517,DK,20,Kornerup,
137518,DK,20,Slots-bjergby,
137519,DK,18,Nørbæk,
137520,DK,21,Brændstrup,
137521,DK,19,Rörbæk,
137522,DK,18,Stavns,
137523,DK,20,Utterslevmader,
137524,DK,18,Klattrup,
137525,DK,19,Bødkergård,
137526,DK,20,Kostræde,
137527,DK,18,Skræ,
137528,DK,18,Strandby,
137529,DK,18,Amstrup,
137530,DK,21,Vester Åby,
137531,DK,21,Nymark,
137532,DK,21,Ullerup,
137533,DK,21,Midskov,
137534,DK,18,Raasted,
137535,DK,18,Ådum,
137536,DK,20,Skurup,
137537,DK,21,Lindet,
137538,DK,18,Sevel,
137539,DK,18,Elbæk,
137540,DK,20,Over Even,
137541,DK,21,Tranbjærg,
137542,DK,19,Dollerup,
137543,DK,20,Hammer-torup,
137544,DK,18,Grund,
137545,DK,21,Torsbjerg,
137546,DK,21,Henne Stationsby,
137547,DK,19,Vrensted,
137548,DK,21,Nørre Broby,
137549,DK,19,Tollestrup,
137550,DK,18,Stensballe,
137551,DK,19,Mølholt,
137552,DK,18,Krondal,
137553,DK,20,Østofte,
137554,DK,20,Lov,
137555,DK,20,Skamstrup,
137556,DK,21,Ungersbjærg,
137557,DK,18,Höbjærg,
137558,DK,17,Vejby Strand,
137559,DK,19,Hørby,
137560,DK,21,Holev,
137561,DK,17,Sjælsmark,
137562,DK,21,Søgård,
137563,DK,19,Stae,
137564,DK,18,Knagstrup,
137565,DK,20,Brønde,
137566,DK,18,Hallendrup,
137567,DK,18,Roe,
137568,DK,19,Øster Jølby,
137569,DK,17,Høvelte,
137570,DK,21,Maderup,
137571,DK,21,Stubbæk,
137572,DK,20,Viemose,
137573,DK,21,Lovrup,
137574,DK,19,Poulstrup,
137575,DK,20,Dalby,
137576,DK,18,Toftum,
137577,DK,19,Gullerup,
137578,DK,21,Lejrskov,
137579,DK,18,Råby,
137580,DK,18,Gimming,
137581,DK,20,Bistrup,
137582,DK,21,Tøsby,
137583,DK,21,Gultved,
137584,DK,18,Tohuse,
137585,DK,19,Torsted,
137586,DK,17,Mårum,
137587,DK,17,Bergmandsdal,
137588,DK,20,Løng,
137589,DK,21,Søvang,
137590,DK,21,Tvede,
137591,DK,21,Mejlby,
137592,DK,18,Sønder Ørum,
137593,DK,21,Mastrup,
137594,DK,21,Toftum,
137595,DK,21,Høed,
137596,DK,17,Duebjærg Gaarde,
137597,DK,18,Firgaarde,
137598,DK,21,Hyrup,
137599,DK,20,Vriet,
137600,DK,21,Kolby,
137601,DK,18,Klokmose,
137602,DK,21,Tanderup,
137603,DK,21,Ballen,
137604,DK,19,Bjørnstrup,
137605,DK,18,Blenstrup,
137606,DK,21,Østrup,
137607,DK,17,Sletten,
137608,DK,21,Ellinge,
137609,DK,20,Mårsø,
137610,DK,20,Unnerud,
137611,DK,19,Kobberöd,
137612,DK,18,Flavlev,
137613,DK,18,Ovstrup,
137614,DK,20,Birkemose,
137615,DK,21,Mejlskov,
137616,DK,20,Tybjerglille,
137617,DK,21,Mølholm,
137618,DK,21,Meng,
137619,DK,19,Ravhede,
137620,DK,20,Bromme,
137621,DK,18,Knud,
137622,DK,18,Gjørup,
137623,DK,18,Tirsvad,
137624,DK,20,Flaarup,
137625,DK,18,Bredholt,
137626,DK,20,Store Torøje,
137627,DK,19,Skibsted,
137628,DK,21,Lebøl,
137629,DK,18,Nødager,
137630,DK,20,Fårdrup,
137631,DK,21,Holse,
137632,DK,20,Hyllested,
137633,DK,20,Brunemose,
137634,DK,20,Tyvelse,
137635,DK,18,Sødrup,
137636,DK,18,Vester Ørum,
137637,DK,20,Sørninge,
137638,DK,21,Lille Ubberud,
137639,DK,21,Revsø Mark,
137640,DK,20,Avdebo,
137641,DK,21,Farris,
137642,DK,21,Katterød,
137643,DK,17,Kildekrog,
137644,DK,17,Høsterkøb,
137645,DK,19,Svingel,
137646,DK,19,Koldby,
137647,DK,20,Urne,
137648,DK,18,Over Simmelkær,
137649,DK,21,Hjartbro,
137650,DK,19,Buddum,
137651,DK,18,Grættrup,
137652,DK,20,Drøsselbjerg,
137653,DK,20,Vor Frue,
137654,DK,18,Drammelstrup,
137655,DK,18,Store Thorlund,
137656,DK,18,Stavning,
137657,DK,18,Bret,
137658,DK,19,Øsløs,
137659,DK,18,Adslev,
137660,DK,21,Over Holluf,
137661,DK,18,Görup,
137662,DK,21,Tandselle,
137663,DK,21,Hjallese,
137664,DK,19,Moseby,
137665,DK,17,Aaløse,
137666,DK,20,Hjælmsölille,
137667,DK,21,Errested,
137668,DK,18,Brorstrup,
137669,DK,18,Klegod,
137670,DK,21,Holme,
137671,DK,20,Bøgelunde,
137672,DK,18,Kjeldbjerg,
137673,DK,18,Skjoldelev,
137674,DK,20,Særløse,
137675,DK,18,Ulbjerg,
137676,DK,21,Ågård,
137677,DK,20,Valløby,
137678,DK,18,Låstrup,
137679,DK,21,Rantzausminde,
137680,DK,19,Fjeldrad,
137681,DK,21,Egense,
137682,DK,18,Åby,
137683,DK,20,Biltris,
137684,DK,21,Gestelev,
137685,DK,17,Hvissinge,
137686,DK,18,Fabjerg,
137687,DK,20,Flakkebjerg,
137688,DK,21,Håre,
137689,DK,18,Skjold,
137690,DK,19,Mellem Jølby,
137691,DK,20,Trønninge,
137692,DK,18,Træden,
137693,DK,19,Næsborg,
137694,DK,17,Apperup,
137695,DK,19,Hjortdal,
137696,DK,18,Linaa,
137697,DK,21,Lindelse,
137698,DK,20,Sludstrup,
137699,DK,19,Filholm,
137700,DK,20,Fjælde,
137701,DK,18,Knejsted,
137702,DK,21,Nørre Søby,
137703,DK,21,Diernæs,
137704,DK,21,Troelse,
137705,DK,19,Telling,
137706,DK,20,Sigerslev,
137707,DK,20,Herfögle,
137708,DK,20,Skörringe,
137709,DK,21,Langtved,
137710,DK,21,Avnslev,
137711,DK,17,Villingerød,
137712,DK,21,Hellev,
137713,DK,17,Vejenbrød,
137714,DK,20,Våbensted,
137715,DK,18,Svorbæk,
137716,DK,17,Pedersker,
137717,DK,18,Abildskov,
137718,DK,21,Vemmenæs,
137719,DK,21,Brylle,
137720,DK,19,Fredsø,
137721,DK,21,Majbøl,
137722,DK,21,Hundslev,
137723,DK,21,Korint,
137724,DK,21,Galsted,
137725,DK,21,Løjt Skovby,
137726,DK,18,Tinning,
137727,DK,20,Stude,
137728,DK,20,Kattinge,
137729,DK,19,Hulsig,
137730,DK,18,Svinballe,
137731,DK,19,Rested,
137732,DK,20,Bråby,
137733,DK,17,Grisby,
137734,DK,21,Hønsehave,
137735,DK,20,Forsinge,
137736,DK,18,Studsgård,
137737,DK,21,Davinde,
137738,DK,18,Ølby,
137739,DK,18,Salten,
137740,DK,18,Ingerslev,
137741,DK,18,Geding,
137742,DK,19,Skellet,
137743,DK,19,Sperring,
137744,DK,20,Tingsted,
137745,DK,21,Lögeskov Huse,
137746,DK,21,Vejlev,
137747,DK,20,Skaftelev,
137748,DK,18,Knebel Bro,
137749,DK,20,Kirkerup,
137750,DK,19,Ejerslev,
137751,DK,21,Ellum,
137752,DK,20,Majbølle,
137753,DK,21,Torpe,
137754,DK,20,Boserup,
137755,DK,19,Hørdum,
137756,DK,21,Vesterlund,
137757,DK,21,Ovre,
137758,DK,20,Nordrup,
137759,DK,18,Raaby,
137760,DK,20,Skippinge,
137761,DK,18,Langskov,
137762,DK,21,Eilby,
137763,DK,18,Dørup,
137764,DK,20,Klarskov,
137765,DK,20,Maglebrænde,
137766,DK,18,Vestrup,
137767,DK,19,Klæstrup,
137768,DK,18,Skader,
137769,DK,21,Donslund,
137770,DK,17,Asminderød,
137771,DK,21,Sø Søby,
137772,DK,19,Munksjørup,
137773,DK,21,Skelde,
137774,DK,21,Kumled,
137775,DK,18,Grensten,
137776,DK,18,Grynderup,
137777,DK,17,Årsdale,
137778,DK,20,Havnsø,
137779,DK,20,Sørbymagle,
137780,DK,18,Tånum,
137781,DK,21,Høm,
137782,DK,18,Kastbjerg,
137783,DK,18,Rådved,
137784,DK,21,Vejbæk,
137785,DK,21,Øster Vedsted,
137786,DK,19,Bonderup,
137787,DK,17,Borsholm,
137788,DK,21,Piedsted,
137789,DK,21,Arnitlund,
137790,DK,21,Hoppeshuse,
137791,DK,20,Listrup,
137792,DK,21,Skovmose,
137793,DK,21,Vork,
137794,DK,17,Øverød,
137795,DK,19,Mygdal,
137796,DK,20,Kvislemark,
137797,DK,20,Bjernede,
137798,DK,19,Vaarst,
137799,DK,20,Meelse,
137800,DK,20,Eget,
137801,DK,21,Høgsbro,
137802,DK,21,Kongsmark,
137803,DK,18,Sahl,
137804,DK,21,Vejstruprød,
137805,DK,18,Vium,
137806,DK,21,Skovballe,
137807,DK,17,Munkerup,
137808,DK,17,Jørlunde,
137809,DK,21,Jernvedlund,
137810,DK,18,Hogager,
137811,DK,21,Gammelby,
137812,DK,18,Sjørslev,
137813,DK,19,Sindbjerg,
137814,DK,19,Gudumlund,
137815,DK,21,Fangel,
137816,DK,20,Lyderslev,
137817,DK,20,Slemminge,
137818,DK,17,Aalsgaard,
137819,DK,21,Tudvad,
137820,DK,19,Elleshöj,
137821,DK,17,Melløse,
137822,DK,20,Sipperup,
137823,DK,21,Trunderup,
137824,DK,20,Store Valby,
137825,DK,18,Bording Kirkeby,
137826,DK,21,Stolbro,
137827,DK,18,Robdrup,
137828,DK,18,Dejret,
137829,DK,21,Lebølgård,
137830,DK,19,Vejgaard,
137831,DK,17,Humledal,
137832,DK,20,Flemstofte,
137833,DK,20,Igelsø,
137834,DK,21,Kokspang,
137835,DK,18,Krejbjerg,
137836,DK,21,Løkkeby,
137837,DK,21,Gåskær,
137838,DK,18,Lindum,
137839,DK,21,Hjerup,
137840,DK,18,Trolhede,
137841,DK,20,Basnæs,
137842,DK,21,Blaakrog,
137843,DK,18,Hejlskov,
137844,DK,18,Munklinde,
137845,DK,18,Bruunshåb,
137846,DK,20,Glim,
137847,DK,21,Nårup,
137848,DK,17,Kagerup,
137849,DK,18,Daugbjerg,
137850,DK,21,Hersnap,
137851,DK,20,Sigersted,
137852,DK,20,Gudmindrup,
137853,DK,17,Alme,
137854,DK,18,Gjerrild,
137855,DK,20,Hagested,
137856,DK,19,Ræhr,
137857,DK,20,Skibinge,
137858,DK,20,Vester Egesborg,
137859,DK,18,Davding,
137860,DK,21,Hejlsminde,
137861,DK,18,Keldstrup,
137862,DK,20,Sønder Køge,
137863,DK,20,Sandstræde,
137864,DK,21,Rørkær,
137865,DK,20,Sønder Taastrup,
137866,DK,20,Store Karleby,
137867,DK,20,Kyse,
137868,DK,21,Vindeby,
137869,DK,21,Baaringvad,
137870,DK,21,Soby Mark,
137871,DK,17,Lappen,
137872,DK,18,Öster Teglgaard,
137873,DK,18,Bregning,
137874,DK,21,Gejlbjærg,
137875,DK,18,Meldrup,
137876,DK,18,Glyngøre,
137877,DK,19,Amtoft,
137878,DK,20,Sierslev,
137879,DK,20,Vemmeløse,
137880,DK,20,Arløse Torp,
137881,DK,20,Tornermark,
137882,DK,20,Mørkøv Kirkeby,
137883,DK,17,Holløselund,
137884,DK,17,Skovshoved,
137885,DK,17,Vallerød,
137886,DK,17,Ny Humlebæk,
137887,DK,17,Toelt,
137888,DK,20,Over Vindinge,
137889,DK,20,Gammelby,
137890,DK,20,Ammerup,
137891,DK,21,Gelsted Tårup,
137892,DK,20,Ellerød,
137893,DK,21,Egemosedam,
137894,DK,20,Hesselby,
137895,DK,20,Kongsted-borup,
137896,DK,21,Vognsvad,
137897,DK,21,Lombjærg,
137898,DK,20,Kamstrup,
137899,DK,21,Dover,
137900,DK,21,Tombøl,
137901,DK,21,Lågemade,
137902,DK,20,Fjenneslevmagle,
137903,DK,19,Alstrup,
137904,DK,20,Rørbæk,
137905,DK,21,Rødme,
137906,DK,21,Maareskov,
137907,DK,19,Hostrup,
137908,DK,20,Nyraad Stensved,
137909,DK,18,Sebstrup,
137910,DK,19,Gammel Ullits,
137911,DK,20,Nørre Mern,
137912,DK,18,Renderne,
137913,DK,20,Slaglille,
137914,DK,20,Ørsløkke,
137915,DK,21,Stausø,
137916,DK,20,Gloslunde,
137917,DK,18,Selsinggaarde,
137918,DK,18,Frederiksmose,
137919,DK,21,Skelde Gård,
137920,DK,21,Notmarkskov,
137921,DK,19,Hole,
137922,DK,19,Vilsund,
137923,DK,19,Fjallerslev,
137924,DK,21,Ammesböl,
137925,DK,21,Lille Lihme,
137926,DK,18,Drongstrup,
137927,DK,19,Frederiksberg,
137928,DK,19,Høndrup,
137929,DK,17,Baadsted,
137930,DK,20,Hemmeshøj,
137931,DK,20,Blangslev,
137932,DK,20,Jenslev,
137933,DK,18,Tinkerdal,
137934,DK,20,Karlstrup Strand,
137935,DK,21,Kristiansdal,
137936,DK,17,Vingevænge Gaarde,
137937,DK,18,Syvveje,
137938,DK,19,Lere,
137939,DK,21,Bjerne,
137940,DK,18,Öster Vintersgaard,
137941,DK,21,Døstrup,
137942,DK,21,Nordenbro,
137943,DK,19,Sinderup,
137944,DK,20,Arløse,
137945,DK,20,Svenstrup,
137946,DK,20,Lumsås,
137947,DK,21,Skovhuse,
137948,DK,20,Alminde,
137949,DK,20,Skidenstræde,
137950,DK,17,Strø,
137951,DK,21,Over Blaakrog,
137952,DK,18,Skjellerup,
137953,DK,21,Rufas,
137954,DK,17,Gadeby,
137955,DK,17,Krummeled Huse,
137956,DK,18,Middelhede,
137957,DK,18,Ebstrup,
137958,DK,21,Over Lerte,
137959,DK,18,Kragelund,
137960,DK,18,Resendal,
137961,DK,21,Vævlinge,
137962,DK,21,Brændeskov,
137963,DK,17,Mørdrup,
137964,DK,20,Åderup,
137965,DK,21,Korup,
137966,DK,18,Ormslev,
137967,DK,20,Værslev,
137968,DK,20,Vadsby,
137969,DK,20,Fjelde,
137970,DK,21,Spanget,
137971,DK,19,Bystrup,
137972,DK,21,Hunderup,
137973,DK,20,Sorterup,
137974,DK,21,Røllum,
137975,DK,18,Vandborg,
137976,DK,20,Hulby,
137977,DK,20,Ravnsø,
137978,DK,21,Søndernæs,
137979,DK,18,Udbyhøj,
137980,DK,19,Vesterö,
137981,DK,21,Høgelund,
137982,DK,20,Sjælstofte,
137983,DK,18,Funder,
137984,DK,18,Ustrup,
137985,DK,19,Understed,
137986,DK,18,Fløjstrup,
137987,DK,20,Højby,
137988,DK,20,Nyrup,
137989,DK,19,Nørager,
137990,DK,18,Stenderup,
137991,DK,19,Vokslev,
137992,DK,21,Helnæs,
137993,DK,19,Hjardemål,
137994,DK,18,Væth,
137995,DK,18,Anholt,
137996,DK,18,Dommerby,
137997,DK,18,Sønderbæk,
137998,DK,21,Københoved,
137999,DK,18,Sondrup,
138000,DK,19,Øster Doense,
138001,DK,21,Røjle,
138002,DK,21,Kaslund,
138003,DK,21,Kustrup,
138004,DK,17,Kongensmark,
138005,DK,18,Rævind,
138006,DK,19,Munke-sjørup,
138007,DK,21,Kastel,
138008,DK,21,Nørre Hjarup,
138009,DK,17,Lille Lyngby,
138010,DK,20,Ulstrup,
138011,DK,18,Bøgeskov,
138012,DK,21,Lille Rise,
138013,DK,18,Bale,
138014,DK,19,Geraa,
138015,DK,21,Endrup,
138016,DK,17,Vadsby,
138017,DK,18,Karlby,
138018,DK,17,Sigerslevøster,
138019,DK,19,Svanfolk,
138020,DK,20,Bjærup,
138021,DK,17,Brede,
138022,DK,20,Viverup,
138023,DK,21,Hjordkjær,
138024,DK,20,Favrby,
138025,DK,21,Varnæs,
138026,DK,20,Vester Skørringe,
138027,DK,18,Bramstrup,
138028,DK,21,Brudager,
138029,DK,21,Kolsnap,
138030,DK,21,Avtrup,
138031,DK,21,Peterbæk,
138032,DK,18,Stendis,
138033,DK,20,Fölleslev,
138034,DK,18,Egens,
138035,DK,20,Roneklint,
138036,DK,19,Helberskov,
138037,DK,18,Resenstad,
138038,DK,19,Tæbring,
138039,DK,17,Kirkelte,
138040,DK,21,Lavensby,
138041,DK,20,Øster Egesborg,
138042,DK,20,Tjørnehoved,
138043,DK,19,Tøving,
138044,DK,17,Ørholm,
138045,DK,20,Ravnsbjærg,
138046,DK,20,Kallø Skovby,
138047,DK,20,Spjellerup,
138048,DK,21,Harte,
138049,DK,17,Over Dråby,
138050,DK,21,Stoense,
138051,DK,20,Døllefjelde,
138052,DK,18,Øby,
138053,DK,21,Andrup,
138054,DK,21,Kastvrå,
138055,DK,21,Revsøre,
138056,DK,20,Saltvig,
138057,DK,21,Ny Nørup,
138058,DK,18,Fårbæk,
138059,DK,19,Kielstrup,
138060,DK,18,Kæpsmark,
138061,DK,19,Holmsø,
138062,DK,21,Vibøge,
138063,DK,19,Øster Brønderslev,
138064,DK,20,Svansbjerg,
138065,DK,20,Salløv,
138066,DK,18,Hosby,
138067,DK,18,Fjaltring,
138068,DK,18,Klakring,
138069,DK,19,Ydby,
138070,DK,18,Asfærg,
138071,DK,18,Femmøller,
138072,DK,20,Favrbo,
138073,DK,20,Ramsømagle,
138074,DK,21,Tinghøj,
138075,DK,20,Gundslev,
138076,DK,19,Dorf,
138077,DK,18,Helstrup,
138078,DK,21,Jorløse,
138079,DK,17,Søsum,
138080,DK,17,Kulhus,
138081,DK,19,Mylund,
138082,DK,20,Boestofte,
138083,DK,19,Sønderhede,
138084,DK,21,Torrup,
138085,DK,18,Mejdal,
138086,DK,17,Bendstrup,
138087,DK,21,Bæk,
138088,DK,17,Hjortekær,
138089,DK,21,Kirke-hørup,
138090,DK,18,Rindum,
138091,DK,20,Endeslev,
138092,DK,20,Seerdrup,
138093,DK,21,Bjernemark,
138094,DK,21,Gabøl,
138095,DK,18,Ø,
138096,DK,21,Hjerndrup,
138097,DK,19,Næstrup,
138098,DK,21,Aalling,
138099,DK,20,Plejerup,
138100,DK,20,Rørbæk Langet,
138101,DK,21,Varmark,
138102,DK,21,Sønderskov,
138103,DK,21,Terp,
138104,DK,20,Baarse,
138105,DK,21,Styding,
138106,DK,17,Nørre Herlev,
138107,DK,19,Nøtten,
138108,DK,21,Sølsted,
138109,DK,18,Velling,
138110,DK,19,Linderum,
138111,DK,20,Daastrup,
138112,DK,20,Verup,
138113,DK,19,Lødderup,
138114,DK,18,Nørre Vissing,
138115,DK,21,Brøstrup,
138116,DK,19,Nordkær,
138117,DK,21,Mojbøl,
138118,DK,20,Allindemagle,
138119,DK,18,Råsted,
138120,DK,18,Tønning,
138121,DK,18,Kongsgårde,
138122,DK,21,Mjolden,
138123,DK,21,Øster Løgum Østermark,
138124,DK,20,Hårbølle,
138125,DK,20,Kippinge,
138126,DK,21,Dræby,
138127,DK,20,Æbelnæs,
138128,DK,19,Try,
138129,DK,19,Sandholm,
138130,DK,19,Hvorup,
138131,DK,20,Krønge,
138132,DK,21,Ulkebøl,
138133,DK,21,Villestoft,
138134,DK,20,Kanderød,
138135,DK,21,Store Darum,
138136,DK,20,Grumløse,
138137,DK,19,Tranget,
138138,DK,17,Lersøen,
138139,DK,18,Agerfeld,
138140,DK,17,Lyrsby,
138141,DK,21,Tranderup,
138142,DK,18,Grundfør,
138143,DK,18,Hald Ege,
138144,DK,19,Øster Hjermitslev,
138145,DK,21,Kiskelund,
138146,DK,20,Kæderup,
138147,DK,20,Spangsbro,
138148,DK,20,Skafterup,
138149,DK,20,Rykkerup,
138150,DK,18,Hjortsvang,
138151,DK,19,Vejstrup,
138152,DK,21,Bøjden,
138153,DK,21,Dyreborg,
138154,DK,21,Enderupskov,
138155,DK,18,Ebdrup,
138156,DK,17,Amager Fælled,
138157,DK,19,Rørholt,
138158,DK,18,Rimmerhus,
138159,DK,21,Rangstrup,
138160,DK,17,Landerslev,
138161,DK,21,Aa Höjrup,
138162,DK,21,Bobøl,
138163,DK,18,Vester Alling,
138164,DK,17,Røkirke,
138165,DK,20,Lille Heddinge,
138166,DK,20,Klintholm Havn,
138167,DK,21,Svejrup,
138168,DK,21,Ildved,
138169,DK,21,Ejlby,
138170,DK,20,Sønder Alslev,
138171,DK,21,Munke,
138172,DK,20,Hvedstrup,
138173,DK,21,Albjerg,
138174,DK,20,Veddinge,
138175,DK,19,Lillevorde,
138176,DK,21,Guldager,
138177,DK,19,Østerhede,
138178,DK,18,Lystlund,
138179,DK,20,Gammel Hagested,
138180,DK,21,Hømlund,
138181,DK,18,Stabrand,
138182,DK,20,Krømlinge,
138183,DK,21,Ravnsbjærg,
138184,DK,19,Giöl,
138185,DK,20,Kirke Flinterup,
138186,DK,18,Skalstrup,
138187,DK,18,Kronborgdige,
138188,DK,17,Gamlevælde,
138189,DK,21,Hårby,
138190,DK,19,Nykøbing Mors,
138191,DK,18,Lindved,
138192,DK,19,Lystrup,
138193,DK,21,Åbenrå,
138194,DK,18,Grenå,
138195,DK,19,Ørum,
138196,DK,21,Hennebjerg,
138197,DK,21,Nørre Åby,
138198,DK,21,Fåborg,
138199,DK,19,Åbybro,
138200,DK,18,Odby,
138201,DK,21,Skalkendrup,
138202,DK,20,Branderslev,
138203,DK,19,Storevorde,
138204,DK,20,Bjeverskov,
138205,DK,21,Agtrup,
138206,DK,21,Årup,
138207,DK,19,Hvidbjerg,
138208,DK,18,Rye,
138209,DK,19,Kaas,
138210,DK,19,Øster Vrå,
138211,DK,19,Ålestrup,
138212,DK,19,Siem,
138213,DK,17,Åkirkeby,
138214,DK,21,Svenborg,
138215,DK,20,Hjelm,
138216,DK,20,Kirke Hvalsø,
138217,DK,19,Års,
138218,DK,20,Svininge,
138219,DK,21,Vellinge,
138220,DK,18,Rødding,
138221,DK,18,Æbeltoft,
138222,DK,18,Havhuse,
138223,DK,19,Romdrup,
138224,DK,21,Holtum,
138225,DK,18,Futting,
138226,DK,19,Tislum,
138227,DK,18,Hallundbæk,
138228,DK,20,Stestrup,
138229,DK,20,Hjelmsømagle,
138230,DK,18,Albøge,
138231,DK,20,Højerup,
138232,DK,21,Uge,
138233,DK,18,Ringkjöbing,
138234,DK,21,Frøslev,
138235,DK,17,Vester-mariekirke,
138236,DK,20,Hollbæk,
138237,DK,21,Sebbelev,
138238,DK,18,Sandet,
138239,DK,21,Odden,
138240,DK,18,Vester Velling,
138241,DK,19,Korrup,
138242,DK,18,Knudstrup,
138243,DK,20,Enderslev,
138244,DK,21,Hjortlund,
138245,DK,21,Bårdesø,
138246,DK,19,Pulsen,
138247,DK,18,Hærup,
138248,DK,18,Kellerup,
138249,DK,18,Skødshoved Strand,
138250,DK,17,Vridsløsemagle,
138251,DK,21,Krusbjerg,
138252,DK,19,Hyllebierg,
138253,DK,18,Kvols,
138254,DK,21,Lønne,
138255,DK,21,Ellested,
138256,DK,18,Vistoft,
138257,DK,18,Idom,
138258,DK,18,Gamstrup,
138259,DK,18,Resdal,
138260,DK,18,Ål,
138261,DK,18,Grøsted,
138262,DK,18,Gassum,
138263,DK,18,Bajlum,
138264,DK,19,Lovns,
138265,DK,18,Skellerup,
138266,DK,19,Vesterø Havn,
138267,DK,19,Brønden,
138268,DK,21,Kærbøl,
138269,DK,17,Dalby,
138270,DK,19,Harring,
138271,DK,18,Store Torup,
138272,DK,17,Lønholt,
138273,DK,18,Bredstrup,
138274,DK,21,Rudbøl,
138275,DK,20,Herluflille,
138276,DK,19,Hadsund Syd,
138277,DK,18,Vilbjerg,
138278,DK,21,Frøbjerg,
138279,DK,21,Øster Terp,
138280,DK,21,Kvong,
138281,DK,19,Gelstrup,
138282,DK,18,Håsum,
138283,DK,18,Dalsgaarde,
138284,DK,19,Havbro,
138285,DK,18,Rodskov,
138286,DK,18,Muldbjerg,
138287,DK,21,Tiset,
138288,DK,17,Gilleje,
138289,DK,20,Aarløse,
138290,DK,18,Tiilst,
138291,DK,21,Brændemose,
138292,DK,20,Klippede,
138293,DK,21,Eskør,
138294,DK,21,Gammel Stenderup,
138295,DK,18,Nebsager,
138296,DK,18,Vorre,
138297,DK,21,Store Stegø,
138298,DK,18,Møborg,
138299,DK,20,Vallekilde,
138300,DK,18,Skanderup,
138301,DK,18,Birkkær,
138302,DK,19,Atterup,
138303,DK,20,Orehoved,
138304,DK,18,Rosmus,
138305,DK,20,Lund,
138306,DK,20,Hjertebjerg,
138307,DK,21,Fjelsted,
138308,DK,18,Ølsted Overholm,
138309,DK,19,Vesterskov,
138310,DK,17,Lille Hagelse,
138311,DK,21,Kragnæs,
138312,DK,21,Vonsild,
138313,DK,20,Stigs-bjergby,
138314,DK,21,Malt,
138315,DK,18,Dyrby,
138316,DK,19,Manna,
138317,DK,21,Adsbøl,
138318,DK,18,Funder Kirkeby,
138319,DK,18,Pederstrup,
138320,DK,21,Tvismark,
138321,DK,18,Hjorthede,
138322,DK,18,Anbæk,
138323,DK,21,Grønbjerg,
138324,DK,18,Andi,
138325,DK,21,Firehuse,
138326,DK,18,Hvilsager,
138327,DK,21,Sjælborg,
138328,DK,20,Kastelev,
138329,DK,20,Nørre Ørslev,
138330,DK,18,Lindaa,
138331,DK,17,Frederiksund,
138332,DK,18,Farre,
138333,DK,21,Bolskov,
138334,DK,20,Roedby-havn,
138335,DK,18,Egeris,
138336,DK,21,Saksborg,
138337,DK,19,Degnbøl,
138338,DK,20,Kjöng,
138339,DK,20,Kragevig,
138340,DK,21,Stokkeby,
138341,DK,19,Hvorupgaard,
138342,DK,19,Bratbjerg,
138343,DK,18,Hjerk,
138344,DK,20,Kjoge,
138345,DK,19,Flamsted,
138346,DK,19,Hæstrup,
138347,DK,20,Brordrup,
138348,DK,19,Handest,
138349,DK,20,Tessebølle,
138350,DK,19,Rebstrup,
138351,DK,21,Vittinge,
