locId,country,region,city,postcode
138389,DO,,,
138390,DO,5,Santo Domingo,
138391,DO,18,Puerto Plata,
138392,DO,25,Santiago,
138393,DO,14,Puerto,
138394,DO,5,Los Prados,
138395,DO,12,La Romana,
138396,DO,28,Dominicana,
138397,DO,30,La Vega,
138398,DO,24,Quisqueya,
138399,DO,33,San Juan,
138400,DO,29,Hato Mayor,
138401,DO,24,San Pedro De Macorís,
138402,DO,31,Bonao,
138403,DO,6,San Francisco De Macorís,
138404,DO,21,Fantino,
138405,DO,21,Cotuí,
138406,DO,33,San Cristóbal,
138407,DO,5,La Golondrina,
138408,DO,10,Bávaro,
138409,DO,1,Azua,
138410,DO,10,Higüey,
138411,DO,33,Bajos De Haina,
138412,DO,19,Tenares,
138413,DO,18,Sosúa,
138414,DO,14,Nagua,
138415,DO,30,Jarabacoa,
138416,DO,19,Salcedo,
138417,DO,8,Moca,
138418,DO,30,Constanza,
138419,DO,25,Tamboril,
138420,DO,25,Villa Bisonó,
138421,DO,5,Boca Chica,
138422,DO,24,Villas Del Mar,
138423,DO,3,Barahona,
138424,DO,18,Cabarete,
138425,DO,20,Las Terrenas,
138426,DO,17,Baní,
138427,DO,27,Mao,
138428,DO,23,San Juan De La Maguana,
138429,DO,33,Villa Altagracia,
138430,DO,25,San José,
138431,DO,5,Villa Mella,
138432,DO,5,Duarte,
138433,DO,32,Zapote,
138434,DO,5,Caballona,
138435,DO,18,Luperón,
138436,DO,17,San José De Ocoa,
138437,DO,32,Bayaguana,
138438,DO,33,San Francisco,
138439,DO,24,Juan Dolio,
138440,DO,33,Pedro Brand,
138441,DO,20,Sánchez,
138442,DO,20,Samaná,
138443,DO,14,Cabrera,
138444,DO,33,Fundación,
138445,DO,33,La Esperilla,
138446,DO,5,Andrés,
138447,DO,32,El Valle,
138448,DO,17,Peravia,
138449,DO,32,La Altagracia,
138450,DO,33,San Isidro,
138451,DO,5,Haina,
138452,DO,4,Dajabón,
138453,DO,21,Romana,
138454,DO,5,Villa Duarte,
138455,DO,25,Arroyo Hondo,
138456,DO,25,Licey Al Medio,
138457,DO,32,Los Frailes,
138458,DO,32,Consuelo,
138459,DO,20,Río San Juan,
138460,DO,25,Marilópez,
138461,DO,5,Herrera,
138462,DO,5,La Agustina,
138463,DO,27,Cibao,
138464,DO,5,Sabana Perdida,
138465,DO,5,Los Alcarrizos,
138466,DO,23,Punta Caña,
138467,DO,23,San Pedro,
138468,DO,5,Los Minas,
138469,DO,33,Madre Vieja,
138470,DO,29,Almirante,
138471,DO,25,La Caleta,
138472,DO,25,Villa González,
138473,DO,28,El Seibo,
138474,DO,10,Punta Cana,
138475,DO,5,Hainamosa,
138476,DO,29,Sabana De La Mar,
138477,DO,32,Sabana,
138478,DO,5,Cristo Rey,
138479,DO,5,Costa Verde,
138480,DO,5,Guaricano,
138481,DO,8,Gaspar Hernández,
138482,DO,27,Esperanza,
138483,DO,5,Villa Consuelo,
138484,DO,20,Las Galeras,
138485,DO,5,Los Tres Brazos,
138486,DO,5,Punta,
138487,DO,28,Dominica,
138488,DO,27,Bejucal,
138489,DO,33,Cambita,
138490,DO,33,Esperilla,
138491,DO,25,Navarrete,
138492,DO,26,Monción,
138493,DO,6,Hostos,
138494,DO,32,Mirador,
138495,DO,25,Jánico,
138496,DO,18,Sabaneta De Yásica,
138497,DO,5,La Fé,
138498,DO,5,San Felipe,
138499,DO,25,Bella Vista,
138500,DO,30,Jima Arriba,
138501,DO,27,Laguna Salada,
138502,DO,33,Los Mameyes,
138503,DO,25,Gurabo,
138504,DO,5,La Paz,
138505,DO,32,Monte Plata,
138506,DO,32,Los Coquitos,
138507,DO,33,Mandinga,
138508,DO,25,Juncalito,
138509,DO,32,Serrallés,
138510,DO,33,Piedra Blanca,
138511,DO,6,Villa Riva,
138512,DO,17,Cristóbal,
138513,DO,30,Añil,
138514,DO,19,Villa Tapia,
138515,DO,5,San Carlos,
138516,DO,6,Pimentel,
138517,DO,24,San Antón,
138518,DO,21,Saballo,
138519,DO,25,San José De Las Matas,
138520,DO,28,Haiti,
138521,DO,18,Maimón,
138522,DO,8,Jábaba,
138523,DO,33,El Puerto,
138524,DO,24,Los Conucos,
138525,DO,18,Los Jobos,
138526,DO,32,Pepe Pérez,
138527,DO,30,Caimito,
138528,DO,1,Mordán,
138529,DO,17,Monte Llano,
138530,DO,30,Las Yerbas,
138531,DO,32,Los Macos,
138532,DO,21,Las Dos Palmas,
138533,DO,18,El Puerto,
138534,DO,17,Derrico Blanco,
138535,DO,30,El Rancho,
138536,DO,30,La Guardarraya De Baitoa,
138537,DO,32,San Antonio,
138538,DO,5,Monte Adentro,
138539,DO,25,Nigua,
138540,DO,32,El Corozo,
138541,DO,8,Cacique Soledad,
138542,DO,30,Los Valerios,
138543,DO,6,Los Indios De Cenoví,
138544,DO,5,Valiente,
138545,DO,32,La Loma,
138546,DO,3,Los Patos,
138547,DO,10,Bayahibe,
138548,DO,21,Los Jaguales,
138549,DO,24,Buena Vista,
138550,DO,12,Batey Sesentidós,
138551,DO,5,Ensanche Ozama,
138552,DO,32,La Boca De La Cuaba,
138553,DO,24,Contador,
138554,DO,25,Capilla,
138555,DO,32,Santa Cruz,
138556,DO,25,Arenoso,
138557,DO,29,Norguecho,
138558,DO,25,Los Ranchos De Babacico,
138559,DO,25,La Jagua,
138560,DO,25,Rincón Largo,
138561,DO,21,Caballero,
138562,DO,25,Ensanche Libertad,
138563,DO,8,Abajo,
138564,DO,24,Bronce,
138565,DO,28,Isabelita,
138566,DO,33,Sabaneta,
138567,DO,31,Juan Adrián,
138568,DO,25,San Francisco Abajo,
138569,DO,5,La Cana,
138570,DO,32,La Laguna,
138571,DO,24,Alto De La China,
138572,DO,8,El Saladillo,
138573,DO,30,El Rodeo,
138574,DO,32,Cruz Verde,
138575,DO,14,El Machete,
138576,DO,6,Villa Rivas,
138577,DO,21,La Abadesa,
138578,DO,14,Villa Alegre,
138579,DO,16,Pedernales,
138580,DO,18,El Aguacate,
138581,DO,24,Los Higüeros,
138582,DO,30,La Lima,
138583,DO,1,Agua,
138584,DO,28,Batey Bejucal,
138585,DO,29,Batey Toronja,
138586,DO,6,Curazad,
138587,DO,26,San Ignacio De Sabaneta,
138588,DO,32,Placer,
138589,DO,32,Yamasá,
138590,DO,24,Ramón Santana,
138591,DO,18,Gregorio,
138592,DO,1,Agua Clara,
138593,DO,6,El Arroyaso,
138594,DO,17,Nizao Arriba,
138595,DO,5,Amor De Dios,
138596,DO,18,Puerto Bergantín,
138597,DO,5,Ensanche Quisqueya,
138598,DO,17,Domingo Frías,
138599,DO,1,Ocoa,
138600,DO,1,Palmar De Ocoa,
138601,DO,12,Mirapato,
138602,DO,32,El Zapote,
138603,DO,5,Pantoja,
138604,DO,5,Batey La Culata,
138605,DO,32,Antonio,
138606,DO,33,Miguel,
138607,DO,32,Reporadero,
138608,DO,33,Sabana Piedra,
138609,DO,32,La Cuesta Del Jobo,
138610,DO,33,Reparadero,
138611,DO,18,Puerto Caballo,
138612,DO,32,Novillo,
138613,DO,5,Pedro Brad,
138614,DO,5,La Ureña,
138615,DO,6,La Laguneta,
138616,DO,2,Neiba,
138617,DO,5,Maricarmen,
138618,DO,30,Jima,
138619,DO,5,Frasquito Gómez,
138620,DO,21,El Plátano,
138621,DO,31,Maimón,
138622,DO,8,La Lometa,
138623,DO,30,Rancho Viejo,
138624,DO,24,Realidad,
138625,DO,24,El Lado,
138626,DO,32,Cacique,
138627,DO,18,Sabaneta,
138628,DO,5,El Cajuilito,
138629,DO,4,Santiago De La Cruz,
138630,DO,25,Rafael Emboscada Hoya De Lima,
138631,DO,18,Puerto De Luperon,
138632,DO,25,Loma De Los Palos,
138633,DO,30,La Represa,
138634,DO,5,Juan Tomás,
138635,DO,25,Licey,
138636,DO,25,San Antonio,
138637,DO,18,Loma,
138638,DO,5,Villa Faro,
138639,DO,5,El Jobo De Mendoza,
138640,DO,6,Las Guáranas,
138641,DO,18,Boca De Cangrejo,
138642,DO,6,El Abanico,
138643,DO,30,Nevera,
138644,DO,33,Colonia,
138645,DO,8,San Luis,
138646,DO,5,Hato Nuevo,
138647,DO,29,Domingaso,
138648,DO,33,Yaguate Arriba,
138649,DO,33,Arroyo Mamey,
138650,DO,24,Amalia,
138651,DO,19,Paso Hondo,
138652,DO,32,Washington,
138653,DO,5,Ensanche Luperón,
138654,DO,25,Los Almácigos,
138655,DO,30,Yaque,
138656,DO,18,Cantabria,
138657,DO,10,El Hoyo Del Mirabel,
138658,DO,33,Santana,
138659,DO,5,Cancino,
138660,DO,18,Imbert,
138661,DO,5,Los Peralejos,
138662,DO,24,La Barca,
138663,DO,25,Santiago De Los Caballeros,
138664,DO,2,Neyba,
138665,DO,5,Santo Domingo De Guzmán,
138666,DO,5,Santo Domingo City,
138667,DO,5,Bella Vista,
138668,DO,25,Hato Del Yaque,
138669,DO,27,Valverde,
138670,DO,29,Hato Mayor Del Rey,
138671,DO,12,Batey Campiña,
138672,DO,8,Cruz,
138673,DO,29,Palmarito,
138674,DO,11,Comendador,
138675,DO,1,Azua De Compostela,
138676,DO,32,Altagracia,
138677,DO,4,San Francisco,
138678,DO,5,Gascue,
138679,DO,18,San Felipe De Puerto Plata,
138680,DO,5,Santa Domingo,
138681,DO,5,Bayona,
138682,DO,5,Los Frailes,
138683,DO,32,Cabeza De Toro,
138684,DO,5,Saint Domingue,
138685,DO,28,Seibo,
138686,DO,5,La Julia,
138687,DO,28,Batey Guaiquía,
138688,DO,25,Matanza,
138689,DO,31,Monseñor Nouel,
