locId,country,region,city,postcode
139326,EC,,,
139327,EC,17,Pichincha,
139328,EC,1,Progreso,
139329,EC,18,Quito,
139330,EC,10,Guayas,
139331,EC,10,Guayaquil,
139332,EC,19,Ambato,
139333,EC,18,Amaguaña,
139334,EC,18,Santo Domingo,
139335,EC,2,Cuenca,
139336,EC,14,Portoviejo,
139337,EC,12,Loja,
139338,EC,18,Sangolquí,
139339,EC,14,Manta,
139340,EC,3,Guaranda,
139341,EC,10,Salinas,
139342,EC,11,Galápagos,
139343,EC,8,Machala,
139344,EC,4,Azoguez,
139345,EC,11,Ibarra,
139346,EC,2,Compañía,
139347,EC,18,Machachi,
139348,EC,13,Vinces,
139349,EC,7,Saquisilí,
139350,EC,13,Quevedo,
139351,EC,15,Macas,
139352,EC,4,Azogues,
139353,EC,10,Milagro,
139354,EC,10,Yaguachi,
139355,EC,10,Daule,
139356,EC,10,Balao,
139357,EC,2,Tocadel,
139358,EC,2,Tambo Siberia,
139359,EC,2,Hacienda Soldados,
139360,EC,7,Latacunga,
139361,EC,11,Cotacachi,
139362,EC,10,Samborondón,
139363,EC,2,Hacienda Culebrillas,
139364,EC,7,San Miguel,
139365,EC,2,Ganadel,
139366,EC,2,Llulluchas,
139367,EC,6,Riobamba,
139368,EC,19,Baños,
139369,EC,9,Esmeraldas,
139370,EC,7,La Maná,
139371,EC,19,Pelileo,
139372,EC,11,Otavalo,
139373,EC,4,Gulac,
139374,EC,4,La Troncal,
139375,EC,8,Pasaje,
139376,EC,10,Cáceres,
139377,EC,10,Palestina,
139378,EC,14,Tosagua,
139379,EC,8,Durán,
139380,EC,13,Babahoyo,
139381,EC,10,Pedro Carbo,
139382,EC,10,Naranjal,
139383,EC,14,Paján,
139384,EC,10,La Libertad,
139385,EC,1,Puerto Baquerizo Moreno,
139386,EC,10,Santa Elena,
139387,EC,14,Bahía De Caráquez,
139388,EC,10,Hacienda Santa Rita,
139389,EC,5,San Gabriel,
139390,EC,10,Hacienda Los Cantares,
139391,EC,13,Palenque,
139392,EC,7,Pujilí,
139393,EC,10,El Triunfo,
139394,EC,13,Montalvo,
139395,EC,9,Rosa Zárate,
139396,EC,6,Guano,
139397,EC,23,Tena,
139398,EC,1,San Cristóbal,
139399,EC,14,Chone,
139400,EC,19,Píllaro,
139401,EC,10,Colimes,
139402,EC,14,Rocafuerte,
139403,EC,14,Sucre,
139404,EC,18,Cayambe,
139405,EC,10,El Carmen,
139406,EC,14,Junín,
139407,EC,10,Lomas De Sargentillo,
139408,EC,22,Nueva Loja,
139409,EC,1,Santa Cruz,
139410,EC,2,Paute,
139411,EC,17,Puyo,
139412,EC,9,Valdez,
139413,EC,8,Huaquillas,
139414,EC,8,Piñas,
139415,EC,18,Cumbayá,
139416,EC,13,Buena Fe,
139417,EC,10,Durán,
139418,EC,10,Naranjito,
139419,EC,18,Moreno,
139420,EC,23,Archidona,
139421,EC,10,Coronel Maridueña,
139422,EC,6,Alausí,
139423,EC,12,Cariamanga,
139424,EC,14,Santa Ana,
139425,EC,14,Jipijapa,
139426,EC,8,El Guabo,
139427,EC,11,Atuntaqui,
139428,EC,2,Gualaceo,
139429,EC,14,Escalón,
139430,EC,14,Laguna,
139431,EC,13,Ventanas,
139432,EC,24,Coca,
139433,EC,23,El Chaco,
139434,EC,22,Pastaza,
139435,EC,15,Gualaquiza,
139436,EC,18,Pedro Vicente Maldonado,
139437,EC,13,Baba,
139438,EC,14,Pedernales,
139439,EC,18,Tabacundo,
139440,EC,8,Santa Rosa,
139441,EC,15,Sucúa,
139442,EC,14,Calceta,
139443,EC,18,Tumbaco,
139444,EC,20,Zamora,
139445,EC,1,Puerto Ayora,
139446,EC,23,Borja,
139447,EC,5,Tulcán,
139448,EC,11,San José,
139449,EC,23,Baeza,
139450,EC,8,Arenillas,
139451,EC,2,Guajibamba,
139452,EC,4,Cañar,
139453,EC,18,Mindo,
139454,EC,10,Manglaralto,
139455,EC,5,El Ángel,
139456,EC,18,San Rafael,
139457,EC,10,Balzar,
139458,EC,18,Conocoto,
139459,EC,10,Jama,
139460,EC,10,Cruz,
139461,EC,4,Biblián,
139462,EC,18,Loreto,
139463,EC,18,San Miguel De Los Bancos,
139464,EC,18,Valencia,
139465,EC,10,Nobol,
139466,EC,18,La Concordia,
139467,EC,12,Vilcabamba,
139468,EC,10,Playas,
139469,EC,18,Los Bancos,
139470,EC,10,Velasco Ibarra,
139471,EC,8,Balsas,
139472,EC,17,Shell,
139473,EC,19,Quero,
139474,EC,20,Yantzaza,
139475,EC,18,Calderón,
139476,EC,18,Mariana De Jesús,
139477,EC,14,Montecristi,
139478,EC,11,San Antonio,
139479,EC,10,Salitre,
139480,EC,14,Charapotó,
139481,EC,18,Uyumbicho,
139482,EC,11,San Francisco,
139483,EC,10,Florida,
139484,EC,3,Echeandía,
139485,EC,12,Valle,
139486,EC,12,Saraguro,
139487,EC,14,Jaramijó,
139488,EC,2,Merchán,
139489,EC,10,Alborada,
139490,EC,2,Chordeleg,
139491,EC,15,Huamboya,
139492,EC,11,San Rafael,
139493,EC,18,Santa Clara,
139494,EC,10,Sauces,
139495,EC,18,Querubín,
139496,EC,8,Portovelo,
139497,EC,3,Santiago,
139498,EC,18,Guayllabamba,
139499,EC,17,Amazonas,
139500,EC,18,Esmeralda,
139501,EC,18,Puembo,
139502,EC,10,Valparaíso,
139503,EC,2,Salis,
139504,EC,24,Puerto Francisco De Orellana,
139505,EC,2,Abdón Calderón,
139506,EC,18,Bastidas,
139507,EC,14,Sequita,
139508,EC,18,Atalpamba,
139509,EC,18,Colegio,
139510,EC,8,Zaruma,
139511,EC,24,Francisco De Orellana,
139512,EC,10,Azucena,
139513,EC,18,Alchipichí,
139514,EC,3,San Miguel,
139515,EC,18,Hacienda Urcuhacienda,
139516,EC,22,Shushufindi,
139517,EC,13,Elena,
139518,EC,18,Mera,
139519,EC,10,Alfredo Baquerizo Moreno,
139520,EC,9,Atacames,
139521,EC,2,Camilo Ponce Enríquez,
139522,EC,10,Lojas,
139523,EC,10,Rosa,
139524,EC,12,San Pedro De La Bendita,
139525,EC,13,Catarama,
139526,EC,11,San Vicente,
139527,EC,18,Puerto Quito,
139528,EC,18,Ibarra,
139529,EC,18,Quinche,
139530,EC,6,Cajabamba,
139531,EC,10,Francisco,
139532,EC,10,Puerto De Bajo Grande,
139533,EC,11,Imbabuela,
139534,EC,8,Saladillo,
139535,EC,10,Barranco,
139536,EC,2,Cuardele,
139537,EC,8,Chilla,
139538,EC,10,Guabitos,
139539,EC,18,Capelo,
139540,EC,12,Catamayo,
139541,EC,10,Montañita,
139542,EC,2,Sigsig,
139543,EC,7,El Corazón,
139544,EC,10,Alvarez,
139545,EC,10,Buenavista,
139546,EC,2,Puculcay,
139547,EC,10,Boliche,
139548,EC,23,Papallacta,
139549,EC,18,Zámbiza,
139550,EC,13,Mocache,
139551,EC,22,Santa Cruz,
139552,EC,18,Bolivar,
139553,EC,15,Arapiccos,
139554,EC,10,Santa Rosa De Flandes,
139555,EC,6,Huigra,
139556,EC,2,Jadancay,
139557,EC,2,Copta,
139558,EC,8,Hacienda La María,
139559,EC,10,Santa Lucía,
139560,EC,10,Colombia,
139561,EC,7,Chugchilano,
139562,EC,10,La Puntilla,
139563,EC,6,Colta,
139564,EC,11,Hoja Blanca,
139565,EC,10,Ancón,
139566,EC,18,Alóag,
139567,EC,2,Guachapala,
139568,EC,18,Cashapamba,
139569,EC,8,Cambio Del Guabo,
139570,EC,24,La Joya De Los Sachas,
139571,EC,10,Zamora,
139572,EC,14,Puerto López,
139573,EC,18,Alangasí,
139574,EC,6,Chambo,
139575,EC,14,Cerro,
139576,EC,10,Pascuales,
139577,EC,3,Las Naves,
139578,EC,19,Patate,
139579,EC,19,San Andrés,
139580,EC,20,Tambo El Oso,
139581,EC,8,Marcabelí,
139582,EC,14,Caracas,
139583,EC,10,Maridueña,
139584,EC,22,Lago Agrio,
139585,EC,18,Santo Domingo De Los Colorados,
139586,EC,4,Chilchil,
139587,EC,18,Ayora,
139588,EC,18,Catacupamba,
139589,EC,12,Chaguarpamba,
139590,EC,7,Atahualpa,
139591,EC,2,Girón,
139592,EC,18,Salvador,
139593,EC,8,El Cambio,
139594,EC,18,Siria,
139595,EC,12,Macará,
139596,EC,6,Guamote,
139597,EC,20,Zumba,
139598,EC,19,Mocha,
139599,EC,10,Eloy Alfaro,
139600,EC,19,Montalvo,
139601,EC,8,Portobelo,
139602,EC,10,Coronel Marcelino Maridueña,
