locId,country,region,city,postcode
139603,EE,,,
139604,EE,1,Tallinn,
139605,EE,18,Tartu,
139606,EE,4,Imavere,
139607,EE,3,Narva,
139608,EE,14,Kuressaare,
139609,EE,7,Kiriku,
139610,EE,8,Rakvere,
139611,EE,3,Jõhvi,
139612,EE,7,Haapsalu,
139613,EE,12,Põlva,
139614,EE,21,Võru,
139615,EE,5,Jõgeva,
139616,EE,3,Kohtla-järve,
139617,EE,3,Kohtla,
139618,EE,11,Sääre,
139619,EE,2,Harju,
139620,EE,4,Paide,
139621,EE,1,Keila,
139622,EE,19,Valga,
139623,EE,1,Pirita,
139624,EE,1,Loksa,
139625,EE,20,Viljandi,
139626,EE,7,Lihula,
139627,EE,19,Tõrva,
139628,EE,11,Pärnu,
139629,EE,1,Reval,
139630,EE,1,Tallinna,
139631,EE,18,Elva,
139632,EE,18,Laane,
139633,EE,21,Viru,
139634,EE,8,Haljala,
139635,EE,8,Laekvere,
139636,EE,8,Kadrina,
139637,EE,2,Kärdla,
139638,EE,8,Kunda,
139639,EE,8,Rakke,
139640,EE,8,Tamsalu,
139641,EE,11,Pikavere,
139642,EE,21,Parksepa,
139643,EE,18,Ihaste,
139644,EE,13,Rapla,
139645,EE,11,Tõlli,
139646,EE,4,Särevere,
139647,EE,4,Albu,
139648,EE,4,Koeru,
139649,EE,11,Mihkli,
139650,EE,2,Käina,
139651,EE,1,Kiisa,
139652,EE,21,Anne,
139653,EE,1,Tondi,
139654,EE,1,Saku,
139655,EE,1,Turba,
139656,EE,11,Mere,
139657,EE,7,Kadaka,
139658,EE,1,Mustamäe,
139659,EE,21,Vastseliina,
139660,EE,1,Haabneeme,
139661,EE,21,Antsla,
139662,EE,14,Karja,
139663,EE,1,Laagri,
139664,EE,1,Maardu,
139665,EE,19,Puka,
139666,EE,19,Otepää,
139667,EE,1,Paldiski,
139668,EE,1,Jüri,
139669,EE,20,Suure-jaani,
139670,EE,4,Jäneda,
139671,EE,1,Harku,
139672,EE,1,Saue,
139673,EE,5,Tabivere,
139674,EE,8,Sõmeru,
139675,EE,7,Hanila,
139676,EE,12,Mooste,
139677,EE,3,Vasavere,
139678,EE,18,Tähtvere,
139679,EE,1,Viimsi,
139680,EE,1,Kuusalu,
139681,EE,13,Teenuse,
139682,EE,1,Saha,
139683,EE,13,Kehtna,
139684,EE,11,Mädara,
139685,EE,13,Lille,
139686,EE,3,Sillamäe,
139687,EE,1,Tallin,
139688,EE,11,Kopli,
139689,EE,1,Õismäe,
139690,EE,7,Kalda,
139691,EE,14,Kapi,
139692,EE,19,Hummuli,
139693,EE,7,Veski,
139694,EE,12,Värska,
139695,EE,8,Väike-maarja,
139696,EE,18,Ülenurme,
139697,EE,13,Käru,
139698,EE,11,Vihtra,
139699,EE,1,Aruküla,
139700,EE,13,Tamme,
139701,EE,7,Metsa,
139702,EE,1,Kotka,
139703,EE,11,Kõdu,
139704,EE,3,Koogu,
139705,EE,5,Endla,
139706,EE,11,Vändra,
139707,EE,1,Pikaliiva,
139708,EE,1,Tabasalu,
139709,EE,8,Pariisi,
139710,EE,13,Saksa,
139711,EE,5,Nurga,
139712,EE,7,Kivi,
139713,EE,11,Nõmme,
139714,EE,2,Emmaste,
139715,EE,11,Rädi,
139716,EE,7,Rannamõisa,
139717,EE,12,Koidula,
139718,EE,20,Uusna,
139719,EE,20,Viiratsi,
139720,EE,11,Vabriku,
139721,EE,11,Lutsu,
139722,EE,7,Nurme,
139723,EE,13,Manni,
139724,EE,7,Liivi,
139725,EE,7,Nigula,
139726,EE,14,Kure,
139727,EE,5,Torma,
139728,EE,14,Tornimäe,
139729,EE,1,Neeme,
139730,EE,1,Männiku,
139731,EE,18,Roiu,
139732,EE,18,Tõrvandi,
139733,EE,18,Uhti,
139734,EE,18,Külitse,
139735,EE,18,Haage,
139736,EE,18,Kaagvere,
139737,EE,18,Võnnu,
139738,EE,12,Valgjärve,
139739,EE,18,Luunja,
139740,EE,1,Assaku,
139741,EE,5,Põltsamaa,
139742,EE,8,Tapa,
139743,EE,1,Kiili,
139744,EE,7,Liiva,
139745,EE,7,Sepa,
139746,EE,20,Pärsti,
139747,EE,13,Lane,
139748,EE,13,Hagudi,
139749,EE,14,Kärla,
139750,EE,1,Kalesi,
139751,EE,13,Märjamaa,
139752,EE,3,Kreenholm,
139753,EE,1,Ämari,
139754,EE,1,Raasiku,
139755,EE,4,Väätsa,
139756,EE,5,Võisiku,
139757,EE,12,Krootuse,
139758,EE,13,Järvakandi,
139759,EE,5,Sadala,
139760,EE,13,Kohila,
139761,EE,1,Kose-uuemõisa,
139762,EE,1,Kostivere,
139763,EE,13,Lelle,
139764,EE,7,Koluvere,
139765,EE,1,Kurtna,
139766,EE,13,Varbola,
139767,EE,7,Risti,
139768,EE,1,Ravila,
139769,EE,1,Ardu,
139770,EE,1,Habaja,
139771,EE,20,Suislepa,
139772,EE,1,Ääsmäe,
139773,EE,4,Roosna-alliku,
139774,EE,5,Adavere,
139775,EE,20,Olustvere,
139776,EE,12,Saverna,
139777,EE,18,Puhja,
139778,EE,12,Vastse-kuuste,
139779,EE,3,Kohtla-nõmme,
139780,EE,1,Loo,
139781,EE,11,Sauga,
139782,EE,11,Tammiste,
139783,EE,1,Kose,
139784,EE,11,Tootsi,
139785,EE,5,Pisisaare,
139786,EE,8,Hulja,
139787,EE,3,Kiviõli,
139788,EE,5,Esku,
139789,EE,13,Sipa,
139790,EE,4,Türi,
139791,EE,13,Kuimetsa,
139792,EE,20,Paistu,
139793,EE,20,Mõisaküla,
139794,EE,1,Klooga,
139795,EE,19,Sihva,
139796,EE,1,Keila-joa,
139797,EE,11,Tihemetsa,
139798,EE,5,Lustivere,
139799,EE,4,Käravete,
139800,EE,8,Ubja,
139801,EE,12,Erastvere,
139802,EE,21,Sõmerpalu,
139803,EE,21,Osula,
139804,EE,12,Kanepi,
139805,EE,11,Surju,
139806,EE,1,Vaida,
139807,EE,1,Harkujärve,
139808,EE,18,Melliste,
139809,EE,11,Paikuse,
139810,EE,8,Ulvi,
139811,EE,13,Eidapere,
139812,EE,3,Narva-jõesuu,
139813,EE,3,Sinimäe,
139814,EE,3,Jarve,
139815,EE,1,Valkla,
139816,EE,18,Kambja,
139817,EE,18,Nõo,
139818,EE,13,Kivi-vigala,
139819,EE,18,Luke,
139820,EE,1,Hüüru,
139821,EE,2,Suuremõisa,
139822,EE,14,Orissaare,
139823,EE,14,Valjala,
139824,EE,14,Leisi,
139825,EE,7,Panga,
139826,EE,1,Karjaküla,
139827,EE,18,Lähte,
139828,EE,18,Äksi,
139829,EE,18,Kallaste,
139830,EE,18,Vara,
139831,EE,18,Laeva,
139832,EE,13,Kodila,
139833,EE,1,Haiba,
139834,EE,13,Kaiu,
139835,EE,1,Peetri,
139836,EE,21,Vana-antsla,
139837,EE,21,Kollino,
139838,EE,1,Aegviidu,
139839,EE,1,Alavere,
139840,EE,1,Luige,
139841,EE,1,Vanamõisa,
139842,EE,20,Leie,
139843,EE,1,Alliku,
139844,EE,7,Norrby,
139845,EE,13,Kaerepere,
139846,EE,13,Juuru,
139847,EE,13,Prillimäe,
139848,EE,12,Rosma,
139849,EE,11,Kabli,
139850,EE,5,Vaimastvere,
139851,EE,1,Lehtmetsa,
139852,EE,1,Kehra,
139853,EE,3,Toila,
139854,EE,1,Lagedi,
139855,EE,3,Mäetaguse,
139856,EE,20,Võhma,
139857,EE,11,Sindi,
139858,EE,20,Soe,
139859,EE,19,Keeni,
139860,EE,7,Linnamäe,
139861,EE,20,Kolga-jaani,
139862,EE,3,Sonda,
139863,EE,5,Raja,
139864,EE,18,Rõngu,
139865,EE,1,Oru,
139866,EE,1,Kolga,
139867,EE,5,Kaarepere,
139868,EE,4,Koigi,
139869,EE,18,Rannu,
139870,EE,3,Illuka,
139871,EE,5,Puurmani,
139872,EE,3,Lüganuse,
139873,EE,18,Kõrveküla,
139874,EE,4,Tarbja,
139875,EE,21,Kobela,
139876,EE,21,Väimela,
139877,EE,1,Pringi,
139878,EE,4,Järva-jaani,
139879,EE,3,Püssi,
139880,EE,11,Suigu,
139881,EE,8,Tudu,
139882,EE,8,Roela,
139883,EE,7,Variku,
139884,EE,11,Pärnu-jaagupi,
139885,EE,7,Palivere,
139886,EE,8,Viru-jaagupi,
139887,EE,4,Peetri,
139888,EE,1,Vasalemma,
139889,EE,19,Tsirguliina,
139890,EE,1,Kumna,
139891,EE,13,Keava,
139892,EE,11,Libatse,
139893,EE,1,Riisipere,
139894,EE,4,Oisu,
139895,EE,7,Virtsu,
139896,EE,20,Sürgavere,
139897,EE,3,Lohusuu,
139898,EE,18,Ulila,
139899,EE,4,Türi-alliku,
139900,EE,13,Orgita,
139901,EE,11,Koonga,
139902,EE,20,Saarepeedi,
139903,EE,18,Ignase,
139904,EE,20,Vastemõisa,
139905,EE,12,Tilsi,
139906,EE,1,Muraste,
139907,EE,5,Siimusti,
139908,EE,4,Kabala,
139909,EE,1,Padise,
139910,EE,13,Vana-vigala,
139911,EE,3,Voka,
139912,EE,1,Harju-risti,
139913,EE,13,Raikküla,
139914,EE,1,Rummu,
139915,EE,11,Jõesuu,
139916,EE,8,Aaspere,
139917,EE,14,Suur-pahila,
139918,EE,18,Alatskivi,
139919,EE,1,Randvere,
139920,EE,8,Vinni,
139921,EE,12,Mammaste,
139922,EE,11,Kilingi,
139923,EE,20,Halliste,
139924,EE,13,Aespa,
139925,EE,1,Suurupi,
139926,EE,11,Tori,
139927,EE,19,Lüllemäe,
139928,EE,1,Tõdva,
139929,EE,20,Puiatu,
139930,EE,18,Vissi,
139931,EE,3,Kuremäe,
139932,EE,11,Seljametsa,
139933,EE,1,Vaskjala,
139934,EE,8,Triigi,
139935,EE,11,Audru,
139936,EE,1,Tutermaa,
139937,EE,20,Jämejala,
139938,EE,12,Räpina,
139939,EE,18,Tõravere,
139940,EE,18,Aardla,
139941,EE,13,Hageri,
139942,EE,1,Kõue,
139943,EE,5,Mustvee,
139944,EE,11,Lavassaare,
139945,EE,11,Kilingi-nõmme,
139946,EE,1,Kloogaranna,
139947,EE,1,Vääna-jõesuu,
139948,EE,11,Kõrsa,
139949,EE,5,Voore,
139950,EE,7,Nõva,
139951,EE,4,Tapa,
139952,EE,3,Tudulinna,
139953,EE,14,Olga,
139954,EE,19,Helme,
139955,EE,7,Laiküla,
139956,EE,11,Mustla,
139957,EE,18,Kärkna,
139958,EE,8,Viru-nigula,
139959,EE,1,Kernu,
139960,EE,18,Lalli,
139961,EE,1,Kiiu,
139962,EE,18,Käärdi,
139963,EE,11,Kaisma,
139964,EE,8,Porkuni,
139965,EE,8,Vahakulmu,
139966,EE,8,Vao,
139967,EE,8,Viru-kabala,
139968,EE,20,Karksi-nuia,
139969,EE,13,Sutlema,
139970,EE,11,Are,
139971,EE,11,Oidrema,
139972,EE,7,Osmussaare,
139973,EE,5,Pala,
139974,EE,3,Aseri,
139975,EE,7,Taebla,
139976,EE,1,Leppneeme,
139977,EE,18,Konguta,
139978,EE,20,Abja-paluoja,
139979,EE,1,Laulasmaa,
139980,EE,1,Jõelähtme,
139981,EE,14,Kungla,
139982,EE,14,Muhu,
139983,EE,11,Anna,
139984,EE,4,Lehtse,
139985,EE,7,Uuemõisa,
139986,EE,1,Kajamaa,
139987,EE,1,Püünsi,
139988,EE,1,Rohuneeme,
139989,EE,11,Häädemeeste,
139990,EE,18,Lohkva,
139991,EE,5,Maarja,
139992,EE,14,Salme,
139993,EE,3,Avinurme,
139994,EE,20,Karksi,
139995,EE,14,Mustjala,
139996,EE,3,Varja,
139997,EE,7,Jaakna,
139998,EE,14,Kihelkonna,
139999,EE,1,Vääna,
140000,EE,20,Pilistvere,
140001,EE,11,Penu,
140002,EE,8,Uhtna,
140003,EE,1,Ilmandu,
140004,EE,20,Mustla,
140005,EE,1,Pärnamäe,
140006,EE,1,Mardu,
140007,EE,8,Moora,
140008,EE,12,Himmaste,
140009,EE,12,Linte,
140010,EE,14,Vanakubja,
140011,EE,7,Kullamaa,
140012,EE,1,Rebala,
140013,EE,20,Kõpu,
140014,EE,1,Maeru,
140015,EE,4,Ambla,
140016,EE,1,Veneküla,
140017,EE,1,Rannamõisa,
140018,EE,21,Kõrgessaare,
140019,EE,1,Rammo,
140020,EE,14,Lassi,
140021,EE,3,Iisaku,
140022,EE,1,Lehmja,
140023,EE,20,Vanavälja,
140024,EE,20,Ramsi,
140025,EE,1,Muuga,
140026,EE,8,Karula,
140027,EE,12,Võõpsu,
140028,EE,11,Tõstamaa,
140029,EE,7,Ridala,
140030,EE,12,Leevi,
140031,EE,18,Pusi,
140032,EE,12,Väike-rõsna,
140033,EE,14,Sepise,
140034,EE,19,Palupera,
140035,EE,1,Lähtse,
140036,EE,7,Martna,
140037,EE,7,Paralepa,
140038,EE,4,Aravete,
140039,EE,18,Vahi,
140040,EE,18,Koosa,
140041,EE,18,Mäksa,
140042,EE,8,Ussimäe,
140043,EE,1,Türisalu,
140044,EE,1,Vihasoo,
140045,EE,4,Ollepa,
140046,EE,18,Järveküla,
140047,EE,18,Kasepää,
140048,EE,21,Lemmatsi,
140049,EE,1,Lohusalu,
140050,EE,2,Lauka,
140051,EE,11,Eametsa,
140052,EE,1,Lehola,
140053,EE,11,Halinga,
140054,EE,1,Laiaküla,
140055,EE,19,Sangaste,
140056,EE,2,Pühalepa,
140057,EE,1,Patika,
140058,EE,1,Tiskre,
140059,EE,11,Alu,
140060,EE,2,Palade,
140061,EE,12,Ahja,
140062,EE,11,Kangru,
140063,EE,5,Metsaküla,
140064,EE,12,Tiido,
140065,EE,14,Laimjala,
140066,EE,8,Vihula,
140067,EE,1,Arava,
140068,EE,14,Mändjala,
140069,EE,2,Jausa,
140070,EE,1,Kulna,
140071,EE,1,Kabila,
140072,EE,4,Öötla,
140073,EE,1,Aaviku,
140074,EE,19,Purtsi,
140075,EE,8,Kaarma,
140076,EE,5,Kärde,
140077,EE,1,Laitse,
140078,EE,18,Ilmatsalu,
140079,EE,8,Lepna,
140080,EE,18,Rahinge,
140081,EE,12,Meemaste,
140082,EE,3,Olgina,
140083,EE,13,Jaluse,
140084,EE,18,Reola,
140085,EE,12,Kauksi,
140086,EE,1,Allika,
140087,EE,1,Meremõisa,
140088,EE,8,Näpi,
140089,EE,21,Rõuge,
140090,EE,7,Jõesse,
140091,EE,4,Ataste,
140092,EE,14,Hellamaa,
140093,EE,2,Isabella,
140094,EE,1,Karla,
140095,EE,1,Kõrveveski,
140096,EE,3,Laagna,
140097,EE,1,Miiduranna,
140098,EE,8,Somukse,
140099,EE,18,Verevi,
140100,EE,13,Adila-tagaküla,
140101,EE,12,Krüüdneri,
140102,EE,1,Härmakosu,
140103,EE,12,Kooraste Asundus,
140104,EE,13,Lõmmelu,
140105,EE,7,Allika,
140106,EE,20,Abja,
140107,EE,1,Vaidasoo,
140108,EE,8,Võsu,
140109,EE,8,Võsupere,
140110,EE,4,Seidla,
140111,EE,13,Põllika,
140112,EE,3,Piilse,
140113,EE,3,Tammiku,
140114,EE,5,Tapiku,
140115,EE,11,Tali,
140116,EE,1,Yuri,
140117,EE,11,Hõbeda,
140118,EE,7,Matsalu,
140119,EE,1,Kallavere,
140120,EE,8,Pajusti,
140121,EE,13,Ohulepa,
140122,EE,13,Linnu,
140123,EE,14,Aste,
140124,EE,1,Sõrve,
140125,EE,14,Reo,
140126,EE,20,Kuressaare Asundus,
140127,EE,13,Purila,
140128,EE,1,Uuri,
140129,EE,18,Rõõmu,
140130,EE,21,Tsooru,
140131,EE,11,Rae,
140132,EE,7,Kirna,
140133,EE,12,Vissi,
140134,EE,1,Naage,
140135,EE,1,Iru,
140136,EE,1,Anija,
140137,EE,11,Selja,
140138,EE,18,Laguja,
140139,EE,8,Rajaküla,
140140,EE,12,Veriora,
140141,EE,18,Annikoru,
140142,EE,3,Sompa,
140143,EE,4,Tõrvaaugu,
140144,EE,18,Veibri,
140145,EE,12,Kiidjärve,
140146,EE,3,Purtse,
140147,EE,7,Höbringi,
140148,EE,4,Korba,
140149,EE,4,Kareda,
140150,EE,21,Lasva,
140151,EE,18,Metsalaane,
140152,EE,1,Kirivalla,
140153,EE,20,Suuga,
140154,EE,14,Nasva,
140155,EE,14,Pihtla,
140156,EE,1,Pikavere,
140157,EE,1,Perila,
140158,EE,1,Põllküla,
140159,EE,13,Jõeääre,
140160,EE,1,Tuulna,
140161,EE,4,Müüsleri,
140162,EE,18,Kavastu,
140163,EE,20,Sammaste,
140164,EE,13,Metsaääre,
140165,EE,1,Ezuu,
140166,EE,13,Kasti-jõeääre,
140167,EE,19,Hellenurme,
140168,EE,20,Ülde,
140169,EE,18,Rõhu,
140170,EE,11,Tahkuranna,
140171,EE,1,Liikva,
140172,EE,8,Viitna,
140173,EE,8,Imastu,
140174,EE,5,Laiuse,
140175,EE,20,Tarvastu,
140176,EE,18,Härjanurme,
140177,EE,1,Lasnamäe,
140178,EE,18,Kalme,
140179,EE,8,Moe,
140180,EE,18,Haaslava,
140181,EE,12,Ruusa,
140182,EE,21,Navi,
140183,EE,19,Nõuni,
140184,EE,7,Kaasiku,
140185,EE,7,Valkse,
140186,EE,2,Nurste,
140187,EE,1,Pakri,
140188,EE,1,Mõnuste,
140189,EE,14,Kaarma,
140190,EE,1,Jägala,
140191,EE,12,Maaritsa,
140192,EE,18,Vorbuse,
140193,EE,18,Vesneri,
140194,EE,19,Vidrike,
140195,EE,1,Laabi,
140196,EE,12,Taevaskoja,
140197,EE,8,Vaeküla,
140198,EE,14,Kõljala,
140199,EE,20,Kuressaare,
140200,EE,20,Õisu,
140201,EE,11,Uulu,
140202,EE,20,Sinialliku,
140203,EE,1,Valingu,
140204,EE,13,Atla,
140205,EE,21,Varstu,
140206,EE,1,Tammneeme,
140207,EE,12,Mikitamäe,
140208,EE,1,Vaela,
140209,EE,14,Kudjape,
140210,EE,14,Lümanda,
140211,EE,1,Laane,
140212,EE,3,Edise,
140213,EE,14,Kõrkküla,
140214,EE,8,Muuga,
140215,EE,5,Palamuse,
140216,EE,1,Lehtse,
140217,EE,1,Roobuka,
140218,EE,13,Vigala,
140219,EE,1,Pärispea,
140220,EE,21,Vastse-roosa,
140221,EE,1,Suuresta,
140222,EE,18,Metsanuka,
140223,EE,1,Ruila,
140224,EE,1,Aruvalla,
140225,EE,1,Koogi,
140226,EE,1,Lehetu,
140227,EE,21,Haanja,
140228,EE,18,Valguta,
140229,EE,1,Järveküla,
140230,EE,18,Tila,
140231,EE,14,Kase,
140232,EE,7,Läti,
140233,EE,13,Kangru,
140234,EE,1,Sipa,
140235,EE,1,Kesklinn,
140236,EE,13,Kuku,
140237,EE,8,Vajangu,
140238,EE,1,Haljava,
140239,EE,1,Vatsla,
140240,EE,1,Sodla,
140241,EE,8,Assamalla,
