locId,country,region,city,postcode
140242,EG,,,
140243,EG,11,Cairo,
140244,EG,6,Alexandria,
140245,EG,3,Ramsis,
140246,EG,3,Nasr,
140247,EG,11,Almaza,
140248,EG,11,Badr,
140249,EG,4,Fayoum,
140250,EG,24,Balyana,
140251,EG,3,Damanhour,
140252,EG,9,Menouf,
140253,EG,1,Mansoura,
140254,EG,8,Gîza,
140255,EG,5,Tanta,
140256,EG,11,Zamalek,
140257,EG,2,Hurghada,
140258,EG,14,Kafr El Sheikh,
140259,EG,1,Damas,
140260,EG,21,Kafr El-sheikh,
140261,EG,5,Kafr El-zayat,
140262,EG,4,Fayyoum,
140263,EG,14,Zagazig,
140264,EG,10,Minia,
140265,EG,11,Misr,
140266,EG,12,Banha,
140267,EG,23,Qena,
140268,EG,7,Ismailia,
140269,EG,15,Suez,
140270,EG,15,Suës,
140271,EG,5,Ziftá,
140272,EG,14,Belbeis,
140273,EG,14,Hehia,
140274,EG,8,El Haram,
140275,EG,11,Helwan,
140276,EG,17,Assiut,
140277,EG,22,Sohag,
140278,EG,20,Damietta,
140279,EG,16,Aswan,
140280,EG,19,Port Said,
140281,EG,23,Luxor,
140282,EG,8,Gizeh,
140283,EG,12,Benha,
140284,EG,1,Talkha,
140285,EG,12,Qalyub,
140286,EG,11,`arab El-hiweitat,
140287,EG,24,Tahta,
140288,EG,10,Beni Mazâr,
140289,EG,5,Balkim,
140290,EG,14,Hihya,
140291,EG,1,Dekernes,
140292,EG,11,Nasr City,
140293,EG,6,Abu Qir,
140294,EG,6,Al Mandarah,
140295,EG,14,10th Of Ramadan City,
140296,EG,21,Fowa,
140297,EG,1,Aja,
140298,EG,11,Heliopolis,
140299,EG,1,Diyarb Najm,
140300,EG,18,Beni Suef,
140301,EG,3,`ezbet `ali `abd El-magid Shabât,
140302,EG,5,El Mahalla El Kubra,
140303,EG,17,Abnub,
140304,EG,4,El Faiyûm,
140305,EG,21,Dessouk,
140306,EG,3,`ezbet Haggag,
140307,EG,5,Kafr Nawâi,
140308,EG,9,Tala,
140309,EG,3,Sadat City,
140310,EG,8,Al Hajir,
140311,EG,8,Al Qata,
140312,EG,17,Asyut,
140313,EG,14,Kafr Al `awadi,
140314,EG,2,El Badâri,
140315,EG,8,Madinat Sittah Uktubar,
140316,EG,11,Al Ma`sarah Al Mahattah,
140317,EG,14,Kafr Saqr,
140318,EG,12,Khanka,
140319,EG,3,El-qarawi,
140320,EG,11,Shubra,
140321,EG,5,Burayj,
140322,EG,14,Kafr Aulad `atiya,
140323,EG,1,Kafr Mit Al `izz,
140324,EG,3,Qaryat Al Islah,
140325,EG,17,Al `izziyah,
140326,EG,3,`ezbet Safar,
140327,EG,14,Bishat Qa'id,
140328,EG,14,`izbat Al Islah,
140329,EG,14,`izbat Abu Fayyad,
140330,EG,3,`ezbet Michel Hamawi,
140331,EG,14,`izbat Taymur,
140332,EG,3,`ezbet `abd El-`aziz Bey Makhyûn,
140333,EG,11,Kafr Ash Shurafa' Ash Sharqi,
140334,EG,17,Abu Tîg,
140335,EG,1,Mit Ghamr,
140336,EG,11,Garden City,
140337,EG,11,Imbâba,
140338,EG,10,Minya,
140339,EG,8,Mît Riheina,
140340,EG,27,Rafah,
140341,EG,1,Bilqâs,
140342,EG,11,Shoubra,
140343,EG,14,Fakous,
140344,EG,10,El Minia,
140345,EG,3,Damanhûr,
140346,EG,9,Shanawan,
140347,EG,14,Mît Ridein,
140348,EG,3,`ezbet Abu Zeid,
140349,EG,1,Ghazâla,
140350,EG,8,El-minya,
140351,EG,14,Bilbês,
140352,EG,8,Kirdâsa,
140353,EG,3,Kom Hamada,
140354,EG,14,Ramadan City,
140355,EG,10,Maghâgha,
140356,EG,11,Shubra Al Khaymah,
140357,EG,14,Az Zagazig,
140358,EG,11,Zamâlik,
140359,EG,6,Sidi Bishr,
140360,EG,26,Dahab,
140361,EG,1,Kafr Shukr,
140362,EG,4,El Wasta,
140363,EG,1,Mansourah,
140364,EG,12,Toukh,
140365,EG,18,Beba,
140366,EG,5,Kafr El-dauwâr,
140367,EG,26,Sharm El-sheikh,
140368,EG,6,Amria,
140369,EG,2,Safaga,
140370,EG,5,El-santa,
140371,EG,10,Matay,
140372,EG,5,Janaklis,
140373,EG,21,Qûna,
140374,EG,9,Shibîn El-kôm,
140375,EG,9,Quweisna,
140376,EG,10,Mallawi,
140377,EG,21,Disuq,
140378,EG,4,El Minya,
140379,EG,4,El-rôda,
140380,EG,17,El Quseir,
140381,EG,1,Mansûra,
140382,EG,14,Abu Hammad,
140383,EG,3,Idku,
140384,EG,8,Awsim,
140385,EG,1,Mît,
140386,EG,5,Basyun,
140387,EG,12,Abu Zaabal,
140388,EG,23,Deshna,
140389,EG,11,Madinat An Nasr,
140390,EG,9,Minuf,
140391,EG,3,Rosetta,
140392,EG,23,Nag Hamadi,
140393,EG,1,Manoura,
140394,EG,24,Girga,
140395,EG,21,Al Mahallah,
140396,EG,23,Armant,
140397,EG,11,Al Qahirah,
140398,EG,12,Delta Barrage,
140399,EG,1,Sherbin,
140400,EG,11,Hulwan,
140401,EG,8,El-saff,
140402,EG,24,Saqulta,
140403,EG,8,Saft Al Laban,
140404,EG,14,Faqus,
140405,EG,11,Mataria,
140406,EG,19,Syria,
140407,EG,14,Bilbeis,
140408,EG,14,Zaqazîq,
140409,EG,3,Abu Hummus,
140410,EG,5,Kotûr,
140411,EG,26,Nuweibá,
140412,EG,16,Kôm Ombo,
140413,EG,12,El-khânka,
140414,EG,6,Fleming,
140415,EG,8,Ayat,
140416,EG,11,El Matariya,
140417,EG,11,Hilwan,
140418,EG,24,Akhmim,
140419,EG,12,Al 'assaniyah,
140420,EG,3,Qaryat Al Khartum,
140421,EG,3,Dairut,
140422,EG,11,Abbasiyah,
140423,EG,20,Dumyat Al Jadidah,
140424,EG,17,Monfalut,
140425,EG,24,El Ahaiwa Gharb,
140426,EG,26,Sharm Al Shaikh,
140427,EG,11,Old Cairo,
140428,EG,6,Ibrahîmîya,
140429,EG,8,Jirzah,
140430,EG,11,Misr Al Jadidah,
140431,EG,9,Gezai,
140432,EG,9,Elmai,
140433,EG,1,Mansurah,
140434,EG,21,Baltim,
140435,EG,8,Gezireh,
140436,EG,8,Al 'isaniyin,
140437,EG,8,Al Haram,
140438,EG,27,Nakhl,
140439,EG,9,Milîg,
140440,EG,9,Misheirif,
140441,EG,14,Al Muhammadiyah,
140442,EG,12,Kafr Al Hiwalah,
140443,EG,5,Shirshabah,
140444,EG,1,Al Balamun,
140445,EG,14,Qaryat Al Azhar,
140446,EG,14,Qasha,
140447,EG,1,`ezbet El-shabrâwi,
140448,EG,12,Sindiyun,
140449,EG,9,#NAME?,
140450,EG,8,`ezbet Sharikât Wardan,
140451,EG,12,Kafr Ash Shurafa',
140452,EG,12,`arab At Turbah,
140453,EG,4,Al Hawariyah,
140454,EG,8,Al Kawm Al Akhdar,
140455,EG,9,`arab Ar Raml,
140456,EG,1,Al Qurmah,
140457,EG,3,El `awâna,
140458,EG,12,Tukh,
140459,EG,16,Edfu,
140460,EG,5,Kafr `inan,
140461,EG,14,Manshiyat Al Fuli Al Kabirah,
140462,EG,11,Abbasieh,
140463,EG,6,El Agami,
140464,EG,11,Az Zamalik,
140465,EG,20,Fariskur,
140466,EG,9,Shibin Al Kawm,
140467,EG,8,Al Hutiyah,
140468,EG,23,Qus,
140469,EG,14,Minya Al Qamh,
140470,EG,21,Az Zahra',
140471,EG,11,Marg,
140472,EG,9,El Shohada,
140473,EG,3,Zahra El-bahariya,
140474,EG,12,Mashtul,
140475,EG,9,Shebin Al-kom,
140476,EG,14,Mashtûl El-sûq,
140477,EG,14,Tenth Of Ramadan City,
140478,EG,22,Marsa Matruh,
140479,EG,1,Al Mansurah,
140480,EG,9,Subk Ad Dahhak,
140481,EG,12,Al Qanatir Al Khayriyah,
140482,EG,14,Kafr Badran,
140483,EG,9,Sobk El Dahhak,
140484,EG,11,Helwan Les Bains,
140485,EG,4,El Fayoum City,
140486,EG,1,Mit Mohsin,
140487,EG,1,Shanasha,
140488,EG,8,Kafr 'akim,
140489,EG,5,Tatay,
140490,EG,5,Mehallet Ruh,
140491,EG,5,Khabbatah,
140492,EG,3,Kafr El Dawdar,
140493,EG,12,Sindbis,
140494,EG,15,Port Taufik,
140495,EG,8,Shobak El Gharbi,
140496,EG,9,Ashmun,
140497,EG,9,Gizâi,
140498,EG,11,Halwan,
140499,EG,9,Shamma,
140500,EG,20,Râs El-barr,
140501,EG,5,Mehallet Abu Ali,
140502,EG,1,Salaka,
140503,EG,1,El-mansura,
140504,EG,9,Al 'ilwasi,
140505,EG,3,Hod Faris,
140506,EG,9,Damallîg,
140507,EG,12,El-sa`âida,
140508,EG,11,Tura Al Asmant,
140509,EG,1,Minsha'at Musbih,
140510,EG,9,Birkat As Sab`,
140511,EG,20,Kafr Al Manazilah,
140512,EG,1,Mît Abu Ghâlib,
140513,EG,5,Nabaruh,
140514,EG,3,Al Rahmaniyah,
140515,EG,14,Mashtul As Suq,
140516,EG,5,Manshiyat Al Awqaf,
140517,EG,3,Maania,
140518,EG,12,Mit Kinanah,
140519,EG,8,Gizzâya,
140520,EG,1,Kaf Ra Mim Alif,
140521,EG,8,Zawiyat Nabit,
140522,EG,14,Al Khushshah,
140523,EG,5,Hanut,
140524,EG,12,Tirsa,
140525,EG,12,Al 'issah,
140526,EG,23,Nag Hamady,
140527,EG,11,Madinat Al Huckstep,
140528,EG,9,Kafr Abshish,
140529,EG,3,Edfina,
140530,EG,21,Shabas El Shohada,
140531,EG,3,Ahmad Rami,
140532,EG,5,Al Abshit,
140533,EG,11,Dar As Salam,
140534,EG,12,Tant Al Jazirah,
140535,EG,14,El Akhmiyin,
140536,EG,26,Sherm El Sheikh,
140537,EG,23,Esna,
140538,EG,10,Al Minya,
140539,EG,14,Abu Hammad Al Mahattah,
140540,EG,9,Manyal Giweida,
140541,EG,12,Qaha,
140542,EG,12,Isnit,
140543,EG,9,Kafr Bani Ghiryan,
140544,EG,9,Menuf,
140545,EG,5,Bashbîsh,
140546,EG,1,Sad Ghayn Alif,
140547,EG,22,Siwa,
140548,EG,1,Mahallat Dimnah,
140549,EG,1,Kôm El-nûr,
140550,EG,8,Badrashên,
140551,EG,8,Ausîm,
140552,EG,16,Daraw,
140553,EG,5,As Santah,
140554,EG,11,Nasser City,
140555,EG,20,Az Zarqa,
140556,EG,13,Kharga,
140557,EG,14,Fakus,
140558,EG,21,Qallin,
140559,EG,5,Kafr Ad Dawwar,
140560,EG,5,Mahallat Rawh,
140561,EG,14,Abu Kabir,
140562,EG,9,Jizayy,
140563,EG,8,Nikla,
140564,EG,9,Masgid El Khadr,
140565,EG,3,Al Amal,
140566,EG,2,El Aft,
140567,EG,5,Mehallet Zayad,
140568,EG,20,Faraskûr,
140569,EG,24,El Balyana,
140570,EG,9,Al Maqati`,
140571,EG,9,Mit Bera,
140572,EG,1,Kafr Al `awadi,
140573,EG,24,Tima,
140574,EG,12,Shibin Al Qanatir,
140575,EG,5,Sonbat,
140576,EG,11,El-marg,
140577,EG,17,Sidfa,
140578,EG,9,Kafr El-dawwâr,
140579,EG,9,Kafr Ash Shaykh Salim,
140580,EG,10,Abu Qurqas,
140581,EG,14,10 Ramadan City,
140582,EG,1,Bahqira,
140583,EG,1,El-satâmûni,
140584,EG,26,Sharm Ash Shaykh,
140585,EG,8,Ad Duqqi,
140586,EG,14,Roda,
140587,EG,14,Nakhâs,
140588,EG,21,As Saba'i`ah,
140589,EG,22,Suhaj,
140590,EG,5,El Mahalla,
140591,EG,5,Al Mahallah Al Kubra,
140592,EG,20,Dumyat,
140593,EG,11,Kairo,
140594,EG,14,Awlad Saqr,
140595,EG,17,Assuit,
140596,EG,8,El-gîza,
140597,EG,5,El-mahalla El-kubra,
140598,EG,5,Mahalla El Kubra,
140599,EG,8,Gizah,
140600,EG,22,Suhag,
140601,EG,1,Aga,
140602,EG,11,Masr,
140603,EG,23,Qina,
140604,EG,11,Le Caire,
140605,EG,6,Alessandria,
140606,EG,1,Diarb Negm,
140607,EG,8,6 October City,
140608,EG,8,El Gizeh,
140609,EG,6,Alexandrie,
140610,EG,8,Al Jizah,
140611,EG,12,El-qalag,
140612,EG,10,Bani Mazar,
140613,EG,5,Samannud,
140614,EG,5,Kafr Az Zayyat,
140615,EG,2,Ra's Gharib,
140616,EG,17,Manfalut,
140617,EG,10,Matâi,
140618,EG,23,Naga Hamadi,
140619,EG,17,Assiout,
140620,EG,5,An Nawiyah,
140621,EG,17,Nag` Labu,
140622,EG,5,Qutur,
140623,EG,23,Kena,
140624,EG,16,Assuan,
140625,EG,5,Kafr Ash Shurbaji,
140626,EG,24,Basuna,
140627,EG,12,Kafr Sandanhur,
140628,EG,7,Ismailîya,
140629,EG,5,Tanda,
