locId,country,region,city,postcode
151244,FI,,,
151245,FI,13,Helsinki,
151246,FI,13,Vantaa,
151247,FI,13,Espoo,
151248,FI,13,Lohja,
151249,FI,15,Raisio,
151250,FI,15,Tampere,
151251,FI,13,Esbo,
151252,FI,15,Turku,
151253,FI,8,Oulunsalo,
151254,FI,13,Lappeenranta,
151255,FI,13,Heinola,
151256,FI,15,Jyväskylä,
151257,FI,13,Uusimaa,
151258,FI,13,Hollola,
151259,FI,1,Mariehamn,
151260,FI,14,Mikkeli,
151261,FI,13,Hämeenlinna,
151262,FI,14,Savonlinna,
151263,FI,13,Kerava,
151264,FI,13,Sippola,
151265,FI,6,Kemi,
151266,FI,15,Pori,
151267,FI,13,Leppävaara,
151268,FI,15,Ähtäri,
151269,FI,8,Oulu,
151270,FI,13,Riihimäki,
151271,FI,14,Nenonpelto,
151272,FI,15,Nurmo,
151273,FI,15,Vasa,
151274,FI,15,Suomusjärvi,
151275,FI,8,Kajaani,
151276,FI,15,Peipohja,
151277,FI,13,Herrala,
151278,FI,15,Toijala,
151279,FI,15,Vaasa,
151280,FI,13,Kausala,
151281,FI,14,Joensuu,
151282,FI,15,Uurainen,
151283,FI,13,Siuntio,
151284,FI,13,Turenki,
151285,FI,13,Mustio,
151286,FI,13,Mäntsälä,
151287,FI,15,Jämsä,
151288,FI,15,Saarijärvi,
151289,FI,15,Kauhava,
151290,FI,15,Pietarsaari,
151291,FI,8,Ranta,
151292,FI,15,Seinäjoki,
151293,FI,8,Ylivieska,
151294,FI,15,Kokemäki,
151295,FI,14,Kuopio,
151296,FI,13,Koria,
151297,FI,15,Naantali,
151298,FI,15,Loimaa,
151299,FI,15,Perniö,
151300,FI,15,Vaajakoski,
151301,FI,15,Paimio,
151302,FI,8,Raahe,
151303,FI,13,Lahti,
151304,FI,6,Rovaniemi,
151305,FI,6,Utsjoki,
151306,FI,13,Hyvinkää,
151307,FI,13,Karkkila,
151308,FI,15,Somero,
151309,FI,15,Pirkkala,
151310,FI,6,Hietaniemi,
151311,FI,14,Varkaus,
151312,FI,13,Imatra,
151313,FI,14,Suonenjoki,
151314,FI,13,Järvenpää,
151315,FI,13,Nummela,
151316,FI,15,Rauma,
151317,FI,13,Hanko,
151318,FI,13,Nurmijärvi,
151319,FI,15,Nokia,
151320,FI,13,Porvoo,
151321,FI,6,Maaninka,
151322,FI,15,Karstula,
151323,FI,13,Jokioinen,
151324,FI,14,Liperi,
151325,FI,14,Atro,
151326,FI,13,Helsingfors,
151327,FI,15,Kokkola,
151328,FI,15,Kauhajoki,
151329,FI,13,Kotka,
151330,FI,15,Urjala,
151331,FI,8,Suomussalmi,
151332,FI,15,Ulvila,
151333,FI,8,Haapavesi,
151334,FI,13,Tammisaari,
151335,FI,6,Kolari,
151336,FI,15,Salo,
151337,FI,14,Juankoski,
151338,FI,15,Lapua,
151339,FI,15,Koivulahti,
151340,FI,15,Ilmajoki,
151341,FI,6,Sodankylä,
151342,FI,14,Pohjois-savo,
151343,FI,15,Valkeakoski,
151344,FI,6,Ranua,
151345,FI,8,Kello,
151346,FI,14,Mäntyharju,
151347,FI,13,Taipalsaari,
151348,FI,15,Äänekoski,
151349,FI,14,Rääkkylä,
151350,FI,6,Kittilä,
151351,FI,15,Vöyri,
151352,FI,8,Pudasjärvi,
151353,FI,14,Joroinen,
151354,FI,13,Ruokolahti,
151355,FI,15,Äetsä,
151356,FI,13,Kouvola,
151357,FI,15,Halli,
151358,FI,13,Savitaipale,
151359,FI,15,Kangasala,
151360,FI,15,Viiala,
151361,FI,14,Tohmajärvi,
151362,FI,6,Tornio,
151363,FI,6,Ivalo,
151364,FI,8,Taivalkoski,
151365,FI,13,Joutseno,
151366,FI,13,Iittala,
151367,FI,15,Orivesi,
151368,FI,15,Karhe,
151369,FI,15,Tarttila,
151370,FI,13,Korkeakoski,
151371,FI,15,Linnavuori,
151372,FI,13,Malmi,
151373,FI,13,Ekenäs,
151374,FI,15,Aitoo,
151375,FI,14,Saunalahti,
151376,FI,14,Käsämä,
151377,FI,8,Pohjola,
151378,FI,13,Villähde,
151379,FI,15,Teuva,
151380,FI,15,Viitasaari,
151381,FI,13,Veikkola,
151382,FI,13,Hauho,
151383,FI,8,Sotkamo,
151384,FI,15,Suinula,
151385,FI,15,Suolahti,
151386,FI,13,Korsnäs,
151387,FI,13,Elimäki,
151388,FI,13,Ylämaa,
151389,FI,15,Keuruu,
151390,FI,6,Savukoski,
151391,FI,6,Keminmaa,
151392,FI,6,Posio,
151393,FI,15,Isojoki,
151394,FI,15,Ylistaro,
151395,FI,13,Forssa,
151396,FI,13,Kiikala,
151397,FI,15,Kyyjärvi,
151398,FI,1,Såles,
151399,FI,13,Tikkurila,
151400,FI,15,Mustasaari,
151401,FI,15,Parkano,
151402,FI,13,Kauniainen,
151403,FI,15,Rusko,
151404,FI,15,Lieto,
151405,FI,15,Lievestuore,
151406,FI,13,Klaukkala,
151407,FI,13,Kuusankoski,
151408,FI,15,Pylkönmäki,
151409,FI,15,Halikko,
151410,FI,15,Kaarina,
151411,FI,8,Lampila,
151412,FI,15,Kalanti,
151413,FI,15,Vörå,
151414,FI,8,Pyhäsalmi,
151415,FI,15,Jyskä,
151416,FI,15,Kylmäkoski,
151417,FI,15,Maxmo,
151418,FI,15,Oravais,
151419,FI,15,Joutsa,
151420,FI,1,Smedsby,
151421,FI,15,Ruutana,
151422,FI,13,Nastola,
151423,FI,6,Salla,
151424,FI,15,Alajärvi,
151425,FI,15,Kannonkoski,
151426,FI,15,Juva,
151427,FI,13,Moisio,
151428,FI,13,Hasula,
151429,FI,14,Rantasalmi,
151430,FI,8,Kinnula,
151431,FI,15,Pihtipudas,
151432,FI,6,Enontekiö,
151433,FI,15,Helsingby,
151434,FI,6,Ylitornio,
151435,FI,13,Hamina,
151436,FI,13,Porlammi,
151437,FI,6,Kainuu,
151438,FI,8,Ämmänsaari,
151439,FI,15,Yttermark,
151440,FI,13,Tervakoski,
151441,FI,8,Haapamäki,
151442,FI,13,Hartola,
151443,FI,8,Muhos,
151444,FI,15,Kemiö,
151445,FI,14,Ilomantsi,
151446,FI,15,Lehtimäki,
151447,FI,15,Hämeenkyrö,
151448,FI,15,Kaustinen,
151449,FI,15,Toholampi,
151450,FI,15,Veteli,
151451,FI,15,Perho,
151452,FI,15,Lestijärvi,
151453,FI,15,Ullava,
151454,FI,15,Halsua,
151455,FI,15,Lempäälä,
151456,FI,15,Vammala,
151457,FI,13,Kirkkonummi,
151458,FI,6,Toivakka,
151459,FI,14,Heinävesi,
151460,FI,8,Kestilä,
151461,FI,13,Jaala,
151462,FI,8,Rinne,
151463,FI,15,Ylöjärvi,
151464,FI,15,Korpilahti,
151465,FI,15,Nakkila,
151466,FI,15,Kuorevesi,
151467,FI,13,Borgå,
151468,FI,8,Erkkilä,
151469,FI,14,Hirvensalmi,
151470,FI,14,Ristiina,
151471,FI,13,Pukkila,
151472,FI,6,Inari,
151473,FI,13,Sulkava,
151474,FI,15,Littoinen,
151475,FI,15,Nousiainen,
151476,FI,8,Metsä,
151477,FI,1,Laine,
151478,FI,8,Kempele,
151479,FI,13,Parola,
151480,FI,15,Eura,
151481,FI,15,Valkkinen,
151482,FI,14,Juuka,
151483,FI,15,Piispanristi,
151484,FI,13,Loviisa,
151485,FI,13,Kalliola,
151486,FI,13,Perheniemi,
151487,FI,8,Heinonen,
151488,FI,13,Masala,
151489,FI,15,Kyröskoski,
151490,FI,15,Pomarkku,
151491,FI,14,Vastamäki,
151492,FI,15,Vinkkilä,
151493,FI,8,Pyhäjärvi,
151494,FI,14,Pertunmaa,
151495,FI,14,Vieremä,
151496,FI,13,Saarioinen,
151497,FI,14,Outokumpu,
151498,FI,15,Kankaanpää,
151499,FI,15,Uusikaupunki,
151500,FI,15,Nykarleby,
151501,FI,13,Luumäki,
151502,FI,6,Pello,
151503,FI,13,Parikkala,
151504,FI,13,Myrskylä,
151505,FI,6,Kemijärvi,
151506,FI,13,Jorvas,
151507,FI,1,Godby,
151508,FI,8,Granlund,
151509,FI,14,Risti,
151510,FI,13,Vuohijärvi,
151511,FI,14,Pieksämäki,
151512,FI,14,Kangaslampi,
151513,FI,8,Nivala,
151514,FI,13,Kantvik,
151515,FI,15,Vimpeli,
151516,FI,15,Jämsänkoski,
151517,FI,15,Kortesjärvi,
151518,FI,15,Lappajärvi,
151519,FI,13,Loppi,
151520,FI,15,Yliskulma,
151521,FI,14,Pörsänmäki,
151522,FI,13,Saloranta,
151523,FI,15,Jakobstad,
151524,FI,13,Maantiekylä,
151525,FI,14,Keitele,
151526,FI,15,Huittinen,
151527,FI,13,Jokela,
151528,FI,8,Sääri,
151529,FI,15,Kangasniemi,
151530,FI,13,Inkeroinen,
151531,FI,13,Virolahti,
151532,FI,14,Siilinjärvi,
151533,FI,13,Vihti,
151534,FI,15,Korppoo,
151535,FI,15,Luoma-aho,
151536,FI,8,Oulainen,
151537,FI,8,Kuusamo,
151538,FI,14,Sorsakoski,
151539,FI,14,Sonkajärvi,
151540,FI,15,Hankasalmi,
151541,FI,14,Valtimo,
151542,FI,14,Kesälahti,
151543,FI,14,Tuupovaara,
151544,FI,15,Härmä,
151545,FI,15,Kuortane,
151546,FI,13,Tuusula,
151547,FI,15,Jepua,
151548,FI,13,Miehikkälä,
151549,FI,15,Konnevesi,
151550,FI,14,Kitee,
151551,FI,13,Suomalainen,
151552,FI,15,Multia,
151553,FI,13,Muijala,
151554,FI,15,Kristinestad,
151555,FI,13,Myllykoski,
151556,FI,14,Nilsiä,
151557,FI,14,Iisalmi,
151558,FI,14,Uimaharju,
151559,FI,14,Pankakoski,
151560,FI,8,Karhula,
151561,FI,13,Orimattila,
151562,FI,15,England,
151563,FI,1,Eckerö,
151564,FI,6,Simo,
151565,FI,13,Pulp,
151566,FI,14,Rautalampi,
151567,FI,15,Ikaalinen,
151568,FI,14,Kontiolahti,
151569,FI,13,Hyrylä,
151570,FI,8,Kiiminki,
151571,FI,14,Lehmo,
151572,FI,15,Kolho,
151573,FI,14,Koli,
151574,FI,14,Kiuruvesi,
151575,FI,14,Tuusniemi,
151576,FI,15,Närpes,
151577,FI,15,Laitila,
151578,FI,13,Pornainen,
151579,FI,8,Marttila,
151580,FI,15,Tarvasjoki,
151581,FI,13,Koski,
151582,FI,15,Laihia,
151583,FI,15,Kurikka,
151584,FI,14,Paihola,
151585,FI,6,Ketola,
151586,FI,8,Korpela,
151587,FI,8,Niemi,
151588,FI,14,Kiihtelysvaara,
151589,FI,13,Kuusisto,
151590,FI,15,Ilkka,
151591,FI,15,Pälkäne,
151592,FI,15,Sahalahti,
151593,FI,15,Luopioinen,
151594,FI,14,Kerimäki,
151595,FI,14,Savonranta,
151596,FI,6,Sirkka,
151597,FI,8,Haapajärvi,
151598,FI,13,Muurikkala,
151599,FI,15,Rintala,
151600,FI,15,Merikarvia,
151601,FI,13,Sannäs,
151602,FI,14,Kaavi,
151603,FI,8,Puskala,
151604,FI,6,Kyrö,
151605,FI,6,Sieppijärvi,
151606,FI,8,Kallio,
151607,FI,14,Lieksa,
151608,FI,13,Selänpää,
151609,FI,15,Larsmo,
151610,FI,8,Ihme,
151611,FI,15,Lohikoski,
151612,FI,15,Sääksmäki,
151613,FI,15,Saha,
151614,FI,6,Muonio,
151615,FI,14,Anttola,
151616,FI,15,Hervanta,
151617,FI,8,Pakkala,
151618,FI,8,Kuhmo,
151619,FI,15,Lepplax,
151620,FI,13,Kruununhaka,
151621,FI,15,Parainen,
151622,FI,8,Harju,
151623,FI,13,Konala,
151624,FI,8,Rahja,
151625,FI,13,Taavetti,
151626,FI,13,Kamppi,
151627,FI,1,Maarianhamina,
151628,FI,15,Jalasjärvi,
151629,FI,15,Kärnä,
151630,FI,15,Kauttua,
151631,FI,14,Kontioniemi,
151632,FI,13,Lemi,
151633,FI,15,Karkku,
151634,FI,13,Kiljava,
151635,FI,13,Kellokoski,
151636,FI,15,Louko,
151637,FI,13,Monninkylä,
151638,FI,8,Koivisto,
151639,FI,15,Inkere,
151640,FI,15,Teerijärvi,
151641,FI,8,Kalajoki,
151642,FI,14,Kuomiokoski,
151643,FI,14,Leppävirta,
151644,FI,13,Pohjankuru,
151645,FI,15,Harjavalta,
151646,FI,8,Vuolijoki,
151647,FI,8,Haukipudas,
151648,FI,15,Korsholm,
151649,FI,13,Vaalimaa,
151650,FI,13,Vääksy,
151651,FI,13,Sysmä,
151652,FI,13,Sörnäinen,
151653,FI,13,Mauno,
151654,FI,15,Viljakkala,
151655,FI,13,Ikkala,
151656,FI,6,Äkäslompolo,
151657,FI,15,Kärki,
151658,FI,13,Pasila,
151659,FI,13,Siltakylä,
151660,FI,13,Valkeala,
151661,FI,15,Masku,
151662,FI,8,Pattijoki,
151663,FI,14,Otava,
151664,FI,13,Vierumäki,
151665,FI,15,Himanka,
151666,FI,15,Kannus,
151667,FI,13,Karis,
151668,FI,13,Västra,
151669,FI,13,Kaipiainen,
151670,FI,15,Paino,
151671,FI,8,Järvelä,
151672,FI,6,Häme,
151673,FI,15,Säkylä,
151674,FI,15,Ruovesi,
151675,FI,13,Kukkila,
151676,FI,15,Lohtaja,
151677,FI,14,Muuruvesi,
151678,FI,15,Muurame,
151679,FI,8,Vihanti,
151680,FI,15,Närpiö,
151681,FI,15,Kälviä,
151682,FI,15,Kruunupyy,
151683,FI,13,Inkoo,
151684,FI,15,Virrat,
151685,FI,8,Paltamo,
151686,FI,8,Ruukki,
151687,FI,13,Oitti,
151688,FI,15,Pargas,
151689,FI,13,Tammela,
151690,FI,13,Karjaa,
151691,FI,13,Sipoo,
151692,FI,8,Takala,
151693,FI,15,Lavia,
151694,FI,15,Alastaro,
151695,FI,13,Nihtisilta,
151696,FI,14,Luikonlahti,
151697,FI,8,Kärsämäki,
151698,FI,8,Liminka,
151699,FI,13,Kulloo,
151700,FI,15,Kiviranta,
151701,FI,15,Peräseinäjoki,
151702,FI,8,Esko,
151703,FI,8,Lumijoki,
151704,FI,14,Punkaharju,
151705,FI,13,Suomenniemi,
151706,FI,15,Sulva,
151707,FI,14,Enonkoski,
151708,FI,8,Vesa,
151709,FI,15,Bennäs,
151710,FI,13,Söderkulla,
151711,FI,15,Velkua,
151712,FI,8,Suni,
151713,FI,15,Friisilä,
151714,FI,15,Kalmari,
151715,FI,13,Liljendal,
151716,FI,13,Kymi,
151717,FI,8,Härkönen,
151718,FI,13,Petri,
151719,FI,15,Laukaa,
151720,FI,8,Ruokonen,
151721,FI,13,Evitskog,
151722,FI,13,Numminen,
151723,FI,13,Huhmari,
151724,FI,15,Kvevlax,
151725,FI,15,Kari,
151726,FI,8,Seppälä,
151727,FI,15,Bosund,
151728,FI,8,Kivelä,
151729,FI,15,Vikby,
151730,FI,13,Haukilahti,
151731,FI,8,Hyrynsalmi,
151732,FI,15,Rymättylä,
151733,FI,8,Ahola,
151734,FI,13,Simpele,
151735,FI,15,Alahärmä,
151736,FI,13,Tapiola,
151737,FI,8,Ristijärvi,
151738,FI,13,Eteläinen,
151739,FI,1,Söderlund,
151740,FI,13,Mättö,
151741,FI,15,Karvia,
151742,FI,15,Sundom,
151743,FI,8,Sievi,
151744,FI,15,Back,
151745,FI,15,Solf,
151746,FI,15,Miettinen,
151747,FI,14,Varpaisjärvi,
151748,FI,15,Jurva,
151749,FI,15,Jokihaara,
151750,FI,13,Padasjoki,
151751,FI,13,Rauha,
151752,FI,14,Peltosalmi,
151753,FI,15,Kållby,
151754,FI,15,Jokipii,
151755,FI,15,Ytteresse,
151756,FI,8,Puolanka,
151757,FI,15,Kovjoki,
151758,FI,15,Hirvlax,
151759,FI,15,Munsala,
151760,FI,8,Räisälänmäki,
151761,FI,15,Merikaarto,
151762,FI,14,Kylänlahti,
151763,FI,13,Rajamäki,
151764,FI,15,Alavus,
151765,FI,15,Riihikoski,
151766,FI,15,Hinnerjoki,
151767,FI,15,Vehmaa,
151768,FI,15,Kojonperä,
151769,FI,15,Mellilä,
151770,FI,15,Vahto,
151771,FI,13,Ypäjä,
151772,FI,8,Knuutila,
151773,FI,13,Hämeenkylä,
151774,FI,8,Reisjärvi,
151775,FI,13,Artjärvi,
151776,FI,8,Lentiira,
151777,FI,15,Yläne,
151778,FI,14,Karttula,
151779,FI,15,Purmo,
151780,FI,1,Kyrkoby,
151781,FI,15,Edsevö,
151782,FI,15,Aura,
151783,FI,8,Hiltunen,
151784,FI,14,Lukkarila,
151785,FI,15,Honkajoki,
151786,FI,15,Pännäinen,
151787,FI,8,Rantsila,
151788,FI,15,Överesse,
151789,FI,15,Östensö,
151790,FI,15,Sundby,
151791,FI,1,Jomala,
151792,FI,13,Forsby,
151793,FI,15,Lappfors,
151794,FI,13,Backby,
151795,FI,14,Ylämylly,
151796,FI,15,Vähäkyrö,
151797,FI,8,Paavola,
151798,FI,15,Lokalahti,
151799,FI,15,Esse,
151800,FI,15,Pedersöre,
151801,FI,15,Leivonmäki,
151802,FI,15,Levo,
151803,FI,15,Noormarkku,
151804,FI,15,Eurajoki,
151805,FI,8,Vuokatti,
151806,FI,15,Lappfjärd,
151807,FI,6,Kaukonen,
151808,FI,15,Tuuri,
151809,FI,15,Teijo,
151810,FI,8,Paakkila,
151811,FI,15,Oripää,
151812,FI,14,Nurmes,
151813,FI,13,Nuijamaa,
151814,FI,15,Kustavi,
151815,FI,6,Juujärvi,
151816,FI,15,Siikainen,
151817,FI,13,Uusikylä,
151818,FI,8,Tolonen,
151819,FI,13,Haaga,
151820,FI,15,Längelmäki,
151821,FI,15,Toija,
151822,FI,15,Korpo,
151823,FI,13,Kaleva,
151824,FI,6,Mäkiniemi,
151825,FI,8,Lappi,
151826,FI,8,Korvenkylä,
151827,FI,13,Salonen,
151828,FI,15,Ylihärmä,
151829,FI,15,Pertteli,
151830,FI,13,Kulomäki,
151831,FI,13,Renko,
151832,FI,15,Räntämäki,
151833,FI,8,Jääli,
151834,FI,15,Karperö,
151835,FI,14,Lapinlahti,
151836,FI,13,Pakkanen,
151837,FI,14,Vuokko,
151838,FI,8,Pyhäjoki,
151839,FI,15,Hassinen,
151840,FI,8,Nieminen,
151841,FI,8,Siikajoki,
151842,FI,15,Högbacka,
151843,FI,15,Luvia,
151844,FI,14,Polvijärvi,
151845,FI,8,Markku,
151846,FI,15,Säynätsalo,
151847,FI,15,Somerniemi,
151848,FI,15,Vartsala,
151849,FI,6,Välimaa,
151850,FI,13,Konnunsuo,
151851,FI,15,Salmentaka,
151852,FI,15,Kyttälä,
151853,FI,8,Hyvärinen,
151854,FI,15,Tervajoki,
151855,FI,15,Sumiainen,
151856,FI,13,Utti,
151857,FI,15,Kaitsor,
151858,FI,13,Lapinjärvi,
151859,FI,15,Kolppi,
151860,FI,8,Pyhäntä,
151861,FI,13,Rautjärvi,
151862,FI,15,Kangashäkki,
151863,FI,15,Tikkakoski,
151864,FI,15,Lapväärtti,
151865,FI,15,Vuorenmaa,
151866,FI,15,Kivijärvi,
151867,FI,15,Mononen,
151868,FI,8,Koivuniemi,
151869,FI,15,Makkonen,
151870,FI,15,Järvi,
151871,FI,15,Puumala,
151872,FI,8,Tyrnävä,
151873,FI,15,Pirttinen,
151874,FI,13,Pihlajisto,
151875,FI,14,Luostarinen,
151876,FI,8,Väisälä,
151877,FI,15,Köyliö,
151878,FI,14,Pielavesi,
151879,FI,15,Kuhmoinen,
151880,FI,8,Halonen,
151881,FI,15,Kristiinankaupunki,
151882,FI,15,Pyhä,
151883,FI,8,Seppänen,
151884,FI,15,Lämpinen,
151885,FI,6,Kostamo,
151886,FI,15,Kaskinen,
151887,FI,15,Kivikangas,
151888,FI,6,Isola,
151889,FI,13,Malm,
151890,FI,8,Anttila,
151891,FI,15,Lehtinen,
151892,FI,6,Harri,
151893,FI,15,Mynämäki,
151894,FI,15,Virttaa,
151895,FI,13,Lammi,
151896,FI,14,Nunnanlahti,
151897,FI,15,Merimasku,
151898,FI,15,Töysä,
151899,FI,15,Söörmarkku,
151900,FI,15,Koskenkorva,
151901,FI,15,Pyhäranta,
151902,FI,15,Ihode,
151903,FI,15,Hakkinen,
151904,FI,13,Tesjoki,
151905,FI,8,Kontio,
151906,FI,13,Vakkola,
151907,FI,15,Wasa,
151908,FI,15,Viita,
151909,FI,15,Kalliomäki,
151910,FI,15,Malax,
151911,FI,15,Karijoki,
151912,FI,15,Koivumäki,
151913,FI,13,Pietilä,
151914,FI,8,Penttila,
151915,FI,15,Lahtinen,
151916,FI,13,Kivistö,
151917,FI,6,Tapio,
151918,FI,15,Siuro,
151919,FI,8,Pekkala,
151920,FI,8,Saarikoski,
151921,FI,8,Heikkilä,
151922,FI,15,Siivikkala,
151923,FI,8,Hulmi,
151924,FI,15,Vesilahti,
151925,FI,13,Lukko,
151926,FI,14,Vahvaselkä,
151927,FI,13,Kumpu,
151928,FI,8,Ilves,
151929,FI,13,Leino,
151930,FI,13,Pernaja,
151931,FI,13,Latokaski,
151932,FI,8,Nurmi,
151933,FI,13,Billnäs,
151934,FI,13,Lauttasaari,
151935,FI,8,Virta,
151936,FI,8,Puhos,
151937,FI,14,Kuortti,
151938,FI,1,Ödkarby,
151939,FI,13,Pennala,
151940,FI,15,Ilmarinen,
151941,FI,8,Ollila,
151942,FI,15,Katternö,
151943,FI,15,Terjärv,
151944,FI,15,Punkalaidun,
151945,FI,15,Pjelax,
151946,FI,15,Mutala,
151947,FI,15,Antila,
151948,FI,6,Palola,
151949,FI,8,Pihlajamäki,
151950,FI,14,Särkkä,
151951,FI,14,Laakkonen,
151952,FI,15,Tikka,
151953,FI,15,Olli,
151954,FI,14,Löytö,
151955,FI,13,Järvinen,
151956,FI,8,Ojala,
151957,FI,13,Kantele,
151958,FI,8,Viitamäki,
151959,FI,8,Kataja,
151960,FI,15,Simonen,
151961,FI,8,Vaara,
151962,FI,13,Hämäläinen,
151963,FI,13,Ripatti,
151964,FI,8,Pirhonen,
151965,FI,15,Palokka,
151966,FI,13,Venäläinen,
151967,FI,15,Piikkiö,
151968,FI,13,Salmi,
151969,FI,15,Linden,
151970,FI,15,Vilppula,
151971,FI,13,Ahonen,
151972,FI,13,Kerko,
151973,FI,15,Petäjävesi,
151974,FI,15,Storå,
151975,FI,8,Karjala,
151976,FI,15,Dagsmark,
151977,FI,8,Petro,
151978,FI,14,Kauppa,
151979,FI,13,Itäsalmi,
151980,FI,13,Nummi,
151981,FI,13,Vanda,
151982,FI,13,Lasse,
151983,FI,13,Ojanen,
151984,FI,6,Torvinen,
151985,FI,15,Päntti,
151986,FI,6,Saarenkylä,
151987,FI,15,Kiikoinen,
151988,FI,13,Levanto,
151989,FI,8,Siltala,
151990,FI,15,Savo,
151991,FI,13,Riikonen,
151992,FI,13,Niukkala,
151993,FI,15,Torikka,
151994,FI,15,Grev,
151995,FI,1,Vålö,
151996,FI,8,Rajala,
151997,FI,14,Tarinaharjun,
151998,FI,15,Karvala,
151999,FI,15,Pulkkinen,
152000,FI,14,Haluna,
152001,FI,8,Evijärvi,
152002,FI,8,Rissanen,
152003,FI,15,Härkmeri,
152004,FI,8,Hautala,
152005,FI,15,Påras,
152006,FI,15,Rita,
152007,FI,8,Ojanperä,
152008,FI,8,Ylikiiminki,
152009,FI,14,Oravikoski,
152010,FI,14,Rautavaara,
152011,FI,13,Manskivi,
152012,FI,8,Tälli,
152013,FI,8,Utajärvi,
152014,FI,8,Kuivaniemi,
152015,FI,8,Yli-ii,
152016,FI,8,Kylmälä,
152017,FI,15,Mänttä,
152018,FI,13,Käla,
152019,FI,8,Rautio,
152020,FI,15,Övermark,
152021,FI,13,Kalkstrand,
152022,FI,15,Kuusijärvi,
152023,FI,15,Uotila,
152024,FI,13,Viikki,
152025,FI,15,Veijo,
152026,FI,15,Paju,
152027,FI,8,Alavieska,
152028,FI,8,Pekola,
152029,FI,15,Rossi,
152030,FI,15,Linna,
152031,FI,13,Lappers,
152032,FI,15,Luhanka,
152033,FI,15,Parikka,
152034,FI,13,Broända,
152035,FI,15,Kirjala,
152036,FI,8,Arkkukari,
152037,FI,8,Merijärvi,
152038,FI,8,Yppäri,
152039,FI,15,Soini,
152040,FI,15,Draka,
152041,FI,13,Laakso,
152042,FI,15,Rahkola,
152043,FI,6,Martti,
152044,FI,13,Hansa,
152045,FI,15,Mäenpää,
152046,FI,13,Sannainen,
152047,FI,8,Särkelä,
152048,FI,15,Rasmus,
152049,FI,15,Topi,
152050,FI,8,Rauhala,
152051,FI,15,Pyhämaa,
152052,FI,15,Vampula,
152053,FI,8,Koponen,
152054,FI,6,Sinettä,
152055,FI,13,Kumpula,
152056,FI,13,Ruskeasuo,
152057,FI,13,Vallila,
152058,FI,14,Haukivuori,
152059,FI,15,Tampella,
152060,FI,15,Tammi,
152061,FI,8,Palo,
152062,FI,8,Korpi,
152063,FI,8,Käkelä,
152064,FI,8,Lamminmäki,
152065,FI,15,Kaariainen,
152066,FI,6,Tervo,
152067,FI,13,Hinthaara,
152068,FI,15,Jokiperä,
152069,FI,15,Tammijärvi,
152070,FI,13,Askola,
152071,FI,13,Suomela,
152072,FI,13,Saukkola,
152073,FI,14,Syvärinpää,
152074,FI,13,Tuulos,
152075,FI,14,Vesanto,
152076,FI,6,Arpela,
152077,FI,13,Ruotsinpyhtää,
152078,FI,13,Kaarenkylä,
152079,FI,1,Föglö,
152080,FI,14,Kylä,
152081,FI,1,Pålsböle,
152082,FI,8,Räinä,
152083,FI,1,Geta,
152084,FI,13,Kotalahti,
152085,FI,13,Tolkis,
152086,FI,6,Kiistala,
152087,FI,8,Mäki,
152088,FI,6,Männistö,
152089,FI,13,Laukkoski,
152090,FI,13,Lappohja,
152091,FI,15,Ylimarkku,
152092,FI,13,Huttunen,
152093,FI,13,Hindersby,
152094,FI,15,Muurla,
152095,FI,13,Strand,
152096,FI,13,Sunila,
152097,FI,15,Haukkala,
152098,FI,13,Suutarila,
152099,FI,8,Korhonen,
152100,FI,13,Virkkala,
152101,FI,8,Otanmäki,
152102,FI,8,Apaja,
152103,FI,15,Niinisalo,
152104,FI,15,Vihtavuori,
152105,FI,8,Hailuoto,
152106,FI,8,Salmela,
152107,FI,13,Katinala,
152108,FI,14,Huutokoski,
152109,FI,8,Tikkanen,
152110,FI,13,Pinjainen,
152111,FI,14,Toivala,
152112,FI,13,Tenhola,
152113,FI,6,Nuorgam,
152114,FI,13,Virojoki,
152115,FI,15,Rantatöysä,
152116,FI,13,Pasi,
152117,FI,15,Sillanpää,
152118,FI,8,Kiviniemi,
152119,FI,15,Naarva,
152120,FI,8,Huhtala,
152121,FI,1,Vårdö,
152122,FI,13,Kulloby,
152123,FI,14,Oravamäki,
152124,FI,14,Jukola,
152125,FI,8,Raate,
152126,FI,8,Martinniemi,
152127,FI,13,Arrakoski,
152128,FI,14,Palokangas,
152129,FI,15,Salomaa,
152130,FI,15,Taivassalo,
152131,FI,15,Ritola,
152132,FI,8,Ervasti,
152133,FI,1,Kökar,
152134,FI,13,Luhtikylä,
152135,FI,8,Haapaniemi,
152136,FI,13,Voikoski,
152137,FI,15,Uusikaarlepyy,
152138,FI,13,Humppila,
152139,FI,15,Leilä,
152140,FI,8,Vaala,
152141,FI,6,Pelkosenniemi,
152142,FI,15,Valajärvi,
152143,FI,15,Auvainen,
152144,FI,15,Kumila,
152145,FI,15,Haveri,
152146,FI,15,Pöytyä,
152147,FI,15,Karinainen,
152148,FI,13,Juornaankylä,
152149,FI,13,Kuru,
152150,FI,14,Eerikkilä,
152151,FI,15,Palomäki,
152152,FI,15,Vitikka,
152153,FI,15,Leppävesi,
152154,FI,15,Hainari,
152155,FI,13,Sälinkää,
152156,FI,13,Porras,
152157,FI,13,Urajärvi,
152158,FI,8,Sutela,
152159,FI,15,Kimito,
152160,FI,15,Valkola,
152161,FI,8,Alatalo,
152162,FI,8,Kantola,
152163,FI,13,Östersundom,
152164,FI,14,Turunen,
152165,FI,13,Rehumäki,
152166,FI,8,Lepistö,
152167,FI,15,Kauppinen,
152168,FI,15,Raippaluoto,
152169,FI,13,Berghall,
152170,FI,13,Räyskälä,
152171,FI,8,Timonen,
152172,FI,15,Vanhalinna,
152173,FI,15,Uusikartano,
152174,FI,13,Ravijoki,
152175,FI,8,Tavastkenkä,
152176,FI,13,Siikala,
152177,FI,8,Väyrynen,
152178,FI,8,Moisiovaara,
152179,FI,15,Aijala,
152180,FI,15,Laitikkala,
152181,FI,8,Mäkelä,
152182,FI,15,Nauvo,
152183,FI,15,Tarvo,
152184,FI,14,Lähdemäki,
152185,FI,15,Kisko,
152186,FI,15,Ravattula,
152187,FI,8,Kiiskilä,
152188,FI,13,Kuoppala,
152189,FI,8,Ikonen,
152190,FI,8,Karhu,
152191,FI,13,Koikkala,
152192,FI,15,Kanunki,
152193,FI,6,Korkalo,
152194,FI,15,Kitinoja,
152195,FI,13,Poitsila,
152196,FI,8,Manninen,
152197,FI,15,Kuusjoki,
152198,FI,14,Vuorinen,
152199,FI,15,Mäyry,
152200,FI,15,Vatajankoski,
152201,FI,15,Sarvela,
152202,FI,13,Nynäs,
152203,FI,8,Korento,
152204,FI,8,Kallioniemi,
152205,FI,15,Ristola,
152206,FI,15,Möttönen,
152207,FI,14,Romo,
152208,FI,13,Hangö,
152209,FI,8,Uusitalo,
152210,FI,6,Väylä,
152211,FI,13,Läyliäinen,
152212,FI,14,Kortteinen,
152213,FI,15,Särkisalo,
152214,FI,15,Karleby,
152215,FI,8,Kylänpää,
152216,FI,14,Hiltulanlahti,
152217,FI,13,Olari,
152218,FI,13,Soukka,
152219,FI,13,Jollas,
152220,FI,8,Tori,
152221,FI,1,Söderholm,
152222,FI,14,Haso,
152223,FI,6,Heimola,
152224,FI,15,Vakkala,
152225,FI,1,Åkerlund,
152226,FI,8,Saarela,
152227,FI,13,Erottaja,
152228,FI,15,Eloranta,
152229,FI,15,Tarvainen,
152230,FI,15,Suutarinkatu,
152231,FI,13,Jokikunta,
152232,FI,15,Pajula,
152233,FI,13,Hamari,
152234,FI,15,Lampi,
152235,FI,15,Lemo,
152236,FI,6,Kallo,
152237,FI,8,Kulma,
152238,FI,13,Koskimies,
152239,FI,13,Jäppilä,
152240,FI,13,Kontu,
152241,FI,8,Piippola,
152242,FI,6,Salmijärvi,
152243,FI,15,Hietamäki,
152244,FI,14,Kontioranta,
152245,FI,8,Kuusiniemi,
152246,FI,13,Lappila,
152247,FI,15,Karjula,
152248,FI,13,Näsäkkä,
152249,FI,15,Kaski,
152250,FI,13,Särkisalmi,
152251,FI,15,Kronoby,
152252,FI,15,Isokyrö,
152253,FI,13,Karja,
152254,FI,6,Koivu,
152255,FI,13,Halkia,
152256,FI,15,Molpe,
152257,FI,15,Kruusila,
152258,FI,13,Neuvoton,
152259,FI,14,Poro,
152260,FI,8,Parhalahti,
152261,FI,14,Mutanen,
152262,FI,13,Summa,
152263,FI,13,Pentti,
152264,FI,8,Hovi,
152265,FI,6,Narva,
152266,FI,8,Kurki,
152267,FI,15,Kesti,
152268,FI,6,Kupari,
152269,FI,15,Kuivanen,
152270,FI,8,Nurmesjärvi,
152271,FI,13,Häkänen,
152272,FI,6,Kyläjoki,
152273,FI,13,Rusutjärvi,
152274,FI,15,Nedervetil,
152275,FI,13,Eerola,
152276,FI,8,Niska,
152277,FI,15,Klemola,
152278,FI,13,Mylly,
152279,FI,8,Mattila,
152280,FI,14,Iisvesi,
152281,FI,8,Jylhä,
152282,FI,8,Peltola,
152283,FI,13,Maunula,
152284,FI,13,Herttoniemi,
152285,FI,13,Kannelmäki,
152286,FI,8,Kangas,
152287,FI,1,Rangsby,
152288,FI,13,Kaivoksela,
152289,FI,15,Joutsen,
152290,FI,15,Hokkanen,
152291,FI,15,Kovero,
152292,FI,15,Niinijoki,
152293,FI,6,Lahtela,
152294,FI,13,Lomakoti,
152295,FI,15,Panelia,
152296,FI,8,Kotila,
152297,FI,8,Lassila,
152298,FI,15,Hästö,
152299,FI,15,Myllymäki,
152300,FI,15,Tuulenkylä,
152301,FI,14,Pöyry,
152302,FI,15,Paattinen,
152303,FI,6,Karunki,
152304,FI,8,Saarinen,
152305,FI,15,Väsby,
152306,FI,13,Tennilä,
152307,FI,13,Huutotöyry,
152308,FI,6,Kuusela,
152309,FI,8,Kuluntalahti,
152310,FI,13,Lepsämä,
152311,FI,13,Leppäkoski,
152312,FI,1,Hammarland,
152313,FI,13,Rastila,
152314,FI,13,Harviala,
152315,FI,15,Simula,
152316,FI,15,Berghamn,
152317,FI,15,Kock,
152318,FI,1,Brändö,
152319,FI,15,Kukko,
152320,FI,14,Runni,
152321,FI,8,Rantala,
152322,FI,13,Mervi,
152323,FI,15,Elämäjärvi,
152324,FI,1,Hansas,
152325,FI,8,Seppä,
152326,FI,6,Herva,
152327,FI,15,Monå,
152328,FI,13,Röykkä,
152329,FI,13,Kulloonkylä,
152330,FI,13,Itäkeskus,
152331,FI,15,Kokko,
152332,FI,15,Jämijärvi,
152333,FI,15,Måsa,
152334,FI,8,Tervola,
152335,FI,15,Hanhisalo,
152336,FI,8,Piispajärvi,
152337,FI,13,Valkonen,
152338,FI,15,Gustaf,
152339,FI,8,Miettunen,
152340,FI,6,Luiro,
152341,FI,13,Myyrmäki,
152342,FI,13,Rapattila,
152343,FI,8,Vainio,
152344,FI,8,Kunnari,
152345,FI,13,Valko,
152346,FI,15,Taalintehdas,
152347,FI,8,Louhi,
152348,FI,8,Kolehmainen,
152349,FI,14,Salahmi,
152350,FI,1,Sanda,
152351,FI,13,Tinkanen,
152352,FI,13,Lusi,
152353,FI,8,Korholanmäki,
152354,FI,8,Heikura,
152355,FI,8,Iivantiira,
152356,FI,15,Harola,
152357,FI,15,Päri,
152358,FI,15,Kristiina,
152359,FI,13,Kivikko,
152360,FI,8,Kontula,
152361,FI,13,Oulunkylä,
152362,FI,13,Pakila,
152363,FI,13,Puotila,
152364,FI,13,Laajasalo,
152365,FI,13,Vartiokylä,
152366,FI,13,Myllyoja,
152367,FI,13,Bäcks,
152368,FI,8,Helaakoski,
152369,FI,13,Santahamina,
152370,FI,13,Pohjoinen,
152371,FI,13,Munkkivuori,
152372,FI,13,Toivola,
152373,FI,13,Katajanokka,
152374,FI,14,Vaivio,
152375,FI,8,Pelsonsuo,
152376,FI,13,Heinlahti,
152377,FI,15,Honkakoski,
152378,FI,15,Kårkulla,
152379,FI,15,Jaara,
152380,FI,14,Hali,
152381,FI,13,Puotinharju,
152382,FI,13,Jakomäki,
152383,FI,13,Vojakkala,
152384,FI,13,Gumböle,
152385,FI,8,Kukkola,
152386,FI,15,Vähä,
152387,FI,6,Marttiini,
152388,FI,13,Karjalohja,
152389,FI,1,Korsö,
152390,FI,15,Perkiö,
152391,FI,8,Humaloja,
152392,FI,15,Saarenpää,
152393,FI,8,Pitäjänmäki,
152394,FI,13,Ohkola,
152395,FI,8,Jormua,
152396,FI,13,Pohela,
152397,FI,13,Vuosaari,
152398,FI,15,Isomäki,
152399,FI,8,Peltoniemi,
152400,FI,15,Honkaniemi,
152401,FI,13,Hautjärvi,
152402,FI,14,Kumpunen,
152403,FI,8,Veneheitto,
152404,FI,8,Kytömäki,
152405,FI,13,Suonpää,
152406,FI,8,Niemelä,
152407,FI,8,Pihkala,
152408,FI,8,Ukkola,
152409,FI,13,Lempiäinen,
152410,FI,15,Vuori,
152411,FI,13,Matinkylä,
152412,FI,8,Paltaniemi,
152413,FI,15,Hulkko,
152414,FI,13,Paloheinä,
152415,FI,13,Selki,
152416,FI,13,Sääkskylä,
152417,FI,13,Kerkkoo,
152418,FI,15,Dragsfjärd,
152419,FI,8,Kontiomäki,
152420,FI,15,Västanfjärd,
152421,FI,14,Vehmersalmi,
152422,FI,13,Kurkimäki,
152423,FI,14,Koljonvirta,
152424,FI,8,Savela,
152425,FI,8,Mikkola,
152426,FI,13,Hankaa,
152427,FI,8,Turula,
152428,FI,13,Petikko,
152429,FI,8,Tikkala,
152430,FI,14,Harjumaa,
152431,FI,13,Ström,
152432,FI,15,Pihlajalahti,
152433,FI,14,Juurikkalahti,
152434,FI,15,Tuohittu,
152435,FI,15,Hirvas,
152436,FI,15,Hokkaskylä,
152437,FI,15,Koivujärvi,
152438,FI,15,Tammikoski,
152439,FI,15,Huopioniemi,
152440,FI,15,Ajostaipale,
152441,FI,15,Ahveninen,
152442,FI,15,Paarskylä,
152443,FI,14,Petruma,
152444,FI,15,Munsmo,
152445,FI,15,Hellanmaa,
152446,FI,15,Varvas,
152447,FI,15,Lemmi,
152448,FI,15,Kiukainen,
152449,FI,15,Katinhäntä,
152450,FI,15,Santamala,
152451,FI,15,Kaitarainen,
152452,FI,15,Kurittula,
152453,FI,15,Poltinkoski,
152454,FI,15,Hyyrylä,
152455,FI,14,Ristisaari,
152456,FI,14,Rukkoniva,
152457,FI,14,Käävänkylä,
152458,FI,13,Västerskog,
152459,FI,13,Janakkala,
152460,FI,8,Soso,
152461,FI,13,Petas,
152462,FI,14,Sotkuma,
152463,FI,13,Snappertuna,
152464,FI,13,Båtsmora,
152465,FI,14,Niilola,
152466,FI,14,Joutsenmäki,
152467,FI,14,Lammu,
152468,FI,14,Hanhijärvi,
152469,FI,15,Vähäröyhiö,
152470,FI,13,Kärrby,
152471,FI,13,Mäkiniittu,
152472,FI,13,Koivikko,
152473,FI,13,Pyhäntaa,
152474,FI,13,Porasa,
152475,FI,13,Rutalahti,
152476,FI,13,Hevossaari,
152477,FI,15,Kuusa,
152478,FI,13,Kuisma,
152479,FI,15,Lilla Furuholmen,
152480,FI,15,Rosasholma,
152481,FI,15,Kuddnäs,
152482,FI,15,Bro,
152483,FI,15,Jeppo,
152484,FI,15,Harjux,
152485,FI,15,Laurila,
152486,FI,15,Hanho,
152487,FI,13,Kaarela,
152488,FI,1,Rörstorp,
152489,FI,1,Drygsböle,
152490,FI,1,Jomalaby,
152491,FI,1,Bamböle,
152492,FI,1,Tärnbolstad,
152493,FI,1,Ringsböle,
152494,FI,1,Strömsgärdan,
152495,FI,1,Stornäs,
152496,FI,13,Ärvings,
152497,FI,13,Mårtensby,
152498,FI,13,Pikkala,
152499,FI,13,Haapajärvi,
152500,FI,13,Navala,
152501,FI,13,Lusila,
152502,FI,13,Metsämaa,
152503,FI,13,Ollila,
152504,FI,13,Soldatskärret,
152505,FI,13,Leppälammi,
152506,FI,13,Lassas,
152507,FI,13,Kämpbacka,
152508,FI,13,Varistorna,
152509,FI,13,Lapinkylä,
152510,FI,13,Harvs,
152511,FI,15,Luovankylä,
152512,FI,15,Stålgrinden,
152513,FI,15,Österskogen,
152514,FI,15,Långängen,
152515,FI,15,Aspbäcken,
152516,FI,15,Bäckliden,
152517,FI,15,Västerbrännan,
152518,FI,13,Tevaniemi,
152519,FI,14,Levänen,
152520,FI,13,Kannuskoski,
152521,FI,13,Saaramaa,
152522,FI,13,Tiuruniemi,
152523,FI,13,Ruomi,
152524,FI,13,Ukkolanmäki,
152525,FI,8,Hatunen,
152526,FI,8,Helkkola,
152527,FI,8,Vuottolahti,
152528,FI,8,Pirinranta,
152529,FI,14,Västinniemi,
152530,FI,14,Kosula,
152531,FI,14,Riistavesi,
152532,FI,14,Suurola,
152533,FI,6,Varajärvi,
152534,FI,6,Pahtaoja,
152535,FI,13,Rajatorppa,
152536,FI,13,Kurkijärvi,
152537,FI,15,Ojala,
152538,FI,15,Vuolinen,
152539,FI,15,Jäkärlä,
152540,FI,13,Alivanhakylä,
152541,FI,6,Viirinkylä,
152542,FI,6,Maksniemi,
152543,FI,6,Salmi,
152544,FI,13,Junttola,
152545,FI,13,Hyrkäs,
152546,FI,13,Iitti,
152547,FI,13,Rantamäenkylä,
152548,FI,14,Maljasalmi,
152549,FI,14,Niirala,
152550,FI,14,Juurikkamäki,
152551,FI,14,Mustinlahti,
152552,FI,6,Lautiosaari,
152553,FI,8,Etelä-ii,
152554,FI,13,Muikku,
152555,FI,13,Pyörylä,
152556,FI,13,Ahjärvi,
152557,FI,15,Pyhälahti,
152558,FI,14,Jokijärvi,
152559,FI,15,Hilmo,
152560,FI,15,Kaipola,
152561,FI,14,Vartiala,
152562,FI,14,Kulennoinen,
152563,FI,14,Ahvensalmi,
152564,FI,14,Koirakoski,
152565,FI,13,Gammelby,
152566,FI,14,Hirvisaari,
152567,FI,14,Lahola,
152568,FI,14,Alapitkä,
152569,FI,14,Karvasalmi,
152570,FI,6,Sonka,
152571,FI,6,Varejoki,
152572,FI,6,Karri,
152573,FI,6,Mattinen,
152574,FI,13,Korpela,
152575,FI,15,Kaskö,
152576,FI,15,Pederså,
152577,FI,15,Kauvatsa,
152578,FI,15,Sammaljoki,
152579,FI,15,Korvensuu,
152580,FI,15,Halkosaari,
152581,FI,13,Latovainio,
152582,FI,13,Matku,
152583,FI,13,Koivuvaara,
152584,FI,15,Juvela,
152585,FI,15,Köyrä,
152586,FI,13,Auttoinen,
152587,FI,15,Stremming,
152588,FI,15,Ristijärvi,
152589,FI,15,Saarikylät,
152590,FI,15,Korvajärvi,
152591,FI,15,Perkiömäki,
152592,FI,15,Höytee,
152593,FI,15,Siitama,
152594,FI,15,Hyytiälä,
152595,FI,15,Eväjärvi,
152596,FI,15,Järvenkylä,
152597,FI,15,Akaa,
152598,FI,15,Hautamäki,
152599,FI,13,Hannusas,
152600,FI,15,Österyttermark,
152601,FI,15,Sarvijoki,
152602,FI,15,Harja,
152603,FI,15,Mamrelund,
152604,FI,15,Hynninen,
152605,FI,15,Luhtala,
152606,FI,15,Hukkala,
152607,FI,15,Ylikantola,
152608,FI,13,Vaulammi,
152609,FI,15,Huopanankoski,
152610,FI,8,Pahkakylä,
152611,FI,8,Sarjakylä,
152612,FI,15,Kuivaniemi,
152613,FI,15,Mattinmäki,
152614,FI,15,Salamajärvi,
152615,FI,15,Huopana,
152616,FI,15,Juusola,
152617,FI,8,Koivuoja,
152618,FI,8,Tynkä,
152619,FI,8,Tyngänkylä,
152620,FI,14,Ryönä,
152621,FI,13,Heponiitty,
152622,FI,13,Drombom,
152623,FI,13,Kähölä,
152624,FI,14,Vaaluvirta,
152625,FI,14,Raikuu,
152626,FI,14,Luotajärvi,
152627,FI,13,Åminne,
152628,FI,15,Val'ppu,
152629,FI,13,Sjösäng,
152630,FI,13,Ekerö,
152631,FI,13,Grankulla,
152632,FI,15,Haali,
152633,FI,15,Meisala,
152634,FI,15,Pöylä,
152635,FI,15,Mussaari,
152636,FI,15,Kallmusnäs,
152637,FI,14,Heinävaara,
152638,FI,14,Puromäki,
152639,FI,13,Tallaa,
152640,FI,13,Nummimäki,
152641,FI,13,Puujärvi,
152642,FI,13,Suonpohja,
152643,FI,13,Haarjärvi,
152644,FI,15,Laajoki,
152645,FI,13,Krämersbacken,
152646,FI,13,Pusula,
152647,FI,13,Seutula,
152648,FI,13,Hyönölä,
152649,FI,13,Kaukola,
152650,FI,15,Mustinen,
152651,FI,13,Lahnus,
152652,FI,13,Gränsby,
152653,FI,13,Martinkylä,
152654,FI,13,Silvola,
152655,FI,13,Tervalampi,
152656,FI,15,Ilttula,
152657,FI,15,Kaulansuu,
152658,FI,15,Iso Hepojoki,
152659,FI,14,Eskelä,
152660,FI,8,Perttula,
152661,FI,15,Dalsbruk,
152662,FI,13,Myrbacka,
152663,FI,13,Gerby,
152664,FI,13,Rådkila,
152665,FI,13,Länsisalmi,
152666,FI,13,Björknäs,
152667,FI,14,Surnuinmäki,
152668,FI,14,Hulkkola,
152669,FI,14,Rönkönvaara,
152670,FI,14,Punkasalmi,
152671,FI,15,Tuiskula,
152672,FI,8,Lusikkala,
152673,FI,8,Venetpalo,
152674,FI,8,Pelkonen,
152675,FI,8,Oksava,
152676,FI,8,Junno,
152677,FI,8,Iso Rankinen,
152678,FI,15,Savio,
152679,FI,14,Harinkaankylä,
152680,FI,15,Keihärinkoski,
152681,FI,15,Heinäpohja,
152682,FI,6,Liinanki,
152683,FI,6,Käyrämö,
152684,FI,6,Vikajärvi,
152685,FI,6,Nivankylä,
152686,FI,6,Ollila,
152687,FI,15,Mäkiäinen,
152688,FI,15,Rahkionmäki,
152689,FI,15,Kyrkoby,
152690,FI,15,Räyrinki,
152691,FI,15,Karjanlahti,
152692,FI,15,Lautela,
152693,FI,15,Purontaka,
152694,FI,15,Patana,
152695,FI,15,Tyynismaa,
152696,FI,15,Härmänmaa,
152697,FI,13,Etelä-kaarela,
152698,FI,13,Kuusia,
152699,FI,15,Itäkylä,
152700,FI,15,Tervanen,
152701,FI,15,Länsikylä,
152702,FI,15,Laukkospiha,
152703,FI,15,Peräkangas,
152704,FI,15,Pynttäri,
152705,FI,14,Kontkala,
152706,FI,13,Laha,
152707,FI,13,Pohjakka,
152708,FI,14,Jänissalo,
152709,FI,13,Orkola,
152710,FI,13,Alahäärä,
152711,FI,13,Maajärvi,
152712,FI,13,Puntala,
152713,FI,13,Kunttula,
152714,FI,1,Asterholma,
152715,FI,1,Nabbas,
152716,FI,15,Lempisaari,
152717,FI,15,Lempnäs,
152718,FI,13,Torvenniemi,
152719,FI,13,Tillola,
152720,FI,13,Pätärilä,
152721,FI,13,Huopainen,
152722,FI,14,Lyytilänmäki,
152723,FI,14,Soinilansalmi,
152724,FI,14,Häijä,
152725,FI,14,Jokiniemi,
152726,FI,14,Karttulankylä,
152727,FI,15,Ahonkylä,
152728,FI,14,Viitamäki,
152729,FI,14,Syrjäsaari,
152730,FI,14,Riistakoski,
152731,FI,15,Haavisto,
152732,FI,15,Kekkilä,
152733,FI,15,Saakoski,
152734,FI,15,Vehniä,
152735,FI,13,Yläkäs,
152736,FI,8,Järvenperäkumpu,
152737,FI,8,Honkala,
152738,FI,8,Pyssylä,
152739,FI,15,Metsäloukko,
152740,FI,15,Långnäset,
152741,FI,15,Storsjön,
152742,FI,15,Äystö,
152743,FI,15,Harjunkylä,
152744,FI,15,Kaija,
152745,FI,14,Iso Hirviniemi,
152746,FI,14,Nuppola,
152747,FI,6,Nuulanen,
152748,FI,6,Apukka,
152749,FI,6,Mänty,
152750,FI,6,Sammale,
152751,FI,6,Alanampa,
152752,FI,6,Uimaniemi,
152753,FI,6,Ylinampa,
152754,FI,6,Niesi,
152755,FI,15,Närvijoki,
152756,FI,15,Riippi,
152757,FI,15,Purmojärvi,
152758,FI,15,Lammi,
152759,FI,15,Keskis,
152760,FI,15,Majaloukko,
152761,FI,15,Lietsa,
152762,FI,15,Kullaa,
152763,FI,13,Lepaa,
152764,FI,15,Veneskoski,
152765,FI,15,Pyssykangas,
152766,FI,15,Lågväg,
152767,FI,14,Saijanlahti,
152768,FI,13,Botbygård,
152769,FI,15,Sammatti,
152770,FI,15,Kengo,
152771,FI,15,Kämmenniemi,
152772,FI,15,Haigaa,
152773,FI,13,Smedsby,
152774,FI,15,Ahomäki,
152775,FI,15,Saarimaa,
152776,FI,15,Lehmäjoki,
152777,FI,15,Muilo,
152778,FI,15,Brännskiftet,
152779,FI,15,Kuni,
152780,FI,15,Ribäcken,
152781,FI,15,Tervajoen Kylä,
152782,FI,15,Viemerö,
152783,FI,15,Riihimäki,
152784,FI,15,Kuivila,
152785,FI,15,Mieto,
152786,FI,15,Karvat,
152787,FI,15,Åivo,
152788,FI,15,Asplund,
152789,FI,15,Norrnäs,
152790,FI,13,Porkala,
152791,FI,8,Mieluskoski,
152792,FI,8,Mattilanperä,
152793,FI,15,Puusaari,
152794,FI,15,Oja-matti,
152795,FI,8,Soikka,
152796,FI,8,Ylitalo,
152797,FI,8,Pappilanvaara,
152798,FI,8,Kivikylä,
152799,FI,8,Pihlajavaara,
152800,FI,8,Teerivaara,
152801,FI,8,Klemetinvaara,
152802,FI,8,Sipola,
152803,FI,8,Rusala,
152804,FI,15,Kantalahti,
152805,FI,15,Vaskio,
152806,FI,13,Salo,
152807,FI,15,Tuuhonen,
152808,FI,14,Pitkälä,
152809,FI,14,Koskutjärvi,
152810,FI,13,Rödsand,
152811,FI,13,Kiilinmäki,
152812,FI,15,Pääjärvenmäki,
152813,FI,6,Alakärppä,
152814,FI,8,Vasanneva,
152815,FI,14,Enonsalo,
152816,FI,14,Lahovaara,
152817,FI,15,Nästi,
152818,FI,14,Kajoo,
152819,FI,14,Kohiseva,
152820,FI,14,Hauranki,
152821,FI,14,Lepikkomäki,
152822,FI,14,Oravi,
152823,FI,14,Karvio,
152824,FI,14,Ropankylä,
152825,FI,15,Sirkkamäki,
152826,FI,14,Hevonlahti,
152827,FI,15,Sarvenperä,
152828,FI,15,Härjänsilmä,
152829,FI,14,Kääriälä,
152830,FI,15,Fuila,
152831,FI,13,Malmgård,
152832,FI,13,Nybacka,
152833,FI,8,Katajalahti,
152834,FI,8,Heilapra,
152835,FI,8,Kaartila,
152836,FI,8,Laaja,
152837,FI,13,Puntti,
152838,FI,13,Kaukas,
152839,FI,14,Niskamäki,
152840,FI,14,Horja,
152841,FI,15,Höytiä,
152842,FI,15,Etelä-mahlu,
152843,FI,14,Peltoniemi,
152844,FI,14,Lappala,
152845,FI,6,Pöntsö,
152846,FI,15,Maunula,
152847,FI,15,Hölsömäki,
152848,FI,14,Vehvilä,
152849,FI,6,Nampa,
152850,FI,15,Johannesdal,
152851,FI,15,Valsås,
152852,FI,15,Pellasback,
152853,FI,15,Knösen,
152854,FI,15,Evijärvi,
152855,FI,13,Inginmaa,
152856,FI,6,Nuvvus,
152857,FI,6,Hamari,
152858,FI,6,Nuvusskaidi,
152859,FI,15,Tammisilta,
152860,FI,13,Dragsvik,
152861,FI,14,Herajoki,
152862,FI,14,Paalasmaa,
152863,FI,14,Kuivasalmi,
152864,FI,13,Hikiä,
152865,FI,15,Sykäräinen,
152866,FI,15,Paasila,
152867,FI,14,Maarianvaara,
152868,FI,15,Turkkila,
152869,FI,14,Kulho,
152870,FI,15,Tuomala,
152871,FI,13,Box,
152872,FI,15,Frostdal,
152873,FI,13,Jänhijoki,
152874,FI,14,Korpilahti,
152875,FI,15,Lamminkoski,
152876,FI,14,Kylmäpoha,
152877,FI,14,Piimälahti,
152878,FI,15,Kyrönlahti,
152879,FI,15,Kihniö,
152880,FI,15,Toivakka,
152881,FI,13,Huhtiniemi,
152882,FI,13,Hermala,
152883,FI,15,Lyytikkälä,
152884,FI,15,Erkkilä,
152885,FI,13,Palojoki,
152886,FI,1,Tosarby,
152887,FI,1,Gottby,
152888,FI,1,Norrberg,
152889,FI,14,Sokkala,
152890,FI,1,Finström,
152891,FI,14,Kaarnalampi,
152892,FI,14,Kantala,
152893,FI,15,Torre,
152894,FI,15,Sorola,
152895,FI,15,Läpplax,
152896,FI,13,Skogby,
152897,FI,15,Laukka,
152898,FI,13,Lahela,
152899,FI,13,Böle,
152900,FI,13,Riipilä,
152901,FI,8,Seipelä,
152902,FI,14,Varislahti,
152903,FI,13,Pähkinärinne,
152904,FI,14,Hipanlahti,
152905,FI,14,Vehkasaari,
152906,FI,14,Myhinpää,
152907,FI,14,Viljalahti,
152908,FI,15,Torlahti,
152909,FI,15,Raulio,
152910,FI,15,Kortjärvi,
152911,FI,14,Horonkylä,
152912,FI,14,Mataramäki,
152913,FI,13,Friherrs,
152914,FI,15,Heikkola,
152915,FI,15,Kivihuhta,
152916,FI,15,Pöntiö,
152917,FI,13,Murto,
152918,FI,13,Suoknuuti,
152919,FI,13,Hämevaara,
152920,FI,15,Pahajoki,
152921,FI,1,Hellsvik,
152922,FI,1,Lemland,
152923,FI,1,Kumlinge,
152924,FI,1,Gransunda,
152925,FI,1,Töftö,
152926,FI,1,Grins,
152927,FI,1,Arnelund,
152928,FI,1,Östanåker,
152929,FI,13,Ilola,
152930,FI,8,Ahmas,
152931,FI,8,Laitasaari,
152932,FI,8,Yli Sipala,
152933,FI,15,Kankari,
152934,FI,15,Petääjärvi,
152935,FI,15,Keljo,
152936,FI,14,Penttinen,
152937,FI,8,Suolijärvi,
152938,FI,15,Häijää,
152939,FI,14,Kokkonen,
152940,FI,15,Kaunela,
152941,FI,15,Tausela,
152942,FI,15,Liipantönkä,
152943,FI,14,Lömmeikkö,
152944,FI,15,Jääskänjoki,
152945,FI,15,Konnunperä,
152946,FI,15,Unaja,
152947,FI,15,Kostula,
152948,FI,13,Barösund,
152949,FI,14,Simpala,
152950,FI,14,Mattisenlahti,
152951,FI,13,Kohola,
152952,FI,13,Kleven,
152953,FI,13,Raviaiskorpi,
152954,FI,15,Saarikas,
152955,FI,1,Tjudnäs,
152956,FI,1,Kihla,
152957,FI,1,Emkarby,
152958,FI,1,Karbële,
152959,FI,13,Ojankorva,
152960,FI,13,Luuk,
152961,FI,13,Otalampi,
152962,FI,15,Rönnholm,
152963,FI,15,Arstu,
152964,FI,15,Niinimäki,
152965,FI,13,Urola,
152966,FI,13,Muurola,
152967,FI,8,Pihlaja,
152968,FI,8,Kerälä,
152969,FI,13,Kungsbacka,
152970,FI,13,Kurhila,
152971,FI,6,Turtola,
152972,FI,14,Istruala,
152973,FI,15,Kanervamäki,
152974,FI,13,Luhtabacka,
152975,FI,13,Niipperi,
152976,FI,6,Korpikylä,
152977,FI,13,Uro,
152978,FI,14,Koivajärvi,
152979,FI,14,Säynätkoski,
152980,FI,13,Sirkjärvi,
152981,FI,13,Sääskjärvi,
152982,FI,13,Pilkanmaa,
152983,FI,15,Jokiniemi,
152984,FI,15,Käräjämäki,
152985,FI,15,Lonnikko,
152986,FI,13,Nummenkylä,
152987,FI,13,Tolkkinen,
152988,FI,15,Länkipohja,
152989,FI,14,Viitasaari,
152990,FI,15,Hammarsboda,
152991,FI,15,Branten,
152992,FI,13,Kasari,
152993,FI,13,Nokkala,
152994,FI,13,Asola,
152995,FI,15,Jokikylä,
152996,FI,15,Vehkajärvi,
152997,FI,15,Luhalahti,
152998,FI,15,Eugmo,
152999,FI,15,Rämsöö,
153000,FI,15,Lylyjärvi,
153001,FI,15,Riekkolanperä,
153002,FI,15,Långåminne,
153003,FI,15,Finnbacka,
153004,FI,15,Tuurala,
153005,FI,15,Sarvikas,
153006,FI,13,Vuollu,
153007,FI,8,Tupos,
153008,FI,8,Mustanoja,
153009,FI,8,Heiska,
153010,FI,8,Kuusaa,
153011,FI,15,Soliskylä,
153012,FI,15,Hallapuro,
153013,FI,15,Heinolahti,
153014,FI,8,Karvoskylä,
153015,FI,14,Toroppala,
153016,FI,14,Jutta,
153017,FI,14,Ritalahti,
153018,FI,13,Fiskars,
153019,FI,15,Lausti,
153020,FI,15,Helsinge,
153021,FI,15,Rautela,
153022,FI,15,Kiila,
153023,FI,15,Ylikylä,
153024,FI,13,Bredslätt,
153025,FI,13,Ingå,
153026,FI,14,Ahveninen,
153027,FI,13,Tackskog,
153028,FI,13,Haarajoki,
153029,FI,14,Litmaniemi,
153030,FI,14,Kotamäki,
153031,FI,14,Ruuhilampi,
153032,FI,8,Suutarinkylä,
153033,FI,8,Hyvärilä,
153034,FI,8,Mankila,
153035,FI,6,Leppiaho,
153036,FI,15,Framstu,
153037,FI,15,Saneliden,
153038,FI,15,Vinni,
153039,FI,14,Kangaslahti,
153040,FI,8,Laukkala,
153041,FI,14,Hiidenlahti,
153042,FI,13,Erlandsböle,
153043,FI,14,Reinikkala,
153044,FI,13,Taina,
153045,FI,13,Kääpälä,
153046,FI,13,Patolahti,
153047,FI,15,Ruolahti,
153048,FI,13,Nuppulinna,
153049,FI,15,Kaulanperä,
153050,FI,15,Porkkala,
153051,FI,8,Kärenniemi,
153052,FI,8,Haverila,
153053,FI,8,Ii,
153054,FI,8,Vattukylä,
153055,FI,15,Nikkari,
153056,FI,14,Halolanpää,
153057,FI,6,Kotaniemi,
153058,FI,6,Javarus,
153059,FI,6,Talosenkylä,
153060,FI,6,Perttausjoki,
153061,FI,15,Thors,
153062,FI,15,Myöntäjä,
153063,FI,13,Sappee,
153064,FI,15,Suutila,
153065,FI,15,Alaskylä,
153066,FI,15,Kevari,
153067,FI,15,Brännbacken,
153068,FI,15,Singsby,
153069,FI,15,Toijanniemi,
153070,FI,15,Niskos,
153071,FI,15,Panttila,
153072,FI,15,Jalasto,
153073,FI,15,Bertby,
153074,FI,15,Tuppela,
153075,FI,15,Sisättö,
153076,FI,8,Ruuskanperä,
153077,FI,8,Keltaperä,
153078,FI,8,Rukki,
153079,FI,8,Mörkölä,
153080,FI,8,Leppilä,
153081,FI,8,Honkivaara,
153082,FI,8,Heinälahti,
153083,FI,8,Sipilä,
153084,FI,8,Peltomaa,
153085,FI,8,Metelinmäki,
153086,FI,8,Pekkilä,
153087,FI,8,Poromäki,
153088,FI,13,Länsimäki,
153089,FI,14,Karsikkovaara,
153090,FI,14,Selkienkylä,
153091,FI,14,Pennala,
153092,FI,6,Pömiö,
153093,FI,8,Keskinen,
153094,FI,14,Piensulkavajärvi,
153095,FI,14,Leppämäki,
153096,FI,14,Tahkovaara,
153097,FI,14,Kesämäki,
153098,FI,14,Paitomäki,
153099,FI,14,Koivumäki,
153100,FI,13,Askis,
153101,FI,13,Launonen,
153102,FI,15,Sauvo,
153103,FI,15,Potkela,
153104,FI,15,Kaasmarkku,
153105,FI,14,Häkkilä,
153106,FI,14,Nykälä,
153107,FI,13,Kaanaa,
153108,FI,6,Portimo,
153109,FI,15,Karvonen,
153110,FI,15,Stenvatten,
153111,FI,15,Koura,
153112,FI,15,Leuna,
153113,FI,14,Lempyy,
153114,FI,14,Lamminkäyrä,
153115,FI,14,Ilvesjärvi,
153116,FI,15,Säkinmäki,
153117,FI,6,Veittikoski,
153118,FI,6,Typpyrä,
153119,FI,15,Övermalax,
153120,FI,15,Maannkulma,
153121,FI,15,Pilkbacken,
153122,FI,15,Molapne,
153123,FI,15,Lamminkylä,
153124,FI,15,Ina,
153125,FI,13,Harjusuo,
153126,FI,15,Kurisjärvi,
153127,FI,14,Kelosuo,
153128,FI,14,Läsäkoski,
153129,FI,13,Vähä Äiniö,
153130,FI,15,Rahkonen,
153131,FI,8,Etelälahti,
153132,FI,15,Timi,
153133,FI,15,Nyrölä,
153134,FI,14,Aittovaara,
153135,FI,13,Huhtaa,
153136,FI,13,Vaaherkumpu,
153137,FI,14,Kolmikanta,
153138,FI,13,Peränkulma,
153139,FI,13,Ahmo,
153140,FI,15,Ylijoki,
153141,FI,13,Kotkaniemi,
153142,FI,13,Mellungsbacka,
153143,FI,15,Lehtola,
153144,FI,13,Övitsböle,
153145,FI,13,Kaulio,
153146,FI,15,Kinola,
153147,FI,15,Tursa,
153148,FI,13,Skattmansby,
153149,FI,14,Akula,
153150,FI,13,Harjula,
153151,FI,15,Alkkia,
153152,FI,14,Ukonniemi,
153153,FI,15,Kaukasalo,
153154,FI,15,Vitick,
153155,FI,13,Krögars,
153156,FI,14,Lastukoski,
153157,FI,14,Hakkari,
153158,FI,14,Paakila,
153159,FI,15,Meripää,
153160,FI,14,Hietamäki,
153161,FI,14,Oittila,
153162,FI,13,Stormora,
153163,FI,13,Mangård,
153164,FI,15,Kauhaoja,
153165,FI,13,Keisarinkoski,
153166,FI,13,Kotosenmäki,
153167,FI,15,Nagu,
153168,FI,15,Seljänkangas,
153169,FI,15,Naarajoki,
153170,FI,15,Sasi,
153171,FI,13,Mulkoila,
153172,FI,13,Hattula,
153173,FI,15,Kurjenkylä,
153174,FI,13,Joddböle,
153175,FI,13,Hollola,
153176,FI,15,Töysä,
153177,FI,8,Palo,
153178,FI,15,Taivassalo,
153179,FI,13,Tammisto,
153180,FI,13,Jaakkola,
153181,FI,15,Väärinmaja,
153182,FI,15,Höytölä,
153183,FI,15,Tappo,
153184,FI,15,Alhojoki,
153185,FI,15,Vesiluoma,
153186,FI,15,Maakanen,
153187,FI,15,Kaihari,
153188,FI,14,Paasiniemi,
153189,FI,15,Kallionkieli,
153190,FI,14,Honkaranta,
153191,FI,13,Ellola,
153192,FI,15,Ylä-vääri,
153193,FI,1,Norrsunda,
153194,FI,1,Ulvsby,
153195,FI,1,Björkbacka,
153196,FI,15,Kettula,
153197,FI,15,Pielaks,
153198,FI,15,Sarvenloukko,
153199,FI,15,Peltomaa,
153200,FI,15,Aspnäs,
153201,FI,13,Vastila,
153202,FI,13,Laksiainen,
153203,FI,13,Saares,
153204,FI,13,Virokoski,
153205,FI,8,Pirttitörmä,
153206,FI,8,Karhukangas,
153207,FI,13,Kallbäck,
153208,FI,6,Konttajärvi,
153209,FI,6,Raanujärvi,
153210,FI,13,Tolkby,
153211,FI,15,Haaroinen,
153212,FI,14,Hirvenlahti,
153213,FI,13,Kalajärvi,
153214,FI,6,Laivajärvi,
153215,FI,13,Munne,
153216,FI,13,Ruohiala,
153217,FI,13,Uukuniemi,
153218,FI,14,Rauhamäki,
153219,FI,13,Vihtola,
153220,FI,15,Karhunoja,
153221,FI,15,Valtala,
153222,FI,15,Havumäki,
153223,FI,15,Kovik,
153224,FI,13,Pålböle,
153225,FI,14,Kankaankylä,
153226,FI,14,Pajujärvi,
153227,FI,15,Karviainen,
153228,FI,13,Kananoja,
153229,FI,14,Savukylä,
153230,FI,8,Lieppa,
153231,FI,1,Lillposten,
153232,FI,15,Ikkala,
153233,FI,15,Lyly,
153234,FI,15,Gunilack,
153235,FI,15,Petalaks Nyby,
153236,FI,15,Bertlasmossa,
153237,FI,15,Brändskog,
153238,FI,15,Kätkä,
153239,FI,15,Kimo,
153240,FI,15,Inha,
153241,FI,15,Herneshuhta,
153242,FI,13,Råbro,
153243,FI,15,Kekolahti,
153244,FI,8,Ojakylä,
153245,FI,15,Pienmäki,
153246,FI,15,Kannonjärvi,
153247,FI,15,Rasila,
153248,FI,15,Puralankylä,
153249,FI,15,Heiniemi,
153250,FI,8,Kurikka,
153251,FI,13,Hermunen,
153252,FI,13,Rautoja,
153253,FI,14,Hankavaara,
153254,FI,14,Vasamalahti,
153255,FI,15,Raski,
153256,FI,15,Haverö,
153257,FI,15,Hilleinen,
153258,FI,15,Pitkäjärvi,
153259,FI,15,Iskoinen,
153260,FI,13,Teutkoski,
153261,FI,15,Kumio,
153262,FI,15,Ilosjoki,
153263,FI,13,Rantonen,
153264,FI,13,Simola,
153265,FI,13,Koskenkylä,
153266,FI,8,Hiisimäki,
153267,FI,8,Salmenniemi,
153268,FI,15,Pajupuro,
153269,FI,6,Lampijarvi,
153270,FI,6,Runkaus,
153271,FI,6,Simoniemi,
153272,FI,15,Ollila,
153273,FI,15,Mustanoja,
153274,FI,15,Horo,
153275,FI,15,Skog,
153276,FI,15,Hoikko,
153277,FI,15,Länttä,
153278,FI,15,Ruismäki,
153279,FI,13,Vehkataipale,
153280,FI,13,Pyhältö,
153281,FI,13,Suoniala,
153282,FI,14,Lähtevä,
153283,FI,14,Kurjalanranta,
153284,FI,8,Sulkakylä,
153285,FI,15,Poola,
153286,FI,15,Västerback,
153287,FI,6,Venejärvenkylä,
153288,FI,6,Kuusikkolaki,
153289,FI,6,Välikangas,
153290,FI,15,Palus,
153291,FI,15,Venesjärvi,
153292,FI,15,Soranen,
153293,FI,15,Palosenmäki,
153294,FI,15,Ruusbakka,
153295,FI,1,Bergö,
153296,FI,15,Petalax,
153297,FI,15,Veikars,
153298,FI,15,Nixmossen,
153299,FI,15,Pudasjärvi,
153300,FI,8,Suotukylä,
153301,FI,8,Vasankari,
153302,FI,8,Härmänmäki,
153303,FI,8,Harjula,
153304,FI,8,Hallavaara,
153305,FI,8,Marjoniemi,
153306,FI,8,Petäjäniemi,
153307,FI,8,Kilpelä,
153308,FI,13,Laamala,
153309,FI,15,Knaapila,
153310,FI,8,Juopulinkylä,
153311,FI,14,Haapakallio,
153312,FI,14,Riikola,
153313,FI,13,Pölans,
153314,FI,8,Ravaska,
153315,FI,8,Luujoki,
153316,FI,14,Airaksela,
153317,FI,14,Jylhä,
153318,FI,14,Joutsenlahti,
153319,FI,14,Egypti,
153320,FI,14,Voinsalmi,
153321,FI,15,Kusni,
153322,FI,15,Haaro,
153323,FI,15,Metsolahti,
153324,FI,14,Väisälänsaari,
153325,FI,15,Kapeenkylä,
153326,FI,6,Kierinki,
153327,FI,6,Ivalon-matti,
153328,FI,6,Rovanen,
153329,FI,15,Koivu,
153330,FI,15,Emaus,
153331,FI,6,Kaakamo,
153332,FI,6,Seipäjärvi,
153333,FI,15,Källmossa,
153334,FI,15,Kolam,
153335,FI,6,Paaddos,
153336,FI,15,Mellola,
153337,FI,14,Hattusaari,
153338,FI,15,Kuitula,
153339,FI,15,Syri,
153340,FI,14,Syvänniemi,
153341,FI,8,Miiluranta,
153342,FI,15,Rajala,
153343,FI,15,Söderkulla,
153344,FI,14,Lehtoi,
153345,FI,14,Särkijärvi,
153346,FI,14,Piimäjärvi,
153347,FI,14,Koppola,
153348,FI,13,Ratus,
153349,FI,13,Vihtijärvi,
153350,FI,15,Paloinen,
153351,FI,13,Uiminniemi,
153352,FI,8,Kärsämä,
153353,FI,1,Simas,
153354,FI,1,Bastvik,
153355,FI,15,Marjasuo,
153356,FI,8,Lahnasjärvi,
153357,FI,15,Niittymaa,
153358,FI,6,Pötkönen,
153359,FI,13,Härjänvatsa,
153360,FI,14,Paukarlahti,
153361,FI,15,Kittuis,
153362,FI,14,Kutumäki,
153363,FI,14,Hankamäki,
153364,FI,8,Revonlahti,
153365,FI,13,Metsäkylä,
153366,FI,15,Mutkalampi,
153367,FI,15,Hietikko,
153368,FI,1,Andersböle,
153369,FI,15,Kopila,
153370,FI,8,Luohuan Ylipaää,
153371,FI,13,Oinola,
153372,FI,13,Salonsaari,
153373,FI,13,Akkijärvi,
153374,FI,13,Ryttylä,
153375,FI,15,Katariina,
153376,FI,8,Säräisniemi,
153377,FI,13,Ruissalo,
153378,FI,8,Pulkkila,
153379,FI,15,Haarla,
153380,FI,15,Visuvesi,
153381,FI,15,Kasnäs,
153382,FI,15,Tapala,
153383,FI,15,Elmdal,
153384,FI,15,Kerkola,
153385,FI,15,Yliluoma,
153386,FI,15,Kodisjoki,
153387,FI,13,Pohja,
153388,FI,14,Suhmura,
153389,FI,14,Pietarila,
153390,FI,13,Degerby,
153391,FI,14,Toiviaiskylä,
153392,FI,13,Paippinen,
153393,FI,13,Andby,
153394,FI,13,Tähtelä,
153395,FI,13,Perttula,
153396,FI,15,Päntäne,
153397,FI,13,Koitsanlahti,
153398,FI,13,Kaamanniemi,
153399,FI,8,Leskelä,
153400,FI,6,Unari,
153401,FI,6,Mourujärvi,
153402,FI,15,Kojonkulma,
153403,FI,13,Sarkalahti,
153404,FI,14,Kylmämäki,
153405,FI,14,Rantala,
153406,FI,15,Koskenpää,
153407,FI,14,Niemisjärvi,
153408,FI,15,Haapamäki,
153409,FI,13,Otamo,
153410,FI,13,Järvelä,
153411,FI,14,Niittylahti,
153412,FI,14,Viinijärvi,
153413,FI,15,Tortinmäki,
153414,FI,15,Kiikka,
153415,FI,13,Minkiö,
153416,FI,15,Tohkala,
153417,FI,15,Mouhijärvi,
153418,FI,15,Kaurajärvi,
153419,FI,15,Kaidankylä,
153420,FI,15,Taklax,
153421,FI,15,Tainus,
153422,FI,15,Sipilä,
153423,FI,15,Ikola,
153424,FI,13,Pukinmäki,
153425,FI,6,Tervola,
153426,FI,8,Temmes,
153427,FI,15,Hakkaraniemi,
153428,FI,14,Pulkkila,
153429,FI,14,Jäppilä,
153430,FI,14,Tihvinmäki,
153431,FI,13,Åminnefors,
153432,FI,14,Louhi,
153433,FI,15,Kahloinen,
153434,FI,13,Masaby,
153435,FI,13,Marttila,
153436,FI,13,Lalli,
153437,FI,15,Hevonpää,
153438,FI,15,Prunkila,
153439,FI,13,Skuru,
153440,FI,13,Tiilää,
153441,FI,14,Kangasniemi,
153442,FI,14,Karankamäki,
153443,FI,15,Tupurla,
153444,FI,8,Törmä,
153445,FI,6,Meltaus,
153446,FI,6,Alapaakkola,
153447,FI,15,Hag,
153448,FI,15,Komsi,
153449,FI,15,Leppälä,
153450,FI,14,Kerkonjoensuu,
153451,FI,13,Mankala,
153452,FI,15,Lemu,
153453,FI,15,Otsola,
153454,FI,15,Kalmavirta,
153455,FI,15,Moksi,
153456,FI,14,Vie'insuu,
153457,FI,6,Jokela,
153458,FI,6,Vuolli,
153459,FI,6,Lampsijärvi,
153460,FI,8,Siipo,
153461,FI,15,Päijälä,
153462,FI,13,Pernå,
153463,FI,15,Voiluoto,
153464,FI,15,Hirvikylä,
153465,FI,15,Tiistenjoki,
153466,FI,15,Krokfors,
153467,FI,15,Pernu,
153468,FI,8,Uhkola,
153469,FI,8,Martinvaara,
153470,FI,8,Kelo,
153471,FI,15,Sammalo,
153472,FI,15,Kiikala,
153473,FI,15,Roismala,
153474,FI,15,Haukkamaa,
153475,FI,15,Kotala,
153476,FI,15,Lapinneva,
153477,FI,14,Juurikka,
153478,FI,14,Hammaslahti,
153479,FI,15,Kuohu,
153480,FI,6,Ylikärppä,
153481,FI,14,Juva,
153482,FI,14,Vaaraniemi,
153483,FI,14,Rontsa,
153484,FI,14,Kovero,
153485,FI,14,Leivola,
153486,FI,14,Viitalahti,
153487,FI,14,Tommonmäki,
153488,FI,15,Leppälahti,
153489,FI,13,Huhdasjärvi,
153490,FI,13,Pyterlahti,
153491,FI,14,Puumala,
153492,FI,14,Pääskynniemi,
153493,FI,14,Salokylä,
153494,FI,8,Olhava,
153495,FI,6,Leppäjärvi,
153496,FI,15,Metsäkansa,
153497,FI,15,Lakaniemi,
153498,FI,15,Bäcksbacka,
153499,FI,15,Savonkylä,
153500,FI,6,Jokikylä,
153501,FI,6,Orajärvi,
153502,FI,15,Savikoski,
153503,FI,14,Vanhamäki,
153504,FI,14,Tervo,
153505,FI,14,Pulkonkoski,
153506,FI,14,Kuuslahti,
153507,FI,14,Alasiikajärvi,
153508,FI,8,Kulju,
153509,FI,15,Vesanka,
153510,FI,13,Koisjärvi,
153511,FI,13,Nukari,
153512,FI,15,Oravainen,
153513,FI,13,Sajaniemi,
153514,FI,13,Illby,
153515,FI,14,Taipale,
153516,FI,14,Säyneinen,
153517,FI,14,Pieksänkoski,
153518,FI,15,Viljamaa,
153519,FI,15,Karhunmäki,
153520,FI,15,Vahterus,
153521,FI,13,Kuivanto,
153522,FI,8,Käpylä,
153523,FI,8,Vesala,
153524,FI,14,Mäntylä,
153525,FI,8,Lehto,
153526,FI,8,Peranka,
153527,FI,15,Björkboda,
153528,FI,8,Ainali,
153529,FI,15,Peltmo,
153530,FI,1,Sund,
153531,FI,13,Skinnarby,
153532,FI,13,Haukisaari,
153533,FI,6,Patokoski,
153534,FI,13,Viuhkola,
153535,FI,14,Suomenjoki,
153536,FI,13,Sokura,
153537,FI,15,Puttoskylä,
153538,FI,15,Rautajärvi,
153539,FI,15,Kolinummi,
153540,FI,13,Onkimaa,
153541,FI,13,Vainikkala,
153542,FI,14,Lahnaniemi,
153543,FI,15,Finholm,
153544,FI,15,Luoto,
153545,FI,15,Särkimäki,
153546,FI,13,Skarpkulla,
153547,FI,14,Viitaniemi,
153548,FI,15,Tarvaala,
153549,FI,6,Liedakkala,
153550,FI,6,Kiurujärvi,
153551,FI,6,Aavasaksa,
153552,FI,6,Kenttämaa,
153553,FI,13,Savero,
153554,FI,13,Korpijärvi,
153555,FI,8,Torikylä,
153556,FI,15,Määttälä,
153557,FI,15,Köykölä,
153558,FI,15,Klapuri,
153559,FI,15,Rosala,
153560,FI,14,Rastinniemi,
153561,FI,14,Paukkaja,
153562,FI,14,Hirvimäki,
153563,FI,15,Keskusoja,
153564,FI,15,Jyväskylän Maalaiskunta,
153565,FI,15,Kortela,
153566,FI,6,Nunnanen,
153567,FI,14,Rasivaara,
153568,FI,13,Ruuhijärvi,
153569,FI,8,Antinkangas,
153570,FI,15,Silva,
153571,FI,15,Terälahti,
153572,FI,15,Heräjärvi,
153573,FI,15,Pojanluoma,
153574,FI,13,Hirsala,
153575,FI,15,Keikyä,
153576,FI,14,Eno,
153577,FI,13,Nuoramoinen,
153578,FI,14,Ruutana,
153579,FI,13,Kylmälä,
153580,FI,15,Ylimaa,
153581,FI,13,Miettilä,
153582,FI,13,Keskinen,
153583,FI,14,Kokka-aho,
153584,FI,15,Mieskonmäki,
153585,FI,14,Itälahti,
153586,FI,14,Vuonislahti,
153587,FI,13,Vesivehmaa,
153588,FI,15,Kitunen,
153589,FI,15,Sane,
153590,FI,15,Kinnula,
153591,FI,15,Töyriniemi,
153592,FI,15,Hankrinmäki,
153593,FI,15,Rekijoki,
153594,FI,15,Hytölä,
153595,FI,15,Lannevesi,
153596,FI,6,Törmänen,
153597,FI,15,Tohni,
153598,FI,15,Joenperä,
153599,FI,15,Högkulla,
153600,FI,13,Kymentaka,
153601,FI,13,Sairaalamäki,
153602,FI,13,Pyötsiä,
153603,FI,15,Lempää,
153604,FI,15,Putkilahti,
153605,FI,8,Kuikka,
153606,FI,6,Saija,
153607,FI,6,Tanhua,
153608,FI,15,Gottböle,
153609,FI,13,Syrjäntaka,
153610,FI,15,Otamoinen,
153611,FI,15,Sallittu,
153612,FI,15,Tuomikylä,
153613,FI,15,Reipelt,
153614,FI,15,Karhunkylä,
153615,FI,15,Ruha,
153616,FI,15,Lakaluoma,
153617,FI,15,Orismalan Kyla,
153618,FI,15,Iskmo,
153619,FI,15,Ruotsalo,
153620,FI,8,Kähtävä,
153621,FI,8,Suovaara,
153622,FI,8,Vieksi,
153623,FI,14,Malkkila,
153624,FI,14,Ukonlahti,
153625,FI,14,Haapamäki,
153626,FI,15,Hakola,
153627,FI,15,Lammi,
153628,FI,15,Seksjärvi,
153629,FI,6,Vojakkala,
153630,FI,15,Korppinen,
153631,FI,14,Maaninka,
153632,FI,15,Haaramäki,
153633,FI,6,Muurola,
153634,FI,1,Saltvik,
153635,FI,15,Hoisko,
153636,FI,15,Björknäs,
153637,FI,8,Vasaraperä,
153638,FI,15,Ratsula,
153639,FI,13,Isnäs,
153640,FI,15,Kurejoki,
153641,FI,13,Tuomarinkylä,
153642,FI,13,Vanhala,
153643,FI,15,Myrkky,
153644,FI,13,Maaskola,
153645,FI,14,Romppala,
153646,FI,13,Kärkölä,
153647,FI,13,Verla,
153648,FI,13,Lyöttilä,
153649,FI,15,Murtoinen,
153650,FI,15,Ahola,
153651,FI,15,Marjotaipale,
153652,FI,14,Patajärvi,
153653,FI,14,Honkamäki,
153654,FI,15,Piuha,
153655,FI,8,Karsikas,
153656,FI,15,Marinkainen,
153657,FI,13,Karhi,
153658,FI,14,Kumpuranta,
153659,FI,15,Mathildedal,
153660,FI,15,Angelniemi,
153661,FI,13,Sorsala,
153662,FI,13,Botböle,
153663,FI,15,Mahlu,
153664,FI,15,Alikylä,
153665,FI,8,Käylä,
153666,FI,13,Kelvelä,
153667,FI,13,Välijoki,
153668,FI,13,Heituinlahti,
153669,FI,8,Paiusalmi,
153670,FI,14,Kuusijärvi,
153671,FI,14,Pihlajavaara,
153672,FI,6,Aapajärven Asutusalue,
153673,FI,13,Anttila,
153674,FI,15,Bäckby,
153675,FI,13,Letku,
153676,FI,15,Vuolet,
153677,FI,15,Alaveteli,
153678,FI,14,Mätäsvaara,
153679,FI,8,Matolehto,
153680,FI,15,Hitola,
153681,FI,15,Liedenpohja,
153682,FI,14,Haukivaara,
153683,FI,14,Susiaho,
153684,FI,6,Ratasjoki,
153685,FI,6,Saukkojärvi,
153686,FI,15,Överpurmo,
153687,FI,14,Ripatti,
153688,FI,14,Sarvinki,
153689,FI,13,Maajoki,
153690,FI,15,Sissala,
153691,FI,13,Suur-miehikkälä,
153692,FI,13,Bromarv,
153693,FI,15,Kovanen,
153694,FI,8,Kellari,
153695,FI,8,Hietala,
153696,FI,15,Järviskylä,
153697,FI,14,Haapasalmi,
153698,FI,13,Gästersjö,
153699,FI,15,Mietoinen,
153700,FI,13,Paimela,
153701,FI,6,Lohiniva,
153702,FI,15,Viita-aho,
153703,FI,8,Hetejärvi,
153704,FI,15,Varrasperä,
153705,FI,8,Kivolä,
153706,FI,14,Nerkoo,
153707,FI,15,Kuivasjärvi,
153708,FI,15,Hemminki,
153709,FI,15,Kovelahti,
153710,FI,15,Leppälänkylä,
153711,FI,15,Stubbhagen,
153712,FI,15,Housu,
153713,FI,15,Vuorilahti,
153714,FI,13,Kälviälä,
153715,FI,14,Mekkola,
153716,FI,15,Uitto,
153717,FI,15,Vasikka-aho,
153718,FI,13,Ylä-pihlaja,
153719,FI,15,Långback,
153720,FI,6,Kairala,
153721,FI,13,Saari,
153722,FI,15,Söderholmen,
153723,FI,8,Romppaala,
153724,FI,8,Hakola,
153725,FI,13,Alvettula,
153726,FI,15,Pohjaslahti,
153727,FI,14,Kontiovaara,
153728,FI,14,Viuruniemi,
153729,FI,14,Laukansalo,
153730,FI,14,Onkilahti,
153731,FI,15,Paijula,
153732,FI,14,Maljala,
153733,FI,13,Pyhtää,
153734,FI,13,Broby,
153735,FI,8,Marjaniemi,
153736,FI,6,Hosio,
153737,FI,6,Leväaapa,
153738,FI,15,Sotkia,
153739,FI,14,Someenjärvi,
153740,FI,14,Siikajärvi,
153741,FI,13,Sjundeå,
153742,FI,14,Vaaraslahti,
153743,FI,8,Eskola,
153744,FI,8,Rasi,
153745,FI,15,Mjösund,
153746,FI,15,Vaskivesi,
153747,FI,13,Niinikoski,
153748,FI,15,Forsby,
153749,FI,13,Somerharju,
153750,FI,8,Aittovaara,
153751,FI,6,Vuojärvi,
153752,FI,15,Kattilakoski,
153753,FI,6,Lepistö,
153754,FI,13,Tuorila,
153755,FI,6,Huhtala,
153756,FI,8,Selkäsenkylä,
153757,FI,15,Taatila,
153758,FI,13,Ahvenkoski,
153759,FI,15,Tastula,
153760,FI,15,Kalljärvi,
153761,FI,14,Vuokala,
153762,FI,14,Joutsensalmi,
153763,FI,13,Tainio,
153764,FI,15,Syväjärvi,
153765,FI,15,Komossa,
153766,FI,8,Kemppaala,
153767,FI,15,Parkkuu,
153768,FI,8,Vasikkavaara,
153769,FI,14,Lohiniemi,
153770,FI,6,Karjalaisenniemi,
153771,FI,14,Närhilä,
153772,FI,13,Reuna,
153773,FI,15,Östanå,
153774,FI,14,Jamali,
153775,FI,13,Tenala,
153776,FI,14,Kuorevaara,
153777,FI,14,Onttola,
153778,FI,8,Heinävaara,
153779,FI,14,Pyhäselkä,
153780,FI,14,Pöljä,
153781,FI,14,Jakokoski,
153782,FI,14,Tuusmäki,
153783,FI,13,Virenoja,
153784,FI,15,Kuoppa,
153785,FI,13,Valkom,
153786,FI,13,Täkter,
153787,FI,15,Lielax,
153788,FI,1,Lumparland,
153789,FI,1,Tjudö,
153790,FI,15,Pirttikylä,
153791,FI,13,Husula,
153792,FI,6,Kätkäsuvanto,
153793,FI,6,Lappeakoski,
153794,FI,13,Pohjois-haaga,
153795,FI,13,Nahkela,
153796,FI,14,Majavesi,
153797,FI,6,Itäkoski,
153798,FI,13,Ummeljoki,
153799,FI,14,Martonvaara,
153800,FI,13,Purola,
153801,FI,13,Asikkala,
153802,FI,13,Sahakylä,
153803,FI,13,Mallusjoki,
153804,FI,13,Mertie,
153805,FI,13,Heinämaa,
153806,FI,15,Riitiälä,
153807,FI,13,Savijoki,
153808,FI,13,Lindkoski,
153809,FI,13,Huruksela,
153810,FI,13,Huutjärvi,
153811,FI,13,Sammatti,
153812,FI,13,Antskog,
153813,FI,14,Simanala,
153814,FI,13,Kuggom,
153815,FI,15,Hajala,
153816,FI,15,Häntälä,
153817,FI,13,Vähikkälä,
153818,FI,13,Klamila,
153819,FI,14,Timola,
153820,FI,6,Lohijärvi,
153821,FI,13,Metsälä,
153822,FI,15,Kainasto,
153823,FI,15,Killinkoski,
153824,FI,15,Veikkaala,
153825,FI,15,Petsmo,
153826,FI,15,Bergö,
153827,FI,15,Vallgrund,
153828,FI,15,Voltti,
153829,FI,15,Öja,
153830,FI,8,Matkaniva,
153831,FI,8,Mieluskylä,
153832,FI,8,Piehinki,
153833,FI,8,Saloinen,
153834,FI,8,Olkijoki,
153835,FI,8,Typpö,
153836,FI,8,Varjakka,
153837,FI,15,Vasarainen,
153838,FI,15,Pinsiö,
153839,FI,14,Sarvikumpu,
153840,FI,13,Villala,
153841,FI,15,Lappi,
153842,FI,15,Lapijoki,
153843,FI,15,Puutikkala,
153844,FI,13,Nihattula,
153845,FI,13,Alakylä,
153846,FI,15,Kärjenniemi,
153847,FI,15,Norinkylä,
153848,FI,15,Alvajärvi,
153849,FI,15,Konginkangas,
153850,FI,14,Rahula,
153851,FI,14,Virtasalmi,
153852,FI,14,Hirvilahti,
153853,FI,15,Korkeakoski,
153854,FI,13,Evo,
153855,FI,14,Kauppilanmäki,
153856,FI,14,Räsälä,
153857,FI,14,Käärmelahti,
153858,FI,13,Kaukalampi,
153859,FI,15,Karuna,
153860,FI,13,Paipis,
153861,FI,13,Onkiniemi,
153862,FI,8,Hyryaja,
153863,FI,15,Maalahti,
153864,FI,14,Nurmaa,
153865,FI,15,Löyvä,
153866,FI,15,Vesikoski,
153867,FI,15,Riukula,
153868,FI,15,Myllykoski,
153869,FI,15,Maijala,
153870,FI,15,Ruto,
153871,FI,13,Länsikylä,
153872,FI,8,Koskenmäki,
153873,FI,13,Dickursby,
153874,FI,13,Upinniemi,
153875,FI,6,Onkamojärvi,
153876,FI,15,Nopankylä,
153877,FI,15,Sahloinen,
153878,FI,15,Saustila,
153879,FI,15,Kuivaskylä,
153880,FI,8,Häyrynen,
153881,FI,13,Otaniemi,
153882,FI,8,Lukkaroinen,
153883,FI,13,Vaarala,
153884,FI,8,Koskela,
153885,FI,15,Itä-aure,
153886,FI,15,Muurasjärvi,
153887,FI,15,Niinilahti,
153888,FI,13,Torppi,
153889,FI,15,Röölä,
153890,FI,13,Hausjärvi,
153891,FI,13,Gammelbacka,
153892,FI,14,Kerisalo,
153893,FI,6,Ylipaakkola,
153894,FI,15,Rimito,
153895,FI,15,Harjunpää,
153896,FI,15,Replot,
153897,FI,15,Vassor,
153898,FI,15,Norra Vallgrund,
153899,FI,15,Björköby,
153900,FI,15,Kalakoski,
153901,FI,15,Pernaa,
153902,FI,15,Hormisto,
153903,FI,13,Salokylä,
153904,FI,14,Kinahmo,
153905,FI,13,Hakkila,
153906,FI,14,Leinolanlahti,
153907,FI,15,Hirsilä,
153908,FI,1,Enklinge,
153909,FI,8,Sanginkylä,
153910,FI,14,Uusi-värtsilä,
153911,FI,15,Kulovesi,
153912,FI,13,Pockar,
153913,FI,8,Vaaranniva,
153914,FI,13,Hostikka,
153915,FI,15,Runko,
153916,FI,6,Isokylä,
153917,FI,15,Räihä,
153918,FI,15,Reila,
153919,FI,13,Sivatti,
153920,FI,14,Sukeva,
153921,FI,15,Suodenniemi,
153922,FI,15,Nämpnäs,
153923,FI,13,Millola,
153924,FI,6,Pekanpää,
153925,FI,15,Ahlainen,
153926,FI,15,Huissi,
153927,FI,8,Alpua,
153928,FI,8,Iinattijärvi,
153929,FI,8,Oijärvi,
153930,FI,15,Hirsjärvi,
153931,FI,13,Kirjavala,
153932,FI,15,Oravasaari,
153933,FI,8,Aska,
153934,FI,15,Kilvakkala,
153935,FI,8,Lehtola,
153936,FI,14,Luusniemi,
153937,FI,14,Hurissalo,
153938,FI,15,Jukaja,
153939,FI,15,Putto,
153940,FI,15,Skaftung,
153941,FI,14,Jännevirta,
153942,FI,13,Tessjö,
153943,FI,14,Kaihlamäki,
153944,FI,13,Tavastila,
153945,FI,15,Västerhankmo,
153946,FI,6,Alaniemi,
153947,FI,13,Hirvihaara,
153948,FI,15,Komi,
153949,FI,13,Moksi,
153950,FI,15,Katajamäki,
153951,FI,13,Malminkartano,
153952,FI,13,Roihuvuori,
153953,FI,13,Westend,
153954,FI,15,Nuutajärvi,
153955,FI,15,Tuisku,
153956,FI,15,Poikelus,
153957,FI,13,Liikola,
153958,FI,13,Nummijärvi,
153959,FI,15,Lielahti,
153960,FI,13,Sääksjärvi,
153961,FI,14,Remeskylä,
153962,FI,13,Kimonkyla,
153963,FI,13,Svartå,
153964,FI,13,Solberg,
153965,FI,13,Pellinge,
153966,FI,13,Hytti,
153967,FI,15,Poikko,
153968,FI,8,Jurmu,
153969,FI,15,Kolla,
153970,FI,15,Orismala,
153971,FI,8,Lapaluoto,
153972,FI,8,Halosenniemi,
153973,FI,13,Voolahti,
153974,FI,15,Ylönkylä,
153975,FI,15,Terttilä,
153976,FI,15,Livonsaari,
153977,FI,14,Siikamäki,
153978,FI,14,Kinnulanlahti,
153979,FI,13,Luoma,
153980,FI,13,Kannusjärvi,
153981,FI,15,Menkijärvi,
153982,FI,14,Viljolahti,
153983,FI,15,Talviainen,
153984,FI,15,Urjalankylä,
153985,FI,8,Hiisijärvi,
153986,FI,13,Ruotsinkylä,
153987,FI,8,Perälä,
153988,FI,15,Rutava,
153989,FI,13,Pukaro,
153990,FI,15,Illo,
153991,FI,15,Markkula,
153992,FI,14,Kolkontaipale,
153993,FI,13,Vålax,
153994,FI,15,Askainen,
153995,FI,15,Södra Vallgrund,
153996,FI,15,Luopajärvi,
153997,FI,8,Lampinsaari,
153998,FI,1,Seglinge,
153999,FI,15,Ilvesjoki,
154000,FI,13,Torvoila,
154001,FI,13,Kormu,
154002,FI,6,Pohjasperä,
154003,FI,13,Huuvari,
154004,FI,15,Venekoski,
154005,FI,15,Juupajoki,
154006,FI,6,Maula,
154007,FI,13,Kaitainen,
154008,FI,15,Tölby,
154009,FI,6,Närkki,
154010,FI,14,Telakanava,
154011,FI,15,Keljonkangas,
154012,FI,15,Kuokkala,
154013,FI,15,Kiili,
154014,FI,15,Karppala,
154015,FI,13,Mommila,
154016,FI,8,Sotkajärvi,
154017,FI,8,Kipinä,
154018,FI,8,Luohua,
154019,FI,14,Halkokumpu,
154020,FI,15,Kanteenmaa,
154021,FI,14,Välimäki,
154022,FI,15,Kuru,
154023,FI,14,Huhtilampi,
154024,FI,14,Ahonkylä,
154025,FI,13,Valittula,
154026,FI,15,Kalaniemi,
154027,FI,8,Hiidenniemi,
154028,FI,15,Pensala,
154029,FI,14,Niemiskylä,
154030,FI,13,Kalkkinen,
154031,FI,15,Kyrö,
154032,FI,15,Narva,
154033,FI,15,Marttila,
154034,FI,13,Kimola,
154035,FI,15,Kantti,
154036,FI,15,Virmo,
154037,FI,13,Fagervik,
154038,FI,15,Nederlappfors,
154039,FI,14,Talluskylä,
154040,FI,15,Nivelax,
154041,FI,14,Villala,
154042,FI,15,Pihlaisto,
154043,FI,14,Kankainen,
154044,FI,14,Roukalahti,
154045,FI,15,Eräjärvi,
154046,FI,6,Ylimuonio,
154047,FI,13,Uusitalo,
154048,FI,13,Raseborg,
154049,FI,15,Iltasmäki,
154050,FI,15,Korsnäs,
154051,FI,14,Sulkava,
154052,FI,15,Koski,
154053,FI,14,Kivelä,
154054,FI,15,Kaukonen,
154055,FI,14,Paakkila,
154056,FI,14,Längelmäki,
154057,FI,14,Nieminen,
154058,FI,14,Kotalahti,
154059,FI,15,Haapaniemi,
154060,FI,15,Peltola,
154061,FI,15,Rantala,
154062,FI,14,Ukkola,
154063,FI,13,Mäkelä,
154064,FI,14,Tikkala,
154065,FI,8,Laurila,
154066,FI,15,Itäharju,
154067,FI,13,Haikala,
154068,FI,14,Kiteenlahti,
154069,FI,15,Kallträsk,
154070,FI,13,Harju,
154071,FI,13,Mickelspiltom,
154072,FI,14,Kaatamo,
154073,FI,8,Tuomioja,
154074,FI,13,Storpellinge,
154075,FI,15,Sara,
154076,FI,15,Kuusisto,
154077,FI,15,Tjöck,
154078,FI,15,Kylänpää,
154079,FI,8,Vatjusjärvi,
154080,FI,8,Linnantaus,
154081,FI,13,Lappvik,
154082,FI,15,Halkivaha,
154083,FI,15,Jäminkipohja,
154084,FI,13,Villikkala,
154085,FI,14,Niinivaara,
154086,FI,14,Kokonvaara,
154087,FI,13,Västerby,
154088,FI,14,Vuoriniemi,
154089,FI,14,Koitti,
154090,FI,15,Liimattala,
154091,FI,6,Vuotso,
154092,FI,13,Maakeski,
154093,FI,15,Ylhäinen,
154094,FI,13,Paaso,
154095,FI,15,Koskue,
154096,FI,15,Juokslahti,
154097,FI,15,Tottijärvi,
154098,FI,15,Ylivalli,
154099,FI,15,Luopa,
154100,FI,14,Kallislahti,
154101,FI,15,Kaivanto,
154102,FI,13,Epoo,
154103,FI,15,Ristakallio,
154104,FI,14,Horsmanaho,
154105,FI,13,Turkhauta,
154106,FI,15,Nerkoo,
154107,FI,13,Oitbacka,
154108,FI,13,Lappböle,
154109,FI,14,Säviä,
154110,FI,15,Koskö,
154111,FI,15,Ylä-kintaus,
154112,FI,1,Karlby,
154113,FI,15,Ritvala,
154114,FI,13,Havukoski,
154115,FI,13,Hindhår,
154116,FI,15,Vanttila,
154117,FI,15,Krääkkiö,
154118,FI,14,Sola,
154119,FI,15,Auranlaakso,
154120,FI,8,Koivula,
154121,FI,15,Varissuo,
154122,FI,15,Halinen,
154123,FI,15,Lauste,
154124,FI,15,Runosmäki,
154125,FI,15,Tennby,
154126,FI,15,Pansio,
154127,FI,13,Luotola,
154128,FI,13,Jäniksenlinna,
154129,FI,13,Tuohikotti,
154130,FI,15,Oravaisfabrik,
154131,FI,14,Nuutilanmäki,
154132,FI,13,Mäntlahti,
154133,FI,15,Pörtom,
154134,FI,15,Harrström,
154135,FI,15,Tuorila,
154136,FI,15,Reku,
154137,FI,15,Jakkula,
154138,FI,6,Onnela,
154139,FI,15,Björn,
154140,FI,13,Ihalainen,
154141,FI,13,Huuhtanen,
154142,FI,8,Kaskela,
154143,FI,15,Santtio,
154144,FI,15,Kolkki,
154145,FI,15,Svarvar,
154146,FI,13,Teuro,
154147,FI,15,Salokunta,
154148,FI,15,Kuolimaa,
154149,FI,8,Jakkukylä,
154150,FI,13,Haapakimola,
154151,FI,15,Houtskär,
154152,FI,15,Kauhajärvi,
154153,FI,13,Leppäkorpi,
154154,FI,13,Raasepori,
154155,FI,13,Topeno,
154156,FI,13,Sundsberg,
154157,FI,14,Pajulahti,
154158,FI,14,Vuonisjärvi,
154159,FI,13,Häkälä,
154160,FI,8,Pyörälä,
154161,FI,13,Värälä,
154162,FI,8,Lapinniemi,
154163,FI,14,Kuusjärvi,
154164,FI,6,Kirkonmäki,
154165,FI,6,Kivitaipale,
154166,FI,8,Maliskylä,
154167,FI,15,Taivalmaa,
154168,FI,13,Martinlaakso,
154169,FI,14,Vihtari,
154170,FI,13,Onkamaa,
154171,FI,14,Maukkula,
154172,FI,14,Ahmovaara,
154173,FI,13,Pilpala,
154174,FI,8,Saaresmäki,
154175,FI,13,Hakunila,
154176,FI,14,Vaajasalmi,
154177,FI,8,Tannila,
154178,FI,8,Suutari,
154179,FI,15,Koivulehto,
154180,FI,13,Hangonkylä,
154181,FI,15,Rönny,
154182,FI,13,Hietana,
154183,FI,14,Kuismavaara,
154184,FI,14,Mönni,
154185,FI,13,Tirva,
154186,FI,15,Lauhala,
154187,FI,15,Ekola,
154188,FI,14,Norola,
154189,FI,13,Kotimäki,
154190,FI,14,Utra,
154191,FI,14,Hangastenmaa,
154192,FI,15,Huhta,
154193,FI,15,Rautila,
154194,FI,13,Kankainen,
154195,FI,13,Anjala,
154196,FI,13,Jokiniemi,
154197,FI,14,Onkamo,
154198,FI,13,Pakaa,
154199,FI,15,Kalax,
154200,FI,15,Förby,
154201,FI,15,Raatala,
154202,FI,13,Bollstad,
154203,FI,14,Tienhaara,
154204,FI,15,Sundholm,
154205,FI,15,Kuva,
154206,FI,13,Mankkaa,
154207,FI,13,Lintuvaara,
154208,FI,13,Imatrankoski,
154209,FI,15,Nikula,
154210,FI,14,Luhtapohja,
154211,FI,13,Viitaila,
154212,FI,15,Lahti,
154213,FI,8,Tyrövaara,
154214,FI,15,Ruona,
154215,FI,15,Sääksvesi,
154216,FI,13,Kuninkaankylä,
154217,FI,14,Horontaipale,
154218,FI,13,Tuusjärvi,
154219,FI,15,Köörtilä,
154220,FI,15,Lavajärvi,
154221,FI,15,Vermuntila,
154222,FI,13,Laikko,
154223,FI,6,Kaaresuvanto,
154224,FI,15,Töjby,
154225,FI,15,Dragnäsbäck,
154226,FI,13,Paijärvi,
154227,FI,15,Maksamaa,
154228,FI,14,Tuovilanlahti,
154229,FI,13,Tammiston,
154230,FI,15,Kärilä,
154231,FI,15,Perä,
154232,FI,15,Leppänen,
154233,FI,15,Kekkonen,
154234,FI,14,Pankajärvi,
154235,FI,15,Rutalahti,
154236,FI,14,Lauteala,
154237,FI,15,Mantila,
154238,FI,13,Raussila,
154239,FI,15,Haanpää,
154240,FI,15,Murole,
154241,FI,14,Säimen,
154242,FI,13,Säkäjärvi,
154243,FI,13,Saarentaus,
154244,FI,13,Nikkilä,
154245,FI,15,Velaatta,
154246,FI,15,Kuhmalahti,
154247,FI,13,Taktum,
154248,FI,13,Hiekkaharju,
154249,FI,8,Laajalahti,
154250,FI,8,Koivukylä,
154251,FI,8,Kurtti,
154252,FI,15,Metsämaa,
154253,FI,13,Kurjala,
154254,FI,15,Vihteljärvi,
154255,FI,15,Pietasaari,
154256,FI,13,Päivölä,
154257,FI,14,Revonkylä,
154258,FI,15,Jumesniemi,
154259,FI,13,Aro,
154260,FI,13,Hara,
154261,FI,14,Hatsola,
154262,FI,8,Kivesjärvi,
154263,FI,15,Tiukka,
154264,FI,14,Heinoniemi,
154265,FI,13,Mörskom,
154266,FI,15,Suomijärvi,
154267,FI,14,Tornio,
154268,FI,13,Härkäpää,
154269,FI,14,Tuusjärvi,
154270,FI,14,Koikkala,
154271,FI,15,Kolari,
154272,FI,15,Vestlax,
154273,FI,14,Karvila,
154274,FI,15,Honkilahti,
154275,FI,13,Susikas,
154276,FI,15,Kuikka,
154277,FI,14,Laukkala,
154278,FI,14,Konnuslahti,
154279,FI,15,Ömossa,
154280,FI,13,Siikava,
154281,FI,15,Vreta,
154282,FI,13,Nyystölä,
154283,FI,8,Alatemmes,
154284,FI,13,Kalso,
154285,FI,15,Sorvari,
154286,FI,15,Luode,
154287,FI,15,Lillby,
154288,FI,13,Keltakangas,
154289,FI,15,Lillandet,
154290,FI,15,Tunkkari,
154291,FI,15,Leväsjoki,
154292,FI,13,Routio,
154293,FI,14,Karhunpää,
154294,FI,15,Kolkanlahti,
154295,FI,13,Bromarf,
154296,FI,15,Möksy,
154297,FI,8,Pateniemi,
154298,FI,8,Toppila,
154299,FI,15,Niemenmaa,
154300,FI,6,Polska,
154301,FI,13,Varisto,
154302,FI,14,Murtola,
154303,FI,14,Vapaakirkko,
154304,FI,15,Suvilahti,
154305,FI,14,Katajaranta,
154306,FI,8,Jyrinki,
154307,FI,13,Heikinkylä,
154308,FI,15,Oksakoski,
154309,FI,15,Pietarsari,
154310,FI,14,Vuojalahti,
154311,FI,14,Tavinsalmi,
154312,FI,15,Pohja,
154313,FI,13,Fiskari,
154314,FI,15,Sammi,
154315,FI,6,Mellakoski,
154316,FI,15,Pispala,
154317,FI,13,Lappträsk,
154318,FI,15,Kärväsjärvi,
154319,FI,13,Kyläniemi,
154320,FI,15,Iniö,
154321,FI,15,Tuunajärvi,
154322,FI,14,Risulahti,
154323,FI,13,Korso,
154324,FI,6,Sirkkakoski,
154325,FI,13,Kankkila,
154326,FI,14,Hamula,
154327,FI,15,Puukkoinen,
154328,FI,15,Kodesjärvi,
154329,FI,8,Leppiniemi,
154330,FI,15,Ylöpirtti,
154331,FI,14,Ruhvana,
154332,FI,14,Puhos,
154333,FI,14,Haapakoski,
154334,FI,15,Mahnala,
154335,FI,15,Lähde,
154336,FI,15,Tuulia,
154337,FI,13,Vanaja,
154338,FI,15,Perälä,
154339,FI,8,Melalahti,
154340,FI,15,Istunmäki,
154341,FI,15,Irjanne,
154342,FI,15,Vihijärvi,
154343,FI,14,Narila,
154344,FI,15,Harmoinen,
154345,FI,15,Kyynämöinen,
154346,FI,14,Vuorenmaa,
154347,FI,13,Bobäck,
154348,FI,15,Alavalli,
154349,FI,6,Lankojärvi,
154350,FI,13,Viiri,
154351,FI,15,Lassila,
154352,FI,6,Pasmajärvi,
154353,FI,15,Haapaluoma,
154354,FI,15,Sampu,
154355,FI,13,Pellinki,
154356,FI,6,Vuontisjärvi,
154357,FI,14,Lihavanpää,
154358,FI,15,Nummijärvi,
154359,FI,15,Kärjenkoski,
154360,FI,8,Karinkanta,
154361,FI,14,Hoilola,
154362,FI,15,Tuckur,
154363,FI,15,Lahnajarvi,
154364,FI,13,Hännilä,
154365,FI,13,Ruotila,
154366,FI,15,Kuohijoki,
154367,FI,13,Svartså,
154368,FI,13,Nikinmäki,
154369,FI,14,Ruvaslahti,
154370,FI,15,Stormi,
154371,FI,15,Kiminki,
154372,FI,15,Kuvaskangas,
154373,FI,13,Mynterilä,
154374,FI,13,Österby,
154375,FI,13,Kronohagen,
154376,FI,13,Majstad,
154377,FI,15,Kymönkoski,
154378,FI,15,Mustajärvi,
154379,FI,14,Tolosenmäki,
154380,FI,13,Liikkala,
154381,FI,13,Suolahti,
154382,FI,8,Pintamo,
154383,FI,15,Helsinki,
154384,FI,15,Aarikkala,
154385,FI,15,Koro,
154386,FI,14,Oravisalo,
154387,FI,13,Ahvio,
154388,FI,13,Äitsaari,
154389,FI,14,Pieksä,
154390,FI,13,Brobacka,
154391,FI,13,Kvarnby,
154392,FI,13,Backa,
154393,FI,13,Reitkalli,
154394,FI,13,Gamlas,
154395,FI,13,Laajalahti,
154396,FI,13,Helgträsk,
154397,FI,13,Kuovila,
154398,FI,13,Sierla,
154399,FI,13,Tiirismaa,
154400,FI,13,Hevonselkä,
154401,FI,15,Luhta,
154402,FI,15,Slussnäs,
154403,FI,15,Näsebacka,
154404,FI,13,Kaitaa,
154405,FI,13,Jupperi,
154406,FI,13,Vaakkola,
154407,FI,15,Västersolf,
154408,FI,15,Jokisalo,
154409,FI,15,Soukkajoki,
154410,FI,15,Yli-knuuttila,
154411,FI,15,Pajunen,
154412,FI,13,Kauhala,
154413,FI,13,Pitkäniitty,
154414,FI,13,Junkkarinkylä,
154415,FI,14,Aatola,
154416,FI,15,Ribacka,
154417,FI,15,Keskinen,
154418,FI,15,Lounaala,
154419,FI,15,Maahlahti,
154420,FI,15,Jyry,
154421,FI,15,Kurunsaari,
154422,FI,15,Koskelankylä,
154423,FI,15,Lotlaks,
154424,FI,13,Ruha,
154425,FI,15,Vehmainen,
154426,FI,13,Joenpolvi,
154427,FI,8,Kuovila,
154428,FI,8,Ukuranperä,
154429,FI,13,Sofieberg,
154430,FI,15,Rohijärvi,
154431,FI,13,Vandaparken,
154432,FI,13,Sökö,
154433,FI,15,Joenkulma,
154434,FI,15,Sääksjärvi,
154435,FI,13,Kytäjä,
154436,FI,13,Kilpilahti,
154437,FI,8,Saviharju,
154438,FI,15,Kuantaka,
154439,FI,15,Knivsund,
154440,FI,15,Kåtaholmen,
154441,FI,15,Södö,
154442,FI,13,Toivomäki,
154443,FI,13,Karlberg,
154444,FI,13,Iso Sattiala,
154445,FI,15,Tervamäki,
154446,FI,15,Sionkylä,
154447,FI,15,Köylypolvi,
154448,FI,15,Skinnarla,
154449,FI,15,Pekomäki,
154450,FI,15,Sunila,
154451,FI,13,Göks,
154452,FI,13,Botans,
154453,FI,15,Viranmaa,
154454,FI,13,Haavisto,
154455,FI,13,Torparbacken,
154456,FI,13,Jokivarsi,
154457,FI,13,Solttila,
154458,FI,13,Viirilä,
154459,FI,13,Suosilta,
154460,FI,15,Vahonen,
154461,FI,13,Mustajoki,
154462,FI,14,Kinni,
154463,FI,15,Paimala,
154464,FI,13,Nyry,
154465,FI,13,Vällskog,
154466,FI,15,Smedaböle,
154467,FI,13,Kuitinmäki,
154468,FI,8,Herukka,
154469,FI,8,Rukkisenperä,
154470,FI,8,Tuohinnonperä,
154471,FI,14,Pöyhö,
154472,FI,15,Havusalmi,
154473,FI,13,Salakoski,
154474,FI,14,Murtolahti,
154475,FI,8,Sormula,
154476,FI,8,Tupakkaperä,
154477,FI,13,Liikkalankylä,
154478,FI,14,Lapinmäki,
154479,FI,15,Toby,
154480,FI,13,Pirttiranta,
154481,FI,13,Hovinkylä,
154482,FI,13,Degernäs,
154483,FI,13,Koulunkulma,
154484,FI,6,Vaalajärvi,
154485,FI,13,Vähimaa,
154486,FI,8,Kopsa,
154487,FI,13,Helsinginpitäjä,
154488,FI,13,Tyrväntö,
154489,FI,15,Hitis,
154490,FI,14,Pieksämäen Maalaiskunta,
154491,FI,13,Virmutjoki,
154492,FI,15,Polvenkylä,
154493,FI,15,Socklot,
154494,FI,13,Mommila Hietoinen,
154495,FI,15,Kaukola,
154496,FI,15,Ämmätsä,
154497,FI,13,Hangas,
154498,FI,15,Muurimäki,
154499,FI,15,Hirvijoki,
154500,FI,15,Pihlajavesi,
154501,FI,13,Porvola,
154502,FI,13,Nummelanparantola,
154503,FI,13,Huhtariihi,
154504,FI,13,Teväntö,
154505,FI,13,Ridasjärvi,
154506,FI,13,Rödbrått,
154507,FI,13,Pirttikoski,
154508,FI,13,Mårtensdal,
154509,FI,13,Nöykis,
154510,FI,13,Koivupää,
154511,FI,13,Leppälahti,
154512,FI,13,Jokue,
154513,FI,6,Laivaniemi,
154514,FI,15,Martoinen,
154515,FI,13,Okkeri,
154516,FI,6,Karigasniemi,
154517,FI,14,Kutemajärvi,
154518,FI,15,Yli-lesti,
154519,FI,15,Vesajärvi,
154520,FI,15,Ikkeläjärvi,
154521,FI,15,Kuivasmäki,
154522,FI,15,Kalliala,
154523,FI,15,Kaijala,
154524,FI,15,Mäenala,
154525,FI,15,Iso-preitilä,
154526,FI,15,Heinijoki,
154527,FI,13,Brokärr,
154528,FI,13,Botbyåsen,
154529,FI,13,Vahijärvi,
154530,FI,13,Norrby,
154531,FI,13,Hasu,
154532,FI,13,Virmaila,
154533,FI,15,Haapasalo,
154534,FI,8,Virkkula,
154535,FI,15,Kytämäki,
154536,FI,15,Väinänperä,
154537,FI,15,Saarlanti,
154538,FI,13,Suopelto,
154539,FI,8,Ojalanperä,
154540,FI,15,Skrivars,
154541,FI,15,Rainebäck,
154542,FI,15,Aitoniemi,
154543,FI,13,Heinu,
154544,FI,15,Huoli,
154545,FI,13,Kurkis,
154546,FI,15,Talvisilta,
154547,FI,13,Rödskog,
154548,FI,13,Kuninkaala,
154549,FI,13,Riihikallio,
154550,FI,13,Kylmälahti,
154551,FI,13,Palopuro,
154552,FI,13,Ahonpää,
154553,FI,14,Ryönänlahti,
154554,FI,13,Metsola,
154555,FI,8,Iin Hamina,
154556,FI,8,Mieslahti,
154557,FI,8,Haataja,
154558,FI,8,Kiiskilampi,
154559,FI,13,Hyvikkälä,
154560,FI,6,Kuivakangas,
154561,FI,8,Pyhänkoski,
154562,FI,15,Leineperi,
154563,FI,15,Nousis,
154564,FI,6,Jaatila,
154565,FI,15,Luomankylä,
154566,FI,15,Haapala,
154567,FI,13,Tiilitehdaanmäki,
154568,FI,13,Kuris,
154569,FI,13,Tavola,
154570,FI,14,Vanhalanharju,
154571,FI,15,Viiari,
154572,FI,13,Miehola,
154573,FI,15,Kolvaa,
154574,FI,8,Hollanti,
154575,FI,15,Vedentaka,
154576,FI,13,Talvisto,
154577,FI,13,Melkkola,
154578,FI,13,Kuohijärvi,
154579,FI,14,Hietakylä,
154580,FI,8,Säkkinen,
154581,FI,13,Etola,
154582,FI,15,Paajala,
154583,FI,8,Korpinen,
154584,FI,8,Sorsa,
154585,FI,13,Majvik,
154586,FI,13,Källa,
154587,FI,14,Louhioja,
154588,FI,14,Kaartilankoski,
154589,FI,6,Jeesiö,
154590,FI,13,Kalliokoski,
154591,FI,15,Mossala,
154592,FI,8,Ainastalo,
154593,FI,15,Loima,
154594,FI,15,Raikku,
154595,FI,6,Orakylä,
154596,FI,13,Heikinlaakso,
154597,FI,15,Nummikoski,
154598,FI,15,Kistola,
154599,FI,15,Simala,
154600,FI,15,Laittinen,
154601,FI,13,Västermunkby,
154602,FI,15,Tammela,
154603,FI,14,Ukkolanmäki,
154604,FI,13,Putula,
154605,FI,13,Lahistenlahko,
154606,FI,15,Hujala,
154607,FI,13,Vähäsattala,
154608,FI,13,Vesijako,
154609,FI,15,Kivioja,
154610,FI,15,Mikola,
154611,FI,13,Lieso,
154612,FI,15,Paavola,
154613,FI,13,Noppo,
154614,FI,13,Vesikansa,
154615,FI,15,Kuorsumaa,
154616,FI,13,Erkylä,
154617,FI,14,Pitkälänmäki,
154618,FI,14,Koivula,
154619,FI,8,Lumimetsä,
154620,FI,13,Helsinge,
154621,FI,15,Kankainen,
154622,FI,13,Jokimaa,
154623,FI,15,Menonen,
154624,FI,13,Kokinkylä,
154625,FI,13,Anianpelto,
154626,FI,8,Vietta,
154627,FI,15,Uskila,
154628,FI,15,Herrala,
154629,FI,15,Pyörönmaa,
154630,FI,13,Palonen,
154631,FI,14,Melalahti,
154632,FI,14,Puoliväli,
154633,FI,14,Vanaja,
154634,FI,13,Härkälä,
154635,FI,13,Viinikkala,
154636,FI,8,Oterma,
154637,FI,8,Pohjavaara,
154638,FI,15,Romsila,
154639,FI,6,Kursu,
154640,FI,15,Paalijärvi,
154641,FI,15,Kurki,
154642,FI,15,Apajalahti,
154643,FI,13,Onali,
154644,FI,15,Påvall,
154645,FI,15,Kampinkylä,
154646,FI,15,Varvenkylä,
154647,FI,13,Untila,
154648,FI,13,Monni,
154649,FI,13,Töykkylä,
154650,FI,15,Karimäki,
154651,FI,14,Tuhkala,
154652,FI,13,Jättölä,
154653,FI,13,Alajoki,
154654,FI,13,Ruskela,
154655,FI,13,Idankulma,
154656,FI,15,Kesola,
154657,FI,13,Holstasändan,
154658,FI,15,Pahkasalo,
154659,FI,8,Pyhäluoto,
154660,FI,14,Rissala,
154661,FI,15,Sippolanmäki,
154662,FI,8,Loukusa,
154663,FI,13,Haapasaari,
154664,FI,15,Vekka,
154665,FI,8,Mannila,
154666,FI,13,Rekola,
154667,FI,15,Tamare,
154668,FI,13,Nikkaroinen,
154669,FI,13,Muhniemi,
154670,FI,8,Ilveskorpi,
154671,FI,13,Purnujärvi,
154672,FI,15,Kaamanen,
154673,FI,15,Bodö,
154674,FI,15,Öfermark,
154675,FI,15,Taipelus,
154676,FI,8,Somer Kylä,
154677,FI,13,Loimoinen,
154678,FI,15,Kuusanmäki,
154679,FI,13,Linnainen,
154680,FI,13,Karstu,
154681,FI,13,Karsturanta,
154682,FI,15,Kutala,
154683,FI,13,Haimoo,
154684,FI,8,Kytökylä,
154685,FI,14,Ruorasmäki,
154686,FI,13,Turkkila,
154687,FI,13,Niemenkylä,
154688,FI,13,Solkei,
154689,FI,14,Korpikoski,
154690,FI,15,Petolahti,
154691,FI,15,Alskat,
154692,FI,13,Pyhäjärvi,
154693,FI,13,Viljaniemi,
154694,FI,13,Garpgård,
154695,FI,15,Haapoja,
154696,FI,15,Viitalankylä,
154697,FI,13,Ronni,
154698,FI,13,Napiala,
154699,FI,13,Hyrkkylä,
154700,FI,13,Hiivola,
154701,FI,13,Sankola,
154702,FI,13,Jokimäki,
154703,FI,15,Vesunti,
154704,FI,13,Kivijoki,
154705,FI,8,Pikka,
154706,FI,13,Hopomby,
154707,FI,13,Vitsiälä,
154708,FI,14,Kylylahti,
154709,FI,13,Paakkola,
154710,FI,14,Hernejärvi,
154711,FI,15,Mäntyluoto,
154712,FI,15,Möykky,
154713,FI,15,Pihlajakoski,
154714,FI,8,Kylmälänkylä,
154715,FI,14,Palonurmi,
154716,FI,15,Koskioinen,
154717,FI,15,Holja,
154718,FI,13,Hallila,
154719,FI,13,Takamaa,
154720,FI,13,Kalsu,
154721,FI,13,Nummenpää,
154722,FI,13,Terriniemi,
154723,FI,15,Enokunta,
154724,FI,15,Kaarlejoki,
154725,FI,15,Armonlaakso,
154726,FI,15,Taipale,
154727,FI,13,Andersböle,
154728,FI,13,Kärkälä,
154729,FI,13,Lappvik Gård,
154730,FI,13,Fremböle,
154731,FI,14,Nousiala,
154732,FI,15,Länsi-aure,
154733,FI,8,Kahma,
154734,FI,14,Pelonniemi,
154735,FI,8,Partala,
154736,FI,8,Kellomäki,
154737,FI,8,Pirttikoski,
154738,FI,8,Vaihojanperä,
154739,FI,15,Söderudden,
154740,FI,15,Keitelepohja,
154741,FI,15,Kouvala,
154742,FI,13,Särkijärvi,
154743,FI,15,Ojajärvi,
154744,FI,6,Ämmälä,
154745,FI,13,Kupsenkylä,
154746,FI,13,Kotojärvi,
154747,FI,13,Imjärvi,
154748,FI,15,Långö,
154749,FI,14,Mähölä,
154750,FI,13,Tirmo,
154751,FI,15,Kalela,
154752,FI,13,Michelspiltom,
154753,FI,13,Heinlampi,
154754,FI,15,Karisto,
154755,FI,8,Koppila,
154756,FI,8,Potti,
154757,FI,15,Moisio,
154758,FI,13,Hykkilä,
154759,FI,13,Viranoja,
154760,FI,15,Valpperi,
154761,FI,14,Syväsmäki,
154762,FI,8,Köngas,
154763,FI,15,Vaaljoki,
154764,FI,15,Palkkinen,
154765,FI,15,Lieranta,
154766,FI,13,Tanttala,
154767,FI,13,Luhdantausta,
154768,FI,14,Kivilahti,
154769,FI,13,Hurttala,
154770,FI,15,Berga,
154771,FI,13,Padonmaa,
154772,FI,15,Kälä,
154773,FI,8,Holmanperä,
154774,FI,8,Kuolio,
154775,FI,14,Tiensuu,
154776,FI,8,Petäjäskoski,
154777,FI,15,Linnankylä,
154778,FI,13,Pojo,
154779,FI,6,Filpus,
154780,FI,15,Saarenoja,
154781,FI,13,Kirkkola,
154782,FI,15,Pithäranta,
154783,FI,8,Mustavaara,
154784,FI,8,Ronkainen,
154785,FI,15,Alakieri,
154786,FI,14,Ahvenainen,
154787,FI,15,Åkers,
154788,FI,14,Mantilanniemi,
154789,FI,13,Karkki,
154790,FI,13,Lohjantaipale,
154791,FI,13,Gäddrag,
154792,FI,15,Suurimaa,
154793,FI,15,Haankylä,
154794,FI,15,Oravac,
154795,FI,13,Katajala,
154796,FI,15,Pato,
154797,FI,13,Bocksbacka,
154798,FI,15,Salkola,
154799,FI,15,Riuttankulma,
154800,FI,13,Sairiala,
154801,FI,13,Seppä,
154802,FI,13,Fastböle,
154803,FI,13,Ratula,
154804,FI,13,Kullo,
154805,FI,15,Högsåra,
154806,FI,15,Kolkkinen,
154807,FI,13,Kuittila,
154808,FI,14,Mansikkamäki,
154809,FI,15,Virtala,
154810,FI,8,Heinijärvi,
154811,FI,13,Paloniemi,
154812,FI,13,Tikkaro,
154813,FI,13,Vuotinainen,
154814,FI,13,Forsslätt,
154815,FI,15,Friskala,
154816,FI,13,Korpi,
154817,FI,13,Norra Paippis,
154818,FI,13,Valkeamäki,
154819,FI,15,Pasto,
154820,FI,13,Keituri,
154821,FI,13,Seitlahti,
154822,FI,8,Raudaskylä,
154823,FI,15,Porraslampi,
154824,FI,13,Metsämuuronen,
154825,FI,13,Turkia,
154826,FI,15,Autiö,
154827,FI,6,Onkalo,
154828,FI,15,Kauttu,
154829,FI,15,Tammiainen,
154830,FI,8,Jaalanka,
154831,FI,13,Vuohiniemi,
154832,FI,15,Isopuoli,
154833,FI,15,Voitby,
154834,FI,15,Talola,
154835,FI,15,Huhti,
154836,FI,13,Solvik,
154837,FI,13,Klaukkalan Metsäkylä,
154838,FI,15,Karpala,
154839,FI,8,Ollinvaara,
154840,FI,6,Viantie,
154841,FI,14,Kuosmala,
154842,FI,15,Keihäskoski,
154843,FI,13,Hyrralä,
154844,FI,13,Katajasuo,
154845,FI,13,Torittu,
154846,FI,15,Nutintaka,
154847,FI,13,Pökölä,
154848,FI,13,Rutajärvi,
154849,FI,13,Ohtinen,
154850,FI,15,Lastustenkulma,
154851,FI,15,Kakkulainen,
154852,FI,15,Lahnalahti,
154853,FI,15,Tattula,
154854,FI,15,Niitynpää,
154855,FI,15,Järviö,
154856,FI,15,Koppalainen,
154857,FI,13,Juhala,
154858,FI,14,Oskola,
154859,FI,13,Lohko,
154860,FI,13,Rasti,
154861,FI,15,Kätkänjoki,
154862,FI,15,Hautakylä,
154863,FI,14,Höljäkkä,
154864,FI,6,Alakylä,
154865,FI,15,Suovanlahti,
154866,FI,14,Muhasaari,
154867,FI,15,Sahrajärvi,
154868,FI,15,Boholm,
154869,FI,15,Vihtiä,
154870,FI,13,Oravala,
154871,FI,13,Raala,
154872,FI,14,Hiltula,
154873,FI,15,Ujanen,
154874,FI,15,Sulkavankylä,
154875,FI,14,Kaitainen,
154876,FI,13,Noitala,
154877,FI,13,Räckhals,
154878,FI,14,Kunnasiemi,
154879,FI,14,Keskijärvi,
154880,FI,13,Juurikorpi,
154881,FI,15,Sideby,
154882,FI,13,Vehkassaari,
154883,FI,15,Pohtio,
154884,FI,15,Humikkala,
154885,FI,15,Högmo,
154886,FI,15,Pappinen,
154887,FI,6,Saunavaara,
154888,FI,14,Ohenmäki,
154889,FI,13,Vehkajärvi,
154890,FI,13,Hillilä,
154891,FI,15,Kaartunen,
154892,FI,15,Immanen,
154893,FI,13,Valtee,
154894,FI,13,Päivärinta,
154895,FI,15,Rannankylä,
154896,FI,15,Suttila,
154897,FI,13,Juornaa,
154898,FI,13,Kreppelby,
154899,FI,13,Boe,
154900,FI,13,Koijärvi,
154901,FI,13,Levä,
154902,FI,14,Hartosenpää,
154903,FI,14,Autioranta,
154904,FI,15,Majuri,
154905,FI,14,Saamaiskylä,
154906,FI,15,Vaanii,
154907,FI,13,Rimmilä,
154908,FI,15,Bonnas,
154909,FI,8,Pinola,
154910,FI,15,Siperia,
154911,FI,15,Lemmakkala,
154912,FI,13,Lautaporras,
154913,FI,14,Puukari,
154914,FI,15,Ilmolahti,
154915,FI,14,Heimari,
154916,FI,13,Karilanmaa,
154917,FI,8,Tulppo,
154918,FI,13,Hästböle,
154919,FI,15,Länsi-teisko,
154920,FI,15,Liesjärvi,
154921,FI,15,Sadonmaa,
154922,FI,15,Sandvik,
154923,FI,15,Pohjoisjärvi,
154924,FI,15,Kirjakkala,
154925,FI,13,Rannikonmäki,
154926,FI,15,Pohjalahti,
154927,FI,14,Hautajärvi,
154928,FI,15,Svartos Vik,
154929,FI,13,Heinäjoki,
154930,FI,15,Mäkikylä,
154931,FI,14,Siikasalmi,
154932,FI,13,Paksalo,
154933,FI,14,Korpijärvi,
154934,FI,14,Möhkö,
154935,FI,8,Kananen,
154936,FI,13,Pietarinmäki,
154937,FI,14,Sonkakoski,
154938,FI,15,Kukonkylä,
154939,FI,13,Träskända,
154940,FI,8,Ervastinkylä,
154941,FI,13,Suulisniemi,
154942,FI,15,Iso-säkylä,
154943,FI,14,Putikko,
154944,FI,6,Aska,
154945,FI,6,Kelontekemä,
154946,FI,8,Kilpua,
154947,FI,15,Rangsby,
154948,FI,15,Huhtamo,
154949,FI,15,Utö,
154950,FI,15,Koskenvarsi,
154951,FI,14,Katisenlahti,
154952,FI,14,Syvänsi,
154953,FI,14,Pankalahti,
154954,FI,13,Ihalempi,
154955,FI,15,Sastmola,
154956,FI,15,Alahonkajoki,
154957,FI,15,Nordanå,
154958,FI,8,Pohjaslahti,
154959,FI,6,Kuukasjärvi,
154960,FI,15,Kyynärö,
154961,FI,15,Särkijärvi,
154962,FI,13,Paijala,
154963,FI,13,Merrasjärvi,
154964,FI,15,Punapakka,
154965,FI,13,Haapakylä,
154966,FI,15,Sorrinmäki,
154967,FI,14,Puponmäki,
154968,FI,13,Viitastenkulma,
154969,FI,15,Penninginranta,
154970,FI,15,Matinmäki,
154971,FI,15,Orisberg,
154972,FI,15,Seppola,
154973,FI,15,Bladbacken,
154974,FI,15,Jäähdyspohja,
154975,FI,14,Lehmoaho,
154976,FI,13,Pitäjänmäki,
154977,FI,13,Vohloinen,
154978,FI,6,Kantomaanpää,
154979,FI,6,Kelloselkä,
154980,FI,13,Mattby,
154981,FI,15,Palviala,
154982,FI,13,Ristonmäki,
154983,FI,15,Toivila,
154984,FI,15,Gönisari,
154985,FI,14,Varistaipale,
154986,FI,15,Åbo,
154987,FI,15,Virdois,
154988,FI,13,Lovisa,
154989,FI,14,Leivonmäki,
154990,FI,13,Kyrkslätt,
154991,FI,13,Lojo,
154992,FI,15,Vanha-ulvila,
154993,FI,15,Vastinki,
154994,FI,6,Köngäs,
154995,FI,8,Mäyränperä,
154996,FI,13,Frisans,
154997,FI,8,Torvela-joensuu,
154998,FI,14,Kanava,
154999,FI,15,Sarkola,
155000,FI,14,Tossavanlahti,
155001,FI,15,Långholm,
155002,FI,15,Nauli,
155003,FI,15,Kuohenmaa,
155004,FI,13,Ylentola,
155005,FI,14,Halmeniemi,
155006,FI,13,Tarnala,
155007,FI,15,Sagu,
155008,FI,8,Lumela,
155009,FI,6,Narkaus,
155010,FI,14,Haapaniemi,
155011,FI,14,Lahnalahti,
155012,FI,14,Maivala,
155013,FI,15,Pitkäniemi,
155014,FI,15,Nådendal,
155015,FI,13,Tavastehus,
155016,FI,13,Sädemäki,
155017,FI,8,Hirsijärvi,
155018,FI,14,Hauhala,
155019,FI,14,Parkumäki,
155020,FI,13,Vanhakylä,
155021,FI,15,Reso,
155022,FI,13,Koskenniska,
155023,FI,13,Porvo,
155024,FI,13,Syyspohja,
155025,FI,15,Rantakangas,
155026,FI,15,Niemenkylä,
155027,FI,6,Äkäsjoensuu,
155028,FI,13,Mustiala,
155029,FI,13,Hangöby,
155030,FI,13,Putkijärvi,
155031,FI,13,Sibbo,
155032,FI,15,Honkola,
155033,FI,15,Hännilä,
155034,FI,15,Vellua,
155035,FI,13,Hynnänkorpi,
155036,FI,15,Kassnäs,
155037,FI,13,Karabacka,
155038,FI,15,Lappjoki,
155039,FI,15,Merttilä,
155040,FI,15,Mikkilä,
155041,FI,15,Siipyy,
155042,FI,8,Iso Korpi,
155043,FI,13,Heinäkangas,
155044,FI,15,Turajärvi,
155045,FI,14,Poinpelto,
155046,FI,15,Käpyaho,
155047,FI,15,Peränne,
155048,FI,8,Uleåborg,
155049,FI,15,Gamla Vaasa,
155050,FI,13,Kela,
155051,FI,15,Sapsalampi,
155052,FI,15,Ähtävä,
155053,FI,15,Hanhikoski,
155054,FI,15,Kierlä,
155055,FI,14,Tokrajärvi,
155056,FI,15,Kehro,
