locId,country,region,city,postcode
214494,GR,,,
214495,GR,35,Athens,
214496,GR,35,Piraeus,
214497,GR,21,Lárissa,
214498,GR,13,Thessaloníki,
214499,GR,2,Komotiní,
214500,GR,22,Péfki,
214501,GR,14,Kavála,
214502,GR,50,Chíos,
214503,GR,1,Alexandroúpolis,
214504,GR,35,Pallíni,
214505,GR,22,Tríkala,
214506,GR,47,Líndos,
214507,GR,35,Kallithéa,
214508,GR,35,Athína,
214509,GR,40,Miaoúli,
214510,GR,38,Pátra,
214511,GR,25,Ágios Stéfanos,
214512,GR,45,Heraklion,
214513,GR,43,Chaniá,
214514,GR,38,Patras,
214515,GR,36,Árgos,
214516,GR,35,Holargos,
214517,GR,22,Paraskeví,
214518,GR,17,Ioánnina,
214519,GR,29,Lamía,
214520,GR,11,Kozáni,
214521,GR,37,Corinth,
214522,GR,35,Psychiko,
214523,GR,49,Syros,
214524,GR,40,Kalamáta,
214525,GR,25,Corfu,
214526,GR,10,Dímitra,
214527,GR,35,Aigáleo,
214528,GR,6,Gríva,
214529,GR,35,Kifisiá,
214530,GR,47,Ródos,
214531,GR,12,Náousa,
214532,GR,20,Stournári,
214533,GR,42,Sína,
214534,GR,13,Vasiliká,
214535,GR,6,Peristéri,
214536,GR,47,Kálymnos,
214537,GR,44,Alfá,
214538,GR,10,Váris,
214539,GR,23,Kryonéri,
214540,GR,17,Krýa,
214541,GR,41,Trípoli,
214542,GR,16,Katerina,
214543,GR,17,Trápeza,
214544,GR,3,Xánthi,
214545,GR,21,Lárisa,
214546,GR,23,Metamórfosi,
214547,GR,20,Árta,
214548,GR,35,Dekeleia,
214549,GR,35,Athénes,
214550,GR,2,Glifáda,
214551,GR,37,Iráklio,
214552,GR,35,Markópoulo,
214553,GR,35,Gavalás,
214554,GR,35,Néa Ionía,
214555,GR,50,Xíos,
214556,GR,35,Glyfáda,
214557,GR,35,Pikérmi,
214558,GR,35,Asprópirgos,
214559,GR,35,Távros,
214560,GR,24,Vólos,
214561,GR,24,Skíathos,
214562,GR,6,Akrítas,
214563,GR,23,Krionéri,
214564,GR,40,Kalamatas,
214565,GR,35,Kifissia,
214566,GR,39,Pýrgos,
214567,GR,35,Skaramangá,
214568,GR,35,Galátsi,
214569,GR,40,Pýlos,
214570,GR,23,Moscháto,
214571,GR,17,Ellinikó,
214572,GR,9,Kastoriá,
214573,GR,48,Sámos,
214574,GR,35,Koropí,
214575,GR,16,Kateríni,
214576,GR,37,Isthmía,
214577,GR,42,Stéfanos,
214578,GR,35,Voúla,
214579,GR,25,Kérkyra,
214580,GR,35,Pérama,
214581,GR,13,Salonica,
214582,GR,35,Paianía,
214583,GR,35,Elefsína,
214584,GR,37,Kórinthos,
214585,GR,48,Mesógeion,
214586,GR,35,Vári,
214587,GR,35,Aígina,
214588,GR,4,Dráma,
214589,GR,22,Kalampáka,
214590,GR,5,Sérres,
214591,GR,19,Préveza,
214592,GR,20,Pétrou,
214593,GR,1,Alexandroúpoli,
214594,GR,15,Polýgyros,
214595,GR,35,Kalamáki,
214596,GR,39,Pírgos,
214597,GR,23,Kardítsa,
214598,GR,26,Lefkáda,
214599,GR,18,Igoumenítsa,
214600,GR,27,Argostóli,
214601,GR,32,Ámfissa,
214602,GR,42,Spárti,
214603,GR,35,Kaisarianí,
214604,GR,22,Valtinón,
214605,GR,25,Dáfni,
214606,GR,47,Emporia,
214607,GR,46,Neápoli,
214608,GR,25,Kérkira,
214609,GR,36,Náfplio,
214610,GR,43,Alikianós,
214611,GR,17,Plataniá,
214612,GR,42,Néos Kósmos,
214613,GR,11,Pelekános,
214614,GR,44,Anógeia,
214615,GR,41,Louká,
214616,GR,45,Pezá,
214617,GR,31,Agrínio,
214618,GR,49,Mýkonos,
214619,GR,49,Ermoúpoli,
214620,GR,35,Attikí,
214621,GR,45,Minós,
214622,GR,39,Amaliás,
214623,GR,35,Lykovrisi,
214624,GR,35,Níkaia,
214625,GR,45,Irákleio,
214626,GR,35,Áno Liósia,
214627,GR,35,Papágou,
214628,GR,6,Livádia,
214629,GR,35,Magoúla,
214630,GR,13,Salonika,
214631,GR,13,Thérmi,
214632,GR,46,Eloúnda,
214633,GR,12,Vergína,
214634,GR,41,Trípolis,
214635,GR,44,Réthymno,
214636,GR,8,Flórina,
214637,GR,10,Grevená,
214638,GR,33,Thíva,
214639,GR,17,Amfithéa,
214640,GR,45,Loutráki,
214641,GR,20,Drosiá,
214642,GR,14,Karamanlí,
214643,GR,18,Elefthériou,
214644,GR,35,Néa Smírni,
214645,GR,34,Chalkída,
214646,GR,13,Kalamariá,
214647,GR,27,Triás,
214648,GR,28,Zákinthos,
214649,GR,35,Melíssia,
214650,GR,13,Síndos,
214651,GR,7,Giannitsá,
214652,GR,51,Mytilíni,
214653,GR,7,Aridaía,
214654,GR,12,Veria,
214655,GR,46,Mállia,
214656,GR,35,Papágos,
214657,GR,7,Édessa,
214658,GR,38,Kalávryta,
214659,GR,35,Patísia,
214660,GR,34,Oinófita,
214661,GR,30,Petrálona,
214662,GR,33,Pávlos,
214663,GR,38,Kalétzi,
214664,GR,13,Oraiókastro,
214665,GR,6,Kilkís,
214666,GR,21,Avérof,
214667,GR,45,Herákleion,
214668,GR,12,Skilítsi,
214669,GR,38,Aígio,
214670,GR,47,Póli,
214671,GR,49,Míkonos,
214672,GR,43,Tsitsáni,
214673,GR,42,Lemoniá,
214674,GR,30,Monastiráki,
214675,GR,7,Pélla,
214676,GR,12,Marína,
214677,GR,42,Goúnari,
214678,GR,13,Géfyra,
214679,GR,21,Agiá,
214680,GR,12,Véroia,
214681,GR,35,Filadelfia,
214682,GR,25,Ágios Dimítrios,
214683,GR,35,Athen,
214684,GR,16,Aikateríni,
214685,GR,37,Kiáto,
214686,GR,21,Tírnavos,
214687,GR,11,Ptolemaida,
214688,GR,13,Koufália,
214689,GR,17,Mármara,
214690,GR,35,Spáta,
214691,GR,46,Neápolis,
214692,GR,50,Pefkón,
214693,GR,50,Christós,
214694,GR,43,Moustákas,
214695,GR,6,Státhis,
214696,GR,29,Atalánti,
214697,GR,22,Drosopigí,
214698,GR,26,Aléxandros,
214699,GR,21,Vasilís,
214700,GR,38,Grigóris,
214701,GR,17,Dodóni,
214702,GR,38,Koúros,
214703,GR,34,Maroúli,
214704,GR,35,Daphne,
214705,GR,27,Pástra,
214706,GR,15,Metamórfosis,
214707,GR,50,Lagkáda,
214708,GR,13,Zográfou,
214709,GR,25,Nótos,
214710,GR,47,Kremastí,
214711,GR,49,Páros,
214712,GR,40,Kefalinós,
214713,GR,38,Kamínia,
214714,GR,23,Makrakómi,
214715,GR,45,Alikarnassós,
214716,GR,47,Kálimnos,
214717,GR,46,Pétros,
214718,GR,13,Pylaía,
214719,GR,46,Ierápetra,
214720,GR,40,Messíni,
214721,GR,18,Mazaraki,
214722,GR,1,Orestiáda,
214723,GR,51,Mitilíni,
214724,GR,35,Peiraiá,
214725,GR,19,Agíou Georgíou,
214726,GR,35,Peiraeus,
214727,GR,23,Zaimi,
214728,GR,35,Psichiko,
214729,GR,19,Oropós,
214730,GR,22,Vasilikí,
214731,GR,18,Ampelónas,
214732,GR,20,Sykiés,
214733,GR,23,Kappás,
214734,GR,39,Platía,
214735,GR,46,Petrás,
214736,GR,23,Márkos,
214737,GR,10,Báltinon,
214738,GR,46,Sitía,
214739,GR,49,Apollonos,
214740,GR,17,Várdas,
214741,GR,13,Peraía,
214742,GR,6,Toúmba,
214743,GR,35,Keratsíni,
214744,GR,35,Goudi,
214745,GR,35,Filothéi,
214746,GR,30,Ternova,
214747,GR,46,Siteía,
214748,GR,27,Itháki,
214749,GR,2,Arísvi,
214750,GR,35,Filí,
214751,GR,43,Khaniá,
214752,GR,34,Khalkís,
214753,GR,21,Rapsáni,
214754,GR,38,Pátrai,
214755,GR,38,Silivainiótika,
214756,GR,35,Vromopoúsi,
214757,GR,13,Néa Kallikrátia,
214758,GR,35,Kinéta,
214759,GR,16,Methóni,
214760,GR,35,Áyios Thomás,
214761,GR,35,Selínia,
214762,GR,5,Nigríta,
214763,GR,14,Kokkinókhoma,
214764,GR,24,Velestínon,
214765,GR,13,Sokhós,
214766,GR,49,Kókka,
214767,GR,13,Krionérion,
214768,GR,35,Ayía Varvára,
214769,GR,37,Sofikón,
214770,GR,24,Agriá,
214771,GR,27,Makrikápa,
214772,GR,35,Spárta,
214773,GR,13,Kímina,
214774,GR,34,Istiaía,
214775,GR,35,Néa Péramos,
214776,GR,29,Moskhokhórion,
214777,GR,13,Kolkhikón,
214778,GR,35,Mégara,
214779,GR,13,Aréthousa,
214780,GR,35,Eleusis,
214781,GR,21,Elassón,
214782,GR,5,Flámbouron,
214783,GR,37,Perakhóra,
214784,GR,49,Áno Síros,
214785,GR,35,Ambelákia,
214786,GR,4,Sitagroí,
214787,GR,4,Fotolívos,
214788,GR,35,Keratsínion,
214789,GR,12,Rizómata,
214790,GR,33,Vília,
214791,GR,33,Árma,
214792,GR,45,Iráklion,
214793,GR,35,Peristérion,
214794,GR,35,Oinóï,
214795,GR,33,Malesína,
214796,GR,21,Verdikoússa,
214797,GR,35,Khalándrion,
214798,GR,1,Koufóvounon,
214799,GR,35,Aiántion,
214800,GR,16,Litókhoron,
214801,GR,33,Kaparéllion,
214802,GR,13,Panórama,
214803,GR,24,Argalastí,
214804,GR,38,Akráta,
214805,GR,34,Loukísia,
214806,GR,49,Mílos,
214807,GR,6,Néa Sánta,
214808,GR,27,Póros,
214809,GR,16,Néa Éfesos,
214810,GR,16,Aiyínion,
214811,GR,29,Áyios Serafím,
214812,GR,35,Psikhikón,
214813,GR,17,Agía Paraskeví,
214814,GR,37,Ássos,
214815,GR,49,Íos,
214816,GR,33,Alíartos,
214817,GR,12,Korifí,
214818,GR,12,Veryína,
214819,GR,27,Argostólion,
214820,GR,31,Náfpaktos,
214821,GR,18,Filiátes,
214822,GR,43,Stérnai,
214823,GR,5,Sérrai,
214824,GR,50,Khíos,
214825,GR,14,Kormísta,
214826,GR,24,Rizómilos,
214827,GR,35,Palaión Fáliron,
214828,GR,12,Tríkala,
214829,GR,13,Néa Málgara,
214830,GR,16,Kolindrós,
214831,GR,35,Kalamákion,
214832,GR,21,Melívoia,
214833,GR,33,Thívai,
214834,GR,36,Kivérion,
214835,GR,14,Áyios Athanásios,
214836,GR,7,Profítis Ilías,
214837,GR,22,Kríni,
214838,GR,30,Karpenísion,
214839,GR,16,Korinós,
214840,GR,13,Néa Mikhanióna,
214841,GR,49,Órmos Korthíou,
214842,GR,35,Kouvarás,
214843,GR,45,Gázion,
214844,GR,20,Theodóriana,
214845,GR,17,Prámanta,
214846,GR,35,Ellinikón,
214847,GR,13,Krithiá,
214848,GR,13,Khalástra,
214849,GR,35,Kipséli,
214850,GR,12,Loutrós,
214851,GR,35,Ayía Marína,
214852,GR,35,Salamís,
214853,GR,21,Arménion,
214854,GR,16,Vrontoú,
214855,GR,11,Ptolemais,
214856,GR,21,Piryetós,
214857,GR,35,Méthana,
214858,GR,7,Esóvalta,
214859,GR,12,Melíki,
214860,GR,21,Gónnoi,
214861,GR,35,Skoúrta,
214862,GR,45,Mokhós,
214863,GR,34,Paralía,
214864,GR,12,Plátanos,
214865,GR,29,Tragána,
214866,GR,23,Itéa,
214867,GR,35,Rafína,
214868,GR,35,Spétsai,
214869,GR,35,Aíyina,
214870,GR,34,Mítikas,
214871,GR,34,Vathí,
214872,GR,36,Koilás,
214873,GR,21,Kranéa Elassónos,
214874,GR,35,Keratéa,
214875,GR,36,Ligourión,
214876,GR,38,Aíyira,
214877,GR,49,Kastrianí,
214878,GR,23,Palamás,
214879,GR,35,Vathí,
214880,GR,41,Parálion Ástros,
214881,GR,36,Anífion,
214882,GR,37,Examília,
214883,GR,16,Paralía,
214884,GR,44,Yeráni,
214885,GR,6,Áyios Pétros,
214886,GR,37,Krionérion,
214887,GR,11,Aianí,
214888,GR,37,Sikión,
214889,GR,12,Patrís,
214890,GR,41,Vlakhokeraséa,
214891,GR,11,Klítos,
214892,GR,33,Orkhomenós,
214893,GR,10,Deskáti,
214894,GR,11,Filótas,
214895,GR,27,Politiká,
214896,GR,13,Melissokhórion,
214897,GR,13,Kavallárion,
214898,GR,16,Perístasis,
214899,GR,13,Yéfira,
214900,GR,7,Néa Pélla,
214901,GR,16,Makríyialos,
214902,GR,13,Diavatá,
214903,GR,16,Kallithéa,
214904,GR,13,Pentálofos,
214905,GR,21,Livaderón,
214906,GR,13,Pilaía,
214907,GR,24,Kanália,
214908,GR,14,Pérni,
214909,GR,17,Métsovon,
214910,GR,34,Skhimatárion,
214911,GR,3,Yeniséa,
214912,GR,13,Sozópolis,
214913,GR,30,Sperkhiás,
214914,GR,16,Kítros,
214915,GR,5,Véryi,
214916,GR,7,Melíssion,
214917,GR,16,Skotína,
214918,GR,14,Keramotí,
214919,GR,21,Stefanovíkion,
214920,GR,21,Khálki,
214921,GR,11,Akriní,
214922,GR,16,Lófos,
214923,GR,16,Sevastí,
214924,GR,13,Askós,
214925,GR,14,Zigós,
214926,GR,21,Vamvakoú,
214927,GR,16,Alónia,
214928,GR,2,Xilaganí,
214929,GR,11,Sérvia,
214930,GR,35,Kamaterón,
214931,GR,33,Asopía,
214932,GR,5,Alistráti,
214933,GR,13,Anatolikón,
214934,GR,39,Epitálion,
214935,GR,13,Peristerá,
214936,GR,25,Kávos,
214937,GR,39,Zakháro,
214938,GR,38,Aíyion,
214939,GR,31,Megáli Khóra,
214940,GR,41,Áyios Pétros,
214941,GR,31,Spoláïta,
214942,GR,31,Mesolóngion,
214943,GR,36,Ária,
214944,GR,38,Áno Kastrítsion,
214945,GR,22,Stournaraíïka,
214946,GR,36,Néa Kíos,
214947,GR,36,Arakhnaíon,
214948,GR,39,Khavárion,
214949,GR,31,Áyios Nikólaos,
214950,GR,13,Lití,
214951,GR,13,Oraiókastron,
214952,GR,41,Áyios Andréas,
214953,GR,13,Ádendron,
214954,GR,20,Kombótion,
214955,GR,38,Témeni,
214956,GR,31,Gavaloú,
214957,GR,36,Asíni,
214958,GR,24,Almirós,
214959,GR,49,Ándros,
214960,GR,35,Alivérion,
214961,GR,35,Mándra,
214962,GR,44,Pánormos,
214963,GR,43,Kalívai,
214964,GR,35,Néa Erithraía,
214965,GR,35,Akharnaí,
214966,GR,34,Marmárion,
214967,GR,34,Khalkoútsion,
214968,GR,35,Amaroúsion,
214969,GR,13,Asproválta,
214970,GR,5,Toúmba,
214971,GR,5,Palaiokómi,
214972,GR,33,Kástron,
214973,GR,13,Angelokhórion,
214974,GR,5,Gázoros,
214975,GR,35,Anávissos,
214976,GR,35,Krionérion,
214977,GR,33,Váyia,
214978,GR,47,Kos,
214979,GR,35,Likóvrisi,
214980,GR,21,Sikoúrion,
214981,GR,22,Zárkos,
214982,GR,21,Ayiá,
214983,GR,5,Néa Zíkhni,
214984,GR,15,Políyiros,
214985,GR,5,Ayía Paraskeví,
214986,GR,13,Profítis,
214987,GR,35,Áyioi Apóstoloi,
214988,GR,33,Plataiaí,
214989,GR,39,Néa Manolás,
214990,GR,39,Áyios Nikólaos,
214991,GR,9,Kostarázion,
214992,GR,18,Paramithiá,
214993,GR,18,Sívota,
214994,GR,22,Korydallós,
214995,GR,31,Galatás,
214996,GR,38,Ovriá,
214997,GR,5,Skoútari,
214998,GR,33,Stírion,
214999,GR,35,Milésion,
215000,GR,37,Likoporiá,
215001,GR,38,Kalávrita,
215002,GR,39,Laganá,
215003,GR,34,Fáros,
215004,GR,43,Kíssamos,
215005,GR,35,Kholargós,
215006,GR,15,Ierissós,
215007,GR,33,Domvraína,
215008,GR,24,Pteleós,
215009,GR,21,Aryiropoúlion,
215010,GR,44,Pérama,
215011,GR,35,Koropíon,
215012,GR,6,Xilópolis,
215013,GR,13,Epanomí,
215014,GR,41,Ástros,
215015,GR,36,Ermióni,
215016,GR,37,Kamárion,
215017,GR,22,Kalambáka,
215018,GR,27,Kastélla,
215019,GR,23,Proástion,
215020,GR,35,Káto Soúlion,
215021,GR,34,Magoúla,
215022,GR,11,Anatolikón,
215023,GR,9,Lékhovon,
215024,GR,1,Kamariótissa,
215025,GR,11,Erátira,
215026,GR,11,Velventós,
215027,GR,44,Anóyia,
215028,GR,21,Yiánnouli,
215029,GR,14,Ávaton,
215030,GR,21,Terpsithéa,
215031,GR,4,Fteliá,
215032,GR,31,Paravóla,
215033,GR,39,Savália,
215034,GR,41,Vitína,
215035,GR,31,Lepenoú,
215036,GR,37,Áyios Vasílios,
215037,GR,16,Ritíni,
215038,GR,43,Pithárion,
215039,GR,35,Moskháton,
215040,GR,36,Míloi,
215041,GR,43,Vríses,
215042,GR,49,Otziá,
215043,GR,46,Sísion,
215044,GR,31,Mítikas,
215045,GR,12,Nisíon,
215046,GR,42,Moláoi,
215047,GR,49,Korisía,
215048,GR,49,Thíra,
215049,GR,4,Khoristí,
215050,GR,7,Kalí,
215051,GR,6,Khoríyion,
215052,GR,11,Embórion,
215053,GR,12,Makrokhórion,
215054,GR,46,Tzermiádon,
215055,GR,13,Káto Skholárion,
215056,GR,13,Kardiá,
215057,GR,45,Arkalokhórion,
215058,GR,37,Loutrákion,
215059,GR,49,Náxos,
215060,GR,22,Orthovoúnion,
215061,GR,49,Áno Merá,
215062,GR,33,Akraífnion,
215063,GR,44,Réthimnon,
215064,GR,11,Áno Kómi,
215065,GR,45,Epáno Arkhánai,
215066,GR,45,Skalánion,
215067,GR,13,Mikrón Monastírion,
215068,GR,6,Áspros,
215069,GR,3,Séleron,
215070,GR,4,Kallífitos,
215071,GR,23,Akhinós,
215072,GR,33,Thespiaí,
215073,GR,34,Erétria,
215074,GR,21,Níkaia,
215075,GR,35,Pikérmion,
215076,GR,37,Dervéni,
215077,GR,13,Galátista,
215078,GR,13,Áyios Vasílios,
215079,GR,20,Péta,
215080,GR,42,Yéfira,
215081,GR,35,Galatás,
215082,GR,51,Mória,
215083,GR,48,Néon Karlovásion,
215084,GR,26,Lefkás,
215085,GR,7,Yiannitsá,
215086,GR,41,Megalópoli,
215087,GR,42,Skála,
215088,GR,31,Menídion,
215089,GR,35,Ánoixis,
215090,GR,47,Émbonas,
215091,GR,13,Sourotí,
215092,GR,13,Fíliron,
215093,GR,21,Makrikhórion,
215094,GR,24,Pelasyía,
215095,GR,21,Fársala,
215096,GR,16,Díon,
215097,GR,45,Thrapsanón,
215098,GR,44,Zonianá,
215099,GR,50,Nénita,
215100,GR,27,Mousáta,
215101,GR,33,Kírra,
215102,GR,49,Oía,
215103,GR,49,Vári,
215104,GR,2,Íasmos,
215105,GR,13,Ássiros,
215106,GR,48,Áyios Kírikos,
215107,GR,39,Karátoulas,
215108,GR,1,Souflíon,
215109,GR,36,Límnai,
215110,GR,31,Panaitólion,
215111,GR,7,Pentaplátanon,
215112,GR,47,Sými,
215113,GR,51,Mytilene,
215114,GR,35,Atene,
215115,GR,22,Eláti,
215116,GR,37,Athíkia,
215117,GR,35,Ayía Paraskeví,
215118,GR,16,Skála Foúrkas,
215119,GR,23,Karditsomagoúla,
215120,GR,23,Néon Monastírion,
215121,GR,13,Floyitá,
215122,GR,13,Néa Tríglia,
215123,GR,6,Kambánis,
215124,GR,33,Lárimna,
215125,GR,14,Palaiokhórion,
215126,GR,34,Néa Artáki,
215127,GR,22,Petrotón,
215128,GR,45,Khersónisos,
215129,GR,45,Goúrnai,
215130,GR,33,Erithraí,
215131,GR,21,Fálanna,
215132,GR,24,Zagorá,
215133,GR,37,Vélon,
215134,GR,35,Ekáli,
215135,GR,41,Kariaí,
215136,GR,45,Kastéllion,
215137,GR,31,Kastrákion,
215138,GR,37,Arkhaía Kórinthos,
215139,GR,24,Kalá Nerá,
215140,GR,12,Platí,
215141,GR,3,Petinós,
215142,GR,16,Karítsa,
215143,GR,20,Melissourgoí,
215144,GR,13,Néa Kerasiá,
215145,GR,28,Kalamákion,
215146,GR,5,Tholós,
215147,GR,39,Kréstena,
215148,GR,39,Kallithéa,
215149,GR,38,Kamárai,
215150,GR,36,Néa Tírins,
215151,GR,37,Kirás Vrísi,
215152,GR,13,Ayía Triás,
215153,GR,37,Kokkónion,
215154,GR,39,Lálas,
215155,GR,35,Stamáta,
215156,GR,43,Soúda,
215157,GR,49,Áyios Andréas,
215158,GR,13,Kalamotón,
215159,GR,50,Thimianá,
215160,GR,48,Foúrnoi,
215161,GR,16,Miléa,
215162,GR,17,Dolianá,
215163,GR,31,Sardínia,
215164,GR,38,Káto Mazarákion,
215165,GR,5,Pentápolis,
215166,GR,13,Néoi Epivátai,
215167,GR,35,Kalívia Thorikoú,
215168,GR,40,Meligalás,
215169,GR,46,Kritsá,
215170,GR,32,Lidoríkion,
215171,GR,21,Livádi,
215172,GR,22,Rízoma,
215173,GR,21,Tsarítsani,
215174,GR,12,Diavatós,
215175,GR,24,Skópelos,
215176,GR,41,Leonídion,
215177,GR,22,Grízanon,
215178,GR,28,Katastárion,
215179,GR,35,Kálamos,
215180,GR,35,Néa Mákri,
215181,GR,11,Árdassa,
215182,GR,43,Ayía Marína,
215183,GR,36,Tolón,
215184,GR,37,Melíssion,
215185,GR,37,Xilókastron,
215186,GR,34,Límni,
215187,GR,13,Playiárion,
215188,GR,12,Angelokhórion,
215189,GR,35,Galátsion,
215190,GR,45,Tílisos,
215191,GR,38,Ríon,
215192,GR,2,Sápai,
215193,GR,15,Arnaía,
215194,GR,31,Krikellos,
215195,GR,35,Iráklion,
215196,GR,5,Néos Skopós,
215197,GR,45,Episkopí,
215198,GR,51,Kalloní,
215199,GR,49,Tínos,
215200,GR,34,Prokópion,
215201,GR,13,Layiná,
215202,GR,47,Kárpathos,
215203,GR,38,Lápas,
215204,GR,12,Alexándria,
215205,GR,31,Áyios Vasílios,
215206,GR,45,Goúrnes,
215207,GR,11,Avgí,
215208,GR,33,Kókkinon,
215209,GR,13,Néon Rísion,
215210,GR,34,Roviaí,
215211,GR,22,Kastrákion,
215212,GR,5,Nikóklia,
215213,GR,39,Traganón,
215214,GR,13,Néa Pláyia,
215215,GR,13,Ayía Paraskeví,
215216,GR,35,Varnávas,
215217,GR,17,Pérama,
215218,GR,39,Alfioúsa,
215219,GR,14,Nikísiani,
215220,GR,49,Ermoúpolis,
215221,GR,23,Karpokhórion,
215222,GR,36,Portokhélion,
215223,GR,37,Vrakhátion,
215224,GR,11,Koíla,
215225,GR,37,Neméa,
215226,GR,11,Komniná,
215227,GR,13,Vathílakkos,
215228,GR,4,Kalós Agrós,
215229,GR,6,Pedinón,
215230,GR,29,Domokós,
215231,GR,38,Káto Akhaïa,
215232,GR,5,Káto Kamíla,
215233,GR,25,Áyios Matthaíos,
215234,GR,36,Nauplion,
215235,GR,5,Kalí Vrísi,
215236,GR,5,Valtotópion,
215237,GR,34,Skála Oropoú,
215238,GR,38,Royítika,
215239,GR,39,Manolás,
215240,GR,31,Aitolikón,
215241,GR,18,Parapótamos,
215242,GR,50,Piryíon,
215243,GR,11,Krókos,
215244,GR,23,Artesianón,
215245,GR,29,Omvriakí,
215246,GR,22,Megála Kalívia,
215247,GR,35,Póros,
215248,GR,39,Killíni,
215249,GR,38,Paralía,
215250,GR,35,Dhaskalión,
215251,GR,48,Chorió Klíma,
215252,GR,30,Epinianá,
215253,GR,13,Khortiátis,
215254,GR,13,Yerakaroú,
215255,GR,35,Vouliagméni,
215256,GR,16,Svorónos,
215257,GR,23,Agnanterón,
215258,GR,42,Sikéa,
215259,GR,51,Stípsi,
215260,GR,33,Elátia,
215261,GR,13,Néa Apollonía,
215262,GR,47,Sími,
215263,GR,37,Khiliomodion,
215264,GR,31,Kastrákion,
215265,GR,13,Kallithéa,
215266,GR,1,Orestiás,
215267,GR,27,Póros,
215268,GR,33,Áyios Yeóryios,
215269,GR,6,Gouménissa,
215270,GR,23,Mitrópoli,
215271,GR,34,Amárinthos,
215272,GR,35,Hydra,
215273,GR,24,Patitírion,
215274,GR,37,Káto Ássos,
215275,GR,39,Laganás,
215276,GR,45,Gázi,
215277,GR,25,Perivólion,
215278,GR,42,Yéfira,
215279,GR,12,Kouloúra,
215280,GR,40,Petalidi,
215281,GR,34,Afrátion,
215282,GR,7,Kalívia,
215283,GR,46,Áyios Nikólaos,
215284,GR,39,Gastoúni,
215285,GR,41,Nestáni,
215286,GR,36,Kranídion,
215287,GR,31,Playiá,
215288,GR,19,Pappadátai,
215289,GR,31,Agrínion,
215290,GR,33,Livadeiá,
215291,GR,46,Síva,
215292,GR,40,Gargaliánoi,
215293,GR,17,Koutsélion,
215294,GR,14,Chrysoúpoli,
215295,GR,35,Epidavros,
215296,GR,22,Anthoúsa,
215297,GR,19,Filippiás,
215298,GR,12,Kría Vrísi,
215299,GR,23,Itéa,
215300,GR,12,Tríkala,
215301,GR,21,Kalývia,
215302,GR,37,Krionérion,
215303,GR,32,Itéa,
215304,GR,33,Kiriákion,
215305,GR,6,Políkastron,
215306,GR,47,Ialisós,
215307,GR,35,Marathón,
215308,GR,12,Lianovéryion,
215309,GR,16,Methóni,
215310,GR,6,Ámbeloi,
215311,GR,45,Zarós,
215312,GR,46,Timbákion,
215313,GR,14,Próti,
215314,GR,13,Kassándra,
215315,GR,45,Prassás,
215316,GR,35,Elefsís,
215317,GR,23,Ilías,
215318,GR,16,Trílofos,
215319,GR,35,Avlón,
215320,GR,35,Dionysos,
215321,GR,34,Néos Pírgos,
215322,GR,35,Víron,
215323,GR,6,Argyroúpolis,
215324,GR,39,Amaliáda,
215325,GR,13,Péfka,
215326,GR,7,Kélla,
215327,GR,20,Anéza,
215328,GR,23,Rentína,
215329,GR,31,Monastirákion,
215330,GR,25,Sidari,
215331,GR,49,Otziás,
215332,GR,23,Kapá,
215333,GR,18,Kokkiniá,
215334,GR,40,Navarino,
215335,GR,14,Mousthéni,
215336,GR,42,Asopós,
215337,GR,15,Taxiárkhis,
215338,GR,31,Thérmon,
215339,GR,35,Petroúpolis,
215340,GR,45,Néa Alikarnassós,
215341,GR,5,Iráklia,
215342,GR,35,Pórto Ráfti,
215343,GR,39,Plátanos,
215344,GR,38,Varvára,
215345,GR,47,Zipárion,
215346,GR,14,Prínos,
215347,GR,39,Vartholomió,
215348,GR,24,Moúresi,
215349,GR,35,Pendéli,
215350,GR,49,Apollonía,
215351,GR,15,Néos Marmarás,
215352,GR,35,Kántza,
215353,GR,49,Kythnos,
215354,GR,35,Lávrion,
215355,GR,45,Koutouloufárion,
215356,GR,13,Zográfos,
215357,GR,22,Fíki,
215358,GR,7,Melíti,
215359,GR,47,Pátmos,
215360,GR,14,Thásos,
215361,GR,42,Káto Glikóvrisi,
215362,GR,37,Soulinári,
215363,GR,25,Gáïos,
215364,GR,13,Áfitos,
215365,GR,35,Drafí,
215366,GR,40,Kiparissía,
215367,GR,22,Píli,
215368,GR,34,Káristos,
215369,GR,13,Néa Filadélfeia,
215370,GR,33,Arákhova,
215371,GR,40,Koróni,
215372,GR,13,Chalkidóna,
215373,GR,49,Amorgós,
215374,GR,47,Lakkíon,
215375,GR,46,Skhísma,
215376,GR,14,Theológos,
215377,GR,43,Vámos,
215378,GR,7,Sevastianá,
215379,GR,49,Gávrio,
215380,GR,40,Zevgolatió,
215381,GR,27,Lixoúrion,
215382,GR,35,Néon Iráklion,
215383,GR,37,Kalamáki,
215384,GR,9,Árgos Orestikón,
215385,GR,23,Ágioi Anárgyroi,
215386,GR,23,Mouzákion,
215387,GR,13,Políkhni,
215388,GR,22,Megalokhórion,
215389,GR,40,Áris,
215390,GR,34,Kími,
215391,GR,43,Perivólia,
215392,GR,48,Kokkárion,
215393,GR,45,Áno Viánnos,
215394,GR,29,Kaména Voúrla,
215395,GR,42,Stoúpa,
215396,GR,37,Vokhaïkón,
215397,GR,7,Palaífiton,
215398,GR,16,Leptokaryá,
215399,GR,13,Drymós,
215400,GR,7,Ápsalos,
215401,GR,7,Flamouriá,
215402,GR,17,Kría,
215403,GR,22,Leptokariá,
215404,GR,19,Párga,
215405,GR,35,Kýthira,
215406,GR,49,Mesariá,
215407,GR,37,Pitsá,
215408,GR,1,Férai,
215409,GR,29,Livanátai,
215410,GR,17,Agía Varvára,
215411,GR,49,Kamárion,
215412,GR,20,Távla,
215413,GR,23,Magoúla,
215414,GR,15,Portariá,
215415,GR,7,Skýdra,
215416,GR,37,Tríkala,
215417,GR,22,Chánia,
215418,GR,35,Argyroupolis,
215419,GR,30,Ágios Nikólaos,
215420,GR,34,Skíros,
215421,GR,31,Neokhórion,
215422,GR,23,Mýrina,
215423,GR,27,Sámi,
215424,GR,45,Moírai,
215425,GR,35,Kalloní,
215426,GR,29,Skála,
215427,GR,33,Loútsi,
215428,GR,23,Makrikhórion,
215429,GR,24,Miléai,
215430,GR,6,Axioúpoli,
215431,GR,6,Plágia,
215432,GR,15,Sárti,
215433,GR,9,Korisós,
215434,GR,50,Liménas,
215435,GR,35,Palaiá Fókaia,
215436,GR,49,Éxo Goniá,
215437,GR,31,Pigádia,
215438,GR,49,Foínikas,
215439,GR,5,Sidirókastro,
215440,GR,37,Loutráki,
215441,GR,49,Agápi,
215442,GR,28,Zákynthos,
215443,GR,30,Karpenísi,
215444,GR,10,Ánoixi,
215445,GR,23,Plágia,
215446,GR,42,Yíthion,
215447,GR,41,Tyros,
215448,GR,42,Kyparissia,
215449,GR,40,Pílos,
215450,GR,38,Vrakhnaíika,
215451,GR,42,Pyrgos,
215452,GR,42,Neápoli,
215453,GR,36,Koróni,
215454,GR,35,Kamateró,
215455,GR,49,Náousa,
215456,GR,35,Kalogréza,
215457,GR,24,Alónnisos,
215458,GR,35,Várkiza,
215459,GR,35,Néa Palátia,
215460,GR,31,Astakós,
215461,GR,39,Katákolo,
215462,GR,31,Vónitsa,
215463,GR,42,Monemvasía,
215464,GR,14,Platamón,
215465,GR,13,Laïná,
215466,GR,15,Parthenón,
215467,GR,39,Andravída,
215468,GR,31,Amfilokhía,
215469,GR,35,Malakása,
215470,GR,27,Mavráta,
215471,GR,35,Patíssia,
215472,GR,35,Kóntos,
215473,GR,20,Andreás,
215474,GR,13,Efkarpía,
215475,GR,6,Evropós,
215476,GR,35,Le Pirée,
215477,GR,29,Mólos,
215478,GR,35,Vélos,
215479,GR,6,Aléxia,
215480,GR,17,Mystrás,
215481,GR,34,Drossiá,
215482,GR,35,Peiraiéfs,
215483,GR,45,Galatá,
215484,GR,13,Triandría,
215485,GR,17,Anatolí,
215486,GR,51,Míthimna,
215487,GR,36,Didyma,
215488,GR,50,Límnos,
215489,GR,39,Vasiláki,
215490,GR,35,Oropós,
215491,GR,49,Kéa,
215492,GR,43,Stalós,
215493,GR,19,Archángelos,
215494,GR,35,Ágioi,
215495,GR,38,Mintilógli,
215496,GR,33,Distomo,
215497,GR,47,Antimakhia,
215498,GR,15,Ormília,
215499,GR,9,Mesopotamiá,
215500,GR,1,Samothráki,
215501,GR,49,Loutrá,
215502,GR,33,Andikíra,
215503,GR,41,Tegéa,
215504,GR,34,Vasilikón,
215505,GR,17,Petsáli,
215506,GR,39,Várda,
215507,GR,24,Néa Ankhíalos,
215508,GR,11,Siátista,
215509,GR,29,Palamás,
215510,GR,18,Ampélia,
215511,GR,28,Mouzákion,
215512,GR,1,Didymóteicho,
215513,GR,23,Lagkádion,
215514,GR,23,Márkou,
215515,GR,25,Ágios Ioánnis,
215516,GR,35,Patision,
215517,GR,20,Romanoú,
215518,GR,42,Monemvasías,
215519,GR,41,Levidi,
215520,GR,21,Týrnavos,
215521,GR,37,Solomoú,
215522,GR,49,Mánna,
215523,GR,20,Kámpos,
215524,GR,49,Moní,
215525,GR,44,Magnisía,
215526,GR,49,Sífnos,
215527,GR,37,Isthmós,
215528,GR,21,Elassóna,
215529,GR,46,Mália,
215530,GR,45,Moíres,
215531,GR,13,Lagkadás,
215532,GR,14,Limenária,
215533,GR,16,Litóchoro,
215534,GR,50,Limanáki,
215535,GR,42,Asími,
215536,GR,47,Kamári,
215537,GR,39,Balí,
215538,GR,46,Ágios Nikólaos,
215539,GR,23,Livádia,
215540,GR,40,Maliá,
215541,GR,36,Kándia,
215542,GR,39,Lekhainá,
215543,GR,22,Oichalía,
215544,GR,51,Pétra,
215545,GR,25,Karousádes,
215546,GR,25,Kassiópi,
215547,GR,13,Anchíalos,
215548,GR,7,Kariótissa,
215549,GR,46,Mílatos,
215550,GR,34,Khánia,
215551,GR,42,Glikóvrisi,
215552,GR,49,Folégandros,
215553,GR,13,Stavroúpoli,
215554,GR,35,Soúrmena,
215555,GR,38,Saraváli,
215556,GR,26,Kariá,
215557,GR,51,Ayiásos,
215558,GR,35,Kriezá,
215559,GR,5,Sidirókastron,
215560,GR,47,Afántou,
215561,GR,6,Metamórfosi,
215562,GR,18,Platariá,
215563,GR,13,Meneméni,
215564,GR,40,Málta,
215565,GR,48,Vathí,
215566,GR,41,Dimitsána,
215567,GR,35,Kokkíni,
215568,GR,7,Xinón Nerón,
215569,GR,24,Soúrpi,
215570,GR,13,Ágios Pávlos,
215571,GR,38,Alissós,
215572,GR,40,Methóni,
215573,GR,30,Ágioi Theódoroi,
215574,GR,41,Korakovoúni,
215575,GR,35,Pireo,
215576,GR,41,Meligoú,
215577,GR,33,Levádeia,
215578,GR,35,Glifádha,
215579,GR,20,Kostakioí,
215580,GR,42,Kalámi,
215581,GR,1,Lávara,
215582,GR,47,Lámbi,
215583,GR,12,Kopanós,
215584,GR,22,Panagía,
215585,GR,34,Néa Stíra,
215586,GR,37,Skhoínos,
215587,GR,8,Varthalóm,
215588,GR,34,Néa Lámpsakos,
215589,GR,41,Melísi,
215590,GR,50,Vrontádos,
215591,GR,17,Kónitsa,
215592,GR,23,Pýrgos,
215593,GR,32,Galaxidi,
215594,GR,6,Mikrókambos,
215595,GR,11,Zoodóchos Pigí,
215596,GR,11,Námata,
215597,GR,12,Xirolívadhon,
215598,GR,41,Kiparíssi,
215599,GR,7,Áthira,
215600,GR,46,Pláti,
215601,GR,14,Peristéria,
215602,GR,13,Áyios Athanásios,
215603,GR,45,Khánion Toú Kokkíni,
215604,GR,42,Élos,
215605,GR,11,Galatiní,
215606,GR,11,Ktenás,
215607,GR,43,Dhrápanos,
215608,GR,18,Ano Xéchoron,
215609,GR,23,Kipárissos,
215610,GR,32,Graviá,
215611,GR,16,Chráni,
215612,GR,7,Áno Grammatikón,
215613,GR,41,Áno Kollínai,
215614,GR,22,Karavdaíïka,
215615,GR,34,Aedipsos,
215616,GR,9,Maniákoi,
215617,GR,11,Áyios Kharálambos,
215618,GR,26,Póros,
215619,GR,44,Plakiás,
215620,GR,33,Alikí,
215621,GR,17,Eleoúsa,
215622,GR,25,Paxoí,
215623,GR,14,Chrysoúpolis,
215624,GR,31,Katokhí,
215625,GR,35,Mazaréïka,
215626,GR,45,Dhemáti,
215627,GR,12,Fitía,
215628,GR,12,Káto Séli,
215629,GR,27,Ratzaklíon,
215630,GR,23,Pávliani,
215631,GR,39,Oriní,
215632,GR,40,Platanákion,
215633,GR,24,Karajándali,
215634,GR,32,Dháfnos,
215635,GR,7,Sotíra,
215636,GR,0,Kastelorizo,
215637,GR,11,Sklíthron,
215638,GR,40,Filiatrá,
215639,GR,42,Xirokámbion,
215640,GR,36,Kinétta,
215641,GR,36,Prosímni,
215642,GR,42,Molaiti,
215643,GR,36,Íria,
215644,GR,19,Loúros,
215645,GR,13,Asvestokhórion,
215646,GR,11,Mathitikaí Exochaí Kozánis,
215647,GR,11,Kremastí,
215648,GR,12,Katranítsa,
215649,GR,24,Makrinítsa,
215650,GR,12,Neókastro,
215651,GR,14,Kalambákion,
215652,GR,49,Sérifos,
215653,GR,45,Káto Asítai,
215654,GR,14,Dhrimótopos,
215655,GR,24,Aërinón,
215656,GR,35,Varibópi,
215657,GR,31,Pálairos,
215658,GR,14,Eleftheroúpoli,
215659,GR,44,Spíli,
215660,GR,40,Sirakaíika,
215661,GR,18,Plaísio,
215662,GR,39,Arvaniti,
215663,GR,30,Dálla,
215664,GR,23,Kraniás,
215665,GR,21,Thomai,
215666,GR,22,Chatzí,
215667,GR,4,Xiropótamos,
215668,GR,33,Amfíklia,
215669,GR,1,Péplos,
215670,GR,33,Pírgos,
215671,GR,31,Vlizaná,
215672,GR,29,Dhrakháni,
215673,GR,35,Ýdra,
215674,GR,7,Rizón,
215675,GR,12,Vromopígadho,
215676,GR,27,Valsamáta,
215677,GR,43,Korakiés,
215678,GR,18,Kamíni,
215679,GR,35,Káto Patísia,
215680,GR,9,Klisoúra,
215681,GR,31,Stános,
215682,GR,35,Áyios Stéfanos,
215683,GR,48,Ágios Konstantínos,
215684,GR,34,Tanágra,
215685,GR,16,Kontariótissa,
215686,GR,11,Palaiókastron,
215687,GR,11,Kómanos,
215688,GR,35,Zárakes,
215689,GR,6,Kastaniés,
215690,GR,41,Plátanos,
215691,GR,34,Ília,
215692,GR,21,Karítsa,
215693,GR,47,Avláchia,
215694,GR,7,Dytikó,
215695,GR,12,Kleidí,
215696,GR,39,Khrisokhóri,
215697,GR,39,Beloúsi,
215698,GR,29,Skárfia,
215699,GR,28,Koríthi,
215700,GR,6,Strimonikón,
215701,GR,35,Paloúkia,
215702,GR,12,Episkopí,
215703,GR,22,Plataniás,
215704,GR,31,Lepanto,
215705,GR,34,Oreoí,
215706,GR,19,Thesprotikón,
215707,GR,33,Martínon,
215708,GR,35,Metamórfosis,
215709,GR,40,Sperkhóyia,
215710,GR,35,Laurium,
215711,GR,35,Kíthira,
215712,GR,12,Ayía Marína,
215713,GR,41,Tirós,
215714,GR,34,Kírinthos,
215715,GR,16,Élafos,
215716,GR,3,Kíknos,
215717,GR,43,Kafoúros,
215718,GR,39,Koskinás,
215719,GR,37,Zevgolatió,
215720,GR,23,Pirá,
215721,GR,23,Elliniká,
215722,GR,5,Asayiá Mahalé,
215723,GR,29,Arkítsa,
215724,GR,21,Elevthérion,
215725,GR,51,Plomárion,
215726,GR,18,Pérdika,
215727,GR,12,Áyios Yeóryios,
215728,GR,36,Kókla,
215729,GR,37,Poseidonia,
215730,GR,41,Trópaia,
215731,GR,8,Poimenikón,
215732,GR,11,Sahinlár,
215733,GR,37,Klénia,
215734,GR,48,Mitilinioí,
215735,GR,11,Pelargós,
215736,GR,26,Nikolís,
215737,GR,18,Sagiáda,
215738,GR,42,Goúves,
215739,GR,49,Gávrion,
215740,GR,38,Pírgos,
215741,GR,43,Kolimvári,
215742,GR,25,Ágios Márkos,
215743,GR,41,Demíri,
215744,GR,13,Néa Mesimvría,
215745,GR,7,Néos Milótopos,
215746,GR,37,Solomós,
215747,GR,46,Mátala,
215748,GR,6,Toúmpa,
215749,GR,27,Níki,
215750,GR,13,Kalokhórion,
215751,GR,24,Glóssa,
215752,GR,25,Lefkímmi,
215753,GR,51,Loutrá,
215754,GR,16,Mikrí Miléa,
215755,GR,20,Bótsi,
215756,GR,40,Kardamyli,
215757,GR,46,Sívas,
215758,GR,25,Ípsos,
215759,GR,35,Áyios Ioánnis Karéas,
215760,GR,18,Faskomiliá,
215761,GR,21,Omólio,
215762,GR,14,Limín,
215763,GR,43,Xirostérni,
215764,GR,49,Akrotíri,
215765,GR,13,Elefthério,
215766,GR,39,Grammatikós,
215767,GR,40,Karamanóli,
215768,GR,35,Peristéri,
215769,GR,13,Plagiári,
215770,GR,13,Políchni,
215771,GR,12,Makrochóri,
215772,GR,48,Karlovasi,
215773,GR,12,Platý,
215774,GR,37,Xylókastro,
215775,GR,34,Chalkís,
215776,GR,16,Aigínio,
215777,GR,13,Ágios Athanásios,
215778,GR,31,Mesolóngi,
215779,GR,35,Aegaleo,
215780,GR,45,Arkalochóri,
215781,GR,7,Xinó Neró,
215782,GR,44,Réthymnon,
215783,GR,35,Aegina,
215784,GR,46,Tympáki,
215785,GR,7,Aridea,
215786,GR,12,Alexándreia,
215787,GR,42,Sparta,
215788,GR,47,Ialysós,
215789,GR,36,Kranídi,
215790,GR,28,Zante,
215791,GR,13,Saloníki,
215792,GR,24,Almyrós,
215793,GR,27,Lixoúri,
215794,GR,41,Megalópolis,
215795,GR,42,Gýtheio,
215796,GR,23,Mouzáki,
215797,GR,18,Paramythía,
215798,GR,35,Psychico,
215799,GR,40,Kyparissía,
215800,GR,36,Návplion,
215801,GR,45,Irákleion,
215802,GR,45,Míres,
215803,GR,34,Kárystos,
215804,GR,31,Mesolónghi,
215805,GR,31,Amfilochía,
215806,GR,2,Sápes,
215807,GR,35,Markópoulon,
215808,GR,36,Náfplion,
215809,GR,35,Spétses,
215810,GR,22,Kalabáka,
215811,GR,17,Métsovo,
215812,GR,33,Vagia,
215813,GR,42,Areópoli,
215814,GR,13,Melissochóri,
215815,GR,43,Vrýses,
215816,GR,17,Pláka,
215817,GR,22,Karyaí,
215818,GR,41,Leonídio,
215819,GR,33,Thebes,
215820,GR,25,Áno Garoúna,
215821,GR,35,Acharne,
215822,GR,12,Krímsia,
215823,GR,34,Vasiliko,
215824,GR,33,Martino,
215825,GR,39,Kyllíni,
215826,GR,43,Tsikalariá,
215827,GR,7,Paralímni,
215828,GR,40,Nerómilos,
215829,GR,9,Maniáki,
215830,GR,7,Konstantía,
215831,GR,16,Aronás,
215832,GR,34,Marmári,
215833,GR,49,Hermoúpolis,
215834,GR,36,Assíni,
215835,GR,27,Ithaca,
215836,GR,1,Féres,
215837,GR,45,Stavrákia,
215838,GR,39,Archaía Olympía,
215839,GR,19,Stavrochóri,
215840,GR,45,Vasilíai,
215841,GR,38,Aígion,
215842,GR,47,Ialyssós,
215843,GR,50,Kalamotí,
215844,GR,23,Kardhítsa,
215845,GR,5,Valteró,
215846,GR,35,Ampelákia,
215847,GR,36,Hermioni,
215848,GR,18,Karvounári,
215849,GR,38,Egion,
215850,GR,38,Paralímni,
215851,GR,16,Tuzla,
215852,GR,37,Kaléndzi,
215853,GR,13,Néa Magnisía,
215854,GR,51,Eressós,
215855,GR,12,Kharíessa,
215856,GR,38,Kato Achaia,
215857,GR,4,Prosotsáni,
215858,GR,25,Gastóuri,
215859,GR,39,Xilokéra,
215860,GR,15,Marmarás,
215861,GR,21,Stómio,
215862,GR,29,Livanátes,
215863,GR,35,Káto Soúli,
215864,GR,19,Filippiáda,
215865,GR,49,Firá,
215866,GR,15,Ormylia,
