locId,country,region,city,postcode
216893,HR,,,
216894,HR,21,Zagreb,
216895,HR,15,Split,
216896,HR,12,Rijeka,
216897,HR,3,Dubrovnik,
216898,HR,4,Porec,
216899,HR,5,Svetice,
216900,HR,12,Kras,
216901,HR,20,Zadar,
216902,HR,9,Cakovec,
216903,HR,5,Karlovac,
216904,HR,4,Mali Losinj,
216905,HR,4,Pazin,
216906,HR,5,Jastrebarsko,
216907,HR,21,Gornji Stupnik,
216908,HR,16,Varazdin,
216909,HR,12,Stinica,
216910,HR,10,Osijek,
216911,HR,4,Pula,
216912,HR,6,Koprivnica,
216913,HR,15,Solin,
216914,HR,7,Prigorje Brdovecko,
216915,HR,15,Kastel Stari,
216916,HR,4,Brtonigla,
216917,HR,4,Buzet,
216918,HR,15,Kastel Sucurac,
216919,HR,12,Crikvenica,
216920,HR,12,Punat,
216921,HR,12,Kastav,
216922,HR,14,Sisak,
216923,HR,21,Samobor,
216924,HR,4,Umag,
216925,HR,11,Pozega,
216926,HR,12,Baska,
216927,HR,16,Ivanec,
216928,HR,15,Trogir,
216929,HR,14,Stupnik,
216930,HR,21,Lucko,
216931,HR,21,Sesvete,
216932,HR,12,Opatija,
216933,HR,4,Medulin,
216934,HR,7,Hum Na Sutli,
216935,HR,14,Plitvicka Jezera,
216936,HR,4,Lindar,
216937,HR,21,Rakitje,
216938,HR,1,Garesnica,
216939,HR,8,Donje Selo,
216940,HR,4,Rovinj,
216941,HR,2,Slavonski Brod,
216942,HR,20,Sukosan,
216943,HR,21,Sveta Nedelja,
216944,HR,21,Zapresic,
216945,HR,7,Kupljenovo,
216946,HR,12,Borik,
216947,HR,11,Djakovo,
216948,HR,4,Buje,
216949,HR,15,Kamen,
216950,HR,20,Kuce,
216951,HR,7,Zabok,
216952,HR,12,Benkovac,
216953,HR,10,Belisce,
216954,HR,4,Okreti,
216955,HR,4,Lupoglav,
216956,HR,12,Kukuljanovo,
216957,HR,12,Novi,
216958,HR,15,Stobrec,
216959,HR,21,Sveta Nedjelja,
216960,HR,20,Velika Gorica,
216961,HR,3,Vrgorac,
216962,HR,3,Cavtat,
216963,HR,20,Vrbovec,
216964,HR,3,Cilipi,
216965,HR,18,Vinkovci,
216966,HR,12,Kraljevica,
216967,HR,15,Hvar,
216968,HR,13,Sibenik,
216969,HR,12,Matulji,
216970,HR,1,Bjelovar,
216971,HR,21,Kraljevac,
216972,HR,17,Nasice,
216973,HR,5,Brod,
216974,HR,7,Donja Stubica,
216975,HR,14,Kutina,
216976,HR,6,Majur,
216977,HR,21,Kerestinec,
216978,HR,11,Lipik,
216979,HR,4,Potpican,
216980,HR,15,Omis,
216981,HR,8,Popovaca,
216982,HR,4,Maric,
216983,HR,4,Rasa,
216984,HR,16,Kneginec,
216985,HR,12,Blizanci,
216986,HR,21,Jankomir,
216987,HR,15,Dugopolje,
216988,HR,14,Petrinja,
216989,HR,16,Trnovec,
216990,HR,17,Slatina,
216991,HR,18,Zupanja,
216992,HR,21,Nedjelja,
216993,HR,12,Tomic,
216994,HR,3,Ploce,
216995,HR,4,Savudrija,
216996,HR,21,Hrvatski Leskovac,
216997,HR,8,Podstrana,
216998,HR,18,Vukovar,
216999,HR,21,Strmec Samoborski,
217000,HR,1,Nova,
217001,HR,14,Core,
217002,HR,15,Strozanac,
217003,HR,21,Mikulici,
217004,HR,12,Novi Vinodolski,
217005,HR,13,Tvornica,
217006,HR,20,Sale,
217007,HR,12,Pago,
217008,HR,5,Lucica,
217009,HR,3,Makarska,
217010,HR,7,Klanjec,
217011,HR,20,Zara,
217012,HR,3,Vodice,
217013,HR,7,Mihovljan,
217014,HR,9,Prelog,
217015,HR,3,Marinici,
217016,HR,7,Sveti Kriz,
217017,HR,4,Koromacno,
217018,HR,15,Stari,
217019,HR,16,Breznicki Hum,
217020,HR,12,Dabar,
217021,HR,4,Cerovlje,
217022,HR,3,Zovko,
217023,HR,12,Pag,
217024,HR,9,Nedelisce,
217025,HR,14,Lijevo Zeljezno,
217026,HR,20,Klostar Ivanic,
217027,HR,7,Krapina,
217028,HR,6,Krizevci,
217029,HR,7,Donja Selnica,
217030,HR,7,Ervenik,
217031,HR,16,Slanje,
217032,HR,7,Gornja Stubica,
217033,HR,7,Bedekovcina,
217034,HR,7,Dubravica,
217035,HR,7,Bedekovcina Donja,
217036,HR,12,Ogulin,
217037,HR,21,Bobovica,
217038,HR,4,Novigrad,
217039,HR,8,Senj,
217040,HR,12,Krk,
217041,HR,12,Rab,
217042,HR,4,Labin,
217043,HR,12,Mala Ucka,
217044,HR,3,Metkovic,
217045,HR,3,Ploca,
217046,HR,3,Trnovica,
217047,HR,3,Korcula,
217048,HR,20,Biograd Na Moru,
217049,HR,3,Kresici,
217050,HR,13,Murter,
217051,HR,8,Gospic,
217052,HR,3,Banja,
217053,HR,3,Kobas,
217054,HR,20,Ugljan,
217055,HR,3,Grncenik,
217056,HR,3,Smokovina,
217057,HR,15,Kastel Luksic,
217058,HR,17,Orahovica,
217059,HR,7,Donje Gredice,
217060,HR,20,Dugo Selo,
217061,HR,1,Palancani,
217062,HR,21,Grancari,
217063,HR,20,Ivanic-grad,
217064,HR,14,Donja Kupcina,
217065,HR,16,Lepoglava,
217066,HR,16,Ludbreg,
217067,HR,7,Zlatar,
217068,HR,14,Gracac,
217069,HR,3,Kaludrica,
217070,HR,15,Dugi Rat,
217071,HR,13,Zirje,
217072,HR,13,Donji Dolac,
217073,HR,4,Fazana,
217074,HR,4,Hrvatini,
217075,HR,4,Vicani,
217076,HR,4,Santalezi,
217077,HR,12,Porozina,
217078,HR,12,Vela Voda,
217079,HR,3,Njivice,
217080,HR,12,Cavle,
217081,HR,12,Cres,
217082,HR,4,Butoniga,
217083,HR,12,Bakar,
217084,HR,4,Batlug,
217085,HR,4,Nedescina,
217086,HR,4,Businia,
217087,HR,17,Gradac,
217088,HR,2,Lapovci,
217089,HR,2,Gundinci,
217090,HR,2,Svetoblazje,
217091,HR,18,Spacva,
217092,HR,17,Virovitica,
217093,HR,18,Ivankovo,
217094,HR,2,Resetari,
217095,HR,10,Vucevci,
217096,HR,2,Nova Gradiska,
217097,HR,12,Malinska,
217098,HR,21,Hudi Bitek,
217099,HR,4,Duba,
217100,HR,15,Sveti Ante,
217101,HR,15,Brusje,
217102,HR,7,Poznanovec,
217103,HR,16,Belec,
217104,HR,10,Josipovac,
217105,HR,20,Kupinec,
217106,HR,12,Vrbovsko,
217107,HR,20,Sali,
217108,HR,15,Povia,
217109,HR,7,Donja Bistra,
217110,HR,4,Barban,
217111,HR,4,Zeleski,
217112,HR,3,Vela Luka,
217113,HR,10,Petrievcze,
217114,HR,4,Beram,
217115,HR,18,Cakovci,
217116,HR,20,Hobolici,
217117,HR,12,Hreljin,
217118,HR,21,Rakov Potok,
217119,HR,5,Police,
217120,HR,21,Novaki Samoborski,
217121,HR,7,Marija Bistrica,
217122,HR,7,Petrusevec,
217123,HR,21,Buti,
217124,HR,4,Cepic,
217125,HR,4,Cubanici,
217126,HR,12,Lubenice,
217127,HR,4,Cavrano,
217128,HR,4,Martinski,
217129,HR,4,Rusici,
217130,HR,3,Prigradica,
217131,HR,15,Jelsa,
217132,HR,3,Ðurani,
217133,HR,3,Bogicevici,
217134,HR,10,Viljevo,
217135,HR,11,Kutjevo,
217136,HR,21,Spanjsko,
217137,HR,20,Deanovec,
217138,HR,20,Jezevo,
217139,HR,7,Igrisce,
217140,HR,1,Nova Kapela,
217141,HR,10,Valpovo,
217142,HR,9,Dravski Sveti Kriz,
217143,HR,21,Horvati,
217144,HR,10,Cepin,
217145,HR,10,Hrastinski Lipovac,
217146,HR,4,Opatija,
217147,HR,21,Podsused,
217148,HR,5,Goli Vrh,
217149,HR,20,Lackovici,
217150,HR,4,Borini,
217151,HR,10,Habjanovci,
217152,HR,7,Kasina,
217153,HR,12,Mrzlovodicki Zelin,
217154,HR,4,Sagri,
217155,HR,4,Skvaranska,
217156,HR,4,Cerovica,
217157,HR,4,Prascari,
217158,HR,12,Sapjane,
217159,HR,3,Grgurici,
217160,HR,15,Marina,
217161,HR,3,Gorice,
217162,HR,15,Sinj,
217163,HR,15,Kastel Gomilica,
217164,HR,2,Stari Slatinik,
217165,HR,2,Budrovce,
217166,HR,20,Gospic,
217167,HR,3,Stedrica,
217168,HR,15,Komiza,
217169,HR,4,Rabac Luka,
217170,HR,4,Rabac,
217171,HR,4,Casali Sumberesi,
217172,HR,2,Dugovac,
217173,HR,18,Cerna,
217174,HR,17,Pitomaca,
217175,HR,4,Castelverde Di Pis,
217176,HR,3,Prapatno,
217177,HR,15,Kastel Novi,
217178,HR,10,Beli Manastir,
217179,HR,7,Veliko Trgovisce,
217180,HR,14,Korenica,
217181,HR,4,Gliuscici,
217182,HR,20,Lonjica,
217183,HR,20,Pavlovec Vrbovecki,
217184,HR,4,Vizinada,
217185,HR,12,Sbissina,
217186,HR,13,Betina,
217187,HR,3,Igrane,
217188,HR,16,Bednja,
217189,HR,7,Kumrovec,
217190,HR,10,Donji Miholjac,
217191,HR,7,Zagorska Sela,
217192,HR,15,Bol,
217193,HR,12,Delnice,
217194,HR,18,Vrbanja,
217195,HR,9,Lopatinec,
217196,HR,10,Tenja,
217197,HR,16,Visoko,
217198,HR,14,Glina,
217199,HR,16,Greda,
217200,HR,12,Jurdani,
217201,HR,12,Kostrena,
217202,HR,5,Ozalj,
217203,HR,10,Kusevac,
217204,HR,4,Petar U Sumi,
217205,HR,5,Jaska,
217206,HR,4,Marcenegla,
217207,HR,3,Gdinj,
217208,HR,4,Visnjan,
217209,HR,12,Josipdol,
217210,HR,6,Durdevac,
217211,HR,7,Krapinske Toplice,
217212,HR,5,Krasic,
217213,HR,7,Brestovec,
217214,HR,4,Viscovich,
217215,HR,15,Dracevica,
217216,HR,20,Nin,
217217,HR,12,Novalja,
217218,HR,3,Maranovici,
217219,HR,3,Opuzen,
217220,HR,14,Knin,
217221,HR,15,Brela,
217222,HR,1,Daruvar,
217223,HR,10,Satnica,
217224,HR,7,Strmec,
217225,HR,20,Bibinje,
217226,HR,21,Bestovje,
217227,HR,4,Foli,
217228,HR,11,Pakrac,
217229,HR,9,Draskovec,
217230,HR,4,Kastelir,
217231,HR,7,Donja Pusca,
217232,HR,20,Tkon,
217233,HR,15,Milna,
217234,HR,9,Mursko Sredisce,
217235,HR,18,Lovas,
217236,HR,2,Jelik,
217237,HR,12,Tribalj,
217238,HR,15,Sucurac,
217239,HR,2,Oprisavci,
217240,HR,20,Zelina,
217241,HR,14,Mala Vranovina,
217242,HR,14,Pisarovina,
217243,HR,20,Gradec,
217244,HR,20,Novo Cice,
217245,HR,5,Duga Resa,
217246,HR,4,Karojba,
217247,HR,4,Vodnjan,
217248,HR,4,Brovigne,
217249,HR,15,Vis,
217250,HR,3,Orebic,
217251,HR,20,Posedarje,
217252,HR,12,Lovran,
217253,HR,12,Moscenicka Draga,
217254,HR,10,Punitovci,
217255,HR,16,Novi Marof,
217256,HR,3,Imotski,
217257,HR,2,Slavonski Samac,
217258,HR,7,Selnica,
217259,HR,13,Tisno,
217260,HR,15,Trilj,
217261,HR,15,Postira,
217262,HR,5,Jaskovo,
217263,HR,21,Agram,
217264,HR,13,Siveric,
217265,HR,20,Mostar,
217266,HR,9,Kotoriba,
217267,HR,7,Pregrada,
217268,HR,6,Kalnik,
217269,HR,6,Kalinovac,
217270,HR,6,Stari Grad,
217271,HR,12,Olib,
217272,HR,18,Rokovci,
217273,HR,6,Rasinja,
217274,HR,2,Velica Kopanica,
217275,HR,2,Staro Topolje,
217276,HR,14,Lekenik,
217277,HR,4,Svetvincenat,
217278,HR,12,Urinj,
217279,HR,18,Stari Jankovci,
217280,HR,21,Vidovec,
217281,HR,6,Zabno,
217282,HR,16,Sracinec,
217283,HR,8,Sveti Ivan,
217284,HR,7,Desinic,
217285,HR,20,Kozinscak,
217286,HR,14,Pokupsko,
217287,HR,5,Funtana,
217288,HR,4,Kanfanar,
217289,HR,3,Slano,
217290,HR,12,Otocac,
217291,HR,15,Okrug Gornji,
217292,HR,4,Sveti Lovrec,
217293,HR,2,Strizivojna,
217294,HR,11,Ðakovo,
217295,HR,20,Andrilovec,
217296,HR,12,Icici,
217297,HR,15,Zrnovnica,
217298,HR,20,Preko,
217299,HR,7,Draganja Sela,
217300,HR,5,Udbina,
217301,HR,14,Divusa,
217302,HR,21,Zitnjak,
217303,HR,3,Lopud,
217304,HR,10,Tikves,
217305,HR,6,Ferdinandovac,
217306,HR,16,Varazdinske Toplice,
217307,HR,6,Sveti Ivan Zabno,
217308,HR,7,Radoboj,
217309,HR,14,Duzica,
217310,HR,4,Nova Vas,
217311,HR,3,Sucuraj,
217312,HR,3,Mlini,
217313,HR,15,Kastel Kambelovac,
217314,HR,2,Donji Andrijevci,
217315,HR,17,Spisic-bukovica,
217316,HR,18,Otok,
217317,HR,16,Cestica,
217318,HR,15,Kastel Stafilic,
217319,HR,12,Grobnik,
217320,HR,10,Knezevi Vinogradi,
217321,HR,10,Petlovac,
217322,HR,7,Petrovsko,
217323,HR,4,Plomin,
217324,HR,11,Gradac,
217325,HR,3,Lapad,
217326,HR,12,Brod Moravice,
217327,HR,1,Kriz,
217328,HR,5,Kamanje,
217329,HR,20,Velika Buna,
217330,HR,1,Gornji Draganec,
217331,HR,7,Veliko Trgoviste,
217332,HR,7,Prigorje,
217333,HR,6,Djurdjevac,
217334,HR,7,Oroslavje,
217335,HR,4,Marcana,
217336,HR,4,Zminj,
217337,HR,12,Bakarac,
217338,HR,13,Pirovac,
217339,HR,4,Oprtalj,
217340,HR,15,Klis,
217341,HR,16,Petrijanec,
217342,HR,2,Staro Petrovo Selo,
217343,HR,5,Mahicno,
217344,HR,12,Krasica,
217345,HR,7,Stubica,
217346,HR,9,Mala Subotica,
217347,HR,8,Bukovlje,
217348,HR,12,Smrika,
217349,HR,20,Graberje Ivanicko,
217350,HR,8,Brinje,
217351,HR,10,Samatovci,
217352,HR,12,Zamet,
217353,HR,4,Krnica,
217354,HR,12,Lokve,
217355,HR,14,Novska,
217356,HR,15,Obrovac Sinjski,
217357,HR,20,Vukovina,
217358,HR,18,Ilok,
217359,HR,12,Skrad,
217360,HR,16,Virje,
217361,HR,7,Jakovlje,
217362,HR,12,Krizisce,
217363,HR,11,Selce,
217364,HR,20,Topolovac Vrbovecki,
217365,HR,13,Drnis,
217366,HR,5,Rakovica,
217367,HR,20,Sveti Ivan Zelina,
217368,HR,7,Kraljevec,
217369,HR,12,Gomirje,
217370,HR,13,Primosten,
217371,HR,18,Racinovci,
217372,HR,16,Gornja Rijeka,
217373,HR,5,Polje,
217374,HR,1,Kapela,
217375,HR,1,Cazma,
217376,HR,12,Martinscica,
217377,HR,6,Glogovac,
217378,HR,7,Tuhelj,
217379,HR,14,Lipovljani,
217380,HR,7,Lobor,
217381,HR,4,Motovun,
217382,HR,3,Gruda,
217383,HR,7,Jesenice,
217384,HR,3,Lumbarda,
217385,HR,3,Podaca,
217386,HR,16,Marusevec,
217387,HR,10,Ladimirevci,
217388,HR,10,Stari Mikanovci,
217389,HR,4,Dregne,
217390,HR,15,Grad,
217391,HR,14,Lasinja,
217392,HR,10,Cret Bizovacki,
217393,HR,12,Drazice,
217394,HR,10,Baranjsko Petrovo Selo,
217395,HR,10,Petrijevci,
217396,HR,12,Lic,
217397,HR,11,Velika,
217398,HR,16,Marcan,
217399,HR,5,Draganici,
217400,HR,4,Groznjan,
217401,HR,13,Prvic Sepurine,
217402,HR,3,Ston,
217403,HR,15,Sestanovac,
217404,HR,20,Pakostane,
217405,HR,20,Ivanic,
217406,HR,15,Vrboska,
217407,HR,2,Podvinje,
217408,HR,10,Bizovac,
217409,HR,10,Kozarac,
217410,HR,11,Antunovac,
217411,HR,21,Sesvetski Kraljevec,
217412,HR,20,Posavski Bregi,
217413,HR,16,Trakoscan,
217414,HR,1,Visnjevac,
217415,HR,13,Skradin,
217416,HR,14,Sunja,
217417,HR,18,Dalj,
217418,HR,3,Zrnovo,
217419,HR,15,Praznica,
217420,HR,3,Kula Norinska,
217421,HR,20,Kravarsko,
217422,HR,20,Donja Lomnica,
217423,HR,20,Dubranec,
217424,HR,13,Oklaj,
217425,HR,12,Grizane,
217426,HR,16,Ladanje Gornje,
217427,HR,21,Brezovica,
217428,HR,11,Pridvorje,
217429,HR,9,Pribislavec,
217430,HR,4,Krsan,
217431,HR,3,Putnikovic,
217432,HR,3,Kuciste,
217433,HR,13,Rogoznica,
217434,HR,12,Dobrinj,
217435,HR,13,Vrbnik,
217436,HR,12,Omisalj,
217437,HR,10,Dubosevica,
217438,HR,7,Budinscina,
217439,HR,7,Bregana,
217440,HR,15,Baska Voda,
217441,HR,5,Netretic,
217442,HR,20,Obrovac,
217443,HR,3,Mokosica,
217444,HR,15,Slatine,
217445,HR,2,Okucani,
217446,HR,4,Livade,
217447,HR,18,Andrijasevci,
217448,HR,14,Kostajnica,
217449,HR,10,Bilje,
217450,HR,6,Hlebine,
217451,HR,2,Velika Kopanica,
217452,HR,5,Mali Erjavec,
217453,HR,2,Brodski Stupnik,
217454,HR,20,Gornja Lomnica,
217455,HR,12,Kuzelj,
217456,HR,21,Blato,
217457,HR,20,Zemunik,
217458,HR,10,Viskovci,
217459,HR,12,Fuzine,
217460,HR,18,Borovo,
217461,HR,7,Mace,
217462,HR,18,Boksic,
217463,HR,2,Babina Greda,
217464,HR,11,Kaptol,
217465,HR,21,Trnava,
217466,HR,6,Peteranec,
217467,HR,1,Veliko Trojstvo,
217468,HR,20,Povljana,
217469,HR,20,Staro Cice,
217470,HR,5,Draganic,
217471,HR,4,Cittanova,
217472,HR,4,Cunski,
217473,HR,3,Orasac,
217474,HR,3,Selca,
217475,HR,20,Sveti Filip I Jakov,
217476,HR,2,Oriovac,
217477,HR,11,Pleternica,
217478,HR,16,Trnovec Bartolovecki,
217479,HR,7,Pojatno,
217480,HR,3,Tucepi,
217481,HR,17,Durdenovac,
217482,HR,15,Seget Donji,
217483,HR,20,Donja Zelina,
217484,HR,1,Berek,
217485,HR,14,Moscenica,
217486,HR,16,Donji Kneginec,
217487,HR,1,Daruvarski Brestovac,
217488,HR,14,Dvor,
217489,HR,16,Donji Kraljevec,
217490,HR,3,Loviste,
217491,HR,18,Privlaka,
217492,HR,12,Lopar,
217493,HR,20,Orle,
217494,HR,1,Markovac,
217495,HR,1,Suplja Lipa,
217496,HR,16,Vinica,
217497,HR,12,Stara Novalja,
217498,HR,5,Popovici,
217499,HR,20,Rakovec,
217500,HR,4,Galizana,
217501,HR,3,Podgora,
217502,HR,3,Krivodol,
217503,HR,15,Sutivan,
217504,HR,13,Brodarica,
217505,HR,17,Duzluk,
217506,HR,14,Donji Lapac,
217507,HR,4,Umago,
217508,HR,10,Darda,
217509,HR,14,Sela,
217510,HR,7,Hrusevec,
217511,HR,7,Pusca,
217512,HR,17,Beljevina,
217513,HR,1,Drazica,
217514,HR,8,Licki Osik,
217515,HR,7,Lepajci,
217516,HR,4,Vrsar,
217517,HR,3,Smokvica,
217518,HR,3,Brist,
217519,HR,10,Rakitovica,
217520,HR,12,Sekulic,
217521,HR,11,Gradiste,
217522,HR,21,Dubrava,
217523,HR,12,Skrljevo,
217524,HR,15,Vranjic,
217525,HR,17,Cacinci,
217526,HR,2,Slavonski Kobas,
217527,HR,16,Mali Bukovec,
217528,HR,14,Donji Vukojevac,
217529,HR,20,Raven,
217530,HR,4,Unije,
217531,HR,7,Zacretje,
217532,HR,14,Topusko,
217533,HR,4,Zambratija,
217534,HR,17,Suhopolje,
217535,HR,11,Lukac,
217536,HR,12,Dreznica,
217537,HR,17,Koska,
217538,HR,18,Nustar,
217539,HR,10,Bistrinci,
217540,HR,16,Ljubescica,
217541,HR,16,Jalzabet,
217542,HR,1,Grubisno Polje,
217543,HR,16,Klenovnik,
217544,HR,15,Mravince,
217545,HR,15,Marusic,
217546,HR,4,Pican,
217547,HR,4,Baderna,
217548,HR,3,Krvavac,
217549,HR,11,Donji Caglic,
217550,HR,15,Vranjica,
217551,HR,17,Stari Gradac,
217552,HR,3,Zaton,
217553,HR,10,Laslovo,
217554,HR,6,Subotica,
217555,HR,1,Nova Raca,
217556,HR,9,Gorican,
217557,HR,5,Vivodina,
217558,HR,12,Gakovo,
217559,HR,10,Cret,
217560,HR,12,Praputnjak,
217561,HR,12,Orehov Hrib,
217562,HR,7,Zdenci Brdovecki,
217563,HR,4,Gracisce,
217564,HR,4,Momjan,
217565,HR,12,Ledenice,
217566,HR,21,Novi Zagreb,
217567,HR,6,Molve,
217568,HR,21,Oresje,
217569,HR,20,Buzin,
217570,HR,12,Brezno,
217571,HR,18,Ceric,
217572,HR,13,Gustirna,
217573,HR,20,Petrcane,
217574,HR,3,Dubravka,
217575,HR,3,Klek,
217576,HR,2,Garcin,
217577,HR,20,Pasman,
217578,HR,16,Donji Vidovec,
217579,HR,10,Aljmas,
217580,HR,1,Trnoviticki Popovac,
217581,HR,1,Hercegovac,
217582,HR,3,Dragovija,
217583,HR,3,Gloseta,
217584,HR,11,Dakovacki Selci,
217585,HR,3,Peracko Blato,
217586,HR,3,Drasnice,
217587,HR,4,Cervar-porat,
217588,HR,4,Peroj,
217589,HR,15,Bobovisca,
217590,HR,17,Gornje Bazje,
217591,HR,12,Ravna Gora,
217592,HR,11,Brestovac,
217593,HR,12,Punta Kriza,
217594,HR,9,Macinec,
217595,HR,9,Hodosan,
217596,HR,14,Pescenica,
217597,HR,20,Novoselec,
217598,HR,7,Senkovec,
217599,HR,1,Sokolovac,
217600,HR,7,Bistra,
217601,HR,7,Harmica,
217602,HR,10,Sice,
217603,HR,18,Slakovci,
217604,HR,18,Jarmina,
217605,HR,4,Tar,
217606,HR,3,Komarna,
217607,HR,3,Janjina,
217608,HR,2,Sibinj,
217609,HR,17,Cabuna,
217610,HR,12,Jadranovo,
217611,HR,4,Fasana,
217612,HR,12,Klana,
217613,HR,16,Nedeljanec,
217614,HR,14,Trgovi,
217615,HR,7,Kraljevec Na Sutli,
217616,HR,15,Tugare,
217617,HR,7,Javorje,
217618,HR,7,Bistra Gornja,
217619,HR,18,Stitar,
217620,HR,6,Klostar,
217621,HR,20,Brodarica,
217622,HR,9,Otok,
217623,HR,15,Supetar,
217624,HR,20,Kriz,
217625,HR,21,Vrbovec,
217626,HR,3,Trstenik,
217627,HR,15,Gata,
217628,HR,15,Splitska,
217629,HR,3,Trpanj,
217630,HR,15,Lozisca,
217631,HR,17,Sljivosevci,
217632,HR,21,Ivanec,
217633,HR,12,Njivice,
217634,HR,12,Vodice,
217635,HR,5,Gracac,
217636,HR,11,Breznica,
217637,HR,17,Fericanci,
217638,HR,18,Brsadin,
217639,HR,12,Vrbnik,
217640,HR,10,Visnjevac,
217641,HR,10,Antunovac,
217642,HR,7,Zdenci,
217643,HR,16,Kucan,
217644,HR,21,Strmec,
217645,HR,15,Brcici,
217646,HR,21,Donja Zdencina,
217647,HR,1,Predavac,
217648,HR,14,Popovaca,
217649,HR,7,Luka,
217650,HR,1,Kupinovac,
217651,HR,14,Gusce,
217652,HR,11,Drenje,
217653,HR,9,Dekanovec,
217654,HR,21,Klinca Sela,
217655,HR,21,Klara,
217656,HR,18,Trpinja,
217657,HR,13,Tribunj,
217658,HR,20,Nevidane,
217659,HR,14,Piljenice,
217660,HR,4,Funtana,
217661,HR,2,Cernik,
217662,HR,12,Drivenik,
217663,HR,20,Benkovac,
217664,HR,12,Selce,
217665,HR,10,Bijelo Brdo,
217666,HR,16,Luka Ludbreska,
217667,HR,6,Klostar Podravski,
217668,HR,14,Velika Ludina,
217669,HR,20,Predavac,
217670,HR,1,Dezanovac,
217671,HR,12,Bribir,
217672,HR,16,Tuzno,
217673,HR,18,Petrovci,
217674,HR,15,Pucisca,
217675,HR,18,Bobota,
217676,HR,15,Zadvarje,
217677,HR,15,Pisak,
217678,HR,13,Srima,
217679,HR,20,Starigrad-paklenica,
217680,HR,12,Zdenac,
217681,HR,10,Jagodnjak,
217682,HR,10,Semeljci,
217683,HR,18,Pacetin,
217684,HR,16,Beletinec,
217685,HR,4,Tinjan,
217686,HR,16,Donja Voca,
217687,HR,6,Legrad,
217688,HR,1,Veliki Zdenci,
217689,HR,14,Josipdol,
217690,HR,11,Satnica Djakovacka,
217691,HR,15,Selca,
217692,HR,21,Jablanovec,
217693,HR,8,Donje Pazariste,
217694,HR,18,Tovarnik,
217695,HR,18,Bogdanovci,
217696,HR,2,Dragalic,
217697,HR,20,Vir,
217698,HR,17,Benicanci,
217699,HR,21,Luzani,
217700,HR,9,Puscine,
217701,HR,16,Beretinec,
217702,HR,5,Vojnic,
217703,HR,3,Drvenik,
217704,HR,18,Komletinci,
217705,HR,12,Vrhovine,
217706,HR,12,Cabar,
217707,HR,21,Novaki,
217708,HR,6,Sokolovac,
217709,HR,13,Kaprije,
217710,HR,3,Komin,
217711,HR,9,Podturen,
217712,HR,2,Stari Slatnik,
217713,HR,18,Gunja,
217714,HR,5,Krstinja,
217715,HR,12,Gerovo,
217716,HR,20,Mraclin,
217717,HR,7,Novi Golubovec,
217718,HR,12,Zagorje,
217719,HR,5,Krnjak,
217720,HR,3,Gradac,
217721,HR,13,Stankovci,
217722,HR,17,Donja Moticina,
217723,HR,15,Gomilica,
217724,HR,13,Jezera,
217725,HR,2,Andrijevci,
217726,HR,12,Veli Losinj,
217727,HR,6,Novigrad Podravski,
217728,HR,16,Strmec Podravski,
217729,HR,14,Letovanic,
217730,HR,13,Prvic Luka,
217731,HR,20,Zaton,
217732,HR,15,Zakucac,
217733,HR,13,Vrpolje,
217734,HR,2,Samac,
217735,HR,17,Gradina,
217736,HR,12,Mrkopalj,
217737,HR,21,Spansko,
217738,HR,12,Silo,
217739,HR,21,Sveti Martin Pod Okicem,
217740,HR,9,Vratisinec,
217741,HR,16,Donja Dubrava,
217742,HR,3,Posta,
217743,HR,3,Bobanci,
217744,HR,21,Zagrebacka Dubrava,
217745,HR,3,Dubrovnik Ii,
217746,HR,3,Duba Stonska,
217747,HR,4,Umag Komunela,
217748,HR,11,Dobrovac,
217749,HR,2,Gornji Andrijevci,
217750,HR,16,Kelemen,
217751,HR,7,Brdovec,
217752,HR,20,Velika Mlaka,
217753,HR,15,Castello Sucurac,
217754,HR,8,Perusic,
217755,HR,11,Vetovo,
217756,HR,15,Grohote,
217757,HR,2,Stara Gradiska,
217758,HR,18,Bosnjaci,
217759,HR,20,Karin Gornji,
217760,HR,4,Lovrec,
217761,HR,4,Rabaz,
217762,HR,12,Trsce,
217763,HR,17,Crnac,
217764,HR,16,Jalkovec,
217765,HR,12,Jelenje,
217766,HR,20,Sumecani,
217767,HR,15,Kucine,
217768,HR,18,Tordinci,
217769,HR,15,Kacunko,
217770,HR,14,Gvozd,
217771,HR,20,Kali,
217772,HR,15,Vrbanj,
217773,HR,13,Raslina,
217774,HR,13,Zlarin,
217775,HR,17,Tiborjanci,
217776,HR,20,Ivanicko Graberje,
217777,HR,20,Precec,
217778,HR,21,Gornje Vrapce,
217779,HR,20,Otan,
217780,HR,7,Zitomir,
217781,HR,7,Donja Konjscina,
217782,HR,20,Helena,
217783,HR,12,Montemaggiore D'istria,
217784,HR,4,Ivan,
217785,HR,7,Maretic,
217786,HR,21,Crna Voda,
217787,HR,20,Desni Dubravcak,
217788,HR,11,Krsinci,
217789,HR,21,Nartski Trstenik,
217790,HR,6,Draskovic,
217791,HR,7,Gurakovec,
217792,HR,4,Gallignana,
217793,HR,7,Pustodol,
217794,HR,20,Donja Velika,
217795,HR,10,Klisa,
217796,HR,3,Babino Polje,
217797,HR,11,Poljana,
217798,HR,12,Kornic,
217799,HR,17,Jelisavac,
217800,HR,10,Josipovac Punitovacki,
217801,HR,6,Koprivnicki Bregi,
217802,HR,17,Borova,
217803,HR,7,Samci,
217804,HR,20,Lijevi Dubrovcak,
217805,HR,13,Piravac,
217806,HR,4,Munci,
217807,HR,4,Ceronglie,
217808,HR,21,Glavnicica,
217809,HR,20,Prilesje,
217810,HR,15,Splinska,
217811,HR,20,Kukljica,
217812,HR,13,Ruzic,
217813,HR,13,Otavice,
217814,HR,9,Belica,
217815,HR,10,Antin,
217816,HR,11,Gorjani,
217817,HR,10,Mece,
217818,HR,20,Dragasicka,
217819,HR,4,Strmac,
217820,HR,18,Jankovci,
217821,HR,14,Donji Srb,
217822,HR,20,Policnik,
217823,HR,16,Gornje Ladanje,
217824,HR,13,Krapanj,
217825,HR,4,Portole,
217826,HR,15,Abramovici,
217827,HR,10,Ada,
217828,HR,9,Dunjkovec,
217829,HR,1,Narta,
217830,HR,4,Visinada,
217831,HR,3,Viganj,
217832,HR,3,Sumartin,
217833,HR,13,Boraja,
217834,HR,12,Klenovica,
217835,HR,3,Racisce,
217836,HR,21,Selnica,
217837,HR,4,Podpican,
217838,HR,9,Martijanec,
217839,HR,2,Gornja Vrba,
217840,HR,15,Vrlika,
217841,HR,13,Gacelezi,
217842,HR,13,Drage,
217843,HR,20,Brevilacqua,
217844,HR,20,Gora Zelinska,
217845,HR,12,Moscenice,
217846,HR,12,Martina,
217847,HR,21,Sestine,
217848,HR,12,Starigrad,
217849,HR,10,Siroko Polje,
217850,HR,12,Cernik,
217851,HR,10,Vodinci,
217852,HR,18,Erdut,
217853,HR,2,Bebrina,
217854,HR,12,Ika,
217855,HR,16,Novo Selo Na Dravi,
217856,HR,20,Bedenica,
217857,HR,16,Cerje Nebojse,
217858,HR,16,Prigorec,
217859,HR,21,Zdencina,
217860,HR,14,Jamnicka Kiselica,
217861,HR,13,Matesici,
217862,HR,4,Murage,
217863,HR,16,Ivanci,
217864,HR,20,Susnjari,
217865,HR,3,Govedari,
217866,HR,13,Trbounje,
217867,HR,11,Dakovacka Satnica,
217868,HR,7,Marija Gorica,
217869,HR,5,Podvozic,
217870,HR,2,Gornji Bogicevci,
217871,HR,11,Jaksic,
217872,HR,11,Ivanovci,
217873,HR,17,Suhoplje,
217874,HR,15,Kljaci,
217875,HR,17,Boljara,
217876,HR,3,Selo,
217877,HR,7,Gornje Jesenje,
217878,HR,6,Helena,
217879,HR,12,Brsec,
217880,HR,10,Novi Mikanovci,
217881,HR,11,Potnjani,
217882,HR,2,Budrovci,
217883,HR,13,Siroke,
217884,HR,20,Novigrad,
217885,HR,2,Selna,
217886,HR,21,Remetinec,
217887,HR,6,Podravske Sesvete,
217888,HR,20,Farkasevac,
217889,HR,1,Imsovac,
217890,HR,10,Knezevo,
217891,HR,21,Scitarjevo,
217892,HR,20,Kunovac,
217893,HR,6,Ribnjak,
217894,HR,1,Remetinac,
217895,HR,1,Stari Glog,
217896,HR,21,Belovar,
217897,HR,1,Popovac,
217898,HR,20,Vinkovac,
217899,HR,6,Podgajec,
217900,HR,7,Lukovcak,
217901,HR,16,Veliki Bukovec,
217902,HR,14,Voloder,
217903,HR,2,Stari Perkovci,
217904,HR,16,Bartolovec,
217905,HR,20,Luka Vrbovecka,
217906,HR,2,Dragovci,
217907,HR,15,Podstrana,
217908,HR,16,Jerovec,
217909,HR,12,Badovinci,
217910,HR,5,Breznik,
217911,HR,21,Jelkovec,
217912,HR,6,Kapela,
217913,HR,18,Marinci,
217914,HR,14,Golubic,
217915,HR,15,Kambelovac,
217916,HR,10,Suza,
217917,HR,12,Ist,
217918,HR,16,Kucan Marof,
217919,HR,16,Sveti Ilija,
217920,HR,9,Sivica,
217921,HR,2,Sikirevci,
217922,HR,15,Zelovo,
217923,HR,10,Moslavina,
217924,HR,17,Podravski Podgajci,
217925,HR,16,Vrh,
217926,HR,7,Trgovisce,
217927,HR,20,Lukovo Lovrecko,
217928,HR,20,Biskupec,
217929,HR,20,Cista Mlaka,
217930,HR,5,Vukoder,
217931,HR,20,Ogulinac,
217932,HR,14,Gladovec Kravarski,
217933,HR,7,Jertovec,
217934,HR,10,Branjin Vrh,
217935,HR,18,Boró,
217936,HR,12,Mandre,
217937,HR,7,Batina,
217938,HR,12,Brod Na Kupi,
217939,HR,12,Risika,
217940,HR,16,Bedenec,
217941,HR,1,Gornji Sredani,
217942,HR,11,Caglin,
217943,HR,1,Gornje Plavnice,
217944,HR,4,Cottole,
217945,HR,10,Ceminac,
217946,HR,1,Katinci,
217947,HR,5,Zagrad,
217948,HR,2,Gornja Bebrina,
217949,HR,20,Busevec,
217950,HR,9,Sveta Marija,
217951,HR,2,Batrina,
217952,HR,15,Kotlenice,
217953,HR,7,Stubicka Slatina,
217954,HR,10,Lug,
217955,HR,8,Bilaj,
217956,HR,21,Botinec,
217957,HR,20,Potocec,
217958,HR,3,Kamenmost,
217959,HR,14,Hrvatska Kostajnica,
217960,HR,10,Brijest,
217961,HR,6,Bregi,
217962,HR,17,Crnkovci,
217963,HR,2,Donja Vrba,
217964,HR,5,Kamensko,
217965,HR,7,Sveti Matej,
217966,HR,20,Vukomeric,
217967,HR,12,Zlobin,
217968,HR,7,Poljanica,
217969,HR,13,Donji Lepuri,
217970,HR,4,Rakalj,
217971,HR,7,Lovrecan,
217972,HR,16,Breznica,
217973,HR,5,Dol,
217974,HR,20,Zdrelac,
217975,HR,16,Zbelava,
217976,HR,20,Stancic,
217977,HR,4,Loborika,
217978,HR,11,Gaj,
217979,HR,3,Dusina,
217980,HR,14,Repusnica,
217981,HR,4,Matohanci,
217982,HR,2,Davor,
217983,HR,12,Zapolje,
217984,HR,10,Livana,
217985,HR,20,Razanac,
217986,HR,18,Posavski Podgajci,
217987,HR,4,Manjadvorci,
217988,HR,15,Srinjine,
217989,HR,17,Busetina,
217990,HR,11,Badljevina,
217991,HR,20,Kozjaca,
217992,HR,3,Podbabac,
217993,HR,15,Murvica,
217994,HR,16,Druskovec,
217995,HR,15,Medugorje,
217996,HR,1,Zdencec,
217997,HR,10,Kopacevo,
217998,HR,15,Hrvace,
217999,HR,10,Vardarac,
218000,HR,11,Bosnjaci,
218001,HR,7,Sveti Juraj,
218002,HR,21,Moravce,
218003,HR,15,Povlja,
218004,HR,20,Polaca,
218005,HR,20,Majkovec,
218006,HR,14,Lukinici,
218007,HR,10,Cokadinci,
218008,HR,9,Strigova,
218009,HR,1,Donje Cepidlake,
218010,HR,20,Lovrecka Varos,
218011,HR,3,Trsteno,
218012,HR,4,Nerezine,
218013,HR,3,Rogotin,
218014,HR,15,Nerezisca,
218015,HR,15,Stafilic,
218016,HR,12,Germanska,
218017,HR,3,Pijavice,
218018,HR,3,Podbrijest,
218019,HR,20,Poljana Vrbovacka,
218020,HR,10,Sumarina,
218021,HR,3,Runovic,
218022,HR,12,Crkvenica,
218023,HR,21,Plesivica,
218024,HR,15,Carevici,
218025,HR,7,Gornja Kasina,
218026,HR,15,Gornje Utore,
218027,HR,16,Podrute,
218028,HR,20,Ivancani,
218029,HR,21,Bistricki Laz,
218030,HR,15,Mirlovic-polje,
218031,HR,14,Malo Svinicko,
218032,HR,20,Peskovec,
218033,HR,10,Nemetin,
218034,HR,21,Adamovec,
218035,HR,16,Bisaski Jarek,
218036,HR,17,Nova Krivaja,
218037,HR,20,Donji Markovac,
218038,HR,20,Komin,
218039,HR,3,Donje Selo,
218040,HR,8,Preradovi,
218041,HR,14,Okoli,
218042,HR,4,Bale,
218043,HR,17,Bukovica,
218044,HR,20,Bisag,
218045,HR,7,Tugonica,
218046,HR,20,Gornje Oresje,
218047,HR,3,Gorica,
218048,HR,14,Bijelo Polje,
218049,HR,3,Lucka,
218050,HR,15,Krka,
218051,HR,4,Ilovik,
218052,HR,3,Kolocep,
218053,HR,12,Silba,
218054,HR,3,Sipanjska Luka,
218055,HR,12,Susak,
218056,HR,20,Bozava,
218057,HR,10,Mrzovic,
218058,HR,12,Draga Bascanska,
218059,HR,11,Nurkovac,
218060,HR,3,Brna,
218061,HR,3,Zagvozd,
218062,HR,6,Semovci,
218063,HR,9,Novakovec,
218064,HR,20,Kozino,
218065,HR,4,Makovci,
218066,HR,13,Vodice,
218067,HR,21,Markusevac,
218068,HR,7,Gornja Pusca,
218069,HR,2,Piskorevci,
218070,HR,4,Vabriga,
218071,HR,9,Ivanovec,
218072,HR,9,Domasinec,
218073,HR,1,Severin,
218074,HR,10,Sarvas,
218075,HR,10,Tvrdavica,
218076,HR,21,Kupinecki Kraljevec,
218077,HR,2,Belice,
218078,HR,6,Orehovec,
218079,HR,7,Stojdraga,
218080,HR,12,Veprinac,
218081,HR,18,Mirkovci,
218082,HR,11,Daranovci,
218083,HR,21,Domaslovec,
218084,HR,9,Peklenica,
218085,HR,16,Semovec,
218086,HR,5,Slunj,
218087,HR,13,Kistanje,
218088,HR,12,Zurkovo,
218089,HR,15,Vinisce,
218090,HR,3,Oskorusno,
218091,HR,10,Vodjinci,
218092,HR,10,Petrova Slatina,
218093,HR,14,Budasevo,
218094,HR,3,Zupa,
218095,HR,20,Gracec,
218096,HR,3,Pupnat,
218097,HR,20,Mala Buna,
218098,HR,1,Rovisce,
218099,HR,6,Drnje,
218100,HR,12,Lividraga,
218101,HR,12,Piroviste,
218102,HR,12,Dol,
218103,HR,21,Cucerski Vidovec,
218104,HR,16,Podevcevo,
218105,HR,16,Cerje Tuzno,
218106,HR,4,Rovinjsko Selo,
218107,HR,4,Braicovici,
218108,HR,4,Cosinosi,
218109,HR,4,Karpinjan,
218110,HR,4,Pinesi,
218111,HR,16,Gornji Kneginec,
218112,HR,12,Karlobag,
218113,HR,21,Mala Gorica,
218114,HR,15,Stomorska,
218115,HR,2,Nezice,
218116,HR,13,Nos Kalik,
218117,HR,20,Goles Makarska,
218118,HR,20,Murvica,
218119,HR,12,Lucco,
218120,HR,12,Draga,
218121,HR,4,Crnibek,
218122,HR,4,Villanova Del Quieto,
218123,HR,4,Benazici,
218124,HR,14,Brdasce,
218125,HR,14,Veliko Svinicka,
218126,HR,4,Fiorini,
218127,HR,20,Gornji Karin,
218128,HR,7,Budinjak,
218129,HR,12,Povile,
218130,HR,20,Biljane Gornje,
218131,HR,12,Garica,
218132,HR,12,Vrh,
218133,HR,4,Velovici,
218134,HR,4,Pulici,
218135,HR,4,Trget,
218136,HR,15,Ivan Dolac,
218137,HR,18,Henrikovci,
218138,HR,12,Scherbe,
218139,HR,12,Murtovnik,
218140,HR,4,Jursici,
218141,HR,18,Soljani,
218142,HR,11,Gasinci,
218143,HR,10,Zmajevac,
218144,HR,12,Climno,
218145,HR,13,Rastovac,
218146,HR,18,Vodica,
218147,HR,4,Roc,
218148,HR,11,Levanjska Varos,
218149,HR,3,Zivogosce,
218150,HR,3,Mandaljena,
218151,HR,18,Ostrovo,
218152,HR,17,Veliskovci,
218153,HR,3,Blace,
218154,HR,18,Rajevo Selo,
218155,HR,10,Vuka,
218156,HR,14,Hrvatska Dubica,
218157,HR,10,Korod,
218158,HR,13,Crappano,
218159,HR,12,Marija Trost,
218160,HR,3,Mravinjac,
218161,HR,15,Sumartin,
218162,HR,20,Kozin,
218163,HR,17,Lozan,
218164,HR,11,Podgorje Pozesko,
218165,HR,9,Trnovec,
218166,HR,4,Ruhci,
218167,HR,18,Opatovac,
218168,HR,20,Sibenik,
218169,HR,4,Liznjan,
218170,HR,15,Arbanija,
218171,HR,10,Popovac,
218172,HR,18,Nijemci,
218173,HR,1,Bosiljevo,
218174,HR,2,Kladovac,
218175,HR,3,Krzanici,
218176,HR,15,Prisoje,
218177,HR,12,Gornje Zagorje,
218178,HR,17,Velimirovac,
218179,HR,1,Bulinac,
218180,HR,21,Galgovo,
218181,HR,17,Vukojevci,
218182,HR,20,Obedisce,
218183,HR,18,Siskovci,
218184,HR,6,Delovi,
218185,HR,15,Sveti Martin,
218186,HR,17,Balinci,
218187,HR,10,Podravska Moslavina,
218188,HR,12,Costrena Santa Lucia,
218189,HR,10,Vrbica,
218190,HR,10,Batina,
218191,HR,3,Hodilje,
218192,HR,10,Korog,
218193,HR,10,Markusica,
218194,HR,11,Gornji Lipovac,
218195,HR,16,Vuglovec,
218196,HR,4,Raichi,
218197,HR,12,Jargovo,
218198,HR,7,Hleonica,
218199,HR,11,Novi Mihaljevci,
218200,HR,10,Ugljes,
218201,HR,17,Vocin,
218202,HR,13,Podgreben,
218203,HR,15,Castel Vecchio,
218204,HR,16,Donje Ladanje,
218205,HR,20,Donji Dragonozec,
218206,HR,3,Donji Begovici,
218207,HR,16,Nova Ves,
218208,HR,12,Zubovici,
218209,HR,1,Mali Zdenci,
218210,HR,17,Nova Bukovica,
218211,HR,12,Liccino,
218212,HR,12,Gabonjin,
218213,HR,15,San Pietro Della Brazza,
218214,HR,11,Bresnica Pozeska,
218215,HR,11,Dolac,
218216,HR,17,Niza,
218217,HR,4,Gorica,
218218,HR,13,Zablace,
218219,HR,11,Satnica Dakovacka,
218220,HR,2,Vrpolje,
218221,HR,12,Domijancici,
218222,HR,13,Konjevrate,
218223,HR,15,Novo Selo,
218224,HR,21,Gornji Bukovec,
218225,HR,3,Popovic,
218226,HR,20,Petrovina Turopoljska,
218227,HR,20,Podusje,
218228,HR,12,Lucice,
218229,HR,18,Andriaschevce,
218230,HR,20,Dracevac Ninski,
218231,HR,3,Oskrusnica,
218232,HR,2,Slobodnica,
218233,HR,3,Stasevica,
218234,HR,18,Donje Novo Selo,
218235,HR,12,Sinac,
218236,HR,20,Rugvica,
218237,HR,12,Krasno,
218238,HR,4,Stinjan,
218239,HR,16,Vratno,
218240,HR,12,Jusici,
218241,HR,4,Rudani,
218242,HR,15,Kutlesa,
218243,HR,11,Gotó,
218244,HR,10,Draz,
218245,HR,4,Salvore,
218246,HR,16,Totovec,
218247,HR,4,Colombera,
218248,HR,4,Antignana,
218249,HR,20,Krmcina,
218250,HR,15,Samadan,
218251,HR,10,Silas,
218252,HR,5,Sisljavic,
218253,HR,2,Nova Kapela,
218254,HR,4,Gaiano,
218255,HR,17,Martin,
218256,HR,3,Podglogovnik,
218257,HR,9,Podbrest,
218258,HR,15,Necujam,
218259,HR,11,Sulkovac,
218260,HR,12,Banjol,
218261,HR,3,Promajna,
218262,HR,5,Rastovaca,
218263,HR,18,Gradiste,
218264,HR,5,Novi Grad,
218265,HR,11,Ratkovica,
218266,HR,12,Plosna,
218267,HR,15,Castel-stafileo,
218268,HR,10,Stari Orlovnjak,
218269,HR,11,Laze Prnjavor,
218270,HR,7,Bosna,
218271,HR,12,Mundanije,
218272,HR,20,Donje Petrcane,
218273,HR,21,Kosnica,
218274,HR,20,Rupalj,
218275,HR,20,Dracan,
218276,HR,12,Sillo,
218277,HR,21,Blagusa,
218278,HR,14,Deminjak,
218279,HR,4,Orsera,
218280,HR,21,Vrapce,
218281,HR,3,Zvekovica,
218282,HR,14,Rudanovac,
218283,HR,4,Premantura,
218284,HR,1,Prgomelje,
218285,HR,17,Torjanci,
218286,HR,18,Ivánka,
218287,HR,12,Gornje Jelenje,
218288,HR,12,Ljubosina,
218289,HR,12,Skradnik,
218290,HR,4,Marana,
218291,HR,4,Matulini,
218292,HR,20,Biograd,
218293,HR,2,Trnava,
218294,HR,8,Rijeka,
218295,HR,6,Gola,
218296,HR,7,Kostanjevac,
218297,HR,15,Spalato,
218298,HR,12,Rieka,
218299,HR,4,Banjole,
218300,HR,11,Posega,
218301,HR,20,Strmec,
218302,HR,6,Virje,
218303,HR,9,Donji Kraljevec,
218304,HR,16,Varazdin Breg,
218305,HR,16,Vidovec,
218306,HR,2,Zapolje,
218307,HR,12,Fiume,
218308,HR,21,Zagabria,
218309,HR,1,Gornje Sredice,
218310,HR,12,Crasse,
218311,HR,16,Gornja Selnica,
218312,HR,2,Vladisovo,
218313,HR,10,Bolman,
218314,HR,14,Gojlo,
218315,HR,11,Vidovci,
218316,HR,16,Madzarevo,
218317,HR,2,Orbova,
218318,HR,15,Milan,
218319,HR,7,Kostel,
218320,HR,12,Simuni,
218321,HR,4,Susnjevica,
218322,HR,15,Jesenice,
218323,HR,2,Laze,
218324,HR,7,Dubovec,
218325,HR,18,Orlik,
218326,HR,15,Radinje,
218327,HR,20,Brckovljani,
218328,HR,1,Podgaric,
218329,HR,12,Rudina,
218330,HR,4,Boljun,
218331,HR,20,Oborovo,
218332,HR,7,Hum,
218333,HR,9,Selnica,
218334,HR,20,Lukovo,
218335,HR,18,Alt-jankowitz,
218336,HR,16,Kalnicka Kapela,
218337,HR,21,Luksici,
218338,HR,16,Hrascina,
218339,HR,2,Trnjani,
218340,HR,17,Breznica Nasicka,
218341,HR,20,Prkos,
218342,HR,12,Gnivizze,
218343,HR,20,Gornji Lukavec,
218344,HR,20,Crnec,
218345,HR,11,Brcino,
218346,HR,5,Speharj,
218347,HR,12,Severin Na Kupi,
218348,HR,21,Ivanec Bistranski,
218349,HR,2,Vrbova,
218350,HR,4,Dignano,
218351,HR,18,Pustara Laze,
218352,HR,9,Orehovica,
218353,HR,10,Brodanci,
218354,HR,16,Donja Poljana,
218355,HR,17,Podgorac,
218356,HR,4,Koromani,
218357,HR,13,Solvje,
218358,HR,10,Bezdan,
218359,HR,11,Brodski Drenovac,
218360,HR,17,Podgajci Podrauski,
218361,HR,18,Sotin,
218362,HR,1,Veliki Grdevac,
218363,HR,5,Cetingrad,
218364,HR,2,Brod,
218365,HR,9,Turcisce,
218366,HR,4,Pornjan,
218367,HR,2,Mlinci,
218368,HR,11,Pozeske Sesvete,
218369,HR,1,Ivanska,
218370,HR,11,Drenjski Slatinik,
218371,HR,4,Brkac,
218372,HR,11,Bucje Brodsko,
218373,HR,20,Obed,
218374,HR,6,Reka,
218375,HR,4,Cereseto,
218376,HR,6,Radeljevo,
218377,HR,14,Kovacic,
218378,HR,20,Oborovska Preseka,
218379,HR,10,Topolik,
218380,HR,14,Udbina,
218381,HR,15,Otok,
218382,HR,21,Bukovje Bistransko,
218383,HR,7,Bedekovcina Gornja,
218384,HR,4,Bergodaz,
218385,HR,12,Baska Stara,
218386,HR,16,Kastelanec,
218387,HR,18,Negoslavci,
218388,HR,4,Ercaucici,
218389,HR,11,Venje,
218390,HR,2,Celikovici,
218391,HR,21,Beter,
218392,HR,20,Donji Cehi,
218393,HR,12,Sersich,
218394,HR,18,Novo Selo,
218395,HR,20,Prorokovic,
218396,HR,16,Gornji Martijanec,
218397,HR,20,Cerje,
218398,HR,2,Cajkovci,
218399,HR,12,Cernigo,
218400,HR,4,Lavarigo,
218401,HR,8,Medak,
218402,HR,12,Ogulinski Turkovici,
218403,HR,12,Jurandvor,
218404,HR,10,Staro Selo,
218405,HR,12,Sopaljska,
218406,HR,15,Bossoglina,
218407,HR,11,Bektez,
218408,HR,12,Susik,
218409,HR,15,Milanovic,
218410,HR,13,Podorljak,
218411,HR,12,Vodenjak,
218412,HR,10,Hirschfeld,
218413,HR,4,Stranici Kod Lovreca,
218414,HR,11,Skrabutnik Potok,
218415,HR,20,Debeljak,
218416,HR,20,Preseka,
