locId,country,region,city,postcode
218482,HU,,,
218483,HU,5,Budapest,
218484,HU,23,Pula,
218485,HU,16,Budaörs,
218486,HU,8,Székesfehérvár,
218487,HU,19,Szeged,
218488,HU,7,Debrecen,
218489,HU,16,Szigetszentmiklós,
218490,HU,4,Center,
218491,HU,5,Óbuda,
218492,HU,15,Pécs,
218493,HU,6,Donát,
218494,HU,17,Zamárdi,
218495,HU,8,Szabadegyháza,
218496,HU,12,Tatabánya,
218497,HU,16,Püspökszilágy,
218498,HU,25,Gyor,
218499,HU,16,Herceghalom,
218500,HU,17,Kaposvár,
218501,HU,9,Sopron,
218502,HU,21,Szekszárd,
218503,HU,3,Békéscsaba,
218504,HU,11,Füzesabony,
218505,HU,21,Paks,
218506,HU,13,Miskolc,
218507,HU,4,Tiszaújváros,
218508,HU,16,Százhalombatta,
218509,HU,11,Eger,
218510,HU,20,Jászberény,
218511,HU,11,Visonta,
218512,HU,8,Dunaújváros,
218513,HU,21,Tamási,
218514,HU,18,Nyíregyháza,
218515,HU,16,Nagykáta,
218516,HU,16,Godollo,
218517,HU,16,Délegyháza,
218518,HU,16,Dunaharaszti,
218519,HU,23,Veszprém,
218520,HU,20,Szolnok,
218521,HU,24,Zalaegerszeg,
218522,HU,4,Sátoraljaújhely,
218523,HU,14,Salgótarján,
218524,HU,3,Szarvas,
218525,HU,7,Bánk,
218526,HU,23,Pápa,
218527,HU,18,Záhony,
218528,HU,14,Balassagyarmat,
218529,HU,5,Pest,
218530,HU,23,Keszthely,
218531,HU,18,Major,
218532,HU,22,Szombathely,
218533,HU,18,Vásárosnamény,
218534,HU,3,Orosháza,
218535,HU,11,Balaton,
218536,HU,2,Sellye,
218537,HU,2,Szentlorinc,
218538,HU,2,Szigetvár,
218539,HU,1,Kiskunfélegyháza,
218540,HU,4,Abaújszántó,
218541,HU,4,Kazincbarcika,
218542,HU,4,Mezocsat,
218543,HU,4,Putnok,
218544,HU,8,Seregélyes,
218545,HU,10,Balmazújváros,
218546,HU,10,Hajdúböszörmény,
218547,HU,10,Polgár,
218548,HU,10,Püspökladány,
218549,HU,11,Lorinci,
218550,HU,11,Pétervására,
218551,HU,12,Kisbér,
218552,HU,12,Oroszlány,
218553,HU,16,Nagykoros,
218554,HU,16,Pilisvörösvár,
218555,HU,16,Szentendre,
218556,HU,17,Csurgó,
218557,HU,18,Baktalórántháza,
218558,HU,18,Demecser,
218559,HU,18,Fehérgyarmat,
218560,HU,18,Ibrány,
218561,HU,18,Nagykálló,
218562,HU,20,Túrkeve,
218563,HU,21,Bátaszék,
218564,HU,21,Dombóvár,
218565,HU,21,Gyönk,
218566,HU,21,Lengyel,
218567,HU,2,Bóly,
218568,HU,12,Tata,
218569,HU,17,Marcali,
218570,HU,17,Nagyatád,
218571,HU,20,Kenderes,
218572,HU,11,Tarnaors,
218573,HU,18,Nyírbátor,
218574,HU,18,Nyírmada,
218575,HU,6,Csanádalberti,
218576,HU,6,Árpádhalom,
218577,HU,6,Nagymágocs,
218578,HU,2,Mágocs,
218579,HU,2,Villány,
218580,HU,6,Csongrád,
218581,HU,6,Hodmezovasarhely,
218582,HU,23,Fuzfogyartelep,
218583,HU,23,Várpalota,
218584,HU,20,Jászapáti,
218585,HU,20,Jászárokszállás,
218586,HU,16,Szob,
218587,HU,12,Esztergom,
218588,HU,12,Dorog,
218589,HU,20,Jaszfelsoszentgyorgy,
218590,HU,1,Baja,
218591,HU,1,Kiskunhalas,
218592,HU,1,Kiskunmajsa,
218593,HU,14,Pásztó,
218594,HU,14,Szécsény,
218595,HU,14,Alsótold,
218596,HU,14,Egyházasgerge,
218597,HU,22,Celldömölk,
218598,HU,22,Sárvár,
218599,HU,22,Egyházashetye,
218600,HU,22,Hegyfalu,
218601,HU,22,Ostffyasszonyfa,
218602,HU,22,Pecöl,
218603,HU,22,Rábapaty,
218604,HU,22,Sótony,
218605,HU,22,Szeleste,
218606,HU,3,Battonya,
218607,HU,3,Mezohegyes,
218608,HU,3,Mezokovacshaza,
218609,HU,3,Tótkomlós,
218610,HU,3,Békés,
218611,HU,3,Gyomaendrod,
218612,HU,3,Gyula,
218613,HU,3,Sarkad,
218614,HU,3,Szeghalom,
218615,HU,2,Somogyapáti,
218616,HU,24,Csömödér,
218617,HU,8,Füle,
218618,HU,9,Himod,
218619,HU,9,Bogyoszló,
218620,HU,9,Rábacsanak,
218621,HU,9,Sopronhorpács,
218622,HU,9,Rábacsécsény,
218623,HU,22,Kápolna,
218624,HU,11,Aldebro,
218625,HU,11,Gyöngyöspata,
218626,HU,12,Kerékteleki,
218627,HU,4,Borsodnádasd,
218628,HU,4,Ricse,
218629,HU,23,Kapolcs,
218630,HU,24,Zalabaksa,
218631,HU,24,Bánokszentgyörgy,
218632,HU,24,Nagyrada,
218633,HU,1,Kunszentmiklós,
218634,HU,8,Enying,
218635,HU,16,Biatorbágy,
218636,HU,11,Kútvölgy,
218637,HU,2,Beremend,
218638,HU,11,Vámosgyörk,
218639,HU,11,Atkár,
218640,HU,11,Rózsaszentmárton,
218641,HU,11,Gyöngyöstarján,
218642,HU,10,Hajdúszoboszló,
218643,HU,20,Kunmadaras,
218644,HU,18,Nagyhalász,
218645,HU,6,Nagyrév,
218646,HU,10,Nyíradony,
218647,HU,18,Nyírkércs,
218648,HU,24,Csapi,
218649,HU,24,Eszteregnye,
218650,HU,24,Felsorajk,
218651,HU,24,Kisgorbo,
218652,HU,24,Miháld,
218653,HU,22,Mihályfa,
218654,HU,24,Nagykapornak,
218655,HU,24,Pusztamagyaród,
218656,HU,24,Sümegcsehi,
218657,HU,24,Tótszerdahely,
218658,HU,24,Zalabér,
218659,HU,24,Zalaszentbalázs,
218660,HU,2,Nagyharsány,
218661,HU,24,Csesztreg,
218662,HU,3,Füzesgyarmat,
218663,HU,3,Dévaványa,
218664,HU,10,Hajdúnánás,
218665,HU,17,Balatonlelle,
218666,HU,24,Tófej,
218667,HU,22,Horvátzsidány,
218668,HU,2,Kaposszekcso,
218669,HU,4,Baksa,
218670,HU,2,Kétújfalu,
218671,HU,2,Mindszentgodisa,
218672,HU,2,Egyházasharaszti,
218673,HU,2,Szalánta,
218674,HU,2,Egyházaskozár,
218675,HU,2,Nagydobsza,
218676,HU,9,Bosarkany,
218677,HU,17,Balatonföldvár,
218678,HU,17,Kaposfo,
218679,HU,17,Látrány,
218680,HU,17,Somogyvár,
218681,HU,17,Balatonszentgyörgy,
218682,HU,17,Nagyberki,
218683,HU,17,Mernye,
218684,HU,17,Balatonszárszó,
218685,HU,1,Kutas,
218686,HU,17,Darány,
218687,HU,24,Lenti,
218688,HU,22,Nádasd,
218689,HU,22,Oriszentpeter,
218690,HU,22,Torony,
218691,HU,22,Répcelak,
218692,HU,23,Bakonyszentkirály,
218693,HU,24,Gellénháza,
218694,HU,24,Zalaapáti,
218695,HU,24,Egervár,
218696,HU,3,Magyarbánhegyes,
218697,HU,3,Tarhos,
218698,HU,4,Hejokeresztur,
218699,HU,4,Bódvaszilas,
218700,HU,4,Felsodobsza,
218701,HU,4,Hidasnémeti,
218702,HU,4,Pálháza,
218703,HU,18,Vizsoly,
218704,HU,4,Homrogd,
218705,HU,4,Parasznya,
218706,HU,4,Felsonyarad,
218707,HU,11,Tarnalelesz,
218708,HU,11,Egercsehi,
218709,HU,18,Tiszabercel,
218710,HU,18,Szakoly,
218711,HU,18,Jánkmajtis,
218712,HU,18,Nyírtelek,
218713,HU,18,Kölcse,
218714,HU,18,Tiszabecs,
218715,HU,18,Kisar,
218716,HU,18,Nyírbogdány,
218717,HU,18,Rakamaz,
218718,HU,18,Nyírbogát,
218719,HU,10,Vámospércs,
218720,HU,24,Teskánd,
218721,HU,4,Baktakék,
218722,HU,4,Girincs,
218723,HU,4,Erdohorvati,
218724,HU,4,Gelej,
218725,HU,2,Mikóháza,
218726,HU,9,Mezoors,
218727,HU,10,Darvas,
218728,HU,10,Kokad,
218729,HU,10,Mezosas,
218730,HU,17,Lakócsa,
218731,HU,18,Napkor,
218732,HU,18,Tiszakóród,
218733,HU,18,Nyírparasznya,
218734,HU,18,Nyirlovo,
218735,HU,18,Csaholc,
218736,HU,18,Gemzse,
218737,HU,18,Túristvándi,
218738,HU,18,Besenyod,
218739,HU,18,Apagy,
218740,HU,18,Csengersima,
218741,HU,18,Nagyszekeres,
218742,HU,18,Milota,
218743,HU,18,Terem,
218744,HU,20,Tomajmonostora,
218745,HU,22,Egervölgy,
218746,HU,22,Magyarlak,
218747,HU,22,Oszkó,
218748,HU,22,Apátistvánfalva,
218749,HU,22,Gyorvar,
218750,HU,22,Gersekarát,
218751,HU,23,Káptalanfa,
218752,HU,12,Máriahalom,
218753,HU,16,Csomád,
218754,HU,16,Kóspallag,
218755,HU,10,Komádi,
218756,HU,10,Hajdúsámson,
218757,HU,18,Csenger,
218758,HU,8,Etyek,
218759,HU,18,Levelek,
218760,HU,17,Szentbalázs,
218761,HU,23,Csajág,
218762,HU,23,Jásd,
218763,HU,23,Kerta,
218764,HU,4,Sárospatak,
218765,HU,2,Mánfa,
218766,HU,8,Alcsútdoboz,
218767,HU,2,Pécsvárad,
218768,HU,1,Kecskemét,
218769,HU,6,Szikszó,
218770,HU,18,Újfehértó,
218771,HU,21,Kunhegyes,
218772,HU,20,Újszász,
218773,HU,22,Csepreg,
218774,HU,17,Bábonymegyer,
218775,HU,23,Badacsonytomaj,
218776,HU,23,Sümeg,
218777,HU,4,Tornanádaska,
218778,HU,4,Szalonna,
218779,HU,17,Kadarkút,
218780,HU,16,Törökbálint,
218781,HU,11,Parád,
218782,HU,16,Zsámbék,
218783,HU,23,Csángó,
218784,HU,2,Nagypeterd,
218785,HU,17,Háromfa,
218786,HU,17,Vizvár,
218787,HU,21,Kéty,
218788,HU,22,Csehimindszent,
218789,HU,22,Pankasz,
218790,HU,22,Simaság,
218791,HU,22,Sorokpolány,
218792,HU,22,Egyházashollós,
218793,HU,24,Surd,
218794,HU,24,Karmacs,
218795,HU,24,Alsónemesapáti,
218796,HU,24,Bucsuszentlászló,
218797,HU,2,Baranyajeno,
218798,HU,2,Diósviszló,
218799,HU,2,Felsoszentmarton,
218800,HU,17,Karád,
218801,HU,17,Szenna,
218802,HU,17,Kisbárapáti,
218803,HU,1,Gyékényes,
218804,HU,18,Mátészalka,
218805,HU,14,Bátonyterenye,
218806,HU,1,Jakabszállás,
218807,HU,13,Lillafüred,
218808,HU,4,Martonyi,
218809,HU,4,Róna,
218810,HU,22,Acsád,
218811,HU,1,Kalocsa,
218812,HU,4,Emod,
218813,HU,17,Ádánd,
218814,HU,23,Pápakovácsi,
218815,HU,3,Elek,
218816,HU,21,Simontornya,
218817,HU,17,Nagyberény,
218818,HU,10,Tiszacsege,
218819,HU,6,Makó,
218820,HU,9,Petohaza,
218821,HU,18,Szabolcs,
218822,HU,9,Pannonhalma,
218823,HU,8,Martonvásár,
218824,HU,20,Karcag,
218825,HU,8,Bicske,
218826,HU,23,Balatonfüred,
218827,HU,16,Penc,
218828,HU,1,Lajosmizse,
218829,HU,3,Mezobereny,
218830,HU,20,Kisújszállás,
218831,HU,17,Balatonboglár,
218832,HU,9,Mosonmagyaróvár,
218833,HU,18,Tiszalök,
218834,HU,21,Bonyhád,
218835,HU,16,Diósd,
218836,HU,20,Törökszentmiklós,
218837,HU,23,Hévíz,
218838,HU,20,Mezotur,
218839,HU,16,Vácrátót,
218840,HU,16,Tápiószele,
218841,HU,11,Gyöngyös,
218842,HU,17,Kára,
218843,HU,11,Kompolt,
218844,HU,16,Pomáz,
218845,HU,6,Ópusztaszer,
218846,HU,23,Tapolca,
218847,HU,4,Bocs,
218848,HU,17,Vermes,
218849,HU,3,Remete,
218850,HU,11,Szúcs,
218851,HU,1,Hild,
218852,HU,8,Jeno,
218853,HU,4,Torok,
218854,HU,1,Hajós,
218855,HU,5,Rákospalota,
218856,HU,6,Rákos,
218857,HU,5,Pestszentlorinc,
218858,HU,18,Tivadar,
218859,HU,6,Szentes,
218860,HU,17,Siófok,
218861,HU,2,Mohács,
218862,HU,17,Várda,
218863,HU,4,Borsod,
218864,HU,16,Cegléd,
218865,HU,10,Berettyóújfalu,
218866,HU,16,Piliscsaba,
218867,HU,23,Balatonkenese,
218868,HU,1,Kiskoros,
218869,HU,9,Gyarmat,
218870,HU,18,Kisvárda,
218871,HU,2,Siklós,
218872,HU,22,Körmend,
218873,HU,16,Dunakeszi,
218874,HU,16,Budakeszi,
218875,HU,9,Csorna,
218876,HU,18,Tiszavasvári,
218877,HU,1,Tiszakécske,
218878,HU,18,Nagymezo,
218879,HU,6,Maroslele,
218880,HU,22,Jánosháza,
218881,HU,5,Ferencváros,
218882,HU,2,Varga,
218883,HU,6,Kistelek,
218884,HU,2,Mecseknádasd,
218885,HU,21,Tolna,
218886,HU,10,Nádudvar,
218887,HU,1,Érsekhalma,
218888,HU,16,Csömör,
218889,HU,16,Vecsés,
218890,HU,21,Dunaföldvár,
218891,HU,14,Rétság,
218892,HU,5,Soroksár,
218893,HU,11,Heves,
218894,HU,16,Üröm,
218895,HU,3,Csúcs,
218896,HU,4,Sajóbábony,
218897,HU,8,Ercsi,
218898,HU,23,Ajka,
218899,HU,23,Herend,
218900,HU,23,Szent Mihály,
218901,HU,11,Egerszalók,
218902,HU,1,Kígyós,
218903,HU,11,Halmajugra,
218904,HU,24,Nagykanizsa,
218905,HU,16,Taksony,
218906,HU,22,Szentgotthárd,
218907,HU,16,Páty,
218908,HU,16,Szada,
218909,HU,9,Mosonszolnok,
218910,HU,21,Katalin,
218911,HU,8,Fehérvárcsurgó,
218912,HU,16,Ráckeve,
218913,HU,20,Hegyeshalom,
218914,HU,10,Liget,
218915,HU,16,Kistarcsa,
218916,HU,12,Komárom,
218917,HU,16,Homokpuszta,
218918,HU,11,Kisnána,
218919,HU,18,Ramocsaháza,
218920,HU,2,Komló,
218921,HU,11,Hatvan,
218922,HU,1,Dunavecse,
218923,HU,12,Bajót,
218924,HU,1,Bócsa,
218925,HU,16,Szod,
218926,HU,21,Forrás,
218927,HU,12,Tokodaltáró,
218928,HU,23,Balatonalmádi,
218929,HU,16,Aszód,
218930,HU,16,Kiskunlacháza,
218931,HU,12,Nyergesújfalu,
218932,HU,16,Halásztelek,
218933,HU,16,Pilisszentkereszt,
218934,HU,8,Velence,
218935,HU,11,Mátraszentimre,
218936,HU,6,Erzsébet,
218937,HU,16,Iklad,
218938,HU,23,Devecser,
218939,HU,21,Vásártér,
218940,HU,16,Veresegyház,
218941,HU,23,Alsóörs,
218942,HU,23,Tihany,
218943,HU,3,Nagyszénás,
218944,HU,16,Pilisszentiván,
218945,HU,10,Téglás,
218946,HU,21,Nagymányok,
218947,HU,16,Leányfalu,
218948,HU,9,Lébény,
218949,HU,10,Hajdúdorog,
218950,HU,12,Gyermely,
218951,HU,8,Bacs,
218952,HU,9,Rajka,
218953,HU,2,Szederkény,
218954,HU,16,Budakalász,
218955,HU,16,Bécsi út,
218956,HU,14,Bokor,
218957,HU,12,Lábatlan,
218958,HU,8,Ipartelep,
218959,HU,16,Torbágy,
218960,HU,16,Szekesdulo,
218961,HU,22,Savaria,
218962,HU,1,Izsák,
218963,HU,4,Mályi,
218964,HU,15,Mecsekalja,
218965,HU,12,Tokod,
218966,HU,21,Kálvária,
218967,HU,9,Gyorujbarat,
218968,HU,22,Hegy,
218969,HU,6,Nagynyomás,
218970,HU,9,Kapuvár,
218971,HU,16,Budajeno,
218972,HU,1,Tompa,
218973,HU,16,Szigetszentmárton,
218974,HU,3,Fazekas,
218975,HU,6,Mórahalom,
218976,HU,20,Csorba,
218977,HU,5,Csepel,
218978,HU,1,Szántó,
218979,HU,6,Röszke,
218980,HU,24,Haraszti,
218981,HU,6,Üllés,
218982,HU,6,Domaszék,
218983,HU,3,Telep,
218984,HU,16,Csobánka,
218985,HU,16,Gyomro,
218986,HU,16,Tura,
218987,HU,16,Solymár,
218988,HU,6,Csanytelek,
218989,HU,23,Petfurdo,
218990,HU,12,Bábolna,
218991,HU,12,Tarján,
218992,HU,23,Peremarton-gyártelep,
218993,HU,1,Halom,
218994,HU,2,Sárok,
218995,HU,22,Buda,
218996,HU,8,Leshegy,
218997,HU,16,Telki,
218998,HU,9,Fertoszentmiklos,
218999,HU,14,Felsopeteny,
219000,HU,14,Berkenye,
219001,HU,14,Szátok,
219002,HU,14,Tolmács,
219003,HU,9,Abda,
219004,HU,14,Nógrádmarcal,
219005,HU,14,Vanyarc,
219006,HU,14,Szirák,
219007,HU,14,Nagylóc,
219008,HU,11,Nagyréde,
219009,HU,11,Gyöngyössolymos,
219010,HU,11,Bodony,
219011,HU,11,Ivád,
219012,HU,11,Erdokovesd,
219013,HU,11,Váraszó,
219014,HU,11,Hevesaranyos,
219015,HU,11,Egerbocs,
219016,HU,11,Mikófalva,
219017,HU,11,Bélapátfalva,
219018,HU,4,Mezokovesd,
219019,HU,4,Kács,
219020,HU,4,Borsodgeszt,
219021,HU,4,Kisgyor,
219022,HU,4,Répáshuta,
219023,HU,4,Tiszatarján,
219024,HU,4,Nagybarca,
219025,HU,4,Mályinka,
219026,HU,4,Nekézseny,
219027,HU,4,Csokvaomány,
219028,HU,4,Sajópüspöki,
219029,HU,4,Borsodbóta,
219030,HU,4,Járdánháza,
219031,HU,4,Szirmabesenyo,
219032,HU,4,Arnót,
219033,HU,4,Kelemér,
219034,HU,4,Rudolftelep,
219035,HU,4,Sajószentpéter,
219036,HU,4,Sajólászlófalva,
219037,HU,4,Varbó,
219038,HU,4,Balajt,
219039,HU,4,Edelény,
219040,HU,16,Forró,
219041,HU,4,Encs,
219042,HU,4,Fulókércs,
219043,HU,4,Vilmány,
219044,HU,4,Abaújvár,
219045,HU,4,Szerencs,
219046,HU,4,Tokaj,
219047,HU,4,Tarcal,
219048,HU,4,Tiszaladány,
219049,HU,4,Tiszacsermely,
219050,HU,10,Biharkeresztes,
219051,HU,10,Derecske,
219052,HU,10,Kaba,
219053,HU,10,Hajdúhadház,
219054,HU,18,Penészlek,
219055,HU,18,Nyírcsászári,
219056,HU,18,Nyírkáta,
219057,HU,18,Nyírvasvári,
219058,HU,18,Nagyecsed,
219059,HU,18,Nyírgelse,
219060,HU,18,Nyírmihálydi,
219061,HU,18,Tiszadada,
219062,HU,18,Tiszadob,
219063,HU,18,Balsa,
219064,HU,18,Laskod,
219065,HU,18,Gyulaháza,
219066,HU,18,Tiszaszentmárton,
219067,HU,18,Újkenéz,
219068,HU,18,Cégénydányád,
219069,HU,18,Gyortelek,
219070,HU,18,Géberjén,
219071,HU,18,Csengerújfalu,
219072,HU,18,Tiszaszalka,
219073,HU,18,Gulács,
219074,HU,18,Beregdaróc,
219075,HU,18,Vámosatya,
219076,HU,18,Barabás,
219077,HU,18,Penyige,
219078,HU,18,Komoro,
219079,HU,18,Császló,
219080,HU,20,Tiszafüred,
219081,HU,20,Tiszaigar,
219082,HU,20,Tiszaföldvár,
219083,HU,20,Martfu,
219084,HU,20,Kunszentmárton,
219085,HU,20,Mesterszállás,
219086,HU,20,Mezohek,
219087,HU,11,Homok,
219088,HU,3,Szabadkígyós,
219089,HU,3,Kétegyháza,
219090,HU,1,Nyarlorinc,
219091,HU,1,Kerekegyháza,
219092,HU,1,Kunbaracs,
219093,HU,1,Szabadszállás,
219094,HU,1,Kunpeszér,
219095,HU,1,Soltvadkert,
219096,HU,1,Kecel,
219097,HU,1,Bácsalmás,
219098,HU,1,Jánoshalma,
219099,HU,6,Derekegyház,
219100,HU,6,Mindszent,
219101,HU,6,Tömörkény,
219102,HU,6,Sándorfalva,
219103,HU,6,Baks,
219104,HU,6,Pusztaszer,
219105,HU,6,Ferencszállás,
219106,HU,6,Pusztamérges,
219107,HU,6,Zsombó,
219108,HU,6,Nagylak,
219109,HU,16,Szigetmonostor,
219110,HU,16,Dunabogdány,
219111,HU,16,Visegrád,
219112,HU,16,Sóskút,
219113,HU,16,Nagykovácsi,
219114,HU,16,Pilisborosjeno,
219115,HU,16,Erdokertes,
219116,HU,16,Pécel,
219117,HU,16,Kerepes,
219118,HU,2,Szabad,
219119,HU,16,Galgahéviz,
219120,HU,16,Monor,
219121,HU,16,Vasad,
219122,HU,16,Ullo,
219123,HU,16,Maglód,
219124,HU,16,Tököl,
219125,HU,16,Gyál,
219126,HU,16,Ócsa,
219127,HU,16,Dabas,
219128,HU,16,Örkény,
219129,HU,16,Nagymaros,
219130,HU,16,Vámosmikola,
219131,HU,16,Pilis,
219132,HU,16,Albertirsa,
219133,HU,16,Mikebuda,
219134,HU,16,Abony,
219135,HU,8,Csabdi,
219136,HU,8,Szár,
219137,HU,8,Nagykarácsony,
219138,HU,8,Kisapostag,
219139,HU,8,Perkáta,
219140,HU,8,Sárosd,
219141,HU,8,Hantos,
219142,HU,8,Iváncsa,
219143,HU,8,Besnyo,
219144,HU,8,Kulcs,
219145,HU,8,Kápolnásnyék,
219146,HU,8,Gárdony,
219147,HU,8,Agárd,
219148,HU,8,Pusztaszabolcs,
219149,HU,21,Leányvár,
219150,HU,17,Annavölgy,
219151,HU,12,Mocsa,
219152,HU,8,Sárbogárd,
219153,HU,8,Alap,
219154,HU,8,Alsószentiván,
219155,HU,8,Gánt,
219156,HU,8,Csákvár,
219157,HU,8,Vértesacsa,
219158,HU,8,Zichyújfalu,
219159,HU,8,Káloz,
219160,HU,8,Lajoskomárom,
219161,HU,8,Szabadbattyán,
219162,HU,8,Polgárdi,
219163,HU,23,Balatonfuzfo,
219164,HU,23,Papkeszi,
219165,HU,23,Litér,
219166,HU,23,Szentkirályszabadja,
219167,HU,23,Csopak,
219168,HU,23,Tótvázsony,
219169,HU,23,Zánka,
219170,HU,23,Kovagoors,
219171,HU,23,Balatoncsicsó,
219172,HU,23,Káptalantóti,
219173,HU,23,Úrkút,
219174,HU,23,Nagyesztergár,
219175,HU,23,Bakonyoszlop,
219176,HU,23,Zirc,
219177,HU,23,Lókút,
219178,HU,23,Borzavár,
219179,HU,23,Veszprémvarsány,
219180,HU,23,Hárskút,
219181,HU,23,Varoslod,
219182,HU,23,Kislod,
219183,HU,23,Halimba,
219184,HU,23,Nyirád,
219185,HU,23,Tüskevár,
219186,HU,23,Somloszolos,
219187,HU,23,Nagyalásony,
219188,HU,23,Vanyola,
219189,HU,23,Bakonyjákó,
219190,HU,22,Mikosszéplak,
219191,HU,24,Vonyarcvashegy,
219192,HU,24,Cserszegtomaj,
219193,HU,24,Alsópáhok,
219194,HU,24,Zalacsány,
219195,HU,24,Zalaszentgrót,
219196,HU,24,Letenye,
219197,HU,24,Csonkahegyhát,
219198,HU,24,Pókaszepetk,
219199,HU,3,Tarjánpuszta,
219200,HU,9,Gyorasszonyfa,
219201,HU,9,Tápszentmiklós,
219202,HU,8,Mecsér,
219203,HU,9,Ásványráró,
219204,HU,9,Hédervár,
219205,HU,9,Darnózseli,
219206,HU,9,Püski,
219207,HU,9,Vitnyéd,
219208,HU,9,Sarród,
219209,HU,9,Fertoendred,
219210,HU,22,Hosszúpereszteg,
219211,HU,22,Koszegszerdahely,
219212,HU,22,Koszeg,
219213,HU,22,Felsocsatar,
219214,HU,22,Vasvár,
219215,HU,22,Olaszfa,
219216,HU,22,Csipkerek,
219217,HU,22,Bajánsenye,
219218,HU,21,Bölcske,
219219,HU,21,Decs,
219220,HU,17,Taszár,
219221,HU,2,Magyaregregy,
219222,HU,2,Szalatnak,
219223,HU,2,Sásd,
219224,HU,17,Mezocsokonya,
219225,HU,17,Somogysárd,
219226,HU,17,Magyaregres,
219227,HU,17,Somogygeszti,
219228,HU,17,Szentgáloskér,
219229,HU,17,Bárdudvarnok,
219230,HU,17,Ötvöskónyi,
219231,HU,17,Mike,
219232,HU,17,Tarany,
219233,HU,17,Nagybajom,
219234,HU,17,Segesd,
219235,HU,17,Barcs,
219236,HU,2,Hosszúhetény,
219237,HU,2,Harkány,
219238,HU,18,Baranya,
219239,HU,2,Vajszló,
219240,HU,2,Szentdénes,
219241,HU,17,Fonyód,
219242,HU,17,Pogányszentpéter,
219243,HU,6,Árpád,
219244,HU,12,Újváros,
219245,HU,10,Hajdúvid,
219246,HU,11,Mátrafüred,
219247,HU,14,Somoskoujfalu,
219248,HU,14,Nógrád,
219249,HU,17,Csoma,
219250,HU,10,Teleki,
219251,HU,17,Zsigmond,
219252,HU,16,Szodliget,
219253,HU,4,Bekecs,
219254,HU,20,Bálint,
219255,HU,2,Pogány,
219256,HU,21,Sziget,
219257,HU,3,Csete,
219258,HU,6,Csanádpalota,
219259,HU,24,Zalalovo,
219260,HU,12,Piszke,
219261,HU,16,Bugyi,
219262,HU,2,Kacsóta,
219263,HU,14,Drégelypalánk,
219264,HU,18,Székely,
219265,HU,10,Újszentmargita,
219266,HU,1,Szikra,
219267,HU,18,Szolokert,
219268,HU,23,Nemesvámos,
219269,HU,24,Becsehely,
219270,HU,16,Kartal,
219271,HU,1,Hetényegyháza,
219272,HU,20,Fábián,
219273,HU,12,Császár,
219274,HU,12,Piliscsév,
219275,HU,23,Nagyvázsony,
219276,HU,24,Part,
219277,HU,16,Hévizgyörk,
219278,HU,16,Mogyoród,
219279,HU,22,Hegyalja,
219280,HU,23,Gyártelep,
219281,HU,8,Vajta,
219282,HU,16,Vácszentlászló,
219283,HU,14,Karancsalja,
219284,HU,4,Szemere,
219285,HU,20,Piroska,
219286,HU,12,Bana,
219287,HU,3,Örménykút,
219288,HU,3,Csabacsud,
219289,HU,18,Pázmány,
219290,HU,21,Iregszemcse,
219291,HU,18,Oros,
219292,HU,22,Rábahidvég,
219293,HU,22,Söpte,
219294,HU,21,Dalmand,
219295,HU,22,Gyöngyösfalu,
219296,HU,22,Gencsapáti,
219297,HU,1,Tass,
219298,HU,11,Erdotelek,
219299,HU,18,Kékcse,
219300,HU,20,Jászladány,
219301,HU,14,Dorogháza,
219302,HU,23,Bánd,
219303,HU,16,Pusztazámor,
219304,HU,18,Magy,
219305,HU,10,Létavértes,
219306,HU,8,Lovasberény,
219307,HU,16,Érd,
219308,HU,11,Abasár,
219309,HU,8,Pákozd,
219310,HU,8,Sárszentmihály,
219311,HU,16,Tárnok,
219312,HU,8,Pázmánd,
219313,HU,1,Mélykút,
219314,HU,1,Fülöpszállás,
219315,HU,8,Ráckeresztúr,
219316,HU,1,Orgovány,
219317,HU,1,Tázlár,
219318,HU,8,Sárkeresztúr,
219319,HU,11,Kál,
219320,HU,8,Vál,
219321,HU,8,Zámoly,
219322,HU,23,Csetény,
219323,HU,8,Adony,
219324,HU,1,Bácsbokod,
219325,HU,1,Helvécia,
219326,HU,16,Szigetcsép,
219327,HU,1,Solt,
219328,HU,23,Taliándörögd,
219329,HU,16,Dánszentmiklós,
219330,HU,6,Kiszombor,
219331,HU,16,Fót,
219332,HU,16,Göd,
219333,HU,22,Vép,
219334,HU,18,Nyírpazony,
219335,HU,11,Hort,
219336,HU,11,Ecséd,
219337,HU,4,Sajólád,
219338,HU,4,Harsány,
219339,HU,4,Ónod,
219340,HU,2,Gödre,
219341,HU,21,Ozora,
219342,HU,3,Újkígyós,
219343,HU,9,Nyúl,
219344,HU,9,Bony,
219345,HU,11,Karácsond,
219346,HU,11,Kisköre,
219347,HU,1,Csengod,
219348,HU,4,Szentistván,
219349,HU,20,Alattyán,
219350,HU,4,Alsózsolca,
219351,HU,16,Ecser,
219352,HU,9,Ujronafo,
219353,HU,20,Jánoshida,
219354,HU,14,Mátraterenye,
219355,HU,11,Demjén,
219356,HU,11,Domoszló,
219357,HU,20,Jászszentandrás,
219358,HU,16,Szentmártonkáta,
219359,HU,16,Újszilvás,
219360,HU,12,Környe,
219361,HU,16,Hernád,
219362,HU,18,Kállósemjén,
219363,HU,21,Nagydorog,
219364,HU,20,Tiszapüspöki,
219365,HU,10,Hajdubagos,
219366,HU,1,Tiszaalpár,
219367,HU,21,Zomba,
219368,HU,8,Mezofalva,
219369,HU,16,Jaszkarajeno,
219370,HU,18,Kótaj,
219371,HU,21,Szálka,
219372,HU,9,Mihályi,
219373,HU,4,Sály,
219374,HU,11,Recsk,
219375,HU,16,Újhartyán,
219376,HU,1,Szentkirály,
219377,HU,11,Andornaktálya,
219378,HU,22,Bük,
219379,HU,1,Városföld,
219380,HU,16,Táborfalva,
219381,HU,4,Nyékládháza,
219382,HU,20,Rákóczifalva,
219383,HU,4,Mezokeresztes,
219384,HU,16,Tápióság,
219385,HU,4,Megyaszó,
219386,HU,22,Ják,
219387,HU,18,Nagycserkesz,
219388,HU,21,Döbrököz,
219389,HU,9,Öttevény,
219390,HU,2,Kozármisleny,
219391,HU,4,Tolcsva,
219392,HU,16,Ceglédbercel,
219393,HU,1,Harta,
219394,HU,24,Bárcaimajor,
219395,HU,4,Hejobaba,
219396,HU,4,Bogács,
219397,HU,17,Lengyeltóti,
219398,HU,18,Máriapócs,
219399,HU,1,Akasztó,
219400,HU,1,Csávoly,
219401,HU,1,Nemesnádudvar,
219402,HU,22,Rábagyarmat,
219403,HU,8,Pusztavám,
219404,HU,16,Bag,
219405,HU,16,Tápiószentmárton,
219406,HU,16,Kóka,
219407,HU,16,Tóalmás,
219408,HU,8,Nagyvenyim,
219409,HU,6,Csengele,
219410,HU,6,Deszk,
219411,HU,23,Öskü,
219412,HU,12,Tát,
219413,HU,16,Vác,
219414,HU,3,Köröstarcsa,
219415,HU,3,Körösladány,
219416,HU,18,Tiszaeszlár,
219417,HU,3,Kondoros,
219418,HU,14,Rimóc,
219419,HU,14,Tar,
219420,HU,14,Jobbágyi,
219421,HU,3,Pusztaföldvár,
219422,HU,16,Galgamácsa,
219423,HU,23,Pápateszér,
219424,HU,3,Csorvás,
219425,HU,4,Tiszakeszi,
219426,HU,14,Bercel,
219427,HU,9,Kimle,
219428,HU,9,Szany,
219429,HU,9,Kóny,
219430,HU,9,Gyorzamoly,
219431,HU,9,Bakonyszentlászló,
219432,HU,8,Bodajk,
219433,HU,8,Mány,
219434,HU,12,Kocs,
219435,HU,21,Szedres,
219436,HU,9,Pereszteg,
219437,HU,24,Nova,
219438,HU,24,Gutorfölde,
219439,HU,24,Terézmajor,
219440,HU,4,Olaszliszka,
219441,HU,8,Lepsény,
219442,HU,9,Fertod,
219443,HU,9,Kópháza,
219444,HU,16,Kosd,
219445,HU,17,Balatonszabadi,
219446,HU,24,Szentliszló,
219447,HU,21,Hogyesz,
219448,HU,10,Konyár,
219449,HU,11,Sirok,
219450,HU,11,Szihalom,
219451,HU,4,Sajóvámos,
219452,HU,16,Farmos,
219453,HU,4,Gesztely,
219454,HU,11,Adács,
219455,HU,1,Dusnok,
219456,HU,1,Nagybaracska,
219457,HU,1,Kunfehértó,
219458,HU,10,Görbeháza,
219459,HU,10,Ebes,
219460,HU,10,Mikepércs,
219461,HU,10,Egyek,
219462,HU,10,Nagyrábé,
219463,HU,16,Tápióbicske,
219464,HU,16,Dömsöd,
219465,HU,16,Domony,
219466,HU,4,Felsozsolca,
219467,HU,14,Buják,
219468,HU,8,Aba,
219469,HU,16,Pánd,
219470,HU,11,Inárcs,
219471,HU,6,Földeák,
219472,HU,10,Hosszúpályi,
219473,HU,1,Lakitelek,
219474,HU,6,Fábiánsebestyén,
219475,HU,6,Szegvár,
219476,HU,6,Forráskút,
219477,HU,3,Doboz,
219478,HU,12,Kesztölc,
219479,HU,12,Bajna,
219480,HU,12,Csolnok,
219481,HU,1,Bugac,
219482,HU,16,Nagytarcsa,
219483,HU,20,Jászdózsa,
219484,HU,20,Tószeg,
219485,HU,16,Gomba,
219486,HU,16,Kakucs,
219487,HU,16,Csemo,
219488,HU,1,Ágasegyháza,
219489,HU,11,Ostoros,
219490,HU,23,Berhida,
219491,HU,8,Baracska,
219492,HU,14,Romhány,
219493,HU,8,Mór,
219494,HU,3,Békésszentandrás,
219495,HU,24,Nagylengyel,
219496,HU,24,Söjtör,
219497,HU,12,Baj,
219498,HU,14,Kazár,
219499,HU,16,Szigethalom,
219500,HU,16,Szentlorinckata,
219501,HU,20,Jászfényszaru,
219502,HU,16,Dány,
219503,HU,16,Orbottyan,
219504,HU,8,Rácalmás,
219505,HU,16,Dunavarsány,
219506,HU,6,Zákányszék,
219507,HU,16,Valkó,
219508,HU,16,Veroce,
219509,HU,11,Boldog,
219510,HU,11,Tiszanána,
219511,HU,9,Tét,
219512,HU,20,Abádszalók,
219513,HU,9,Hegyko,
219514,HU,16,Felsopakony,
219515,HU,16,Péteri,
219516,HU,16,Úri,
219517,HU,16,Alsónémedi,
219518,HU,24,Zalakaros,
219519,HU,23,Hajmáskér,
219520,HU,18,Kálmánháza,
219521,HU,16,Tapioszolos,
219522,HU,16,Tahitófalu,
219523,HU,16,Tápiógyörgye,
219524,HU,20,Öcsöd,
219525,HU,12,Nagyigmánd,
219526,HU,12,Vertesszolos,
219527,HU,8,Mezoszilas,
219528,HU,16,Mende,
219529,HU,16,Perbál,
219530,HU,8,Eloszallas,
219531,HU,8,Baracs,
219532,HU,21,Madocsa,
219533,HU,1,Apostag,
219534,HU,2,Szászvár,
219535,HU,21,Tengelic,
219536,HU,4,Múcsony,
219537,HU,22,Kemenessömjén,
219538,HU,11,Verpelét,
219539,HU,16,Tapioszecso,
219540,HU,16,Isaszeg,
219541,HU,6,Székkutas,
219542,HU,4,Tiszalúc,
219543,HU,14,Mátranovák,
219544,HU,16,Nyáregyháza,
219545,HU,1,Szalkszentmárton,
219546,HU,11,Heréd,
219547,HU,18,Marócsa,
219548,HU,16,Szigetújfalu,
219549,HU,18,Porcsalma,
219550,HU,8,Bakonycsernye,
219551,HU,17,Kaposmero,
219552,HU,18,Ajak,
219553,HU,10,Földes,
219554,HU,16,Pilisszántó,
219555,HU,10,Sáránd,
219556,HU,21,Németkér,
219557,HU,5,Újpest,
219558,HU,9,Fertorakos,
219559,HU,2,Kiskassa,
219560,HU,23,Balatonhenye,
219561,HU,8,Kisláng,
219562,HU,1,Pálmonostora,
219563,HU,10,Nagyhegyes,
219564,HU,18,Kék,
219565,HU,11,Petofibanya,
219566,HU,11,Apc,
219567,HU,12,Pilismarót,
219568,HU,9,Dunaszeg,
219569,HU,6,Ásotthalom,
219570,HU,1,Ballószög,
219571,HU,1,Hercegszántó,
219572,HU,14,Érsekvadkert,
219573,HU,19,Algyo,
219574,HU,22,Nárai,
219575,HU,1,Kisszállás,
219576,HU,2,Hidas,
219577,HU,23,Osi,
219578,HU,4,Sajószöged,
219579,HU,4,Hernádnémeti,
219580,HU,21,Szentgál,
219581,HU,24,Olgamajor,
219582,HU,3,Békéssámson,
219583,HU,17,Somogyaszaló,
219584,HU,20,Jászkisér,
219585,HU,18,Kemecse,
219586,HU,20,Kengyel,
219587,HU,11,Kerecsend,
219588,HU,4,Fancsal,
219589,HU,21,Bogyiszló,
219590,HU,24,Gyenesdiás,
219591,HU,12,Naszály,
219592,HU,18,Ófehértó,
219593,HU,1,Vaskút,
219594,HU,1,Felsoszentivan,
219595,HU,23,Csabrendek,
219596,HU,11,Zagyvaszántó,
219597,HU,6,Kardos,
219598,HU,23,Pápasalamon,
219599,HU,24,Türje,
219600,HU,9,Hidegség,
219601,HU,20,Szajol,
219602,HU,4,Tállya,
219603,HU,17,Balatonberény,
219604,HU,4,Ózd,
219605,HU,11,Csány,
219606,HU,10,Hajdúszovát,
219607,HU,11,Maklár,
219608,HU,1,Szank,
219609,HU,1,Császártöltés,
219610,HU,10,Bodaszollo,
219611,HU,1,Sükösd,
219612,HU,6,Szatymaz,
219613,HU,12,Sutto,
219614,HU,21,Pincehely,
219615,HU,24,Zalakomár,
219616,HU,2,Lánycsók,
219617,HU,1,Méntelek,
219618,HU,8,Dég,
219619,HU,2,Máriakéménd,
219620,HU,20,Jászalsószentgyörgy,
219621,HU,20,Tiszaszentimre,
219622,HU,14,Szurdokpüspöki,
219623,HU,12,Ács,
219624,HU,11,Felsotarkany,
219625,HU,3,Medgyesegyháza,
219626,HU,21,Dunaszentgyörgy,
219627,HU,1,Dunapataj,
219628,HU,21,Kakasd,
219629,HU,4,Izsófalva,
219630,HU,8,Soponya,
219631,HU,9,Gonyu,
219632,HU,9,Beled,
219633,HU,11,Gyöngyöshalász,
219634,HU,2,Pellérd,
219635,HU,20,Tiszasüly,
219636,HU,4,Tard,
219637,HU,6,Ruzsa,
219638,HU,4,Oszlár,
219639,HU,22,Táplánszentkereszt,
219640,HU,12,Sárisáp,
219641,HU,10,Gáborján,
219642,HU,4,Mezozombor,
219643,HU,6,Bordány,
219644,HU,12,Kecskéd,
219645,HU,24,Vörösszeg,
219646,HU,1,Madaras,
219647,HU,4,Onga,
219648,HU,11,Egerszólát,
219649,HU,18,Fényeslitke,
219650,HU,4,Rudabánya,
219651,HU,20,Cserkeszolo,
219652,HU,10,Hortobágy,
219653,HU,6,Apátfalva,
219654,HU,14,Karancsság,
219655,HU,3,Gádoros,
219656,HU,14,Matraszolos,
219657,HU,8,Iszkaszentgyörgy,
219658,HU,17,Koroshegy,
219659,HU,9,Nagycenk,
219660,HU,24,Pacsa,
219661,HU,17,Berzence,
219662,HU,9,Rábapatona,
219663,HU,14,Herencsény,
219664,HU,1,Érsekcsanád,
219665,HU,3,Kaszaper,
219666,HU,16,Csévharaszt,
219667,HU,14,Szendehely,
219668,HU,18,Dombrád,
219669,HU,16,Törtel,
219670,HU,17,Böhönye,
219671,HU,2,Pécsudvard,
219672,HU,4,Halmaj,
219673,HU,16,Gyár,
219674,HU,22,Ispánk,
219675,HU,23,Öcs,
219676,HU,22,Sé,
219677,HU,4,Boldva,
219678,HU,21,Ocseny,
219679,HU,1,Balotaszállás,
219680,HU,17,Tab,
219681,HU,23,Nemesvita,
219682,HU,2,Dunaszekcso,
219683,HU,22,Rátót,
219684,HU,24,Bak,
219685,HU,17,Porrogszentkirály,
219686,HU,12,Nagysáp,
219687,HU,17,Lad,
219688,HU,14,Karancslapujto,
219689,HU,14,Erdokurt,
219690,HU,9,Ikrény,
219691,HU,4,Kissikátor,
219692,HU,23,Balatonederics,
219693,HU,4,Fony,
219694,HU,4,Vajdácska,
219695,HU,11,Besenyotelek,
219696,HU,24,Böde,
219697,HU,9,Lipót,
219698,HU,17,Sávoly,
219699,HU,23,Dudar,
219700,HU,16,Szigetbecse,
219701,HU,23,Felsoors,
219702,HU,20,Besenyszög,
219703,HU,3,Kunágota,
219704,HU,14,Nemti,
219705,HU,12,Bokod,
219706,HU,4,Kurityán,
219707,HU,4,Prügy,
219708,HU,22,Velemér,
219709,HU,9,Kunsziget,
219710,HU,18,Jéke,
219711,HU,12,Szomód,
219712,HU,17,Somogyszob,
219713,HU,22,Tompaládony,
219714,HU,14,Dejtár,
219715,HU,1,Csátalja,
219716,HU,18,Vaja,
219717,HU,2,Bikal,
219718,HU,18,Nyírcsaholy,
219719,HU,18,Tyukod,
219720,HU,4,Bánhorváti,
219721,HU,17,Balatonfenyves,
219722,HU,9,Máriakálnok,
219723,HU,24,Balatongyörök,
219724,HU,12,Dunaszentmiklós,
219725,HU,12,Aka,
219726,HU,21,Udvari,
219727,HU,22,Pinkamindszent,
219728,HU,4,Makkoshotyka,
219729,HU,17,Boszenfa,
219730,HU,11,Poroszló,
219731,HU,4,Bükkszentkereszt,
219732,HU,11,Szilvásvárad,
219733,HU,3,Kevermes,
219734,HU,14,Diosjeno,
219735,HU,14,Mátraverebély,
219736,HU,6,Balástya,
219737,HU,24,Vállus,
219738,HU,14,Galgaguta,
219739,HU,22,Kondorfa,
219740,HU,17,Zala,
219741,HU,24,Páka,
219742,HU,18,Nyírbéltek,
219743,HU,1,Miske,
219744,HU,17,Hetes,
219745,HU,4,Nyésta,
219746,HU,23,Monostorapáti,
219747,HU,22,Zsennye,
219748,HU,9,Jánossomorja,
219749,HU,18,Gavavencsello,
219750,HU,23,Takácsi,
219751,HU,4,Taktaharkány,
219752,HU,4,Ináncs,
219753,HU,24,Esztergályhorváti,
219754,HU,4,Tibolddaróc,
219755,HU,21,Kajdacs,
219756,HU,18,Balkány,
219757,HU,1,Harka,
219758,HU,24,Oltárc,
219759,HU,24,Sormás,
219760,HU,24,Liszó,
219761,HU,21,Fadd,
219762,HU,18,Pátroha,
219763,HU,21,Nagykónyi,
219764,HU,2,Szentegát,
219765,HU,24,Rédics,
219766,HU,3,Kisbucsa,
219767,HU,10,Csokmo,
219768,HU,1,Bátya,
219769,HU,14,Erdotarcsa,
219770,HU,22,Vasszentmihály,
219771,HU,18,Kocsord,
219772,HU,12,Dunaalmás,
219773,HU,2,Mozsgó,
219774,HU,4,Bükkaranyos,
219775,HU,2,Matty,
219776,HU,1,Kelebia,
219777,HU,20,Cibakháza,
219778,HU,9,Röjtökmuzsaj,
219779,HU,14,Cered,
219780,HU,16,Zsámbok,
219781,HU,20,Fegyvernek,
219782,HU,4,Szomolya,
219783,HU,3,Dombegyház,
219784,HU,21,Györköny,
219785,HU,9,Zsira,
219786,HU,24,Becsvölgye,
219787,HU,16,Újlengyel,
219788,HU,4,Sajópálfala,
219789,HU,2,Orfu,
219790,HU,21,Regöly,
219791,HU,11,Erk,
219792,HU,8,Nagylók,
219793,HU,10,Monostorpályi,
219794,HU,4,Hidvégardó,
219795,HU,18,Ópályi,
219796,HU,1,Dunaszentbenedek,
219797,HU,22,Nagysimonyi,
219798,HU,23,Adásztevel,
219799,HU,2,Boda,
219800,HU,2,Magyarszék,
219801,HU,2,Szemely,
219802,HU,17,Somogyszentpál,
219803,HU,17,Kéthely,
219804,HU,9,Lovo,
219805,HU,10,Esztár,
219806,HU,24,Szepetnek,
219807,HU,11,Markaz,
219808,HU,8,Tabajd,
219809,HU,9,Bakonygyirót,
219810,HU,4,Szuhakálló,
219811,HU,3,Sarkadkeresztúr,
219812,HU,2,Nagynyárád,
219813,HU,2,Romonya,
219814,HU,17,Ságvár,
219815,HU,3,Bucsa,
219816,HU,14,Kálló,
219817,HU,2,Szokedi Puszta,
219818,HU,24,Vaspör,
219819,HU,24,Vöckönd,
219820,HU,20,Rákócziújfalu,
219821,HU,18,Tornyospálca,
219822,HU,23,Nagygyimót,
219823,HU,8,Vértesboglár,
219824,HU,17,Buzsák,
219825,HU,4,Sajóörös,
219826,HU,1,Dávod,
219827,HU,24,Molnári,
219828,HU,23,Alsódobospuszta,
219829,HU,24,Fityeház,
219830,HU,14,Szanda,
219831,HU,17,Kaposgyarmat,
219832,HU,9,Pinnye,
219833,HU,20,Tiszabura,
219834,HU,9,Várbalog,
219835,HU,21,Pusztahencse,
219836,HU,21,Kisszékely,
219837,HU,2,Aranyosgadány,
219838,HU,17,Nikla,
219839,HU,18,Nyírtass,
219840,HU,4,Mád,
219841,HU,24,Petrikeresztúr,
219842,HU,2,Kovácshida,
219843,HU,11,Kanyar,
219844,HU,18,Tarpa,
219845,HU,1,Kunbaja,
219846,HU,6,Klárafalva,
219847,HU,24,Nagypáli,
219848,HU,11,Detk,
219849,HU,21,Kölesd,
219850,HU,24,Zalatárnok,
219851,HU,1,Drágszél,
219852,HU,12,Szomor,
219853,HU,17,Orci,
219854,HU,17,Baté,
219855,HU,17,Mosdós,
219856,HU,10,Biharnagybajom,
219857,HU,18,Mándok,
219858,HU,18,Mátyus,
219859,HU,9,Dunakiliti,
219860,HU,20,Tiszakürt,
219861,HU,16,Kisoroszi,
219862,HU,4,Abaújkér,
219863,HU,23,Kulsovat,
219864,HU,23,Borszörcsök,
219865,HU,23,Balatonfokajar,
219866,HU,12,Mogyorósbánya,
219867,HU,17,Jákó,
219868,HU,22,Káld,
219869,HU,22,Mesteri,
219870,HU,9,Sobor,
219871,HU,9,Acsalag,
219872,HU,9,Gyorszemere,
219873,HU,8,Balinka,
219874,HU,18,Geszteréd,
219875,HU,2,Nagykozár,
219876,HU,24,Kacorlak,
219877,HU,9,Vámosszabadi,
219878,HU,24,Zalaszentlászló,
219879,HU,11,Gyöngyösoroszi,
219880,HU,2,Szabadszentkirály,
219881,HU,16,Kisalag,
219882,HU,14,Tereske,
219883,HU,16,Pilisszentlászló,
219884,HU,16,Tinnye,
219885,HU,9,Mosonszentmiklós,
219886,HU,23,Ugod,
219887,HU,4,Hernádkak,
219888,HU,8,Tordas,
219889,HU,1,Csikéria,
219890,HU,9,Gyorsag,
219891,HU,18,Bököny,
219892,HU,4,Tiszavalk,
219893,HU,8,Kincsesbánya,
219894,HU,2,Kökény,
219895,HU,17,Görgeteg,
219896,HU,9,Szakony,
219897,HU,6,Tiszasziget,
219898,HU,9,Halászi,
219899,HU,4,Cigánd,
219900,HU,16,Pusztavacs,
219901,HU,16,Monorierdo,
219902,HU,2,Ózdfalu,
219903,HU,23,Balatonrendes,
219904,HU,3,Méhkerék,
219905,HU,22,Tokorcs,
219906,HU,10,Báránd,
219907,HU,18,Nyírkarász,
219908,HU,24,Bázakerettye,
219909,HU,2,Véménd,
219910,HU,9,Újkér,
219911,HU,9,Pusztacsalád,
219912,HU,17,Csokonyavisonta,
219913,HU,17,Babócsa,
219914,HU,11,Feldebro,
219915,HU,16,Letkés,
219916,HU,22,Sitke,
219917,HU,22,Kissomlyó,
219918,HU,14,Nagyoroszi,
219919,HU,24,Nemespátró,
219920,HU,20,Portelek,
219921,HU,3,Kardoskút,
219922,HU,4,Borsodivánka,
219923,HU,4,Aszaló,
219924,HU,24,Nagyrécse,
219925,HU,4,Tardona,
219926,HU,2,Kölked,
219927,HU,8,Igar,
219928,HU,16,Váchartyán,
219929,HU,16,Lakihegy,
219930,HU,17,Vörs,
219931,HU,24,Sármellék,
219932,HU,3,Lokoshaza,
219933,HU,21,Hegyes,
219934,HU,14,Karancsberény,
219935,HU,9,Levél,
219936,HU,9,Töltéstava,
219937,HU,9,Babót,
219938,HU,24,Vasboldogasszony,
219939,HU,9,Pér,
219940,HU,10,Nyíracsád,
219941,HU,24,Zalasárszeg,
219942,HU,8,Bodmér,
219943,HU,17,Kaposkeresztúr,
219944,HU,14,Nagybárkány,
219945,HU,2,Szajk,
219946,HU,9,Lázi,
219947,HU,16,Rád,
219948,HU,8,Sárkeresztes,
219949,HU,8,Úrhida,
219950,HU,3,Csanádapáca,
219951,HU,18,Kisnamény,
219952,HU,21,Mucsi,
219953,HU,4,Sajóecseg,
219954,HU,8,Nadap,
219955,HU,8,Csór,
219956,HU,1,Dunaegyháza,
219957,HU,2,Keszü,
219958,HU,20,Jászágó,
219959,HU,24,Szentgyörgyvölgy,
219960,HU,22,Jákfa,
219961,HU,12,Héreg,
219962,HU,22,Hegyhátszentjakab,
219963,HU,17,Bánya,
219964,HU,20,Tiszabo,
219965,HU,14,Nógrádsáp,
219966,HU,11,Mónosbél,
219967,HU,18,Ilk,
219968,HU,17,Igal,
219969,HU,4,Csobád,
219970,HU,4,Kenezlo,
219971,HU,10,Hencida,
219972,HU,2,Old,
219973,HU,14,Szécsényfelfalu,
219974,HU,8,Gyúró,
219975,HU,9,Ágfalva,
219976,HU,23,Révfülöp,
219977,HU,17,Bonnya,
219978,HU,8,Csokako,
219979,HU,4,Füzérradvány,
219980,HU,14,Szarvasgede,
219981,HU,11,Tarnaméra,
219982,HU,2,Ócsárd,
219983,HU,14,Legénd,
219984,HU,21,Sarszentlorinc,
219985,HU,23,Veszprémfajsz,
219986,HU,9,Rábapordány,
219987,HU,1,Kaskantyú,
219988,HU,16,Vácduka,
219989,HU,17,Somogyudvarhely,
219990,HU,17,Szulok,
219991,HU,17,Pusztakovácsi,
219992,HU,22,Nemesbod,
219993,HU,24,Tótszentmárton,
219994,HU,9,Vágóhíd,
219995,HU,24,Rezi,
219996,HU,9,Koroncó,
219997,HU,18,Timár,
219998,HU,21,Magyarkeszi,
219999,HU,14,Endrefalva,
220000,HU,22,Csempeszkopács,
220001,HU,23,Balatonakali,
220002,HU,4,Füzérkomlós,
220003,HU,17,Balatonkeresztúr,
220004,HU,3,Okány,
220005,HU,21,Kövesd,
220006,HU,8,Moha,
220007,HU,4,Nyíri,
220008,HU,17,Ordacsehi,
220009,HU,14,Patvarc,
220010,HU,22,Csákánydoroszló,
220011,HU,14,Karancskeszi,
220012,HU,2,Kovagoszolos,
220013,HU,14,Orhalom,
220014,HU,23,Mencshely,
220015,HU,16,Püspökhatvan,
220016,HU,16,Kocsér,
220017,HU,21,Paradicsompuszta,
220018,HU,8,Cece,
220019,HU,22,Vönöck,
220020,HU,8,Nádasdladány,
220021,HU,11,Pély,
220022,HU,8,Sukoró,
220023,HU,21,Csibrák,
220024,HU,18,Gégény,
220025,HU,2,Birján,
220026,HU,17,Juta,
220027,HU,10,Bagamér,
220028,HU,4,Serényfalva,
220029,HU,14,Etes,
220030,HU,11,Tarnazsadány,
220031,HU,6,Újszentiván,
220032,HU,24,Sárhida,
220033,HU,16,Verseg,
220034,HU,1,Kunadacs,
220035,HU,4,Karcsa,
220036,HU,22,Lukácsháza,
220037,HU,6,Magyarcsanád,
220038,HU,3,Kötegyán,
220039,HU,23,Nemesgörzsöny,
220040,HU,17,Balatonszemes,
220041,HU,2,Máza,
220042,HU,18,Tuzsér,
220043,HU,2,Belvárdgyula,
220044,HU,3,Berente,
220045,HU,14,Ecseg,
220046,HU,23,Tés,
220047,HU,24,Baktüttös,
220048,HU,4,Arló,
220049,HU,1,Gátér,
220050,HU,4,Farkaslyuk,
220051,HU,14,Szügy,
220052,HU,17,Szabadi,
220053,HU,8,Óbarok,
220054,HU,22,Rum,
220055,HU,22,Ikervár,
220056,HU,3,Veszto,
220057,HU,23,Bögöt,
220058,HU,20,Nagykoru,
220059,HU,11,Nagyvisnyó,
220060,HU,8,Magyaralmás,
220061,HU,11,Novaj,
220062,HU,4,Sajópetri,
220063,HU,16,Apaj,
220064,HU,22,Vát,
220065,HU,8,Felcsút,
220066,HU,14,Kishartyán,
220067,HU,9,Bezenye,
220068,HU,6,Kövegy,
220069,HU,21,Sióagárd,
220070,HU,16,Ipolytölgyes,
220071,HU,16,Szeteharaszt-puszta,
220072,HU,22,Halogy,
220073,HU,1,Jászszentlászló,
220074,HU,22,Gérce,
220075,HU,23,Lovászpatona,
220076,HU,4,Bódvalenke,
220077,HU,18,Nyírmeggyes,
220078,HU,4,Gönc,
220079,HU,9,Hegyeshalom,
220080,HU,23,Balatonvilágos,
220081,HU,18,Buj,
220082,HU,16,Acsa,
220083,HU,24,Pat,
220084,HU,17,Iharosberény,
220085,HU,21,Noszlop,
220086,HU,2,Csarnóta,
220087,HU,16,Bénye,
220088,HU,2,Cserkút,
220089,HU,12,Almasfuzito,
220090,HU,18,Biri,
220091,HU,24,Óhid,
220092,HU,11,Zaránk,
220093,HU,17,Kiskorpád,
220094,HU,11,Patak,
220095,HU,21,Szakály,
220096,HU,1,Fülöpháza,
220097,HU,5,Kispest,
220098,HU,23,Olaszfalu,
220099,HU,23,Csót,
220100,HU,21,Mucsfa,
220101,HU,1,Tabdi,
220102,HU,17,Sántos,
220103,HU,9,Balf,
220104,HU,4,Sajókaza,
220105,HU,24,Murakeresztúr,
220106,HU,8,Kajászó,
220107,HU,12,Neszmély,
220108,HU,10,Szentpéterszeg,
220109,HU,18,Uszka,
220110,HU,18,Tiszanagyfalu,
220111,HU,23,Gecse,
220112,HU,9,Pázmándfalu,
220113,HU,4,Bodroghalom,
220114,HU,4,Bodrogolaszi,
220115,HU,4,Bodrogkeresztúr,
220116,HU,4,Sáta,
220117,HU,24,Alsórajk,
220118,HU,4,Sajókeresztúr,
220119,HU,23,Bakonynána,
220120,HU,20,Szandaszolos,
220121,HU,20,Tiszaroff,
220122,HU,2,Szava,
220123,HU,6,Felgyo,
220124,HU,4,Mezonyarad,
220125,HU,18,Mérk,
220126,HU,10,Zsáka,
220127,HU,17,Bedegkér,
220128,HU,2,Bicsérd,
220129,HU,16,Dunasziget,
220130,HU,17,Tengod,
220131,HU,18,Érpatak,
220132,HU,17,Mesztegnyo,
220133,HU,9,Farád,
220134,HU,24,Kustánszeg,
220135,HU,1,Gara,
220136,HU,1,Csólyospálos,
220137,HU,24,Zalaszentmihály,
220138,HU,22,Perenye,
220139,HU,10,Nagykereki,
220140,HU,1,Harkakötöny,
220141,HU,1,Katymár,
220142,HU,18,Nyírlugos,
220143,HU,23,Lesencefalu,
220144,HU,4,Sajóivánka,
220145,HU,14,Ipolyvece,
220146,HU,18,Piricse,
220147,HU,22,Vasszécseny,
220148,HU,12,Salipuszta,
220149,HU,10,Kismarja,
220150,HU,14,Mátranovák-bányatelep,
220151,HU,14,Nógrádsipek,
220152,HU,9,Bágyogszovát,
220153,HU,12,Szákszend,
220154,HU,9,Rábatamási,
220155,HU,17,Varászló,
220156,HU,23,Gógánfa,
220157,HU,16,Pócsmegyer,
220158,HU,22,Egyházasrádóc,
220159,HU,8,Koszarhegy,
220160,HU,4,Méra,
220161,HU,10,Nagyzomlin,
220162,HU,24,Magyarszentmiklós,
220163,HU,9,Virágosmajor,
220164,HU,8,Tác,
220165,HU,18,Szorgalmatos,
220166,HU,18,Nábrád,
220167,HU,6,Mártély,
220168,HU,10,Körösszegapáti,
220169,HU,4,Ormosbánya,
220170,HU,2,Babarc,
220171,HU,1,Uszód,
220172,HU,14,Kisecset,
220173,HU,11,Szucsi,
220174,HU,3,Medgyesbodzás,
220175,HU,2,Udvar,
220176,HU,10,Újtikos,
220177,HU,21,Nak,
220178,HU,20,Jásztelek,
220179,HU,16,Makád,
220180,HU,18,Agerdo,
220181,HU,4,Borsodszirák,
220182,HU,8,Újbarok,
220183,HU,2,Himesháza,
220184,HU,8,Árkipuszta,
220185,HU,3,Csabaszabadi,
220186,HU,9,Brennbergbánya,
220187,HU,5,Zugló,
220188,HU,4,Újcsanálos,
220189,HU,11,Ludas,
220190,HU,23,Zalahaláp,
220191,HU,20,Tiszatenyo,
220192,HU,16,Majosháza,
220193,HU,16,Szokolya,
220194,HU,3,Kétsoprony,
220195,HU,9,Szárföld,
220196,HU,18,Nyírtura,
220197,HU,1,Rém,
220198,HU,14,Csécse,
220199,HU,4,Hangony,
220200,HU,8,Piripócs,
220201,HU,11,Egerfarmos,
220202,HU,9,Völcsej,
220203,HU,22,Ivánc,
220204,HU,12,Vértestolna,
220205,HU,24,Nemesszentandrás,
220206,HU,22,Vasasszonyfa,
220207,HU,16,Váckisújfalu,
220208,HU,2,Áta,
220209,HU,4,Sajóvelezd,
220210,HU,14,Ludányhalászi,
220211,HU,23,Kisapáti,
220212,HU,14,Cserhátsurány,
220213,HU,16,Áporka,
220214,HU,10,Mezopeterd,
220215,HU,1,Dunatetétlen,
220216,HU,23,Bakonyság,
220217,HU,16,Tök,
220218,HU,4,Vámosújfalu,
220219,HU,22,Narda,
220220,HU,1,Szeremle,
220221,HU,1,Pirtó,
220222,HU,12,Tardos,
220223,HU,23,Somlóvásárhely,
220224,HU,14,Pusztaberki,
220225,HU,2,Kátoly,
220226,HU,20,Jászboldogháza,
220227,HU,22,Pornóapáti,
220228,HU,4,Sajógalgóc,
220229,HU,17,Rinyaszentkirály,
220230,HU,9,Gyorujfalu,
220231,HU,17,Ráksi,
220232,HU,11,Mezotarkany,
220233,HU,11,Nagyút,
220234,HU,24,Bezeréd,
220235,HU,3,Nagybánhegyes,
220236,HU,2,Pécsdevecser,
220237,HU,22,Csörötnek,
220238,HU,2,Hirics,
220239,HU,2,Zádor,
220240,HU,1,Füzes,
220241,HU,24,Babosdöbréte,
220242,HU,4,Nagykinizs,
220243,HU,20,Zagyvarékas,
220244,HU,21,Izmény,
220245,HU,23,Ukk,
220246,HU,3,Végegyháza,
220247,HU,23,Egyhazaskeszo,
220248,HU,9,Zichypuszta,
220249,HU,18,Tiszabezdéd,
220250,HU,4,Hejce,
220251,HU,20,Tiszasas,
220252,HU,10,Pocsaj,
220253,HU,4,Barcika,
220254,HU,14,Vizslás,
220255,HU,1,Ladánybene,
220256,HU,12,Dömös,
220257,HU,18,Nyírtét,
220258,HU,14,Osagard,
220259,HU,20,Tiszajeno,
220260,HU,14,Nógrádmegyer,
220261,HU,21,Bonyhádvarasd,
220262,HU,24,Nemesbük,
220263,HU,4,Alsószuha,
220264,HU,1,Szakmár,
220265,HU,17,Balatonmariafurdo,
220266,HU,4,Aranytótanya,
220267,HU,18,Anarcs,
220268,HU,1,Homokmégy,
220269,HU,3,Gerendás,
220270,HU,24,Nemessándorháza,
220271,HU,16,Galgagyörk,
220272,HU,4,Nagycsécs,
220273,HU,4,Aranyos,
220274,HU,4,Egerlovo,
220275,HU,24,Kehidakustány,
220276,HU,4,Bodrogkisfalud,
220277,HU,18,Szamoskér,
220278,HU,22,Pósfa,
220279,HU,12,Bakonyszombathely,
220280,HU,20,Vezseny,
220281,HU,2,Merenye,
220282,HU,4,Hernádkércs,
220283,HU,10,Nyírábrány,
220284,HU,18,Petneháza,
220285,HU,22,Püspökmolnári,
220286,HU,2,Bár,
220287,HU,20,Pusztamonostor,
220288,HU,14,Héhalom,
220289,HU,4,Borsodszentgyörgy,
220290,HU,10,Nyírmártonfalva,
220291,HU,11,Tarnaszentmiklós,
220292,HU,17,Kapospula,
220293,HU,17,Kapoly,
220294,HU,20,Csataszög,
220295,HU,2,Cserto,
220296,HU,5,Kobanya,
220297,HU,5,Angyalföld,
220298,HU,5,Lágymányos,
220299,HU,5,Rákoskeresztúr,
220300,HU,1,Matkó,
220301,HU,5,Pesterzsébet,
220302,HU,13,Bükkszentlászló,
220303,HU,18,Benk,
220304,HU,9,Vizmuvek,
220305,HU,24,Bocfölde,
220306,HU,18,Szatmárcseke,
220307,HU,17,Kaposszerdahely,
220308,HU,11,Nagytálya,
220309,HU,4,Bózsva,
220310,HU,17,Balatonoszod,
220311,HU,10,Bocskaikert,
220312,HU,17,Nemesvid,
220313,HU,23,Sóly,
220314,HU,18,Nagyar,
220315,HU,2,Zók,
220316,HU,4,Boldogkoujfalu,
220317,HU,18,Kántorjánosi,
220318,HU,9,Agyagosszergény,
220319,HU,6,Királyhalom,
220320,HU,23,Szentbékkálla,
220321,HU,16,Tatárszentgyörgy,
220322,HU,3,Bélmegyer,
220323,HU,14,Sóshartyán,
220324,HU,3,Csárdaszállás,
220325,HU,10,Tiszagyulaháza,
220326,HU,21,Mözs,
220327,HU,18,Tunyogmatolcs,
220328,HU,21,Kocsola,
220329,HU,11,Boconád,
220330,HU,11,Nagyfüged,
220331,HU,18,Döge,
220332,HU,4,Pácin,
220333,HU,22,Uraiújfalu,
220334,HU,10,Körösszakál,
220335,HU,24,Várvölgy,
220336,HU,16,Surányi,
220337,HU,18,Beszterec,
220338,HU,4,Sajósenye,
220339,HU,20,Tiszainoka,
220340,HU,3,Nagykamarás,
220341,HU,4,Igrici,
220342,HU,14,Szuha,
220343,HU,10,Ártánd,
220344,HU,18,Pap,
220345,HU,21,Borjád,
220346,HU,2,Olasz,
220347,HU,12,Almásneszmély,
220348,HU,14,Keszeg,
220349,HU,23,Doba,
220350,HU,23,Nyárád,
220351,HU,14,Csevicekútpuszta,
220352,HU,3,Pusztaottlaka,
220353,HU,14,Palotás,
220354,HU,17,Attala,
220355,HU,1,Fajsz,
220356,HU,4,Zubogy,
220357,HU,11,Tenk,
220358,HU,21,Kurd,
220359,HU,1,Felsolajos,
220360,HU,17,Kaposújlak,
220361,HU,20,Tiszaug,
220362,HU,11,Bekölce,
220363,HU,2,Mekényes,
220364,HU,1,Sóstó,
220365,HU,14,Mátramindszent,
220366,HU,4,Dubicsány,
220367,HU,2,Gyód,
220368,HU,18,Csaroda,
220369,HU,9,Écs,
220370,HU,1,Borota,
220371,HU,2,Kisharsány,
220372,HU,23,Kemeneshogyesz,
220373,HU,23,Bazsi,
220374,HU,17,Inke,
220375,HU,23,Farkasgyepu,
220376,HU,14,Ságújfalu,
220377,HU,12,Ácsteszér,
220378,HU,14,Nógrádkövesd,
220379,HU,4,Vadna,
220380,HU,3,Kamut,
220381,HU,11,Átány,
220382,HU,8,Vereb,
220383,HU,18,Szamosszeg,
220384,HU,8,Mezokomarom,
220385,HU,24,Baglad,
220386,HU,24,Zalacséb,
220387,HU,4,Kistokaj,
220388,HU,11,Visznek,
220389,HU,1,Tataháza,
220390,HU,17,Osztopán,
220391,HU,17,Gölle,
220392,HU,23,Mezolak,
220393,HU,23,Nemesgulács,
220394,HU,4,Radostyán,
220395,HU,2,Egerág,
220396,HU,2,Drávapiski,
220397,HU,24,Zalaszentiván,
220398,HU,9,Táp,
220399,HU,11,Szentdomonkos,
220400,HU,11,Tófalu,
220401,HU,18,Berkesz,
220402,HU,17,Torvaj,
220403,HU,22,Sorkifalud,
220404,HU,24,Hahót,
220405,HU,4,Sárazsadány,
220406,HU,20,Szászberek,
220407,HU,8,Sárszentágota,
220408,HU,4,Dédestapolcsány,
220409,HU,16,Káva,
220410,HU,11,Mátraderecske,
220411,HU,24,Felsopahok,
220412,HU,3,Murony,
220413,HU,1,Bacsszolos,
220414,HU,22,Cák,
220415,HU,11,Kápolna,
220416,HU,2,Abaliget,
220417,HU,24,Rádó,
220418,HU,21,Diós,
220419,HU,4,Tiszapalkonya,
220420,HU,9,Sopronkövesd,
220421,HU,17,Sersekszolos,
220422,HU,11,Mátraballa,
220423,HU,9,Osli,
220424,HU,10,Álmosd,
220425,HU,24,Döbröce,
220426,HU,23,Balatonszolos,
220427,HU,6,Kübekháza,
220428,HU,14,Magyargéc,
220429,HU,12,Kisigmánd,
220430,HU,18,Tiszakanyár,
220431,HU,23,Mindszentkálla,
220432,HU,1,Bátmonostor,
220433,HU,4,Hét,
220434,HU,4,Hollóháza,
220435,HU,20,Jászivány,
220436,HU,1,Imrehegy,
220437,HU,2,Bogád,
220438,HU,14,Magyarnándor,
220439,HU,22,Kétvölgy,
220440,HU,16,Nagybörzsöny,
220441,HU,18,Telek,
220442,HU,10,Zódony,
220443,HU,20,Alsómuszáj,
220444,HU,7,Pallag,
220445,HU,16,Erospuszta,
220446,HU,23,Nádas,
220447,HU,22,Karakó,
220448,HU,20,Necso,
220449,HU,21,Bányatelep,
220450,HU,21,Szállás,
220451,HU,6,Öttömös,
220452,HU,21,Dolina,
220453,HU,14,Debercsény,
220454,HU,8,Mátyásdomb,
220455,HU,4,Felsotelekes,
220456,HU,22,Bérbaltavár,
220457,HU,22,Bozzai,
220458,HU,18,Nyírjákó,
220459,HU,4,Alsóvadász,
220460,HU,23,Dáka,
220461,HU,4,Forró,
220462,HU,12,Súr,
220463,HU,14,Cserháthaláp,
220464,HU,14,Patak,
220465,HU,4,Zsujta,
220466,HU,4,Legyesbénye,
220467,HU,4,Ragály,
220468,HU,20,Nagyrév,
220469,HU,18,Ököritófülpös,
220470,HU,18,Beregsurány,
220471,HU,14,Bánk,
220472,HU,4,Berzék,
220473,HU,10,Sárrétudvari,
220474,HU,18,Nagyvarsány,
220475,HU,11,Noszvaj,
220476,HU,16,Madaras,
220477,HU,23,Szentgál,
220478,HU,18,Nyírgyulaj,
220479,HU,12,Leányvár,
220480,HU,1,Kunszállás,
220481,HU,4,Bükkábrány,
220482,HU,2,Baksa,
220483,HU,11,Selyp,
220484,HU,21,Medina,
220485,HU,6,Királyhegyes,
220486,HU,23,Balatonakarattya,
220487,HU,2,Somberek,
220488,HU,2,Királyegyháza,
220489,HU,18,Pátyod,
220490,HU,18,Szabolcsveresmart,
220491,HU,21,Dúzs,
220492,HU,21,Pálfa,
220493,HU,21,Alsónána,
220494,HU,9,Soproni Puszta,
220495,HU,17,Somogysámson,
220496,HU,9,Kajárpéc,
220497,HU,24,Nemesboldogasszonyfa,
220498,HU,22,Bozsok,
220499,HU,9,Gyorladamer,
220500,HU,2,Depó,
220501,HU,18,Rohod,
220502,HU,4,Sajókápolna,
220503,HU,4,Bánréve,
220504,HU,23,Köveskál,
220505,HU,23,Boba,
220506,HU,10,Szerep,
220507,HU,16,Felsoszentivan,
220508,HU,2,Görcsöny,
220509,HU,9,Bodonhely,
220510,HU,4,Kéked,
220511,HU,20,Tiszavárkony,
220512,HU,9,Vének,
220513,HU,17,Balatonendréd,
220514,HU,14,Notincs,
220515,HU,21,Györe,
220516,HU,11,Egerbakta,
220517,HU,10,Váncsod,
220518,HU,23,Marcalto,
220519,HU,3,Kisdombegyház,
220520,HU,21,Sárpilis,
220521,HU,21,Váralja,
220522,HU,4,Dámóc,
220523,HU,8,Sárkeszi,
220524,HU,21,Nagyszokoly,
220525,HU,17,Tapsony,
220526,HU,21,Várdomb,
220527,HU,18,Tiszarád,
220528,HU,23,Kemenesszentpéter,
220529,HU,2,Drávaszabolcs,
220530,HU,21,Földes,
220531,HU,23,Lesenceistvánd,
220532,HU,2,Lippó,
220533,HU,18,Tiszatelek,
220534,HU,8,Dinnyés,
220535,HU,1,Bácsborsód,
220536,HU,2,Berkesd,
220537,HU,24,Valkonya,
220538,HU,20,Jászjákóhalma,
220539,HU,23,Kolontár,
220540,HU,20,Berekfurdo,
220541,HU,12,Réde,
220542,HU,11,Koros,
220543,HU,23,Paloznak,
220544,HU,9,Iván,
220545,HU,21,Gerjen,
220546,HU,17,Kálmáncsa,
220547,HU,23,Apácatorna,
220548,HU,24,Bagod,
220549,HU,18,Rétközberencs,
220550,HU,9,Nagylózs,
220551,HU,16,Márianosztra,
220552,HU,21,Kisdorog,
220553,HU,4,Györgytarló,
220554,HU,4,Göncruszka,
220555,HU,6,Dóc,
220556,HU,9,Bezi,
220557,HU,12,Vértessomló,
220558,HU,23,Badacsonytördemic,
220559,HU,24,Csörnyeföld,
220560,HU,4,Golop,
220561,HU,18,Rozsály,
220562,HU,24,Garabonc,
220563,HU,4,Vatta,
220564,HU,1,Feked,
220565,HU,3,Telekgerendás,
220566,HU,9,Felpéc,
220567,HU,24,Balatonmagyaród,
220568,HU,24,Petrivente,
220569,HU,24,Lovászi,
220570,HU,4,Uppony,
220571,HU,23,Noszlop,
220572,HU,23,Vilonya,
220573,HU,10,Berekböszörmény,
220574,HU,14,Sámsonháza,
220575,HU,20,Kétpó,
220576,HU,4,Szuhogy,
220577,HU,1,Oregcserto,
220578,HU,14,Varsány,
220579,HU,12,Bakonysárkány,
220580,HU,9,Fertoszeplak,
220581,HU,2,Márfa,
220582,HU,14,Mihálygerge,
220583,HU,2,Gerényes,
220584,HU,9,Egyházasfalu,
220585,HU,22,Dozmat,
220586,HU,23,Nemeshany,
220587,HU,17,Csombárd,
220588,HU,8,Mindszentpuszta,
220589,HU,24,Rigyác,
220590,HU,4,Felsovadasz,
220591,HU,18,Tiszamogyorós,
220592,HU,17,Szólád,
220593,HU,17,Csegöld,
220594,HU,4,Szögliget,
220595,HU,23,Lesencetomaj,
220596,HU,9,Kisbajcs,
220597,HU,14,Hutyántanya,
220598,HU,22,Nick,
220599,HU,9,Kisbodak,
220600,HU,11,Kerekharaszt,
220601,HU,23,Badacsonyörs,
220602,HU,24,Zalaszántó,
220603,HU,12,Várgesztes,
220604,HU,22,Kenyeri,
220605,HU,17,Homokszentgyörgy,
220606,HU,21,Csikostottos,
220607,HU,4,Kondó,
220608,HU,17,Szenta,
220609,HU,23,Magyarpolány,
220610,HU,17,Som,
220611,HU,24,Milejszeg,
220612,HU,23,Vászoly,
220613,HU,21,Harc,
220614,HU,24,Pálfiszeg,
220615,HU,22,Vasszilvágy,
220616,HU,2,Sárhát,
220617,HU,12,Újmajor,
220618,HU,22,Nagygeresd,
220619,HU,18,Fülesd,
220620,HU,17,Somogyfajsz,
220621,HU,1,Tetétlen,
220622,HU,16,Zebegény,
220623,HU,24,Kisrécse,
220624,HU,24,Borsfa,
220625,HU,24,Nagybakónak,
220626,HU,17,Csurgónagymarton,
220627,HU,24,Csetény,
220628,HU,18,Olcsva,
220629,HU,9,Csapod,
220630,HU,1,Kömpöc,
220631,HU,18,Tákos,
220632,HU,21,Kalaznó,
220633,HU,4,Bükkzsérc,
220634,HU,16,Ipolydamásd,
220635,HU,1,Petofiszallas,
220636,HU,24,Kemendollár,
220637,HU,24,Zalaszentgyörgy,
220638,HU,24,Nemeshetés,
220639,HU,22,Szentpéterfa,
220640,HU,24,Pusztaszentlászló,
220641,HU,3,Dombiratos,
220642,HU,20,Örményes,
220643,HU,2,Sátorhely,
220644,HU,4,Köröm,
220645,HU,18,Szamosbecs,
220646,HU,8,Nagyveleg,
220647,HU,23,Dabronc,
220648,HU,4,Cserépfalu,
220649,HU,8,Beloiannisz,
220650,HU,20,Tiszaderzs,
220651,HU,2,Vokány,
220652,HU,22,Kemenesszentmárton,
220653,HU,8,Sáregres,
220654,HU,23,Szigliget,
220655,HU,4,Szendro,
220656,HU,24,Gétye,
220657,HU,14,Pösténypuszta,
220658,HU,14,Cserhátszentiván,
220659,HU,24,Ortaháza,
220660,HU,9,Mecsér,
220661,HU,11,Hevesvezekény,
220662,HU,18,Tiborszállás,
220663,HU,16,Kemence,
220664,HU,17,Kisgyalán,
220665,HU,14,Maconka,
220666,HU,4,Tiszabábolna,
220667,HU,4,Rakaca,
220668,HU,23,Pusztamiske,
220669,HU,20,Tiszaörs,
220670,HU,14,Hugyag,
220671,HU,5,Békásmegyer,
220672,HU,3,Ecsegfalva,
220673,HU,1,Soltszentimre,
220674,HU,16,Nyársapát,
220675,HU,11,Mezoszemere,
220676,HU,18,Pócspetri,
220677,HU,24,Rátka,
220678,HU,22,Balogunyom,
220679,HU,14,Alsópetény,
220680,HU,17,Balatonújlak,
220681,HU,24,Szécsisziget,
220682,HU,4,Erdobenye,
220683,HU,24,Pakod,
220684,HU,9,Szil,
220685,HU,17,Szántód,
220686,HU,11,Darnó,
220687,HU,18,Tiszaadony,
220688,HU,17,Bolhó,
220689,HU,2,Mecsekpölöske,
220690,HU,23,Csesznek,
220691,HU,14,Litke,
220692,HU,14,Nézsa,
220693,HU,24,Dióskál,
220694,HU,14,Zabar,
220695,HU,20,Kungyalu,
220696,HU,18,Encsencs,
220697,HU,1,Fokto,
220698,HU,24,Zalaistvánd,
220699,HU,4,Királd,
220700,HU,4,Cserépváralja,
220701,HU,2,Teklafalu,
220702,HU,17,Szolosgyorok,
220703,HU,9,Börcs,
220704,HU,23,Nemesszalók,
220705,HU,18,Mezoladany,
220706,HU,2,Drávasztára,
220707,HU,20,Nagyiván,
220708,HU,3,Újszalonta,
220709,HU,9,Tenyo,
220710,HU,12,Eromutelep,
220711,HU,18,Gyüre,
220712,HU,24,Csatár,
220713,HU,17,Alsófütyemajor,
220714,HU,4,Cserestelep,
220715,HU,5,Rákoshegy,
220716,HU,8,Borbálapuszta,
220717,HU,14,Kotyháza-bányatelep,
220718,HU,14,Kisbárkány,
220719,HU,11,Szederkénypuszta,
220720,HU,8,Méhesvölgyitanya,
220721,HU,1,Érsekiszentikrály,
220722,HU,21,Janyapuszta,
220723,HU,14,István-major,
220724,HU,10,Ozes,
220725,HU,8,Sashalom,
220726,HU,1,Alsómonostor,
220727,HU,16,Belsomantelek,
220728,HU,17,Csermányihegy,
220729,HU,17,Bodrog,
220730,HU,1,Csikosdulo,
220731,HU,8,Pusztakápolna,
220732,HU,5,Pestlorinc,
220733,HU,21,Máriatelep,
220734,HU,21,Csókás,
220735,HU,6,Kápolna,
220736,HU,5,Budafok,
220737,HU,5,Sashalom,
220738,HU,6,Pecércéshát,
220739,HU,17,Újsörnyepuszta,
220740,HU,6,Csókás,
220741,HU,21,Csernyéd,
220742,HU,10,Bivalhalom,
220743,HU,16,Áporkaitanya,
220744,HU,23,Bánhalma,
220745,HU,11,Sashalom,
220746,HU,8,Annamajor,
220747,HU,21,Bogaras,
220748,HU,24,Bakos-hegy,
220749,HU,3,Negyegyenesdulo,
220750,HU,4,Alacska,
220751,HU,18,Nyírderzs,
220752,HU,22,Pácsony,
220753,HU,9,Sokorópátka,
220754,HU,4,Domaháza,
220755,HU,2,Katádfa,
220756,HU,21,Nagyvejke,
220757,HU,12,Komlod,
220758,HU,21,Alsónyék,
220759,HU,10,Bakonszeg,
220760,HU,21,Mórágy,
220761,HU,2,Újpetre,
220762,HU,24,Tormafölde,
220763,HU,9,Gyorsovenyhaz,
220764,HU,12,Csatka,
220765,HU,17,Lábod,
220766,HU,24,Kilimán,
220767,HU,10,Újléta,
220768,HU,24,Márokföld,
220769,HU,2,Hásságy,
220770,HU,4,Csobaj,
220771,HU,4,Monok,
220772,HU,1,Pereghalom,
220773,HU,3,Körösújfalu,
220774,HU,11,Istenmezeje,
220775,HU,17,Somogyszil,
220776,HU,8,Felsokortvelyes,
220777,HU,9,Enese,
220778,HU,4,Révleányvár,
220779,HU,21,Gyulaj,
220780,HU,2,Patapoklosi,
220781,HU,11,Tarnaszentmiklósi Tanyák,
220782,HU,18,Filótanya,
220783,HU,5,Budatétény,
220784,HU,20,Meggyespele,
220785,HU,17,Csárdamajor,
220786,HU,4,Vasas-tanya,
220787,HU,1,Úrihegy,
220788,HU,9,Fertoboz,
220789,HU,6,Borosszék,
220790,HU,5,Chepel,
220791,HU,17,Alsómajor,
220792,HU,16,Károlymajor,
220793,HU,16,Zoltánmajor,
220794,HU,1,Földváry-major,
220795,HU,6,Alsóányás,
220796,HU,21,Alsópél,
220797,HU,2,Saras,
220798,HU,16,Kisnémedi,
220799,HU,16,Korostetetlen,
220800,HU,21,Závod,
220801,HU,9,Veszkény,
220802,HU,24,Muraszemenye,
220803,HU,4,Tomor,
220804,HU,23,Duka,
220805,HU,12,Környebánya,
220806,HU,9,Ravazd,
220807,HU,24,Orosztony,
220808,HU,17,Gadány,
220809,HU,2,Borjád,
220810,HU,23,Királyszentistván,
220811,HU,2,Bisse,
220812,HU,17,Pusztaszemes,
220813,HU,4,Hernádszentandrás,
220814,HU,17,Istvándi,
220815,HU,8,Sikátor,
220816,HU,18,Gelénes,
220817,HU,20,Örvény,
220818,HU,14,Terény,
220819,HU,17,Gamás,
220820,HU,12,Dág,
220821,HU,21,Varsád,
220822,HU,21,Báta,
220823,HU,2,Szentdomján,
220824,HU,2,Baranyaszentgyörgy,
220825,HU,24,Bucsuta,
220826,HU,17,Felsoberecska,
220827,HU,10,Kösélyszeg,
220828,HU,20,Karcagi Puszta,
220829,HU,8,Doboz,
220830,HU,10,Nagyvókonya,
220831,HU,24,Galambok,
220832,HU,24,Nemesnép,
220833,HU,4,Taktabáj,
220834,HU,4,Hejokurt,
220835,HU,11,Paradfurdo,
220836,HU,22,Nemescsó,
220837,HU,8,Csákberény,
220838,HU,4,Tiszakarád,
220839,HU,17,Gálosfa,
220840,HU,9,Feketeerdo,
220841,HU,17,Kereki,
220842,HU,21,Nagyszékely,
220843,HU,4,Jákfalva,
220844,HU,11,Nagykökényes,
220845,HU,2,Szebény,
220846,HU,21,Novákpuszta,
220847,HU,9,Imremajor,
220848,HU,6,Farkirét,
220849,HU,10,Kisvókonya,
220850,HU,16,Kis Hubert-major,
220851,HU,2,Istvándimajor,
220852,HU,8,Szálláskútpuszta,
220853,HU,22,Salköveskút,
220854,HU,22,Nagymizdó,
220855,HU,4,Zádorfalva,
220856,HU,1,Géderlak,
220857,HU,22,Gór,
220858,HU,9,Gyalóka,
220859,HU,2,Sumony,
220860,HU,9,Nyalka,
220861,HU,23,Károlyháza,
220862,HU,12,Csép,
220863,HU,17,Zics,
220864,HU,2,Vásárosdombó,
220865,HU,2,Bogdása,
220866,HU,9,Fertohomok,
220867,HU,16,Vácegres,
220868,HU,2,Bakonya,
220869,HU,11,Fedémes,
220870,HU,23,Nagyacsád,
220871,HU,23,Bakonybél,
220872,HU,23,Sáska,
220873,HU,24,Szentpéterúr,
220874,HU,20,Tiszaörvény,
220875,HU,4,Kánó,
220876,HU,4,Senyo,
220877,HU,4,Békény,
220878,HU,4,Repahuta,
220879,HU,1,Felsokistelek,
220880,HU,9,Sopronnémeti,
220881,HU,8,Alcsút,
220882,HU,1,Frigyesmajor,
220883,HU,6,Árpádtelep,
220884,HU,1,Gorbeszekidulo,
220885,HU,16,Barinapuszta,
220886,HU,21,Donáttanya,
220887,HU,22,Sorkikápolna,
220888,HU,18,Kisléta,
220889,HU,3,Dombegyházi Út,
220890,HU,20,Kotelek,
220891,HU,24,Dobri,
220892,HU,23,Márkó,
220893,HU,4,Taktaszada,
220894,HU,23,Bejcgyertyános,
220895,HU,23,Malomsok,
220896,HU,17,Gyugy,
220897,HU,9,Páli,
220898,HU,8,Pátka,
220899,HU,10,Bihartorda,
220900,HU,17,Visnye,
220901,HU,21,Domboripuszta,
220902,HU,24,Újudvar,
220903,HU,23,Dabrony,
220904,HU,13,Garadna,
220905,HU,21,Belecska,
220906,HU,12,Úny,
220907,HU,17,Rinyaújlak,
220908,HU,18,Nagydobos,
220909,HU,4,Szalaszend,
220910,HU,14,Pálháza,
220911,HU,9,Kakasmajor,
220912,HU,9,Király-tói Erdészlak,
220913,HU,8,Ágnesmajor,
220914,HU,7,Kismacs,
220915,HU,1,Majtalán,
220916,HU,1,Tafája,
220917,HU,21,Sánc,
220918,HU,8,Pötölle,
220919,HU,12,Gelegenyéspuszta,
220920,HU,6,Veresegyháza,
220921,HU,24,Nemesapáti,
220922,HU,2,Hegyszentmárton,
220923,HU,4,Komlóska,
220924,HU,18,Hodász,
220925,HU,2,Hobol,
220926,HU,23,Somlojeno,
220927,HU,16,Csovar,
220928,HU,16,Bernecebaráti,
220929,HU,23,Aszofo,
220930,HU,17,Somogytúr,
220931,HU,10,Sáp,
220932,HU,3,Geszt,
220933,HU,9,Egyed,
220934,HU,14,Holloko,
220935,HU,14,Piliny,
220936,HU,8,Vasztélypuszta,
220937,HU,17,Nyim,
220938,HU,10,Folyás,
220939,HU,2,Zengovarkony,
220940,HU,23,Karakószörcsök,
220941,HU,17,Bélavár,
220942,HU,11,Komlo,
220943,HU,17,Somogyvámos,
220944,HU,23,Hegyesd,
220945,HU,14,Nagykeresztúr,
220946,HU,9,Jánosháza,
220947,HU,18,Kérsemjén,
220948,HU,24,Barlahida,
220949,HU,9,Hansági Újmajor,
220950,HU,3,Siórét,
220951,HU,16,Túlahegy,
220952,HU,1,Baracsi I. Dulo,
220953,HU,3,Kamutpuszta,
220954,HU,20,Gyócs,
220955,HU,23,Kislodi Tanyak,
220956,HU,11,Csárdamajor,
220957,HU,16,Bankháza,
220958,HU,10,Magyartanya,
220959,HU,24,Kálócfa,
220960,HU,21,Cikó,
220961,HU,23,Dörgicse,
220962,HU,12,Vérteskethely,
220963,HU,14,Ipolytarnóc,
220964,HU,2,Gyöngyfa,
220965,HU,9,Cirák,
220966,HU,9,Dénesfa,
220967,HU,2,Magyarhertelend,
220968,HU,24,Sand,
220969,HU,24,Gelse,
220970,HU,9,Rábaszentmiklós,
220971,HU,2,Gerde,
220972,HU,21,Tevel,
220973,HU,8,Magyarhomorog,
220974,HU,10,Bodaszolo,
220975,HU,9,Nagybajcs,
220976,HU,2,Görcsönydobokai Tanya,
220977,HU,8,Jánosfutás,
220978,HU,17,Soponyapuszta,
220979,HU,5,Erzsébetfalva,
220980,HU,12,Csém,
220981,HU,17,Alsoszollo,
220982,HU,4,Billatáró,
220983,HU,9,Göbösmajor,
220984,HU,10,Bakóc,
220985,HU,20,Csépa,
220986,HU,4,Szin,
220987,HU,8,Szabadhidvég,
220988,HU,24,Zalavég,
220989,HU,9,Gyömöre,
220990,HU,2,Maráza,
220991,HU,24,Lakhegy,
220992,HU,24,Tornyiszentmiklós,
220993,HU,23,Oroszi,
220994,HU,2,Regenye,
220995,HU,22,Szajkpuszta,
220996,HU,9,Franciskamajor,
220997,HU,20,Perjés,
220998,HU,6,Kláramajor,
220999,HU,14,Sóstanya,
221000,HU,4,Büttös,
221001,HU,4,Boldogkovaralja,
221002,HU,16,Perocseny,
221003,HU,24,Kisbucsa,
221004,HU,2,Palkonya,
221005,HU,12,Dad,
221006,HU,9,Barbacs,
221007,HU,23,Csögle,
221008,HU,12,Tárkány,
221009,HU,24,Poloskefo,
221010,HU,2,Palotabozsok,
221011,HU,22,Felsomarac,
221012,HU,23,Homokbödöge,
221013,HU,2,Magyarbóly,
221014,HU,23,Gyulakeszi,
221015,HU,4,Abaújlak,
221016,HU,3,Svábföld,
221017,HU,24,Gelsesziget,
221018,HU,2,Csányoszró,
221019,HU,2,Kovagotottos,
221020,HU,2,Liptód,
221021,HU,11,Bükkszék,
221022,HU,14,Felsotold,
221023,HU,8,Bodakajtor,
221024,HU,1,Páhi,
221025,HU,17,Öreglak,
221026,HU,24,Pórszombat,
221027,HU,23,Ságpuszta,
221028,HU,22,Peresznye,
221029,HU,6,Gyójai Major,
221030,HU,1,Alsómóricgát,
221031,HU,3,Kereki,
221032,HU,1,Fuzhalom,
221033,HU,14,Dolinapuszta,
221034,HU,11,Nagyfügedi Tanyák,
221035,HU,6,Magyartés,
221036,HU,14,Borsosberény,
221037,HU,4,Dédes,
221038,HU,12,Bakonybánk,
221039,HU,23,Ábrahámhegy,
221040,HU,21,Aparhant,
221041,HU,18,Kisvarsány,
221042,HU,24,Tilaj,
221043,HU,6,Nagykirályhegyespuszta,
221044,HU,22,Szakonyfalu,
221045,HU,23,Bakonytamási,
221046,HU,2,Kórós,
221047,HU,23,Balatonszepezd,
221048,HU,4,Szegilong,
221049,HU,6,Zákány,
221050,HU,23,Nagydém,
221051,HU,4,Hernádvécse,
221052,HU,16,Muzsiktanya,
221053,HU,2,Drávafok,
221054,HU,24,Zebecke,
221055,HU,24,Vindornyafok,
221056,HU,2,Nagypall,
221057,HU,22,Nemeskocs,
221058,HU,10,Citrahát,
221059,HU,16,Kappanhalma,
221060,HU,24,Petróci-puszta,
221061,HU,14,Egyházasdengeleg,
221062,HU,17,Drávatamási,
221063,HU,10,Tépe,
221064,HU,22,Pusztacsó,
221065,HU,23,Vaszar,
221066,HU,2,Székelyszabar,
221067,HU,24,Jáhompuszta,
221068,HU,6,Kissikdulo,
221069,HU,16,Darabos,
221070,HU,1,Márkút,
221071,HU,10,Alsóréti Tanyák,
221072,HU,1,Csorna,
221073,HU,5,Albertfalva,
221074,HU,17,Andocs,
221075,HU,10,Martinka,
221076,HU,17,Somogyzsitfa,
221077,HU,23,Pécsely,
221078,HU,23,Kispodárpuszta,
221079,HU,10,Bodai-szolos-kert,
221080,HU,1,Sebesics,
221081,HU,17,Cserénfa,
221082,HU,22,Kisunyom,
221083,HU,24,Nemesrádó,
221084,HU,21,Felsonana,
221085,HU,3,Kamutdulo,
221086,HU,21,Ferenckút,
221087,HU,24,Nagykutas,
221088,HU,14,Szente,
221089,HU,23,Veszprémgalsa,
221090,HU,1,Újtelek,
221091,HU,17,Hollád,
221092,HU,23,Németbánya,
221093,HU,22,Olbo,
221094,HU,4,Novajidrány,
221095,HU,24,Kistolmács,
221096,HU,24,Várfölde,
221097,HU,6,Ferto,
221098,HU,6,Bokrospartitanyák,
221099,HU,20,Büdöstanya,
221100,HU,6,Ludas,
221101,HU,9,Jobaháza,
221102,HU,22,Bucsu,
221103,HU,4,Hercegkút,
221104,HU,16,Farkashát,
221105,HU,1,Alsószentkata,
221106,HU,2,Homorúd,
221107,HU,24,Padár,
221108,HU,12,Péliföldszentkereszt,
221109,HU,18,Vasmegyer,
221110,HU,14,Sáfártanya,
221111,HU,23,Sümegprága,
221112,HU,1,Kisbugac,
221113,HU,17,Darálómalom,
221114,HU,23,Alsószalmavár,
221115,HU,20,Kunhalom,
221116,HU,22,Nagytilaj,
221117,HU,21,Murga,
221118,HU,21,Gyöngyösoldal,
221119,HU,6,Nyomásszél,
221120,HU,9,Nagyszentjános,
221121,HU,4,Karos,
221122,HU,24,Erdeimajor,
221123,HU,24,Dobronhegy,
221124,HU,18,Sonkád,
221125,HU,21,Mocseny,
221126,HU,2,Lothárd,
221127,HU,22,Gutatottos,
221128,HU,8,Nagyegyháza,
221129,HU,6,Bovehalom,
221130,HU,22,Tanakajd,
221131,HU,9,Dunaszentpál,
221132,HU,3,Pásztor,
221133,HU,22,Vassurány,
221134,HU,2,Somogyviszló,
221135,HU,23,Nagytevel,
221136,HU,22,Petomihalyfa,
221137,HU,2,Ellendpuszta,
221138,HU,2,Szentlászló,
221139,HU,1,Adacsierdo,
221140,HU,9,Birkásház,
221141,HU,12,Kablásmajor,
221142,HU,23,Szerecseny,
221143,HU,2,Siklósbodony,
221144,HU,23,Balatonaliga,
221145,HU,24,Resznek,
221146,HU,23,Iszkáz,
221147,HU,17,Kutas,
221148,HU,21,Papd,
221149,HU,17,Magyaróvölgy,
221150,HU,23,Gic,
221151,HU,23,Óbudavár,
221152,HU,23,Szápár,
221153,HU,6,Kisbogárzó,
221154,HU,23,Büdöskútmajor,
221155,HU,22,Felsoszolnok,
221156,HU,21,Diósberény,
221157,HU,17,Gige,
221158,HU,22,Kemenesmagasi,
221159,HU,18,Jármi,
221160,HU,1,Zsana,
221161,HU,10,Fülöp,
221162,HU,21,Koppányszántó,
221163,HU,9,Ivánháza,
221164,HU,24,Iborfia,
221165,HU,14,Lucfalva,
221166,HU,22,Csénye,
221167,HU,17,Nagyszakácsi,
221168,HU,24,Zalavár,
221169,HU,11,Sarud,
221170,HU,24,Zalaszabar,
221171,HU,24,Kerkateskánd,
221172,HU,18,Or,
221173,HU,14,Bárna,
221174,HU,23,Penzesgyor,
221175,HU,17,Nagycsepely,
221176,HU,24,Csalit,
221177,HU,24,Lickóvadamos,
221178,HU,23,Vigántpetend,
221179,HU,21,Fürged,
221180,HU,21,Karasz,
221181,HU,21,Bikács,
221182,HU,7,Agráregyetem,
221183,HU,24,Alsócsönget,
221184,HU,23,Hubertlak,
221185,HU,9,Szilsárkány,
221186,HU,18,Szabolcsbáka,
221187,HU,2,Feked,
221188,HU,2,Szentpálpuszta,
221189,HU,9,Csermajor,
221190,HU,23,Marcalgergelyi,
221191,HU,6,Ambrózfalva,
221192,HU,21,Szárazd,
221193,HU,17,Gyékényes,
221194,HU,16,Tésa,
221195,HU,17,Somogyjád,
221196,HU,17,Csermajor,
221197,HU,22,Köcsk,
221198,HU,14,Mátraszele,
221199,HU,9,Sülysziget,
221200,HU,17,Fonó,
221201,HU,22,Kemenespálfa,
221202,HU,1,Kisfokto,
221203,HU,22,Ferenc-major,
221204,HU,9,Újtagmajor,
221205,HU,5,Rákosszentmihály,
221206,HU,4,Komjáti,
221207,HU,17,Szabás,
221208,HU,17,Szenyér,
221209,HU,3,Hosszúsor,
221210,HU,21,Bograihatár,
221211,HU,19,Szegedin,
221212,HU,25,Raab,
221213,HU,24,Kispáli,
221214,HU,2,Kémes,
221215,HU,23,Kemenes-major,
221216,HU,17,Szentlászlópuszta,
221217,HU,2,Szoke,
221218,HU,18,Mintatelep,
221219,HU,24,Misefa,
221220,HU,21,Banierdo,
221221,HU,6,Faragodulo,
221222,HU,11,Tárca,
221223,HU,18,Jánosbokor,
221224,HU,24,Látóhegy,
221225,HU,24,Szentkozmadombja,
221226,HU,16,Sashalomdulo,
221227,HU,16,Bolgártelep,
221228,HU,1,Hatitytanya,
221229,HU,14,Balázstanya,
221230,HU,20,Kunhegyes,
221231,HU,8,Bagolyvár,
221232,HU,16,Boldogtanya,
221233,HU,1,Aligvárda,
221234,HU,11,Bánvölgyitanya,
221235,HU,23,Malom,
221236,HU,11,Fayszollo,
221237,HU,23,Nemeshanyi Tanya,
221238,HU,8,Alsóhatártanyák,
221239,HU,6,Belsoszollok,
221240,HU,23,Balatonfokajari Tanyak,
221241,HU,9,Bartatanya,
221242,HU,16,Árpádmajor,
221243,HU,12,Baloghpuszta,
221244,HU,21,Alsódolina,
221245,HU,21,Ornagybirtok,
221246,HU,21,Szedresi Telep,
221247,HU,21,Pappuszta,
221248,HU,21,Borjúkút,
221249,HU,17,Diósvölgymajor,
221250,HU,12,Alsógalla,
221251,HU,16,Weisztanya,
221252,HU,16,Giróhegy,
221253,HU,18,Ömböly,
221254,HU,20,Károlytelep,
221255,HU,18,Gödény Lajos Tanya,
221256,HU,16,Ácstanya,
221257,HU,17,Kakashegy,
221258,HU,24,Keszthely,
221259,HU,16,Központimajor,
221260,HU,16,Heincztanya,
221261,HU,12,Szentjanoskuti Dulo,
221262,HU,8,Határvölgy,
221263,HU,16,Állomástanya,
221264,HU,16,Dúzstanya,
221265,HU,20,Borsohalomdulo,
221266,HU,12,Selyemgyártelep,
221267,HU,22,Afrikamajor,
221268,HU,24,Szentmihálymalom,
221269,HU,14,Sulyonalja,
221270,HU,14,Mocsáros-puszta,
221271,HU,18,Forgonytanya,
221272,HU,11,Virágtanya,
221273,HU,2,Kerecsenyi Tanya,
221274,HU,1,Bozoktanya,
221275,HU,24,Bagotapuszta,
221276,HU,8,Bogatanya,
221277,HU,22,Kányás,
221278,HU,23,Júliamajor,
221279,HU,12,Szentimretelep,
221280,HU,17,Alsócsesztapuszta,
221281,HU,17,Ebhegy,
221282,HU,16,Dunaharaszti Rév,
221283,HU,17,Katahegy,
221284,HU,8,Alsókörtvélyes,
221285,HU,16,Kavicsbánya,
221286,HU,4,Szikszó,
221287,HU,11,Hortolányipuszta,
221288,HU,16,Bírótanya,
221289,HU,14,Gedoczpuszta,
221290,HU,5,Erzsébetváros,
221291,HU,12,Dömsödi Tanyák,
221292,HU,16,Fuzeserdo,
221293,HU,17,Csöprönd,
221294,HU,18,Jakabtanya,
221295,HU,17,Bányászó,
221296,HU,22,Királyvölgy,
221297,HU,9,Patyiház,
221298,HU,22,Macfa,
221299,HU,9,Hodály,
221300,HU,14,Dióspuszta,
221301,HU,12,Bajzó,
221302,HU,16,Inárcs,
221303,HU,1,Apostagi Tanyák,
221304,HU,9,Ácstanya,
221305,HU,9,Némethtanya,
221306,HU,8,Gyeneitanya,
221307,HU,6,Balástyaitanyák,
221308,HU,22,Malomtelep,
221309,HU,23,Alsórét,
221310,HU,23,Csárda,
221311,HU,9,Románd,
221312,HU,23,Nemesvámosi Tanyák,
221313,HU,6,Cickazug,
221314,HU,16,Körtvélyespuszta,
221315,HU,20,Belsonaplasdulo,
221316,HU,16,Szigetcsépi Tanyák,
221317,HU,18,Cserepestanya,
221318,HU,18,Bálintcsemegés,
221319,HU,23,Irtáspuszta,
221320,HU,23,Közbirtokossági Tanya,
221321,HU,23,Ardapuszta,
221322,HU,23,Csapásút,
221323,HU,17,Frigyesytanya,
221324,HU,9,Aranyossziget,
221325,HU,9,Angyaltanya,
221326,HU,8,Lajostelep,
221327,HU,12,Újtelep,
221328,HU,8,Furesztelep,
221329,HU,1,Alsógáspársor,
221330,HU,14,Lókostelep,
221331,HU,21,Halastó,
221332,HU,2,Egermalom,
221333,HU,10,Hunyadiszollostelep,
221334,HU,10,Bagosi Út,
221335,HU,24,Kerkatótfalu,
221336,HU,16,Baltaserdo,
221337,HU,16,Haleszi Dulo,
221338,HU,17,Cserpuszta,
221339,HU,12,Alsodulo,
221340,HU,14,Csendespuszta,
221341,HU,1,Bodo,
221342,HU,11,Újvártanya,
221343,HU,8,Csákytanya,
221344,HU,18,Godolyatanya,
221345,HU,2,Kremsbergermalom,
221346,HU,14,Forráspuszta,
221347,HU,8,Belsohegy,
221348,HU,17,Ciperes,
221349,HU,24,Antalhegy,
221350,HU,23,Bírórét,
221351,HU,23,Bakonynánai Tanya,
221352,HU,23,Csatármalom,
221353,HU,8,Császártanya,
221354,HU,8,Gedovari Puszta,
221355,HU,8,Rókás,
221356,HU,8,Béketelep,
221357,HU,14,Almavölgypuszta,
221358,HU,16,Felsoszor,
221359,HU,23,Barragrét,
221360,HU,23,Szentantalfa,
221361,HU,12,Környei Major,
221362,HU,16,Dognyai Tanya,
221363,HU,16,Nyáregyházai Tanyák,
221364,HU,16,Vasadi Tanyák,
221365,HU,23,Bene,
221366,HU,8,Bakonykúti,
221367,HU,8,Diófasori Újtelep,
221368,HU,16,Kióshegy,
221369,HU,16,Görbeszék,
221370,HU,14,Szvitajkapuszta,
221371,HU,14,Árnyékvölgypuszta,
221372,HU,22,Csermelymajor,
221373,HU,24,Karmacsi Alsómajor,
221374,HU,14,Koszoru,
221375,HU,12,Vöröshíd,
221376,HU,6,Akolmajor,
221377,HU,1,Bodakút,
221378,HU,9,Haraszt,
221379,HU,21,Herczoghtanya,
221380,HU,17,Bagolaierdohaz,
221381,HU,16,Csörög,
221382,HU,20,Antalhegy,
221383,HU,18,Válytanya,
221384,HU,24,Barabáshegy,
221385,HU,6,Bábahegy,
221386,HU,9,Királymajor,
221387,HU,11,Bobáktanya,
221388,HU,8,Ráchegy,
221389,HU,8,Újfalu,
221390,HU,17,Gerébmalom,
221391,HU,8,Kohiditabla,
221392,HU,22,Furesztelep,
221393,HU,18,Gyüretanya,
221394,HU,18,Allami Erdotanya,
221395,HU,23,Lampartmajor,
221396,HU,9,Pásztori,
221397,HU,16,Albertirsai Tanyák,
221398,HU,18,Jámbortanya,
221399,HU,24,Ádámhegy,
221400,HU,18,Tyukodi Újtelep,
221401,HU,24,Bocsota,
221402,HU,8,Biharpuszta,
221403,HU,8,Ezeres,
221404,HU,18,Fácánkert,
221405,HU,8,Csillagtanya,
221406,HU,8,Seregélyesi Tanyák,
221407,HU,23,Nagytelep,
221408,HU,10,Kiscsonkás,
221409,HU,9,Fertopuszta,
221410,HU,22,Kozmafa,
221411,HU,23,Kiserdo,
221412,HU,11,Gyöngyöshalászi Tanyák,
221413,HU,12,Alsópuszta,
221414,HU,21,Alsomocsarasdulo,
221415,HU,18,Banomszollo,
221416,HU,8,Alsóhegy,
221417,HU,16,Felsosztaukadulo,
221418,HU,20,Csepai Szollok,
221419,HU,16,Ibolyamajor,
221420,HU,17,Galambospuszta,
221421,HU,17,Gáj,
221422,HU,22,Erdohaza,
221423,HU,8,Mariska-major,
221424,HU,3,Ludadpuszta,
221425,HU,17,Zselicszentpál,
221426,HU,4,Nagyrozvágy,
221427,HU,9,Karóspuszta,
221428,HU,24,Borbélyrét,
221429,HU,21,Kaposszekcso,
221430,HU,9,Veszprémvarsány,
221431,HU,4,Somsaly,
221432,HU,23,Lovas,
221433,HU,18,Diner Béla-tanya,
221434,HU,24,Csentericfa,
221435,HU,4,Bánhorvát,
221436,HU,8,Kiseszter,
221437,HU,3,Zsadány,
221438,HU,4,Sajómercse,
221439,HU,16,Csodyhegyi Kobanyatelep,
221440,HU,21,Dunaszél,
221441,HU,2,Dinnyeberki,
221442,HU,9,Harka,
221443,HU,24,Bozsok,
221444,HU,24,Gosfa,
221445,HU,4,Nyomár,
221446,HU,4,Kesznyéten,
221447,HU,9,Zsebeháza,
221448,HU,17,Büssü,
221449,HU,14,Jásztelek,
221450,HU,9,Mindszentpuszta,
221451,HU,2,Alsómocsolád,
221452,HU,23,Döbrésimalom,
221453,HU,1,Kötöny,
221454,HU,22,Vashosszúfalu,
221455,HU,4,Alsóregmec,
221456,HU,24,Sénye,
221457,HU,2,Lovászhetény,
221458,HU,22,Magyarszecsod,
221459,HU,14,Nógrádszakál,
221460,HU,22,Kemenesmihályfa,
221461,HU,2,Kislippó,
221462,HU,17,Iharos,
221463,HU,16,Békás,
221464,HU,22,Hegyhátsál,
221465,HU,4,Aggtelek,
221466,HU,2,Túrony,
221467,HU,2,Monyoród,
221468,HU,18,Mánd,
221469,HU,2,Erzsébet,
221470,HU,24,Szenttamáspuszta,
221471,HU,8,Alvégi Tanya,
221472,HU,9,Szerecseny,
221473,HU,18,Méhtelek,
221474,HU,7,Macs,
221475,HU,6,Kardosdulo,
221476,HU,21,Hatfo-arvizkapu,
221477,HU,2,Ág,
221478,HU,2,Németi,
221479,HU,11,Bükkszentmárton,
221480,HU,4,Mezonagymihaly,
221481,HU,2,Magyarsarlós,
221482,HU,18,Túrricse,
221483,HU,22,Gutaháza,
221484,HU,9,Dunaremete,
221485,HU,4,Rátka,
221486,HU,24,Zalaszentjakab,
221487,HU,11,Szajla,
221488,HU,21,Lapafo,
221489,HU,11,Tarnabod,
221490,HU,22,Koszegdoroszlo,
221491,HU,2,Bakóca,
221492,HU,2,Kisvaszar,
221493,HU,21,Cseresnyés,
221494,HU,18,Aranyosapáti,
221495,HU,24,Szabóhegy,
221496,HU,4,Csincsetanya,
221497,HU,23,Zalagyomoro,
221498,HU,2,Nagyváty,
221499,HU,17,Nagykorpád,
221500,HU,18,Zajta,
221501,HU,2,Fazekasboda,
221502,HU,2,Pálmalom,
221503,HU,1,Kenyértelek,
221504,HU,22,Lánkapuszta,
221505,HU,17,Siójut,
221506,HU,24,Kerkafalva,
221507,HU,24,Zalaháshágy,
221508,HU,24,Kehida,
221509,HU,22,Dömötöri,
221510,HU,24,Erdeifalu,
221511,HU,8,Fövenypuszta,
221512,HU,18,Panyola,
221513,HU,22,Földvárpuszta,
221514,HU,18,Kisszekeres,
221515,HU,2,Siklósnagyfalu,
221516,HU,9,Árpás,
221517,HU,24,Hottó,
221518,HU,4,Ziliz,
221519,HU,14,Hont,
221520,HU,8,Sárpentele,
221521,HU,16,Buzbokor,
221522,HU,4,Árpási Tanyák,
221523,HU,23,Balatonudvari,
221524,HU,22,Kercaszomor,
221525,HU,17,Bakháza,
221526,HU,2,Kistapolca,
221527,HU,2,Hetvehely,
221528,HU,24,Pethohenye,
221529,HU,10,Buglyótanya,
221530,HU,2,Vékény,
221531,HU,11,Vécs,
221532,HU,11,Bükkszenterzsébet,
221533,HU,9,Faluhelypuszta,
221534,HU,11,Mátraháza,
221535,HU,2,Ibafa,
221536,HU,16,Jászfalu,
221537,HU,2,Kistótfalu,
221538,HU,21,Szakes,
221539,HU,2,Hoffmann Malom,
221540,HU,11,Bagolyirtás,
221541,HU,21,Jágónak,
221542,HU,4,Tiszatardos,
221543,HU,24,Iklodbordoce,
221544,HU,17,Zimány,
221545,HU,4,Kázsmárk,
221546,HU,21,Felsonyek,
221547,HU,10,Újiráz,
221548,HU,9,Vág,
221549,HU,24,Csádé-major,
221550,HU,9,Harkakópháza,
221551,HU,2,Márok,
221552,HU,5,Buda,
221553,HU,23,Kistima,
221554,HU,6,Nagyér,
221555,HU,16,Kismaros,
221556,HU,24,Hagyárosbörönd,
221557,HU,2,Kisherend,
221558,HU,24,Kissziget,
221559,HU,12,Ászár,
221560,HU,12,Ete,
221561,HU,18,Pusztadobos,
221562,HU,4,Károlyfalva,
221563,HU,23,Hidegkút,
221564,HU,9,Tarjánpuszta,
221565,HU,18,Újdombrád,
221566,HU,22,Alsóújlak,
221567,HU,20,Büdöslapos,
221568,HU,17,Beleg,
221569,HU,18,Tiszacsécse,
221570,HU,21,Pörböly,
221571,HU,22,Porpác,
221572,HU,17,Csököly,
221573,HU,18,Vállaj,
221574,HU,22,Rönök,
221575,HU,24,Kerkakutas,
221576,HU,22,Nemeskeresztúr,
221577,HU,17,Potony,
221578,HU,24,Gondótahegy,
221579,HU,10,Örvényszög,
221580,HU,12,Ágostyán,
221581,HU,22,Szarvaskend,
221582,HU,14,Kétbodony,
221583,HU,2,Gordisa,
221584,HU,9,Károlyháza,
221585,HU,21,Majos,
221586,HU,15,Somogy,
221587,HU,9,Irénmajor,
221588,HU,9,Und,
221589,HU,3,Felso Sostanyai Foldek,
221590,HU,4,Rásonysápberencs,
221591,HU,23,Gyulafirátót,
221592,HU,14,Rónabánya,
221593,HU,16,Kisirtáspuszta,
221594,HU,9,Szogye,
221595,HU,10,Bojt,
221596,HU,24,Semjénháza,
221597,HU,4,Ladbesenyo,
221598,HU,24,Szentgyörgyvár,
221599,HU,2,Liget,
221600,HU,2,Berkesdpuszta,
221601,HU,9,Fehértó,
221602,HU,23,Zsófiapuszta,
221603,HU,22,Mersevát,
221604,HU,2,Kisjakabfalva,
221605,HU,6,Székhalom,
221606,HU,14,Mohora,
221607,HU,3,Gyulavári,
221608,HU,4,Selyeb,
221609,HU,17,Patalom,
221610,HU,8,Kohanyas,
221611,HU,14,Sóspuszta,
221612,HU,6,Feketehalom,
221613,HU,2,Kárász,
221614,HU,8,Csosz,
221615,HU,9,Kisfalud,
221616,HU,12,Nagyparnakpuszta,
221617,HU,15,Alsógyükés,
221618,HU,17,Bonnyapuszta,
221619,HU,4,Kiskinizs,
221620,HU,21,Kistormás,
221621,HU,8,Fáncs,
221622,HU,23,Gyertyánkút,
221623,HU,18,Lónya,
221624,HU,16,Felsogod,
221625,HU,4,Taktakenéz,
221626,HU,9,Dunasziget,
221627,HU,11,Pálosvörösmart,
221628,HU,2,Kisszentmárton,
221629,HU,4,Telkibánya,
221630,HU,18,Szamossályi,
221631,HU,6,Károlyitanyák,
221632,HU,23,Erdoslak,
221633,HU,6,Tanyaszél,
221634,HU,24,Vindornyaszollos,
221635,HU,3,Liptákföldek,
221636,HU,17,Lulla,
221637,HU,22,Szentléránt,
221638,HU,17,Kötcse,
221639,HU,6,Belsoecser,
221640,HU,22,Döröske,
221641,HU,12,Bársonyos,
221642,HU,24,Kiskutas,
221643,HU,8,Pettend,
221644,HU,2,Óbánya,
221645,HU,18,Vadritka-rét,
221646,HU,24,Zalaboldogfa,
221647,HU,4,Muhi,
221648,HU,9,Nagykarróspuszta,
221649,HU,9,Hövej,
221650,HU,24,Felsoszenterzsebet,
221651,HU,2,Majs,
221652,HU,2,Csata,
221653,HU,14,Becske,
221654,HU,14,Iliny,
221655,HU,17,Hókahalom-puszta,
221656,HU,14,Ipolyszög,
221657,HU,10,Furta,
221658,HU,24,Batyk,
221659,HU,22,Felsojanosfa,
221660,HU,12,Vadaspuszta,
221661,HU,24,Vindornyaszolos,
221662,HU,24,Kurtamajor,
221663,HU,5,Neu-pest,
221664,HU,17,Zselickislak,
221665,HU,20,Szelevény,
221666,HU,1,Mátételke,
221667,HU,23,Kamond,
221668,HU,17,Magyaratád,
221669,HU,22,Halastó,
