locId,country,region,city,postcode
221670,ID,,,
221671,ID,6,Jakarta,
221672,ID,16,Timur,
221673,ID,25,Riau,
221674,ID,1,Kuning,
221675,ID,17,Mataram,
221676,ID,30,Tangerang,
221677,ID,5,Jambi,
221678,ID,7,Semarang,
221679,ID,6,Bogor,
221680,ID,6,Bali,
221681,ID,25,Banten,
221682,ID,21,Barat,
221683,ID,6,Cikini,
221684,ID,24,Padang,
221685,ID,30,Jawa,
221686,ID,8,Surabaya,
221687,ID,25,Kelapa,
221688,ID,8,Blitar,
221689,ID,8,Malang,
221690,ID,8,Jember,
221691,ID,10,Yogyakarta,
221692,ID,10,Jogjakarta,
221693,ID,11,Kalimantan,
221694,ID,7,Salatiga,
221695,ID,7,Surakarta,
221696,ID,19,Pekanbaru,
221697,ID,30,Bandung,
221698,ID,9,Kiat,
221699,ID,30,Utama,
221700,ID,20,Melle,
221701,ID,2,Bukit,
221702,ID,7,Largo,
221703,ID,30,Cimahi,
221704,ID,7,Pura,
221705,ID,7,Solo,
221706,ID,2,Denpasar,
221707,ID,26,Medan,
221708,ID,1,Banda Aceh,
221709,ID,6,Bekasi,
221710,ID,7,Punten,
221711,ID,30,Cakung,
221712,ID,4,Cengkareng,
221713,ID,6,Karawang,
221714,ID,30,Perdana,
221715,ID,6,Kuningan,
221716,ID,1,Raya,
221717,ID,22,Indo,
221718,ID,18,Kupang,
221719,ID,11,Pontianak,
221720,ID,13,Lampung,
221721,ID,20,Makassar,
221722,ID,30,Cibubur,
221723,ID,7,Magelang,
221724,ID,6,Matraman,
221725,ID,6,Manggadua,
221726,ID,6,Slipi,
221727,ID,6,Purwakarta,
221728,ID,31,Abadi,
221729,ID,30,Nusa,
221730,ID,20,Makasar,
221731,ID,20,Nusantara,
221732,ID,30,Karawaci,
221733,ID,25,Merapi,
221734,ID,10,Jogyakarta,
221735,ID,6,Cilegon,
221736,ID,30,Depok,
221737,ID,7,Purwokerto,
221738,ID,30,Kebalen,
221739,ID,8,Kediri,
221740,ID,8,Pandaän,
221741,ID,8,Madiun,
221742,ID,8,Mojokerto,
221743,ID,12,Banjarmasin,
221744,ID,8,Dalung,
221745,ID,13,Agung,
221746,ID,20,Anggrek,
221747,ID,22,Watu,
221748,ID,20,Nusaindah,
221749,ID,2,Kuta,
221750,ID,31,Sejahtera,
221751,ID,30,Cikarang,
221752,ID,7,Banteng,
221753,ID,14,Samarinda,
221754,ID,26,Tanjungpura,
221755,ID,11,Siantan,
221756,ID,14,Balikpapan,
221757,ID,25,Besar,
221758,ID,7,Toso,
221759,ID,8,Mandala,
221760,ID,2,Negara,
221761,ID,30,Cibitung,
221762,ID,1,Calang,
221763,ID,6,Cikampek,
221764,ID,9,Jayapura,
221765,ID,30,Kalibata,
221766,ID,7,Tegal,
221767,ID,7,Lemahabang,
221768,ID,25,Gedung,
221769,ID,6,Pancoran,
221770,ID,30,Cimanggis,
221771,ID,11,Ketapang,
221772,ID,7,Taman,
221773,ID,6,Serang,
221774,ID,14,Bontang,
221775,ID,18,Kota,
221776,ID,7,Gadjah,
221777,ID,7,Plasa,
221778,ID,7,Colo,
221779,ID,13,Sampit,
221780,ID,2,Lembongan,
221781,ID,2,Mengwi,
221782,ID,25,Palembang,
221783,ID,8,Sidoarjo,
221784,ID,16,Ambon,
221785,ID,8,Klampis,
221786,ID,30,Senen,
221787,ID,31,Sentral,
221788,ID,6,Senayan,
221789,ID,30,Banjar,
221790,ID,2,Ubud,
221791,ID,5,Simpang,
221792,ID,8,Manyar,
221793,ID,8,Perak,
221794,ID,6,Cirebon,
221795,ID,22,Pasar,
221796,ID,6,Indramayu,
221797,ID,20,Takalar,
221798,ID,7,Ungaran,
221799,ID,19,Kabil,
221800,ID,2,Tabanan,
221801,ID,7,Gading,
221802,ID,1,Langsa,
221803,ID,6,Sumber,
221804,ID,19,Pakanbaru,
221805,ID,6,Menteng,
221806,ID,8,Tuban,
221807,ID,15,Bandar Lampung,
221808,ID,31,Manado,
221809,ID,30,Serpong,
221810,ID,7,Jati,
221811,ID,2,Singaraja,
221812,ID,19,Tanjungpinang,
221813,ID,8,Probolinggo,
221814,ID,31,Lion,
221815,ID,7,Cilacap,
221816,ID,25,Prabumulih,
221817,ID,15,Metro,
221818,ID,17,Bima,
221819,ID,22,Rajawali,
221820,ID,14,Bentoel,
221821,ID,16,Dong,
221822,ID,8,Pasuruan,
221823,ID,22,Indra,
221824,ID,20,Bone,
221825,ID,24,Rokan,
221826,ID,11,Baru,
221827,ID,6,Citra,
221828,ID,21,Tengah,
221829,ID,22,Mandiri,
221830,ID,17,Sumbawa,
221831,ID,25,Gunung,
221832,ID,7,Pondok,
221833,ID,1,Bintang,
221834,ID,6,Jatiluhur,
221835,ID,3,Bengkulu,
221836,ID,25,Tanjung,
221837,ID,7,Grogol,
221838,ID,5,Lama,
221839,ID,7,Jeruk,
221840,ID,8,Jombang,
221841,ID,12,Sungai,
221842,ID,8,Gresik,
221843,ID,24,Bukittinggi,
221844,ID,25,Baturaja,
221845,ID,19,Duri,
221846,ID,26,Kabanjahe,
221847,ID,26,Kisaran,
221848,ID,25,Lahat,
221849,ID,1,Lhokseumawe,
221850,ID,25,Pinang,
221851,ID,26,Parapat,
221852,ID,19,Ranai,
221853,ID,19,Rengat,
221854,ID,26,Rantauprapat,
221855,ID,26,Sibolga,
221856,ID,24,Solok,
221857,ID,26,Siantar,
221858,ID,21,Ampana,
221859,ID,18,Bajawa,
221860,ID,18,Kalabahi,
221861,ID,9,Kaimana,
221862,ID,18,Lewoleba,
221863,ID,20,Mamuju,
221864,ID,16,Sanana,
221865,ID,18,Waingapu,
221866,ID,30,Cianjur,
221867,ID,6,Garut,
221868,ID,6,Sukabumi,
221869,ID,6,Tasikmalaya,
221870,ID,7,Kudus,
221871,ID,7,Pekalongan,
221872,ID,7,Mergoyoso,
221873,ID,8,Rungkut,
221874,ID,13,Palangkaraya,
221875,ID,11,Putussibau,
221876,ID,11,Singkawang,
221877,ID,14,Tenggarong,
221878,ID,14,Tarakan,
221879,ID,18,Atambua,
221880,ID,20,Barru,
221881,ID,9,Biak,
221882,ID,18,Ende,
221883,ID,9,Fakfak,
221884,ID,31,Gorontalo,
221885,ID,2,Gianyar,
221886,ID,22,Kendari,
221887,ID,21,Luwuk,
221888,ID,18,Maumere,
221889,ID,9,Merauke,
221890,ID,9,Manokwari,
221891,ID,9,Nabire,
221892,ID,21,Parigi,
221893,ID,20,Pinrang,
221894,ID,20,Palopo,
221895,ID,21,Palu,
221896,ID,20,Polewali,
221897,ID,20,Parepare,
221898,ID,18,Ruteng,
221899,ID,20,Rantepao,
221900,ID,9,Sorong,
221901,ID,9,Serui,
221902,ID,23,Tahuna,
221903,ID,9,Timika,
221904,ID,16,Ternate,
221905,ID,16,Tual,
221906,ID,9,Wamena,
221907,ID,20,Watansoppeng,
221908,ID,30,Meruya,
221909,ID,30,Karang Tengah,
221910,ID,8,Puri,
221911,ID,30,Bangka,
221912,ID,9,Mega,
221913,ID,30,Cibinong,
221914,ID,31,Semangat,
221915,ID,24,Sawahlunto,
221916,ID,7,Mangir,
221917,ID,6,Balaraja,
221918,ID,19,Dumai,
221919,ID,6,Batavia,
221920,ID,10,Imogiri,
221921,ID,22,Dana,
221922,ID,30,Pegadungan,
221923,ID,18,Merdeka,
221924,ID,30,Laksana,
221925,ID,30,Poris,
221926,ID,30,Petukangan,
221927,ID,30,Cemara,
221928,ID,22,Mekarsari,
221929,ID,30,Wadasari,
221930,ID,7,Kranggan,
221931,ID,30,Rempoa,
221932,ID,30,Bintaro,
221933,ID,30,Pamulang,
221934,ID,6,Kalideres,
221935,ID,25,Manggis,
221936,ID,24,Bonjol,
221937,ID,18,Pelita,
221938,ID,6,Babakan,
221939,ID,6,Kebon Jeruk,
221940,ID,6,Salemba,
221941,ID,8,Batu,
221942,ID,1,Kutacane,
221943,ID,1,Meulaboh,
221944,ID,30,Mesjid,
221945,ID,7,Temanggung,
221946,ID,1,Sigli,
221947,ID,30,Muara,
221948,ID,1,Takengon,
221949,ID,7,Karang,
221950,ID,1,Bireun,
221951,ID,8,Pacitan,
221952,ID,7,Nawangan,
221953,ID,12,Barabai,
221954,ID,25,Pangkalan,
221955,ID,30,Cileungsi,
221956,ID,1,Sinabang,
221957,ID,7,Prambanan,
221958,ID,1,Banda,
221959,ID,20,Harapan,
221960,ID,7,Pati,
221961,ID,25,Rimba,
221962,ID,8,Purworejo,
221963,ID,7,Slawi,
221964,ID,8,Banyuwangi,
221965,ID,12,Martapura,
221966,ID,20,Majene,
221967,ID,8,Kebon,
221968,ID,6,Plumbon,
221969,ID,21,Buol,
221970,ID,20,Soroako,
221971,ID,8,Cepu,
221972,ID,12,Banjarbaru,
221973,ID,7,Klaten,
221974,ID,22,Sawah,
221975,ID,8,Tulungagung,
221976,ID,21,Melati,
221977,ID,16,Bakun,
221978,ID,26,Prapat,
221979,ID,8,Nganjuk,
221980,ID,21,Bayang,
221981,ID,25,Cempaka,
221982,ID,1,Panca,
221983,ID,7,Jepara,
221984,ID,30,Dewata,
221985,ID,14,Senyiur,
221986,ID,15,Pringsewu,
221987,ID,16,Saumlaki,
221988,ID,10,Bantul,
221989,ID,7,Sumbar,
221990,ID,22,Wirabuana,
221991,ID,21,Makmur,
221992,ID,7,Panjang,
221993,ID,19,Bengkalis,
221994,ID,6,Pendawa,
221995,ID,7,Pesantren,
221996,ID,16,Tesco,
221997,ID,30,Jatipadang,
221998,ID,8,Ponorogo,
221999,ID,24,Payakumbuh,
222000,ID,8,Lamongan,
222001,ID,22,Nelayan,
222002,ID,8,Sepanjang,
222003,ID,21,Long,
222004,ID,6,Cibeureum,
222005,ID,11,Balai,
222006,ID,16,Lapi,
222007,ID,17,Lombok,
222008,ID,6,Sumedang,
222009,ID,25,Pendopo,
222010,ID,7,Wonogiri,
222011,ID,7,Sragen,
222012,ID,8,Situbondo,
222013,ID,8,Mojoagung,
222014,ID,11,Mempawah,
222015,ID,31,Tomohon,
222016,ID,26,Binjai,
222017,ID,7,Banjarnegara,
222018,ID,7,Kroya,
222019,ID,6,Brebes,
222020,ID,16,Namlea,
222021,ID,30,Pelelangan,
222022,ID,31,Bitung,
222023,ID,7,Batang,
222024,ID,21,Bahagia,
222025,ID,21,Poso,
222026,ID,17,Singa,
222027,ID,7,Sawit,
222028,ID,20,Makale,
222029,ID,6,Tanjung Priok,
222030,ID,22,Lestari,
222031,ID,15,Putih,
222032,ID,8,Bojonegoro,
222033,ID,16,Tobelo,
222034,ID,20,Borong,
222035,ID,7,Purbalingga,
222036,ID,7,Pemalang,
222037,ID,30,Majalengka,
222038,ID,20,Sepakat,
222039,ID,11,Bengkayang,
222040,ID,6,Glodok,
222041,ID,30,Cikupa,
222042,ID,7,Bagong,
222043,ID,30,Curug,
222044,ID,6,Jatibarang,
222045,ID,2,Marga,
222046,ID,5,Kualatungkal,
222047,ID,17,Ampenan,
222048,ID,14,Sangasanga,
222049,ID,8,Juanda,
222050,ID,8,Wonokoyo,
222051,ID,30,Pulogadung,
222052,ID,30,Cilandak,
222053,ID,30,Guna,
222054,ID,30,Ciputat,
222055,ID,30,Tidar,
222056,ID,11,Kuda,
222057,ID,25,Mulia,
222058,ID,9,Sentani,
222059,ID,12,Pelaihari,
222060,ID,20,Sinjai,
222061,ID,9,Amara,
222062,ID,30,Kebayoran,
222063,ID,20,Amali,
222064,ID,7,Sleman,
222065,ID,25,Kotabaru,
222066,ID,30,Parung,
222067,ID,8,Palang,
222068,ID,21,Palangka,
222069,ID,6,Sunter,
222070,ID,30,Jatake,
222071,ID,20,Wide,
222072,ID,7,Tembalang,
222073,ID,25,Kundur,
222074,ID,7,Bumiayu,
222075,ID,8,Wates,
222076,ID,7,Muntilan,
222077,ID,8,Krian,
222078,ID,21,Kapas,
222079,ID,7,Pugeran,
222080,ID,20,Tiro,
222081,ID,16,Masohi,
222082,ID,18,Waikabubak,
222083,ID,18,Larantuka,
222084,ID,21,Lais,
222085,ID,11,Sanggau,
222086,ID,11,Mapan,
222087,ID,25,Teluk,
222088,ID,26,Lahewa,
222089,ID,1,Lamno,
222090,ID,22,Buton,
222091,ID,18,Pulo,
222092,ID,7,Rembang,
222093,ID,1,Babo,
222094,ID,25,Lingga,
222095,ID,7,Blora,
222096,ID,7,Candi,
222097,ID,6,Pandeglang,
222098,ID,9,Negeri,
222099,ID,7,Singkil,
222100,ID,9,Sani,
222101,ID,17,Karangasem,
222102,ID,13,Lubuk,
222103,ID,7,Semen,
222104,ID,25,Pangkalpinang,
222105,ID,8,Sumenep,
222106,ID,25,Madura,
222107,ID,6,Subang,
222108,ID,7,Karanganyar,
222109,ID,7,Karanghandri,
222110,ID,11,Sinam,
222111,ID,20,Lansangennge,
222112,ID,7,Ngemplak,
222113,ID,6,Pacet,
222114,ID,7,Wonosobo,
222115,ID,7,Magetan,
222116,ID,7,Jogonalan,
222117,ID,6,Plered,
222118,ID,8,Waru,
222119,ID,31,Tondano,
222120,ID,2,Blahbatoe,
222121,ID,10,Depok,
222122,ID,6,Rangkasbitung,
222123,ID,7,Comal,
222124,ID,7,Delanggu,
222125,ID,15,Margakaja,
222126,ID,8,Bangil,
222127,ID,6,Malaka 2,
222128,ID,25,Tebatipoe,
222129,ID,7,Ambarawa,
222130,ID,30,Kemang,
222131,ID,7,Demak,
222132,ID,19,Balaipungut,
222133,ID,30,Wanaraja,
222134,ID,8,Taman,
222135,ID,11,Segedang,
222136,ID,20,Menro,
222137,ID,7,Kebumen,
222138,ID,7,Karanganom,
222139,ID,30,Padalarang,
222140,ID,30,Kadungora,
222141,ID,7,Purwodadi,
222142,ID,19,Lagoi,
222143,ID,22,Kolaka,
222144,ID,8,Kemayoran,
222145,ID,18,Sikka,
222146,ID,22,Labuan,
222147,ID,22,Wajo,
222148,ID,31,Kotamobagu,
222149,ID,7,Grobogan,
222150,ID,8,Lumajang,
222151,ID,1,Pasir,
222152,ID,13,Marabahan,
222153,ID,22,Toko,
222154,ID,22,Baja,
222155,ID,7,Kendal,
222156,ID,24,Rumbai,
222157,ID,26,Tapanuli,
222158,ID,1,Lhoknga,
222159,ID,19,Bangkinang,
222160,ID,31,Mulya,
222161,ID,17,Mujur,
222162,ID,20,Lokasi,
222163,ID,19,Bencahkelangan,
222164,ID,8,Gedangan,
222165,ID,8,Sagi,
222166,ID,25,Betung,
222167,ID,8,Lawang,
222168,ID,30,Ciranjang,
222169,ID,20,Barata,
222170,ID,30,Berkat,
222171,ID,22,Benua,
222172,ID,1,Sabang,
222173,ID,22,Bola,
222174,ID,8,Bangun,
222175,ID,30,Waringin,
222176,ID,2,Sanur,
222177,ID,30,Srengseng,
222178,ID,10,Depok,
222179,ID,3,Pagar,
222180,ID,30,Paseh,
222181,ID,11,Kophiang,
222182,ID,7,Kutasari,
222183,ID,22,Buleleng,
222184,ID,31,Kotamobago,
222185,ID,18,Baun,
222186,ID,18,Kapan,
222187,ID,22,Osao,
222188,ID,18,Camplong,
222189,ID,18,Betun,
222190,ID,30,Kelapa Dua,
222191,ID,8,Gandul,
222192,ID,7,Gunem,
222193,ID,8,Landak,
222194,ID,3,Cawang,
222195,ID,18,Sosial,
222196,ID,22,Banggai,
222197,ID,8,Bondowoso,
222198,ID,8,Genteng,
222199,ID,2,Bangli,
222200,ID,30,Cipete,
222201,ID,14,Sengata,
222202,ID,30,Cijantung,
222203,ID,26,Pematangsiantar,
222204,ID,8,Tulangan,
222205,ID,7,Weleri,
222206,ID,7,Boyolali,
222207,ID,8,Besuki,
222208,ID,7,Tulung,
222209,ID,30,Citeureup,
222210,ID,14,Nunukan,
222211,ID,9,Manokwar,
222212,ID,20,Bantaeng,
222213,ID,20,Bulukumba,
222214,ID,9,Tomoe,
222215,ID,22,Pelabuhan,
222216,ID,6,Majenang,
222217,ID,11,Lembu,
222218,ID,8,Pamekasan,
222219,ID,8,Made,
222220,ID,23,Musi,
222221,ID,8,Trenggalek,
222222,ID,6,Rawamangun,
222223,ID,31,Bakti,
222224,ID,22,Tiga,
222225,ID,26,Darat,
222226,ID,7,Jimbaran,
222227,ID,20,Cita,
222228,ID,6,Pandegelang,
222229,ID,7,Sukoharjo,
222230,ID,19,Poelausamboe,
222231,ID,30,Maja,
222232,ID,30,Lembang,
222233,ID,26,Gunungsitoli,
222234,ID,30,Sawangan,
222235,ID,8,Kamal,
222236,ID,4,Jakarta,
222237,ID,30,Timur,
222238,ID,7,Kuning,
222239,ID,30,Bogor,
222240,ID,7,Bali,
222241,ID,4,Cikini,
222242,ID,1,Jawa,
222243,ID,7,Kalimantan,
222244,ID,7,Sentosa,
222245,ID,19,Batam,
222246,ID,30,Bekasi,
222247,ID,33,Cakung,
222248,ID,30,Karawang,
222249,ID,7,Serial,
222250,ID,33,Perdana,
222251,ID,30,Kuningan,
222252,ID,33,Cibubur,
222253,ID,4,Matraman,
222254,ID,30,Manggadua,
222255,ID,4,Slipi,
222256,ID,30,Gajahmada,
222257,ID,30,Purwakarta,
222258,ID,7,Nusa,
222259,ID,30,Nusantara,
222260,ID,33,Cilegon,
222261,ID,30,Kencana,
222262,ID,7,Kebalen,
222263,ID,7,Joyo,
222264,ID,30,Agung,
222265,ID,30,Anggrek,
222266,ID,30,Test,
222267,ID,7,Renggong,
222268,ID,7,Nusaindah,
222269,ID,33,Kesatria,
222270,ID,1,Sejahtera,
222271,ID,31,Menara,
222272,ID,7,Lapangan,
222273,ID,7,Wijaya,
222274,ID,30,Tanjungpura,
222275,ID,1,Mane,
222276,ID,7,Mandala,
222277,ID,10,Sanyo,
222278,ID,4,Beacukai,
222279,ID,7,Samudra,
222280,ID,8,Jaya,
222281,ID,30,Cikampek,
222282,ID,7,Kalibata,
222283,ID,30,Lemahabang,
222284,ID,7,Pancoran,
222285,ID,26,Perdagangan,
222286,ID,33,Ketapang,
222287,ID,33,Serang,
222288,ID,30,Kabupaten,
222289,ID,4,Permata,
222290,ID,8,Diponegoro,
222291,ID,7,Klampis,
222292,ID,4,Senen,
222293,ID,33,Sentral,
222294,ID,26,Senayan,
222295,ID,7,Manyar,
222296,ID,30,Cirebon,
222297,ID,26,Pasar Baru,
222298,ID,30,Menengah,
222299,ID,7,Duren,
222300,ID,30,Citra,
222301,ID,30,Indramayu,
222302,ID,10,Kojo,
222303,ID,7,Sejati,
222304,ID,20,Soppeng,
222305,ID,4,Setiabudi,
222306,ID,26,Bukit Gading,
222307,ID,30,Sumber,
222308,ID,7,Menteng,
222309,ID,30,Proyek,
222310,ID,26,Simatupang,
222311,ID,8,Kutai,
222312,ID,20,Daya,
222313,ID,30,Swadaya,
222314,ID,4,Pertanian,
222315,ID,7,Tambahan,
222316,ID,19,Rokan,
222317,ID,7,Cakrawala,
222318,ID,7,Garuda,
222319,ID,7,Gunung,
222320,ID,7,Kantor,
222321,ID,26,Halim,
222322,ID,1,Tunggal,
222323,ID,30,Jatiluhur,
222324,ID,33,Tanjung,
222325,ID,30,Perum,
222326,ID,7,Kejaksaan,
222327,ID,8,Pangkal,
222328,ID,7,Tenggara,
222329,ID,30,Sukabumi,
222330,ID,1,Kotabaru,
222331,ID,8,Pangkalan,
222332,ID,7,Mataran,
222333,ID,33,Parigi,
222334,ID,26,Parepare,
222335,ID,7,Karang Tengah,
222336,ID,7,Puri,
222337,ID,7,Mega,
222338,ID,30,Utara,
222339,ID,30,Balaraja,
222340,ID,4,Batavia,
222341,ID,7,Pegadungan,
222342,ID,33,Laksana,
222343,ID,4,Petukangan Selatan,
222344,ID,30,Ashari,
222345,ID,7,Cemara,
222346,ID,33,Wadasari,
222347,ID,26,Pondok Cina,
222348,ID,1,Pahlawan,
222349,ID,7,Bintaro,
222350,ID,7,Kalideres,
222351,ID,30,Bonjol,
222352,ID,7,Perumnas,
222353,ID,30,Kemakmuran,
222354,ID,30,Tipar Tengah,
222355,ID,30,Babakan,
222356,ID,30,Kebon Jeruk,
222357,ID,4,Salemba,
222358,ID,26,Kutacane,
222359,ID,33,Mesjid,
222360,ID,26,Bukit Tinggi,
222361,ID,7,Muara,
222362,ID,7,Pacitan,
222363,ID,8,Nawangan,
222364,ID,26,Perkumpulan,
222365,ID,1,Harapan,
222366,ID,7,Wilayah,
222367,ID,7,Kebon,
222368,ID,26,Kartini,
222369,ID,30,Plumbon,
222370,ID,7,Pegambiran,
222371,ID,30,Klayan,
222372,ID,30,Komplek,
222373,ID,8,German,
222374,ID,7,Raksa,
222375,ID,1,Pembangunan,
222376,ID,7,Cepu,
222377,ID,8,Dingin,
222378,ID,19,Banjarbaru,
222379,ID,21,Sawah,
222380,ID,7,Melati,
222381,ID,7,Prapat,
222382,ID,7,Maju,
222383,ID,1,Malahayati,
222384,ID,30,Kurnia,
222385,ID,7,Galuh,
222386,ID,7,Gemilang,
222387,ID,1,Bukit,
222388,ID,8,Sekolah,
222389,ID,8,Barito,
222390,ID,7,Pringsewu,
222391,ID,26,Gereja,
222392,ID,20,Martin,
222393,ID,7,Makmur,
222394,ID,8,Sabah,
222395,ID,11,Panjang,
222396,ID,30,Pesantren,
222397,ID,4,Jatipadang,
222398,ID,7,Bumi,
222399,ID,7,Buana,
222400,ID,7,Sembada,
222401,ID,30,Irian,
222402,ID,7,Brebes,
222403,ID,30,Melayu,
222404,ID,26,Air Putih,
222405,ID,8,Borong,
222406,ID,4,Glodok,
222407,ID,33,Cikupa,
222408,ID,33,Curug,
222409,ID,7,Badan,
222410,ID,30,Jatibarang,
222411,ID,7,Lancar,
222412,ID,1,Jurong,
222413,ID,26,Sepinggan,
222414,ID,7,Mustika,
222415,ID,19,Sago,
222416,ID,30,Ratu,
222417,ID,30,Pharmindo,
222418,ID,33,Cilandak,
222419,ID,8,Brantas,
222420,ID,26,Sona,
222421,ID,4,Kebayoran Baru,
222422,ID,1,Selamat,
222423,ID,10,Sleman,
222424,ID,7,Palang,
222425,ID,7,Sunter,
222426,ID,30,Sukaresmi,
222427,ID,8,Wide,
222428,ID,8,Jaringan,
222429,ID,10,Sorowajan,
222430,ID,7,Kapas,
222431,ID,7,Tiro,
222432,ID,1,Tanjung Balai,
222433,ID,1,Teluk Dalam,
222434,ID,26,Mandrehe,
222435,ID,30,Pilar,
222436,ID,31,Islam,
222437,ID,26,Bintang Timur,
222438,ID,26,Negeri,
222439,ID,1,Lubuk,
222440,ID,30,Subang,
222441,ID,7,Kutaraja,
222442,ID,26,Rimbun,
222443,ID,33,Stasiun,
222444,ID,30,Pengairan,
222445,ID,30,Karyawan,
222446,ID,8,Indragiri,
222447,ID,7,Mulya,
222448,ID,30,Parongpong,
222449,ID,26,Batubara,
222450,ID,8,Purnama,
222451,ID,7,Mujur,
222452,ID,31,Lokasi,
222453,ID,30,Rama,
222454,ID,7,Bangun,
222455,ID,7,Waringin,
222456,ID,7,Griya,
222457,ID,1,Suka Makmur,
222458,ID,7,Desa,
222459,ID,8,Sanur,
222460,ID,7,Gandul,
222461,ID,7,Cawang,
222462,ID,7,Sari,
222463,ID,1,User,
222464,ID,7,Demo,
222465,ID,7,Majenang,
222466,ID,19,Ombak,
222467,ID,30,Pasek,
222468,ID,26,Pandi,
222469,ID,4,Melawai,
222470,ID,4,Rawamangun,
222471,ID,26,Bakti,
222472,ID,30,Radio,
222473,ID,26,Harian,
222474,ID,7,Maja,
222475,ID,5,Palmerah,
222476,ID,30,Kampungsengon,
222477,ID,2,Jimbaran,
222478,ID,8,Ngawi,
222479,ID,30,Barat,
222480,ID,20,Udjungpadang,
222481,ID,26,Kancil Mas,
222482,ID,24,Batusangkar,
222483,ID,33,Cipinang,
222484,ID,8,Magetan,
222485,ID,8,Bangkalan,
222486,ID,26,Stabat,
222487,ID,7,Sukohardjo,
222488,ID,30,Kalidam,
222489,ID,4,Cilandak,
222490,ID,7,Gunungkidul,
222491,ID,30,Cipondoh,
222492,ID,11,Sintang,
222493,ID,4,Cibubur,
222494,ID,33,Rangkas,
222495,ID,4,Kebayoran Lama,
222496,ID,30,Cabangampat,
222497,ID,4,Grogol Selatan,
222498,ID,4,Kalibata,
222499,ID,4,Semper,
222500,ID,4,Cijantung,
222501,ID,26,Sunggal,
222502,ID,1,Kualasimpang,
222503,ID,19,Teluk,
222504,ID,5,Pekan,
222505,ID,19,Minas,
222506,ID,30,Bali,
222507,ID,2,Klungkung,
222508,ID,30,Cicalengka,
222509,ID,33,Rangkasbitung,
222510,ID,30,Pamanukan,
222511,ID,7,Sambi,
222512,ID,7,Jenggawur,
222513,ID,7,Gombong,
222514,ID,7,Legok Lor,
222515,ID,7,Pejuritan,
222516,ID,8,Pare,
222517,ID,8,Rambipuji,
222518,ID,8,Djengkol,
222519,ID,7,Gatak,
222520,ID,30,Pasirpadudukan Kaler,
222521,ID,7,Banyumas,
222522,ID,10,Babarsari,
222523,ID,8,Kenjeran,
222524,ID,30,Sura,
222525,ID,9,Tembagapura,
222526,ID,30,Leuwiliang,
222527,ID,1,Tanjung Karang,
222528,ID,4,Jelambar,
222529,ID,33,Sukawati,
222530,ID,30,Cikande,
222531,ID,4,Pluit,
222532,ID,26,Tebingtinggi,
222533,ID,25,Belinyu,
222534,ID,15,Kotabumi,
222535,ID,15,Terbanggi-besar,
222536,ID,7,Paijo,
222537,ID,7,Buaran,
222538,ID,4,Cipayung,
222539,ID,4,Jagakarsa,
222540,ID,7,Gajah,
222541,ID,1,Kong,
222542,ID,4,Tebet Barat,
222543,ID,21,Peak,
222544,ID,7,Persil,
222545,ID,9,Kwai,
222546,ID,11,Sambas,
222547,ID,7,Dadap,
222548,ID,2,Badung,
222549,ID,30,Cinere,
222550,ID,30,Klender,
222551,ID,26,Labuhan Deli,
222552,ID,25,Pantai,
222553,ID,6,Ciamis,
222554,ID,30,Rancaekek,
222555,ID,30,Jumat,
222556,ID,7,Kedungwuni,
222557,ID,30,Cikudapateuh,
222558,ID,19,Panjang,
222559,ID,4,Pulomas,
222560,ID,25,Langkan,
222561,ID,7,Kemiri,
222562,ID,7,Parakan,
222563,ID,1,Matang,
222564,ID,7,Mranggen,
222565,ID,4,Kemanggisan,
222566,ID,19,Tembilahan,
222567,ID,26,Pakam,
222568,ID,30,Citayam,
222569,ID,30,Rengasdengklok,
222570,ID,26,Lubuk Pakam,
222571,ID,19,Selatpanjang,
222572,ID,30,Ciwidey,
222573,ID,7,Bawen,
222574,ID,4,Kuningan,
222575,ID,30,Bogor Barat,
222576,ID,30,Garut,
222577,ID,7,Solo Baru,
222578,ID,8,Kepanjen,
222579,ID,25,Tanjungpandan,
222580,ID,19,Perawang,
222581,ID,1,Rantau,
222582,ID,19,Tanjung,
222583,ID,16,Mado,
222584,ID,30,Gudang Utara,
222585,ID,7,Kraton Lor,
222586,ID,4,Jakarta Pusat,
222587,ID,30,Pabaton,
222588,ID,7,Kuningan,
222589,ID,30,Sindang,
222590,ID,30,Kriyan Barat,
222591,ID,7,Sanggungan,
222592,ID,18,Pandang,
222593,ID,10,Pakoealaman,
222594,ID,7,Nambongan,
222595,ID,30,Jatiasih,
222596,ID,2,Jembrana,
222597,ID,10,Serayu,
222598,ID,1,Kutamakmur,
222599,ID,11,Semandai,
222600,ID,33,Sukmajaya,
222601,ID,26,Simalungun,
222602,ID,26,Tanjung Pura,
222603,ID,26,Sipinggol Pinggol,
222604,ID,25,Sungailiat,
222605,ID,31,Paslaten 1,
222606,ID,31,Calaca,
222607,ID,30,Sumedang,
222608,ID,30,Salakopi,
222609,ID,7,Jajar,
222610,ID,7,Kartasura,
222611,ID,7,Tukul,
222612,ID,7,Krapyak,
222613,ID,8,Gabahan,
222614,ID,8,Tambran,
222615,ID,8,Tepeng,
222616,ID,7,Nglinggi,
222617,ID,33,Priuk,
222618,ID,30,Elowates,
222619,ID,7,Lodoyong,
222620,ID,30,Kacapiring,
222621,ID,30,Cikiwul,
222622,ID,26,Tasik,
222623,ID,30,Selong,
222624,ID,7,Malang,
222625,ID,30,Ciawi,
222626,ID,15,Natar,
222627,ID,30,Soreang,
222628,ID,8,Dinoyo,
222629,ID,7,Kandangan,
222630,ID,7,Kulon,
222631,ID,1,Vallambrosa,
222632,ID,17,Praya,
222633,ID,7,Purworejo,
222634,ID,20,Surabaya,
222635,ID,8,Ngoro,
222636,ID,30,Gunung,
222637,ID,8,Sampang,
222638,ID,4,Jakatra,
222639,ID,30,Gandaria-selatan,
222640,ID,4,Penjaringan,
222641,ID,9,Abepura,
222642,ID,25,Kayuagung,
222643,ID,25,Mentok,
222644,ID,4,Petukangan Utara,
222645,ID,7,Proliman,
222646,ID,26,Tembung,
222647,ID,4,Bendoengan-djambon,
222648,ID,26,Berastagi,
222649,ID,26,Tanjungbalai,
222650,ID,1,Tebing Tinggi,
222651,ID,26,Serdang,
222652,ID,8,Winongo,
222653,ID,26,Tebing Tinggi,
222654,ID,25,Lubuklinggau,
222655,ID,4,Ancol Barat,
222656,ID,25,Inderalaya,
222657,ID,30,Cijulang,
222658,ID,30,Segar,
222659,ID,7,Kutoarjo,
222660,ID,8,Porong,
222661,ID,8,Tanah,
222662,ID,3,Curup,
222663,ID,10,Temanggung,
222664,ID,7,Ajibarang,
222665,ID,33,Ancol,
222666,ID,7,Tiban,
222667,ID,30,Tugu Utara,
222668,ID,7,Wonosari,
222669,ID,8,Bandung Barat,
222670,ID,19,Pelalawan,
222671,ID,30,Wanaherang,
222672,ID,20,Sungguminasa,
222673,ID,30,Kadipaten,
222674,ID,7,Temangung,
222675,ID,19,Siak Sri Indrapura,
222676,ID,1,Tarutung,
222677,ID,19,Batulicin,
222678,ID,19,Sekupang,
222679,ID,8,Ngunut,
222680,ID,4,Gondangdia,
222681,ID,19,Rumbai,
222682,ID,10,Wonosari,
222683,ID,30,Pondok,
222684,ID,30,Pematang,
222685,ID,3,Tungkal,
222686,ID,33,Ambon,
222687,ID,7,Sampit,
222688,ID,26,Tanjung Balai,
222689,ID,3,Ngalam,
222690,ID,30,Sumbawa,
222691,ID,30,Serang,
222692,ID,30,Tegal,
222693,ID,30,Purworejo,
222694,ID,30,Malang,
222695,ID,4,Pangkalan,
222696,ID,33,Bandung,
222697,ID,30,Semarang,
222698,ID,30,Sumenep,
222699,ID,21,Biak,
222700,ID,4,Utankayu,
222701,ID,30,Cilegon,
222702,ID,4,Sukabumi,
222703,ID,4,Tanjung,
222704,ID,8,Tabanan,
222705,ID,25,Kupang,
222706,ID,30,Mataram,
222707,ID,12,Batulicin,
222708,ID,33,Kotabaru,
222709,ID,19,Padang,
222710,ID,25,Padang,
222711,ID,15,Kalianda,
222712,ID,33,Palembang,
222713,ID,10,Sentolo,
222714,ID,8,Jambi,
222715,ID,33,Banyuwangi,
222716,ID,7,Pare,
222717,ID,21,Donggala,
222718,ID,7,Kupang,
222719,ID,7,Mojokerto,
222720,ID,7,Bandoeng,
222721,ID,1,Simeulu,
222722,ID,30,Jember,
222723,ID,20,Singkang,
222724,ID,30,Kendal,
222725,ID,7,Bayan,
222726,ID,30,Paris,
222727,ID,30,Ciparay,
222728,ID,7,Cideng,
222729,ID,14,Bunyu,
222730,ID,30,Merak,
222731,ID,30,Cirata,
222732,ID,31,Limboto,
222733,ID,4,Lebakbulus,
222734,ID,7,Manggar,
222735,ID,31,Airmadidi,
222736,ID,30,Bima,
222737,ID,20,Palangka,
222738,ID,7,Bangsri,
222739,ID,26,Serbalawan,
222740,ID,8,Pancor,
222741,ID,7,Tambak,
222742,ID,10,Wonogiri,
222743,ID,10,Sukoharjo,
222744,ID,4,Krendang,
222745,ID,12,Tanjung,
222746,ID,30,Jatibening,
222747,ID,4,Pangandaran,
222748,ID,4,Tambun Selatan,
222749,ID,19,Riau,
222750,ID,10,Sewon,
222751,ID,8,Caruban,
222752,ID,19,Bagam,
222753,ID,2,Buleleng,
222754,ID,30,Lumpur,
222755,ID,7,Gunungpati,
222756,ID,7,Probolinggo,
222757,ID,10,Brosot,
222758,ID,4,Karetbelakang,
222759,ID,10,Jalan,
222760,ID,26,Balige,
222761,ID,30,Tambun,
222762,ID,1,Peureulak,
222763,ID,15,Jepara,
222764,ID,4,Cipete,
222765,ID,26,Tarutung,
222766,ID,5,Bangko,
222767,ID,7,Ngalas,
222768,ID,4,Kembanganbaru,
222769,ID,7,Serang,
222770,ID,7,Juwana,
222771,ID,24,Sijunjung,
222772,ID,7,Ponorogo,
222773,ID,30,Harapan,
222774,ID,30,Bekasi Kota,
222775,ID,6,Cibeo,
222776,ID,4,Kebayoran,
222777,ID,30,Cikijing,
222778,ID,7,Colomadu,
222779,ID,12,Buntok,
222780,ID,13,Kasongan,
222781,ID,10,Wates,
222782,ID,4,Pondokindah,
222783,ID,33,Pematang,
222784,ID,30,Mear,
222785,ID,7,Genting,
222786,ID,4,Bendungan Hilir,
222787,ID,4,Kelapagading,
222788,ID,30,Depok Dua Tengah,
222789,ID,4,Pademangan Barat,
222790,ID,30,Singaraja,
222791,ID,26,Medan Krio B,
222792,ID,7,Lumpur,
222793,ID,19,Japura,
222794,ID,30,Tangsel,
222795,ID,7,Mabang,
222796,ID,7,Gili,
222797,ID,17,Dompu,
222798,ID,30,Bekasijaya,
222799,ID,4,Pandokklapa,
222800,ID,30,Jurangmanggu 1,
222801,ID,30,Pulonangka,
222802,ID,11,Pemangkat,
222803,ID,4,Kramatdjati,
222804,ID,30,Sukaraja,
222805,ID,8,Rogojampi,
222806,ID,4,Tangerangscheweg,
222807,ID,7,Borobudur,
222808,ID,30,Cadasgorowong,
222809,ID,30,Cibudug,
222810,ID,30,Cisirung,
222811,ID,8,Kadjarolo,
222812,ID,8,Djelboek,
222813,ID,4,Tanahkodja 1,
222814,ID,30,Citraindah,
222815,ID,4,Djatinegara,
222816,ID,30,Situkladen,
222817,ID,30,Kresek,
222818,ID,4,Doekoeh 2,
222819,ID,30,Pasirlantung,
222820,ID,7,Ngentaksari,
222821,ID,7,Gondolegi,
222822,ID,7,Loireng Wetan,
222823,ID,7,Gondangan Kulon,
222824,ID,7,Ngebleng,
222825,ID,8,Ngororedjo,
222826,ID,8,Tuko,
222827,ID,8,Tawing,
222828,ID,7,Sumenet,
222829,ID,7,Djabungpasar,
222830,ID,30,Lungbenda,
222831,ID,30,Laksanakarya,
222832,ID,7,Ngampok,
222833,ID,30,Kapuran,
222834,ID,10,Mlati,
222835,ID,30,Kelapa 2,
222836,ID,7,Jetis,
222837,ID,8,Bandjar-anjar,
222838,ID,30,Pasarkemis,
222839,ID,7,Dieng,
222840,ID,4,Tanjungduren,
222841,ID,4,Cengkarengindah,
222842,ID,30,Widasari,
222843,ID,2,Tuban,
222844,ID,7,Tapak,
222845,ID,30,Cikampektua Timur,
222846,ID,30,Cimurah,
222847,ID,26,Bulu Telang,
222848,ID,24,Loeboekaloeng,
222849,ID,8,Gligi,
222850,ID,8,Dander,
222851,ID,8,Bendolo,
222852,ID,8,Djurangkuali,
222853,ID,2,Darmasaba,
222854,ID,8,Keras,
222855,ID,30,Citespong,
222856,ID,7,Senobayan,
222857,ID,30,Kebajunan 3,
222858,ID,4,Kroentagan,
222859,ID,6,Kebondjeroek 2,
222860,ID,30,Maja Lebak,
222861,ID,19,Kerinci,
222862,ID,8,Kertosono,
222863,ID,7,Gemolong,
222864,ID,6,Bayah,
222865,ID,19,Kijang,
222866,ID,4,Tambora,
222867,ID,7,Toroh,
222868,ID,17,Selong,
222869,ID,30,Cileungar,
222870,ID,30,Cikareo,
222871,ID,8,Besowo,
222872,ID,8,Kadoengdoeng,
222873,ID,19,Tandjoengoeban,
222874,ID,10,Kasihan,
222875,ID,4,Poelokambing 1,
222876,ID,30,Cibadak,
222877,ID,30,Depok Jaya,
222878,ID,12,Rantau,
222879,ID,13,Buntok,
222880,ID,26,Medan Dua,
222881,ID,7,Jaban,
222882,ID,30,Cikeusal,
222883,ID,30,Cipadu,
222884,ID,30,Pekalongan,
222885,ID,7,Lasem,
222886,ID,25,Muaraenim,
222887,ID,21,Kerobokan,
222888,ID,30,Cijati,
222889,ID,8,Daju,
222890,ID,7,Rawo,
222891,ID,26,Panyabungan,
222892,ID,31,Kema,
222893,ID,7,Ngaglik,
222894,ID,7,Kembaran,
222895,ID,30,Bintara,
222896,ID,4,Grogolpetamburan,
222897,ID,24,Painan,
222898,ID,8,Bataan,
222899,ID,30,Cempakaputih Satu,
222900,ID,30,Perum Inkopad,
222901,ID,20,Maros,
222902,ID,8,Tanggul,
222903,ID,7,Banjarredjo,
222904,ID,30,Pengkolan Kaler,
222905,ID,30,Cirumpak Ilir,
222906,ID,8,Ngendut Utara,
222907,ID,30,Majalaya,
222908,ID,30,Cililin,
222909,ID,7,Grabag,
222910,ID,7,Kudusan,
222911,ID,24,Sawahloento,
222912,ID,19,Tanjunguban,
222913,ID,3,Kepahiang,
222914,ID,4,Lentengagung,
222915,ID,8,Mumbulsari,
222916,ID,8,Pasirian,
222917,ID,30,Cityalung Dua,
222918,ID,8,Mojosari,
222919,ID,31,Ratahan,
222920,ID,4,Kebajoran,
222921,ID,7,Gandaria,
222922,ID,30,Ciomas,
222923,ID,30,Arcamanik,
222924,ID,30,Cityapor,
222925,ID,30,Depok Dua Timur,
222926,ID,26,Medan Ii,
222927,ID,20,Batammatasape,
222928,ID,30,Sumedang Utara,
222929,ID,30,Haurgeulis,
222930,ID,8,Babat,
222931,ID,30,Banjaran,
222932,ID,30,Cianjur Satu,
222933,ID,7,Semaran,
222934,ID,7,Gunungputri,
222935,ID,7,Alastua,
222936,ID,30,Anjatan,
222937,ID,4,Serdang,
222938,ID,7,Purworedjo,
222939,ID,30,Palembangan,
222940,ID,6,Ciracas,
222941,ID,30,Babelan,
222942,ID,30,Baleendah,
222943,ID,19,Nongsa,
222944,ID,8,Rini,
222945,ID,30,Pedjaten Tiga,
222946,ID,8,Klino,
222947,ID,8,Kedungmaron Tiga,
222948,ID,8,Poedak-koelon,
222949,ID,8,Ngluju,
222950,ID,30,Arjawinangun,
222951,ID,7,Pidik,
222952,ID,7,Nongkojajar,
222953,ID,30,Cijingga,
222954,ID,7,Payaman,
222955,ID,7,Japan,
222956,ID,13,Kualakapuas,
222957,ID,30,Pamulang Barat,
222958,ID,4,Palmerah,
222959,ID,30,Telukpucung,
222960,ID,4,Menteng Satu,
222961,ID,26,Perbaungan,
222962,ID,7,Basung,
222963,ID,30,Jatiwangi,
222964,ID,26,Padangsidempuan,
222965,ID,30,Karawang Girang,
222966,ID,24,Pariaman,
222967,ID,17,Kopang,
222968,ID,7,Sukadana,
222969,ID,30,Balida Satu,
222970,ID,7,Pada,
222971,ID,33,Gunungsugih,
222972,ID,30,Cicaheum,
222973,ID,4,Tanjungbarat,
222974,ID,30,Reno,
222975,ID,30,Panjemir 1,
222976,ID,7,Kalinongko,
222977,ID,24,Indaroeng,
222978,ID,14,Marangkajoe,
222979,ID,4,Rawabadung,
222980,ID,30,Gunungbakti,
222981,ID,30,Cileunyi,
222982,ID,7,Bogeman Lor,
222983,ID,20,Mandalle,
222984,ID,26,Pematangsieantar,
222985,ID,25,Pagaralam,
222986,ID,30,Saapan Dua,
222987,ID,13,Palangkaraja,
222988,ID,30,Kediri,
222989,ID,30,Cikole Dalam,
222990,ID,30,Cibatok,
222991,ID,30,Sumedang Selatan,
222992,ID,30,Cariu,
222993,ID,1,Idi,
222994,ID,26,Padangsidimpuan,
222995,ID,7,Brangsong,
222996,ID,26,Kaban,
222997,ID,16,Langgur,
222998,ID,31,Tatelu,
222999,ID,9,Mimika,
223000,ID,15,Bangunrejo,
223001,ID,3,Mukomuko,
223002,ID,30,Cilegong Timur,
223003,ID,19,Kampar,
223004,ID,7,Jakah,
223005,ID,11,Mentidung,
223006,ID,17,Batoemoenggoel,
223007,ID,7,Moearademak,
223008,ID,9,Imimeremoe,
223009,ID,30,Pamagersari,
223010,ID,30,Galian 1,
223011,ID,30,Cihampelas,
223012,ID,1,Padang Panjang,
223013,ID,30,Tigaraksa,
223014,ID,7,Bandung Dua,
223015,ID,26,Tongging,
223016,ID,26,Pematang,
223017,ID,7,Bawang,
223018,ID,4,Pegangsaan Dua,
223019,ID,7,Bantul,
223020,ID,4,Muarakarang,
223021,ID,30,Jakapurwa,
223022,ID,30,Lippocikarang,
223023,ID,8,Pujon,
223024,ID,24,Padangpanjang,
223025,ID,7,Limpung,
223026,ID,7,Mejasem Tengah,
223027,ID,4,Cibuburindah,
223028,ID,4,Selong,
223029,ID,8,Jaah Dua,
223030,ID,30,Talunbabakan,
223031,ID,7,Demungan,
223032,ID,7,Krajankauman,
223033,ID,11,Kuala,
223034,ID,1,Kisaran Barat,
223035,ID,26,Sidikalang,
223036,ID,30,Ciledug,
223037,ID,4,Kembangan,
223038,ID,26,Medan Krio Tiga,
223039,ID,20,Masamba,
223040,ID,7,Jaten,
223041,ID,26,Medan Labuhan,
223042,ID,30,Pemalang,
223043,ID,7,Tengah,
223044,ID,10,Temon,
223045,ID,8,Batambak,
223046,ID,5,Tanjung,
223047,ID,7,Gondorio 2,
223048,ID,30,Surupan Dua,
223049,ID,30,Kutaluhur,
223050,ID,7,Bungo,
223051,ID,7,Pengkol,
223052,ID,7,Sabrah,
223053,ID,30,Cikalong Dua,
223054,ID,31,Amurang,
223055,ID,30,Kuya,
223056,ID,30,Cinyucruk Dua,
223057,ID,19,Kandis,
223058,ID,4,Tandjoengpriok,
223059,ID,30,Ngamprah,
223060,ID,8,Blawan,
223061,ID,30,Pasirkedondong,
223062,ID,22,Raha,
223063,ID,1,Pidie,
223064,ID,4,Mampangprapatan,
223065,ID,30,Rancasawo,
223066,ID,30,Cianjur Dua,
223067,ID,30,Cijantung Dua,
223068,ID,7,Kemranjen,
223069,ID,7,Nagan,
223070,ID,30,Cilebar,
223071,ID,30,Bojongsoang,
223072,ID,7,Congol Wetan,
223073,ID,7,Pantjeng,
223074,ID,7,Godong,
223075,ID,25,Koba,
223076,ID,4,Tebet Satu,
223077,ID,7,Mertoyudan,
223078,ID,7,Polanharjo,
223079,ID,30,Jonggol,
223080,ID,30,Malang Tengah,
223081,ID,12,Kandangan,
223082,ID,30,Budin,
223083,ID,8,Jajag,
223084,ID,10,Kalasan,
223085,ID,30,Cibungbulang,
223086,ID,30,Egla,
223087,ID,26,Tanjung Morawa,
223088,ID,30,Ciagel Barat,
223089,ID,7,Pasir,
223090,ID,7,Santa,
223091,ID,4,Pinggirrawa Barat,
223092,ID,30,Manggabesar,
223093,ID,7,Doplang,
223094,ID,12,Kotabaru,
223095,ID,30,Pekayon,
223096,ID,8,Tebo,
223097,ID,14,Handil,
223098,ID,30,Sadanglebak,
223099,ID,30,Hondje,
223100,ID,15,Sekampung,
223101,ID,7,Purwanegara,
223102,ID,7,Sonoredjo,
223103,ID,4,Rawaboeaja,
223104,ID,4,Johar Baru,
223105,ID,8,Araararedja,
223106,ID,1,Meureudu,
223107,ID,14,Samboaja,
223108,ID,30,Sabur,
223109,ID,7,Bulan,
223110,ID,26,Kuala Langkat,
223111,ID,19,Ujungbatu,
223112,ID,7,Ngaliyan,
223113,ID,7,Padangan,
223114,ID,13,Pangkalanbuun,
223115,ID,4,Tegalalur,
223116,ID,7,Buluk,
223117,ID,30,Rajagaluh,
223118,ID,8,Sekayu,
223119,ID,26,Bulian,
223120,ID,1,Blangpidie,
223121,ID,4,Telukgong,
223122,ID,7,Pagergedog,
223123,ID,7,Cabakan,
223124,ID,8,Srono,
223125,ID,7,Simerak,
223126,ID,7,Condong,
223127,ID,31,Langowan,
223128,ID,4,Pejompongan,
223129,ID,7,Pabelan,
223130,ID,4,Karet Teng Sien,
223131,ID,30,Cipanas,
223132,ID,10,Playen,
223133,ID,30,Depok 2 Tengah,
223134,ID,20,Mangkutana,
223135,ID,21,Sigi,
223136,ID,8,Maesan,
223137,ID,8,Mada,
223138,ID,24,Lubukbasung,
223139,ID,15,Tanjungkarang,
223140,ID,8,Bandulan,
223141,ID,8,Kepoeng,
223142,ID,30,Cimaluh,
223143,ID,4,Cililitanbesar,
223144,ID,8,Gempol,
223145,ID,10,Yogya Kembali,
223146,ID,7,Jobo,
223147,ID,12,Amuntai,
223148,ID,30,Parigi,
223149,ID,30,Jatiuwung,
223150,ID,7,Deres,
223151,ID,15,Sidomulyo,
223152,ID,7,Banyuasin,
223153,ID,4,Cililitan,
223154,ID,8,Jetakngasri,
223155,ID,8,Kraksaan,
223156,ID,30,Muara Dua,
223157,ID,20,Jeneponto,
223158,ID,15,Batanghari,
223159,ID,15,Sukadana,
223160,ID,30,Cimerak,
223161,ID,7,Balangan,
223162,ID,8,Muncar,
223163,ID,4,Pondokpinang,
223164,ID,8,Gambiran,
223165,ID,30,Kaliabang Tengah,
223166,ID,26,Pasar Minggu,
223167,ID,30,Singaparna,
223168,ID,26,Siborongborong,
223169,ID,7,Pangandaran,
223170,ID,4,Kebajuran Lama,
223171,ID,21,Tolitoli,
223172,ID,20,Enrekang,
223173,ID,1,Aekanopan,
223174,ID,14,Malinau,
223175,ID,30,Jatibening 1,
223176,ID,8,Goerah,
223177,ID,17,Djonggat,
223178,ID,7,Kaligawe,
223179,ID,30,Bojonggede,
223180,ID,10,Godean,
223181,ID,4,Pinangranti,
223182,ID,8,Kupang,
223183,ID,7,Banyubiru,
223184,ID,6,Melak,
223185,ID,33,Cimerak,
223186,ID,7,Srondor-wetan 2,
223187,ID,7,Baan,
223188,ID,8,Sukodadi,
223189,ID,4,Pesing 1,
223190,ID,13,Pembuang,
223191,ID,7,Tasikmadu,
223192,ID,21,Bunta,
223193,ID,30,Terisi,
223194,ID,7,Saketi,
223195,ID,7,Mlonggo,
223196,ID,7,Tegalbrojol,
223197,ID,10,Baciro,
223198,ID,1,Aekkanopan,
223199,ID,7,Banguntapan,
223200,ID,33,Rempoa,
223201,ID,22,Baubau,
223202,ID,4,Podomoro,
223203,ID,4,Bamboelarangan,
223204,ID,30,Citiis,
223205,ID,30,Tandjoengsengjang,
223206,ID,7,Plumbon,
223207,ID,30,Sajira,
223208,ID,15,Gunungsugih,
223209,ID,30,Candulan,
223210,ID,30,Antapani,
223211,ID,30,Lapan,
223212,ID,26,Makassar,
223213,ID,35,Mulia,
223214,ID,37,Pekanbaru,
223215,ID,38,Makasar,
223216,ID,24,Seberangpadang,
223217,ID,40,Batam,
223218,ID,40,Tanjungpinang,
223219,ID,30,Sumedangan,
223220,ID,30,Babakangarut,
223221,ID,4,Tanjungselor,
223222,ID,36,Jayapura,
223223,ID,30,Ciamis,
223224,ID,8,Gandingrejo Utara,
223225,ID,8,Surodadi,
223226,ID,7,Pulokelor,
223227,ID,32,Palembang,
223228,ID,34,Gorontalo,
223229,ID,30,Tjilingga,
223230,ID,15,Sambikarto,
223231,ID,35,Pangkalpinang,
223232,ID,15,Palembang,
223233,ID,8,Tlungsung,
223234,ID,2,Banjar Tegalnarungan,
223235,ID,30,Tarumanagara,
223236,ID,38,Palopo,
223237,ID,37,Kampar,
223238,ID,37,Dumai,
223239,ID,24,Cimparuh,
223240,ID,32,Lubuklinggau,
223241,ID,8,Krajan Satu,
223242,ID,30,Cupo,
223243,ID,8,Ciloro,
223244,ID,8,Laoksongai,
223245,ID,39,Sorong,
223246,ID,39,Manokwari,
223247,ID,31,Makawang,
223248,ID,29,Mado,
223249,ID,2,Banjar Kelodkangin,
223250,ID,8,Wlingi,
223251,ID,7,Gribigkrajan,
223252,ID,2,Abianbase,
223253,ID,7,Gemiring,
223254,ID,8,Kedungdandang,
223255,ID,37,Tembilahan,
223256,ID,37,Duri,
223257,ID,32,Lahat,
223258,ID,28,Sojadibawah,
223259,ID,8,Trucuk,
223260,ID,24,Tarak,
223261,ID,15,Tanjungdalam,
223262,ID,28,Langgur,
223263,ID,8,Kerian,
223264,ID,36,Tite,
223265,ID,37,Bangkinang,
223266,ID,40,Poelausamboe,
223267,ID,15,Pandan,
223268,ID,33,Anyer,
223269,ID,29,Ternate,
223270,ID,36,Merauke,
223271,ID,34,Limboto,
223272,ID,8,Pachitan,
223273,ID,30,Melak,
223274,ID,8,Sidomulyo,
223275,ID,36,Wamena,
223276,ID,10,Kotagede,
223277,ID,2,Bea Cukai,
223278,ID,8,Merik,
223279,ID,11,Leteng,
223280,ID,30,Gekbrong,
223281,ID,8,Brenjuk,
223282,ID,2,Banjar Pekuwudan,
223283,ID,4,Kebondjeroek 2,
223284,ID,30,Tasikmalaya,
223285,ID,38,Makale,
223286,ID,18,Rote,
223287,ID,38,Duri,
223288,ID,13,Ampah,
223289,ID,38,Parepare,
223290,ID,28,Ambon,
223291,ID,22,Tanjungpinang,
223292,ID,30,Tambaksari,
223293,ID,33,Pandegelang,
223294,ID,8,Pandaan,
223295,ID,38,Maros,
223296,ID,37,Pelalawan,
223297,ID,33,Barat,
223298,ID,8,Utara,
223299,ID,28,Timur,
223300,ID,35,Banten,
223301,ID,35,Riau,
223302,ID,26,Bali,
223303,ID,18,Jawa,
223304,ID,11,Tengah,
223305,ID,35,Kelapa,
223306,ID,8,Selatan,
223307,ID,39,Kiat,
223308,ID,38,Melle,
223309,ID,2,Tirtagangga,
223310,ID,7,Cabawan,
223311,ID,8,Sempu,
223312,ID,30,Lelea,
223313,ID,7,Klego,
223314,ID,11,Sekadau,
223315,ID,40,Rengat,
223316,ID,38,Soroako,
223317,ID,8,Berca,
223318,ID,17,Tanjung,
223319,ID,8,Gowa,
223320,ID,26,Porsea,
223321,ID,18,Tungkal,
223322,ID,38,Pangkajene,
223323,ID,31,Tahuna,
223324,ID,2,Canggu,
223325,ID,4,Kebayoran Lama Utara,
223326,ID,38,Pinrang,
223327,ID,26,Bandar,
223328,ID,41,Mamasa,
223329,ID,32,Prabumulih,
223330,ID,24,Lubuk,
223331,ID,7,Wangon,
223332,ID,2,Nusa Dua,
223333,ID,7,Lingga,
223334,ID,36,Sentani,
223335,ID,30,Ngawi,
223336,ID,8,Pondokindah,
223337,ID,30,Istambul,
223338,ID,30,Cisaga,
223339,ID,30,Sangata,
223340,ID,15,Bandarlampung,
223341,ID,36,Koejaboe,
223342,ID,2,Banjar Umahanjar,
223343,ID,8,Krajan Empat Gambangan,
223344,ID,30,Luwuk,
223345,ID,1,Ulim,
223346,ID,17,Senggigi,
223347,ID,17,Pelempat,
223348,ID,38,Enrekang,
223349,ID,30,Sindangwangi,
223350,ID,17,Taliwang,
223351,ID,30,Banten,
223352,ID,32,Gelumbang,
223353,ID,22,Tinanggea,
223354,ID,8,Leprak,
223355,ID,36,Biak,
223356,ID,7,Tegalsari,
223357,ID,2,Seminyak,
223358,ID,31,Tompaso,
223359,ID,36,Tembagapura,
223360,ID,7,Gatel,
223361,ID,22,Muara,
223362,ID,38,Tolitoli,
223363,ID,33,Cidodol,
223364,ID,38,Masamba,
223365,ID,8,Bandung,
223366,ID,30,Cikalong Kulon,
223367,ID,10,Bandung,
223368,ID,7,Kartosuro,
223369,ID,4,Kedoya Selatan,
223370,ID,4,Moearadjati,
223371,ID,7,Bantur,
223372,ID,36,Abepura,
223373,ID,8,Asembagus,
223374,ID,4,Durentiga Satu,
223375,ID,38,Boeloerokéng 1,
223376,ID,4,Tanahdoearatoes 2,
223377,ID,30,Banteng,
223378,ID,4,Pondokkopi,
223379,ID,7,Madura,
223380,ID,7,Bumen,
223381,ID,7,Jember,
223382,ID,4,Menteng Dua,
223383,ID,37,Kerinci,
223384,ID,7,Dukun,
223385,ID,10,Caturtunggal,
223386,ID,35,Sungailiat,
223387,ID,30,Cikakak,
223388,ID,32,Baturaja,
223389,ID,4,Semanan,
223390,ID,33,Soyog,
223391,ID,3,Argamakmur,
223392,ID,4,Kebajoran Lama,
223393,ID,7,Pasuruan,
223394,ID,30,Bojonggaling,
223395,ID,30,Gelora,
223396,ID,30,Surabaya,
223397,ID,8,Baliboto,
223398,ID,4,Cipinangbesar Selatan,
223399,ID,7,Kramat,
223400,ID,22,Pomalaa,
223401,ID,30,Serdang,
223402,ID,38,Nusantara,
223403,ID,33,Sejahtera,
223404,ID,30,Mansyur,
223405,ID,7,Ampel,
223406,ID,38,Watansoppeng,
223407,ID,10,Ponjong,
223408,ID,38,Sungguminasa,
223409,ID,4,Kebon Baru,
223410,ID,2,Banjar Bindu,
223411,ID,7,Sepatagungsari,
223412,ID,4,Grogol,
223413,ID,40,Tanjung Balai Karimun,
223414,ID,32,Inderalaya,
223415,ID,36,Timika,
223416,ID,4,Cawang,
223417,ID,7,Belitung,
223418,ID,4,Pegangsaan,
223419,ID,30,Krukut,
223420,ID,8,Driyorejo,
223421,ID,8,Mojokerep,
223422,ID,37,Minas,
223423,ID,40,Tulang,
223424,ID,30,Cipete-hilir,
223425,ID,7,Sibete,
223426,ID,4,Dki Jakarta,
223427,ID,38,Makassar,
223428,ID,4,Djakarta,
223429,ID,30,Tangarang,
223430,ID,8,Surabaia,
223431,ID,1,Bireuen,
223432,ID,30,Tasikmalaja,
223433,ID,8,Soerabaya,
223434,ID,13,Pangkalanbun,
223435,ID,4,Tanjung Priok,
223436,ID,38,Rantepao,
223437,ID,38,Watampone,
223438,ID,38,Barru,
223439,ID,41,Mamuju,
223440,ID,38,Sengkang,
223441,ID,7,Ngebruk Selatan,
223442,ID,8,Leksono,
223443,ID,17,Muhajirin,
223444,ID,7,Sokaraja,
223445,ID,38,Takalar,
223446,ID,38,Lombok,
223447,ID,17,Sumbawa Besar,
223448,ID,2,Banjar Patolan,
223449,ID,8,Duwu,
223450,ID,41,Polewali,
223451,ID,38,Mandai,
223452,ID,8,Gersik,
223453,ID,10,Djogjakarta,
223454,ID,5,Muarabulian,
223455,ID,2,Amlapura,
223456,ID,7,Kuta,
223457,ID,8,Atas,
223458,ID,4,Duri,
223459,ID,8,Bedok,
223460,ID,38,Jeneponto,
223461,ID,8,Glenmore,
223462,ID,8,Bendo,
223463,ID,30,Banyuasin,
223464,ID,4,Kampoengnangka,
223465,ID,37,Pakanbaru,
223466,ID,30,Bojonggenteng,
223467,ID,8,Balung,
223468,ID,13,Godang-tengah,
223469,ID,30,Tjiampel,
223470,ID,8,Singosari,
223471,ID,11,Kendawangan,
223472,ID,33,Pandeglang,
223473,ID,30,Parman,
223474,ID,15,Liwa,
223475,ID,7,Prembun,
223476,ID,30,Gaga,
223477,ID,33,Sukamara,
223478,ID,32,Muaradua,
223479,ID,30,Jombang,
223480,ID,38,Tobelo,
223481,ID,30,Ciketing-udik,
223482,ID,12,Oelin,
223483,ID,30,Pasanggrahan,
223484,ID,30,Waroedojong,
223485,ID,30,Gambir,
223486,ID,30,Jayapura,
223487,ID,7,Meger,
223488,ID,10,Ngawen,
223489,ID,35,Mentok,
223490,ID,4,Tebet,
