locId,country,region,city,postcode
223491,IE,,,
223492,IE,7,Dublin,
223493,IE,4,Cork,
223494,IE,6,Donegal,
223495,IE,20,Mayo,
223496,IE,20,Ballyhaunis,
223497,IE,27,Waterford,
223498,IE,30,Wexford,
223499,IE,31,Wicklow,
223500,IE,7,Swords,
223501,IE,11,Listowel,
223502,IE,3,Clare,
223503,IE,19,Louth,
223504,IE,10,Abbey,
223505,IE,10,Galway,
223506,IE,16,Limerick,
223507,IE,12,Kildare,
223508,IE,10,Gaillimh,
223509,IE,11,Killorglin,
223510,IE,16,Hospital,
223511,IE,31,Bray,
223512,IE,12,Athy,
223513,IE,18,Longford,
223514,IE,29,Athlone,
223515,IE,25,Sligo,
223516,IE,1,Carlow,
223517,IE,11,Tralee,
223518,IE,7,Clondalkin,
223519,IE,11,Camp,
223520,IE,21,Kells,
223521,IE,12,Naas,
223522,IE,26,Tipperary,
223523,IE,27,Cross,
223524,IE,24,Newton,
223525,IE,3,Shannon,
223526,IE,23,Tullamore,
223527,IE,7,Rathmines,
223528,IE,7,Monkstown,
223529,IE,2,Cavan,
223530,IE,21,Navan,
223531,IE,24,Roscommon,
223532,IE,13,Kilkenny,
223533,IE,30,Park,
223534,IE,31,Greystones,
223535,IE,19,Drogheda,
223536,IE,20,Castlebar,
223537,IE,7,Ballymount,
223538,IE,7,Ballsbridge,
223539,IE,19,Dundalk,
223540,IE,7,Santry,
223541,IE,30,New Ross,
223542,IE,7,Tallaght,
223543,IE,10,Kylemore,
223544,IE,26,Golden,
223545,IE,12,Thornton,
223546,IE,7,Coolock,
223547,IE,4,Tower,
223548,IE,27,Ring,
223549,IE,12,Monasterevin,
223550,IE,10,Tuam,
223551,IE,4,Cobh,
223552,IE,3,Connolly,
223553,IE,13,Johnswell,
223554,IE,29,Castlepollard,
223555,IE,7,Dundrum,
223556,IE,22,Monaghan,
223557,IE,3,Ennis,
223558,IE,23,Tara,
223559,IE,1,Glynn,
223560,IE,7,Ringsend,
223561,IE,29,Mullingar,
223562,IE,26,Bansha,
223563,IE,11,Brandon,
223564,IE,10,An Spidéal,
223565,IE,3,Quinn,
223566,IE,30,Inish,
223567,IE,15,Mountrath,
223568,IE,15,Abbeyleix,
223569,IE,7,Blackrock,
223570,IE,24,America,
223571,IE,19,Port,
223572,IE,30,Enniscorthy,
223573,IE,6,Burton,
223574,IE,7,Cabra,
223575,IE,7,Sandyford,
223576,IE,6,Letterkenny,
223577,IE,12,Newbridge,
223578,IE,7,Saggart,
223579,IE,24,Pike,
223580,IE,25,Glen,
223581,IE,4,Bantry,
223582,IE,2,Virginia,
223583,IE,26,Cashel,
223584,IE,27,Dungarvan,
223585,IE,23,Birr,
223586,IE,7,Blanchardstown,
223587,IE,7,Belgard,
223588,IE,26,Clonmel,
223589,IE,19,Ardee,
223590,IE,25,Willsborough,
223591,IE,4,Bluebell,
223592,IE,21,Smithstown,
223593,IE,24,Moore,
223594,IE,12,Leixlip,
223595,IE,7,Dún Laoghaire,
223596,IE,11,Killarney,
223597,IE,7,Baldoyle,
223598,IE,31,Arklow,
223599,IE,20,River,
223600,IE,7,Ballymun,
223601,IE,6,Milford,
223602,IE,25,Claddagh,
223603,IE,21,Dunboyne,
223604,IE,3,Bunratty,
223605,IE,15,Ballydavis,
223606,IE,7,Merrion,
223607,IE,12,Maynooth,
223608,IE,20,Valley,
223609,IE,21,Ratoath,
223610,IE,7,Dalkey,
223611,IE,3,Doolin,
223612,IE,21,Summerhill,
223613,IE,24,Boyle,
223614,IE,24,Strokestown,
223615,IE,10,Woodpark,
223616,IE,18,Pallas,
223617,IE,22,Leitrim,
223618,IE,7,Howth,
223619,IE,11,Causeway,
223620,IE,20,Ballina,
223621,IE,3,Boston,
223622,IE,7,Malahide,
223623,IE,7,Donnybrook,
223624,IE,7,Walkinstown,
223625,IE,21,Trim,
223626,IE,24,Thomas Street,
223627,IE,13,Newmarket,
223628,IE,7,Templeogue,
223629,IE,2,Kingscourt,
223630,IE,26,Portland,
223631,IE,20,Palmerstown,
223632,IE,23,Clara,
223633,IE,30,Screen,
223634,IE,7,Glasnevin,
223635,IE,11,Raheen,
223636,IE,11,Kenmare,
223637,IE,7,Finglas,
223638,IE,7,Leopardstown,
223639,IE,21,Nobber,
223640,IE,27,Island,
223641,IE,7,Ranelagh,
223642,IE,23,Edenderry,
223643,IE,7,Crumlin,
223644,IE,6,Cranford,
223645,IE,10,Nutgrove,
223646,IE,21,Ashbourne,
223647,IE,21,Clonee,
223648,IE,7,Lucan,
223649,IE,4,Leap,
223650,IE,7,Cloghran,
223651,IE,10,Ballinasloe,
223652,IE,3,Kilrush,
223653,IE,7,Rathfarnham,
223654,IE,26,Roscrea,
223655,IE,12,Celbridge,
223656,IE,3,Newmarket On Fergus,
223657,IE,30,Ross,
223658,IE,7,Sallynoggin,
223659,IE,31,Killbride,
223660,IE,11,Mall,
223661,IE,7,Ballyfermot,
223662,IE,21,Athboy,
223663,IE,7,Rathcoole,
223664,IE,7,Ward,
223665,IE,27,Gates,
223666,IE,21,Dunshaughlin,
223667,IE,12,Allen,
223668,IE,26,Thurles,
223669,IE,7,Mountjoy,
223670,IE,7,Clontarf,
223671,IE,11,Churchtown,
223672,IE,7,Rush,
223673,IE,4,Kinsale,
223674,IE,11,Barrow,
223675,IE,30,Rochestown,
223676,IE,7,Sutton,
223677,IE,23,Killeigh,
223678,IE,7,Balbriggan,
223679,IE,4,Middleton,
223680,IE,21,Enfield,
223681,IE,6,Buncrana,
223682,IE,7,Stillorgan,
223683,IE,20,Claremorris,
223684,IE,7,Whitestown,
223685,IE,20,Westport,
223686,IE,15,Portarlington,
223687,IE,11,Dingle,
223688,IE,18,Moate,
223689,IE,25,Derry,
223690,IE,10,Ballybaan,
223691,IE,4,Bandon,
223692,IE,15,Mountmellick,
223693,IE,4,Manning,
223694,IE,7,Castleknock,
223695,IE,20,Swinford,
223696,IE,20,Glenamoy,
223697,IE,6,Derrybeg,
223698,IE,10,Loughrea,
223699,IE,30,Prospect,
223700,IE,26,Nenagh,
223701,IE,1,Clonmore,
223702,IE,10,Athenry,
223703,IE,21,Duleek,
223704,IE,21,Donacarney,
223705,IE,7,Ballinteer,
223706,IE,21,Ardagh,
223707,IE,11,Belmont,
223708,IE,11,Castleisland,
223709,IE,11,Waterville,
223710,IE,21,An Uaimh,
223711,IE,7,Sord,
223712,IE,4,Kilcorney,
223713,IE,20,Ballinrobe,
223714,IE,6,Coolmore,
223715,IE,10,Na Forbacha,
223716,IE,7,Beaumont,
223717,IE,3,Quin,
223718,IE,22,Rossmore,
223719,IE,26,Riverview,
223720,IE,19,Dunleer,
223721,IE,7,Kingswood,
223722,IE,2,Money,
223723,IE,21,Laytown,
223724,IE,11,Cahersiveen,
223725,IE,2,Shercock,
223726,IE,15,Port Laoise,
223727,IE,6,Lifford,
223728,IE,10,Oughterard,
223729,IE,10,Tynagh,
223730,IE,16,Bruree,
223731,IE,4,North Ring,
223732,IE,12,Timahoe,
223733,IE,27,Ardmore,
223734,IE,7,Clonsilla,
223735,IE,30,Harristown,
223736,IE,7,Killiney,
223737,IE,24,Castlereagh,
223738,IE,19,Kilsaran,
223739,IE,7,Gracedieu,
223740,IE,25,Riverstown,
223741,IE,21,Oldcastle,
223742,IE,7,Kiltiernan,
223743,IE,4,Douglas,
223744,IE,3,Aughinish,
223745,IE,10,Oranmore,
223746,IE,10,Claregalway,
223747,IE,29,Summerville,
223748,IE,16,Mungret,
223749,IE,27,Stradbally,
223750,IE,15,Gallows Hill,
223751,IE,3,Sixmilebridge,
223752,IE,27,Newtown,
223753,IE,7,Kilbarrack,
223754,IE,10,Ballybrit,
223755,IE,20,Killala,
223756,IE,3,Knock,
223757,IE,26,Newport,
223758,IE,20,Murrisk,
223759,IE,3,Ballyvaughan,
223760,IE,21,Slane,
223761,IE,16,Drumcolliher,
223762,IE,23,Stream,
223763,IE,13,Jamestown,
223764,IE,22,Clones,
223765,IE,11,Ballybane,
223766,IE,4,Clonakilty,
223767,IE,4,Skibbereen,
223768,IE,20,Bellanaboy Bridge,
223769,IE,6,Cross Roads,
223770,IE,30,Gorey,
223771,IE,7,Clonard,
223772,IE,3,Whitegate,
223773,IE,6,Bundoran,
223774,IE,26,Redwood,
223775,IE,29,Delvin,
223776,IE,7,Drumcondra,
223777,IE,4,Carrigaline,
223778,IE,19,Grangebellew,
223779,IE,19,Monasterboice,
223780,IE,7,Naul,
223781,IE,21,Bettystown,
223782,IE,21,Bellewstown,
223783,IE,22,Carrickmacross,
223784,IE,21,Donore,
223785,IE,27,Fennor,
223786,IE,24,Greagh,
223787,IE,22,Emyvale,
223788,IE,22,Carrickroe,
223789,IE,22,Golan,
223790,IE,22,Glaslough,
223791,IE,2,Swanlinbar,
223792,IE,21,Carlanstown,
223793,IE,2,Butlers Bridge,
223794,IE,2,Ballyhaise,
223795,IE,2,Kilnaleck,
223796,IE,2,Ballyjamesduff,
223797,IE,29,Clonmellon,
223798,IE,21,Yellow Furze,
223799,IE,21,Grangegeeth,
223800,IE,19,Clogherhead,
223801,IE,21,Mullagh,
223802,IE,21,Julianstown,
223803,IE,21,Mosney,
223804,IE,7,Woodlands,
223805,IE,4,Timoleague,
223806,IE,4,Butlerstown,
223807,IE,23,Barna,
223808,IE,22,Lurganboy,
223809,IE,7,Corballis,
223810,IE,4,Castletownshend,
223811,IE,13,Islands,
223812,IE,10,Gort,
223813,IE,10,Kinvara,
223814,IE,10,Headford,
223815,IE,12,Prosperous,
223816,IE,16,Kilmallock,
223817,IE,4,Mitchelstown,
223818,IE,4,Passage West,
223819,IE,4,Fermoy,
223820,IE,4,Mallow,
223821,IE,4,Broadale,
223822,IE,31,Blessington,
223823,IE,22,Castleblayney,
223824,IE,4,Midleton,
223825,IE,4,Glanmire,
223826,IE,13,Thomastown,
223827,IE,31,Kilcoole,
223828,IE,12,Rathangan,
223829,IE,16,Bruff,
223830,IE,18,Granard,
223831,IE,1,Tullow,
223832,IE,31,Enniskerry,
223833,IE,12,Kilcullen,
223834,IE,1,Bagenalstown,
223835,IE,24,Ballaghaderreen,
223836,IE,23,Kilcormac,
223837,IE,16,Abbeyfeale,
223838,IE,31,Rathdrum,
223839,IE,4,Charleville,
223840,IE,12,Sallins,
223841,IE,6,Ballybofey,
223842,IE,4,Kanturk,
223843,IE,3,Aglish,
223844,IE,12,Monasterevan,
223845,IE,26,Carrick-on-suir,
223846,IE,12,Kilcock,
223847,IE,2,Bailieborough,
223848,IE,12,Clane,
223849,IE,19,Castlebellingham,
223850,IE,19,Tullyallen,
223851,IE,13,Castlecomer,
223852,IE,7,Lusk,
223853,IE,2,Belturbet,
223854,IE,2,Cootehill,
223855,IE,26,Cahir,
223856,IE,3,Balleen Bridge,
223857,IE,7,Loughlinstown,
223858,IE,7,Skerries,
223859,IE,7,Donabate,
223860,IE,27,Kill,
223861,IE,14,Manorhamilton,
223862,IE,6,Drumnaha,
223863,IE,16,Rathkeale,
223864,IE,16,Newcastle,
223865,IE,20,Clogher,
223866,IE,26,Templemore,
223867,IE,3,Killaloe,
223868,IE,22,Aghabog,
223869,IE,4,Coachford,
223870,IE,3,Kilkee,
223871,IE,10,Lettermore,
223872,IE,20,Glencullin Lower,
223873,IE,27,Tramore,
223874,IE,4,Blarney,
223875,IE,3,Kilmaley,
223876,IE,24,Castlerea,
223877,IE,3,Glen Bridge,
223878,IE,12,Moone,
223879,IE,30,Crossabeg,
223880,IE,4,Youghal,
223881,IE,6,Ballyshannon,
223882,IE,3,Scott's Bridge,
223883,IE,3,Derrymore,
223884,IE,10,Doughiska,
223885,IE,4,Macroom,
223886,IE,20,Balla,
223887,IE,3,Cratloe,
223888,IE,3,Cora Chaitlín,
223889,IE,3,Kilkishen,
223890,IE,3,Cuinche,
223891,IE,3,Tulla,
223892,IE,3,Hell Bridge,
223893,IE,7,Booterstown,
223894,IE,3,Mary Fort,
223895,IE,3,Droichead Uí Bhriain,
223896,IE,23,Banagher,
223897,IE,15,Rathdowney,
223898,IE,3,Deerpark,
223899,IE,4,Innishannon,
223900,IE,10,Moycullen,
223901,IE,7,Raheny,
223902,IE,7,Shankill,
223903,IE,3,Mountshannon,
223904,IE,7,Ashtown,
223905,IE,7,Carrickmines,
223906,IE,19,Togher,
223907,IE,6,Dungloe,
223908,IE,4,Ardgroom,
223909,IE,21,Johnstown,
223910,IE,27,Tallow,
223911,IE,7,Firhouse,
223912,IE,19,Kerney Cross Roads,
223913,IE,6,Bunnamayne,
223914,IE,19,Carlingford,
223915,IE,2,Cornagee,
223916,IE,11,Kilfenora,
223917,IE,3,The Hand Cross Roads,
223918,IE,3,Beaghfa,
223919,IE,13,Coolcullen,
223920,IE,7,Ballybrack,
223921,IE,6,Killybegs,
223922,IE,11,An Snaidhm,
223923,IE,4,Dunmanway,
223924,IE,29,Cappanrush,
223925,IE,3,Caherconnell,
223926,IE,10,Carrowmore,
223927,IE,25,Zion Hill,
223928,IE,4,Kildorrery,
223929,IE,6,Cloon,
223930,IE,25,Milltown,
223931,IE,23,Charlestown,
223932,IE,16,Boher,
223933,IE,4,Ballincollig,
223934,IE,7,Terenure,
223935,IE,7,Fox And Geese,
223936,IE,19,Collon,
223937,IE,21,Kilbride,
223938,IE,10,Barroughter,
223939,IE,7,Foxrock,
223940,IE,11,Ballybrack,
223941,IE,3,Liscasey,
223942,IE,3,Knockarradaun East,
223943,IE,4,Glantane,
223944,IE,13,Knocknamuck,
223945,IE,10,Portumna,
223946,IE,3,Coolcoosaun,
223947,IE,13,Goresbridge,
223948,IE,11,Kilcummin Farmhill,
223949,IE,11,Aghacurreen,
223950,IE,7,Artane,
223951,IE,6,Dartan,
223952,IE,4,Beenalaght,
223953,IE,7,Stepaside,
223954,IE,7,Inchicore,
223955,IE,11,Lixnaw,
223956,IE,14,Fenagh,
223957,IE,6,Burtonport,
223958,IE,11,Farranfore,
223959,IE,12,Athgarvan,
223960,IE,12,Derrinturn,
223961,IE,15,Ballylynan,
223962,IE,6,Clonmany,
223963,IE,19,Edentober,
223964,IE,27,Dunmore East,
223965,IE,6,Moville,
223966,IE,1,Ballon,
223967,IE,21,Rathfeigh,
223968,IE,6,Gortlush,
223969,IE,27,Curragh,
223970,IE,15,Emo,
223971,IE,30,Dunganstown,
223972,IE,13,The Rower,
223973,IE,23,Togher,
223974,IE,27,Ballyduff,
223975,IE,11,Sneem,
223976,IE,29,Killucan,
223977,IE,7,Portmarnock,
223978,IE,16,Clarina,
223979,IE,10,Annaghdown,
223980,IE,14,Carrick On Shannon,
223981,IE,30,Bunclody,
223982,IE,20,Clonbur,
223983,IE,3,Miltown Malbay,
223984,IE,30,Newbawn,
223985,IE,14,Kinlough,
223986,IE,27,Lismore,
223987,IE,18,Edgeworthstown,
223988,IE,31,Delgany,
223989,IE,3,Cill Chisín,
223990,IE,3,Capparoe,
223991,IE,27,Durrow,
223992,IE,20,Bangor,
223993,IE,18,Drinagh,
223994,IE,4,Ballygarvan,
223995,IE,15,Borris In Ossory,
223996,IE,30,Fethard,
223997,IE,7,Palmerston,
223998,IE,11,Abbeydorney,
223999,IE,27,Whitechurch,
224000,IE,22,Inniskeen,
224001,IE,6,Meenmore,
224002,IE,21,Gormanstown,
224003,IE,3,Quilty,
224004,IE,11,Ardfert,
224005,IE,26,The Pike,
224006,IE,22,Ballybay,
224007,IE,4,Ballycotton,
224008,IE,16,Askeaton,
224009,IE,26,Donohill,
224010,IE,4,Doneraile,
224011,IE,13,Hugginstown,
224012,IE,20,Caherlistrane,
224013,IE,25,Collooney,
224014,IE,3,Lisdoonvarna,
224015,IE,27,Annestown,
224016,IE,29,Kilbeggan,
224017,IE,1,Borris,
224018,IE,4,Crosshaven,
224019,IE,11,Scarriff,
224020,IE,13,Callan,
224021,IE,4,Goleen,
224022,IE,25,Coolaney,
224023,IE,3,Broadford,
224024,IE,21,Longwood,
224025,IE,3,Áth Leathen,
224026,IE,10,Shannafreaghoge,
224027,IE,16,Knockaderry,
224028,IE,3,Fanore,
224029,IE,3,Strand,
224030,IE,10,Clarinbridge,
224031,IE,22,Diamond,
224032,IE,20,Foxford,
224033,IE,30,Courtown,
224034,IE,31,Kilpedder,
224035,IE,10,Ballinamore,
224036,IE,31,Ballycullen,
224037,IE,20,Belmullet,
224038,IE,10,Meelick,
224039,IE,10,Craughwell,
224040,IE,3,Corofin,
224041,IE,11,Castlegregory,
224042,IE,15,Clonaslee,
224043,IE,7,Feltrim,
224044,IE,25,Ballymote,
224045,IE,21,Ballivor,
224046,IE,24,Ballyfarnon,
224047,IE,12,Straffan,
224048,IE,6,Falcarragh,
224049,IE,13,Inistioge,
224050,IE,20,Kiltimagh,
224051,IE,16,Stonehall,
224052,IE,3,Scariff,
224053,IE,6,Termon,
224054,IE,3,Aughrim,
224055,IE,31,Dunlavin,
224056,IE,6,Convoy,
224057,IE,4,Baltimore,
224058,IE,3,New Quay,
224059,IE,20,Shrule,
224060,IE,31,Rathnew,
224061,IE,13,Clifden,
224062,IE,24,Kilnamanagh,
224063,IE,23,Rhode,
224064,IE,4,Leamlara,
224065,IE,4,Blackrock,
224066,IE,26,Birdhill,
224067,IE,27,Millstreet,
224068,IE,29,Rochfortbridge,
224069,IE,16,Adare,
224070,IE,3,Ogonnelloe,
224071,IE,26,Terryglass,
224072,IE,4,Belgooly,
224073,IE,10,Newtownlynch,
224074,IE,23,Kilcolgan,
224075,IE,14,Drumkeerin,
224076,IE,4,Ballyhooly,
224077,IE,14,Drumshanbo,
224078,IE,6,Greencastle,
224079,IE,30,Blackwater,
224080,IE,3,Kilmihil,
224081,IE,27,Adamstown,
224082,IE,13,Mooncoin,
224083,IE,26,Cullen,
224084,IE,11,Castlemaine,
224085,IE,22,Kilmore,
224086,IE,26,Cloughjordan,
224087,IE,4,Glandore,
224088,IE,16,Patrickswell,
224089,IE,11,Fenit,
224090,IE,24,Ballinlough,
224091,IE,20,Kilkelly,
224092,IE,31,Glenealy,
224093,IE,27,Carrickphilip,
224094,IE,12,Carbury,
224095,IE,29,Tyrrellspass,
224096,IE,10,Lackagh,
224097,IE,14,Dromad,
224098,IE,7,Balgriffin,
224099,IE,2,Ballinagh,
224100,IE,30,Knockmore,
224101,IE,18,Whitehall,
224102,IE,26,Horse And Jockey,
224103,IE,30,Castlebridge,
224104,IE,3,Scarriff,
224105,IE,29,Finea,
224106,IE,30,Kilmore Quay,
224107,IE,7,Marino,
224108,IE,10,Corrandulla,
224109,IE,16,Glin,
224110,IE,30,Ballycarney,
224111,IE,4,Ballinhassig,
224112,IE,18,Caltragh,
224113,IE,25,Tubbercurry,
224114,IE,27,Corbally,
224115,IE,12,Maganey,
224116,IE,26,Ballylooby,
224117,IE,25,Ballyconnell,
224118,IE,20,Belcarra,
224119,IE,27,Portlaw,
224120,IE,30,Ferns,
224121,IE,3,Ballagh,
224122,IE,2,Mount Nugent,
224123,IE,4,Glanworth,
224124,IE,11,Beaufort,
224125,IE,10,Spiddal,
224126,IE,31,Donard,
224127,IE,7,Garristown,
224128,IE,13,Crosspatrick,
224129,IE,7,Cabinteely,
224130,IE,16,Athea,
224131,IE,12,Porterstown,
224132,IE,3,Lahinch,
224133,IE,31,Roundwood,
224134,IE,23,Killure,
224135,IE,6,Culdaff,
224136,IE,6,Carndonagh,
224137,IE,6,Rathmullan,
224138,IE,6,Muff,
224139,IE,25,Grange,
224140,IE,11,Ardrahan,
224141,IE,4,Carrigtwohill,
224142,IE,29,Kinnegad,
224143,IE,4,Castlemartyr,
224144,IE,7,Phibsborough,
224145,IE,7,Ballyboughal,
224146,IE,18,Lanesborough,
224147,IE,15,Maryborough,
224148,IE,7,Chapelizod,
224149,IE,23,Ferbane,
224150,IE,4,Cloyne,
224151,IE,1,Ardattin,
224152,IE,19,Termonfeckin,
224153,IE,19,Corcreaghy,
224154,IE,6,Bruckless,
224155,IE,4,Watergrasshill,
224156,IE,4,Riverstick,
224157,IE,27,Kilmacthomas,
224158,IE,15,Durrow,
224159,IE,7,Mount Merrion,
224160,IE,10,Williamstown,
224161,IE,3,Doonbeg,
224162,IE,31,Stratford,
224163,IE,4,Grenagh,
224164,IE,4,Banteer,
224165,IE,3,Burren,
224166,IE,3,Caher,
224167,IE,13,Mullinavat,
224168,IE,14,Mohill,
224169,IE,2,An Blaic,
224170,IE,31,Avoca,
224171,IE,4,Castlelyons,
224172,IE,24,Frenchpark,
224173,IE,30,Wellingtonbridge,
224174,IE,21,Kilmessan,
224175,IE,4,Aherla,
224176,IE,4,Rochestown,
224177,IE,30,Tomhaggard,
224178,IE,6,Glenties,
224179,IE,4,Fergus,
224180,IE,21,Mornington,
224181,IE,4,Waterfall,
224182,IE,6,Lettermacaward,
224183,IE,23,Daingean,
224184,IE,3,Clarecastle,
224185,IE,11,Ballylongford,
224186,IE,30,Broadway,
224187,IE,20,Louisburgh,
224188,IE,20,Charlestown,
224189,IE,3,Feakle,
224190,IE,30,Rosslare,
224191,IE,12,Donadea,
224192,IE,15,Swan,
224193,IE,23,Ballycumber,
224194,IE,26,Borrisokane,
224195,IE,10,Inverin,
224196,IE,12,Castledermot,
224197,IE,16,Dún,
224198,IE,16,Croom,
224199,IE,19,Dromiskin,
224200,IE,16,Pallaskenry,
224201,IE,13,Urlingford,
224202,IE,23,Geashill,
224203,IE,19,Tallanstown,
224204,IE,14,Carrigallen,
224205,IE,13,Gowran,
224206,IE,13,Ballyhale,
224207,IE,4,Conna,
224208,IE,14,Tullaghan,
224209,IE,15,Ballyadams,
224210,IE,4,Ringaskiddy,
224211,IE,4,Courtmacsherry,
224212,IE,4,Ballineen,
224213,IE,16,Mountcollins,
224214,IE,31,Knockananna,
224215,IE,4,Minane Bridge,
224216,IE,4,Aghada,
224217,IE,4,Castletownroche,
224218,IE,16,Ashford,
224219,IE,7,Ballyboden,
224220,IE,29,Rathowen,
224221,IE,14,Drumkeeran,
224222,IE,26,Fethard,
224223,IE,21,Gormanston,
224224,IE,4,Shanagarry,
224225,IE,4,Kilworth,
224226,IE,4,Ballydehob,
224227,IE,12,Ballymore Eustace,
224228,IE,6,Kilcar,
224229,IE,10,Glenamaddy,
224230,IE,16,Castleconnell,
224231,IE,4,Myrtleville,
224232,IE,31,Ashford,
224233,IE,6,Ardara,
224234,IE,30,Ballaghkeen,
224235,IE,31,Hempstown,
224236,IE,7,Hartstown,
224237,IE,11,Scartaglen,
224238,IE,26,Portroe,
224239,IE,30,Duncormick,
224240,IE,4,Glounthaune,
224241,IE,11,Kilgarvan,
224242,IE,4,Buttevant,
224243,IE,3,Inis,
224244,IE,16,Kilcornan,
224245,IE,30,Carrick,
224246,IE,21,Kildalkey,
224247,IE,23,Cloghan,
224248,IE,20,Crossmolina,
224249,IE,21,Batterstown,
224250,IE,4,Garryvoe,
224251,IE,3,Cooraclare,
224252,IE,13,Piltown,
224253,IE,3,Glenmore,
224254,IE,30,Mayglass,
224255,IE,21,Rathmolyon,
224256,IE,2,Ballyconnell,
224257,IE,7,Riversdale,
224258,IE,23,Kildangan,
224259,IE,4,Ladysbridge,
224260,IE,2,Crosserlough,
224261,IE,27,Passage East,
224262,IE,10,Ballygar,
224263,IE,29,Collinstown,
224264,IE,15,Killenard,
224265,IE,11,Rathmore,
224266,IE,31,Kiltegan,
224267,IE,19,Greenore,
224268,IE,20,Achill,
224269,IE,3,Ennistymon,
224270,IE,10,Clifden,
224271,IE,2,Drung,
224272,IE,18,Moyne,
224273,IE,31,Carnew,
224274,IE,4,Ovens,
224275,IE,4,Dripsey,
224276,IE,14,Dromahair,
224277,IE,19,Annagassan,
224278,IE,26,Goatstown,
224279,IE,11,Ballyheigue,
224280,IE,26,Mullinahone,
224281,IE,16,Kilmeedy,
224282,IE,29,Raharney,
224283,IE,7,Brittas,
224284,IE,4,Rathcormac,
224285,IE,6,Raphoe,
224286,IE,6,Rathmullen,
224287,IE,30,Camolin,
224288,IE,6,Gortahork,
224289,IE,13,Jenkinstown,
224290,IE,31,Redcross,
224291,IE,18,Ballymahon,
224292,IE,3,Bodyke,
224293,IE,27,Robertstown,
224294,IE,14,Drumsna,
224295,IE,25,Kilglass,
224296,IE,10,Maigh Cuilinn,
224297,IE,31,Baltinglass,
224298,IE,25,Strandhill,
224299,IE,14,Gurteen,
224300,IE,19,Omeath,
224301,IE,4,Carrigtohill,
224302,IE,16,Bulgaden,
224303,IE,16,Foynes,
224304,IE,30,Courtown Harbour,
224305,IE,6,Dunkineely,
224306,IE,13,Skeaghvasteen,
224307,IE,4,Ballinure,
224308,IE,10,Ballymoe,
224309,IE,23,Lurgan,
224310,IE,10,Tubber,
224311,IE,11,Glenbeigh,
224312,IE,25,Rosses Point,
224313,IE,24,Fuerty,
224314,IE,7,Damastown,
224315,IE,27,Clashmore,
224316,IE,19,Cornamucklagh,
224317,IE,4,Inchigeelagh,
224318,IE,7,Oldtown,
224319,IE,27,Cappoquin,
224320,IE,26,Upperchurch,
224321,IE,6,Manorcunningham,
224322,IE,20,Ballindine,
224323,IE,7,Loughshinny,
224324,IE,2,Stradone,
224325,IE,14,Ballinamore,
224326,IE,13,Kilmaganny,
224327,IE,20,Ballycastle,
224328,IE,26,Ballina,
224329,IE,14,Leitrim,
224330,IE,2,Kilcogy,
224331,IE,3,Kilfenora,
224332,IE,30,Tagoat,
224333,IE,10,Parkmore,
224334,IE,4,Carrignavar,
224335,IE,14,Corrawallen,
224336,IE,14,Ballinaglera,
224337,IE,11,Lauragh,
224338,IE,11,Ventry,
224339,IE,25,Carrigans,
224340,IE,11,Farran,
224341,IE,19,Ravensdale,
224342,IE,3,Liscannor,
224343,IE,23,Shinrone,
224344,IE,15,Errill,
224345,IE,19,Blackrock,
224346,IE,4,Killumney,
224347,IE,10,Ballinamore Bridge,
224348,IE,13,Graiguenamanagh,
224349,IE,7,Islandbridge,
224350,IE,19,Drumgowna,
224351,IE,26,Ballyporeen,
224352,IE,10,Hollymount,
224353,IE,15,Ballickmoyler,
224354,IE,4,Donoughmore,
224355,IE,16,Ballylanders,
224356,IE,22,Newbliss,
224357,IE,25,Carney,
224358,IE,16,Kilteely,
224359,IE,22,Moy Bridge,
224360,IE,26,Dundrum,
224361,IE,4,Newcestown,
224362,IE,11,Tarbert,
224363,IE,12,Moyvalley,
224364,IE,13,Paulstown,
224365,IE,12,Kilteel,
224366,IE,15,Ballinakill,
224367,IE,3,Tuamgraney,
224368,IE,18,Keenagh,
224369,IE,18,Killashee,
224370,IE,18,Ardagh,
224371,IE,16,Oola,
224372,IE,13,Kilmanagh,
224373,IE,30,Killinick,
224374,IE,6,Doochary,
224375,IE,25,Ballintogher,
224376,IE,26,Moyne,
224377,IE,21,Drumconrath,
224378,IE,16,Pallasgreen,
224379,IE,31,Tinahely,
224380,IE,7,Seafield,
224381,IE,20,Newport,
224382,IE,24,Four Mile House,
224383,IE,12,Ballitore,
224384,IE,25,Aclare,
224385,IE,10,Bearna,
224386,IE,19,Knockbridge,
224387,IE,10,Carna,
224388,IE,26,Kilcommon,
224389,IE,3,Ardnacrusha,
224390,IE,4,Killeena,
224391,IE,24,Knockcroghery,
224392,IE,4,Kilbrittain,
224393,IE,10,Turloughmore,
224394,IE,10,Belleek,
224395,IE,10,Baile Na Habhann,
224396,IE,1,Nurney,
224397,IE,4,Grange,
224398,IE,25,Castletown,
224399,IE,15,Stradbally,
224400,IE,21,Curragha,
224401,IE,4,Sallybrook,
224402,IE,16,Kilfinane,
224403,IE,29,Moate,
224404,IE,16,Croagh,
224405,IE,30,Rathnure,
224406,IE,14,Dromod,
224407,IE,22,Annaghroe Bridge,
224408,IE,6,Creeslough,
224409,IE,2,Dowra,
224410,IE,4,Cluain,
224411,IE,6,Mountcharles,
224412,IE,26,Borrisoleigh,
224413,IE,29,Dysart,
224414,IE,18,Mostrim,
224415,IE,10,Indreabhán,
224416,IE,4,Ballyfeard,
224417,IE,4,Ballyvourney,
224418,IE,31,Aughrim,
224419,IE,24,Elphin,
224420,IE,27,Aglish,
224421,IE,12,Colbinstown,
224422,IE,18,Drumlish,
224423,IE,4,Araglin,
224424,IE,15,Ballybrophy,
224425,IE,10,Carraroe,
224426,IE,11,Cappamore,
224427,IE,16,Ballingary,
224428,IE,27,Ballymacarbry,
224429,IE,13,Knocktopher,
224430,IE,2,Killeshandra,
224431,IE,31,Shillelagh,
224432,IE,25,Cloonacool,
224433,IE,31,Ballymoyle,
224434,IE,21,Castlejordan,
224435,IE,30,Kilrane,
224436,IE,24,Athleague,
224437,IE,4,Millstreet,
224438,IE,12,Kill,
224439,IE,20,Knock,
224440,IE,4,Kealkill,
224441,IE,12,Calverstown,
224442,IE,12,Nurney,
224443,IE,12,Rathcoffey,
224444,IE,6,Stroove,
224445,IE,1,Rathvilly,
224446,IE,22,Derrygorry,
224447,IE,13,Ferrybank,
224448,IE,12,Springfield,
224449,IE,10,Ballintober,
224450,IE,6,Stranorlar,
224451,IE,7,Milltown,
224452,IE,13,Ballyragget,
224453,IE,4,Killeagh,
224454,IE,16,Raheenagh,
224455,IE,7,Sandymount,
224456,IE,4,Glengarriff,
224457,IE,24,Kiltoom,
224458,IE,15,Rosenallis,
224459,IE,26,Cloghjordan,
224460,IE,7,Kilmainham,
224461,IE,15,Killeshin,
224462,IE,10,Peterswell,
224463,IE,22,Culloville,
224464,IE,16,Caherconlish,
224465,IE,1,Hacketstown,
224466,IE,6,Malin,
224467,IE,7,Harold's Cross,
224468,IE,23,Philipstown,
224469,IE,21,Moynalty,
224470,IE,22,Clontibret,
224471,IE,21,Lobinstown,
224472,IE,2,Baileborough,
224473,IE,7,Rathgar,
224474,IE,6,Red Castle,
224475,IE,4,Knockraha,
224476,IE,4,Ballymakeera,
224477,IE,11,Doon,
224478,IE,26,Clon,
224479,IE,26,Ballingarry,
224480,IE,13,Castlewarren,
224481,IE,10,Cloonboo,
224482,IE,13,Fiddown,
224483,IE,20,Kilmaine,
224484,IE,20,Neale,
224485,IE,18,Newtown Forbes,
224486,IE,6,Ballintra,
224487,IE,24,Cloonfad,
224488,IE,16,Cappamore,
224489,IE,30,Glynn,
224490,IE,26,Ardfinnan,
224491,IE,4,Ballymacoda,
224492,IE,10,Kilcolgan,
224493,IE,11,Hollywood,
224494,IE,11,Caherdaniel,
224495,IE,7,Peamount,
224496,IE,13,Stonyford,
224497,IE,4,Bartlemy,
224498,IE,6,Saint Johnston,
224499,IE,7,Ballycorus,
224500,IE,2,Arva,
224501,IE,3,Kilnaboy,
224502,IE,10,Menlough,
224503,IE,12,Stacumny,
224504,IE,13,Bennettsbridge,
224505,IE,15,Ballybrittas,
224506,IE,26,Monard,
224507,IE,16,Kilfinnane,
224508,IE,4,Dungourney,
224509,IE,12,Newtown,
224510,IE,15,Ballyroan,
224511,IE,30,Hermitage,
224512,IE,12,Kildangan,
224513,IE,12,Crosskeys,
224514,IE,7,Irishtown,
224515,IE,11,Carrig,
224516,IE,1,Leighlinbridge,
224517,IE,2,Cornafean,
224518,IE,30,Foulkesmill,
224519,IE,27,Knockanore,
224520,IE,4,Drimoleague,
224521,IE,6,Kilmacrenan,
224522,IE,11,Ballyhahill,
224523,IE,7,Newcastle,
224524,IE,25,Ballygawley,
224525,IE,6,Gleneely,
224526,IE,12,Suncroft,
224527,IE,11,Kilflynn,
224528,IE,25,Dromard,
224529,IE,20,Liscarney,
224530,IE,23,Ballycommon,
224531,IE,4,Carrigadrohid,
224532,IE,30,Duncannon,
224533,IE,24,Knockvicar,
224534,IE,12,Allenwood,
224535,IE,12,Oakfield,
224536,IE,24,Roosky,
224537,IE,4,Greenville,
224538,IE,2,Redhills,
224539,IE,19,Kilcurry,
224540,IE,13,Ballyfoyle,
224541,IE,4,Ballydesmond,
224542,IE,20,Cong,
224543,IE,31,Ballynerrin,
224544,IE,12,Palatine,
224545,IE,4,Boherbue,
224546,IE,2,Bawnboy,
224547,IE,29,Moyvore,
224548,IE,10,Belclare,
224549,IE,6,Magh,
224550,IE,25,Moylough,
224551,IE,3,Lavally,
224552,IE,23,Moneygall,
224553,IE,16,Ballyneety,
224554,IE,4,Whitegate,
224555,IE,3,Kilshanny,
224556,IE,2,Arvagh,
224557,IE,19,Baltray,
224558,IE,13,Windgap,
224559,IE,27,Kilsheelan,
224560,IE,29,Rathwire,
224561,IE,6,Kincasslagh,
224562,IE,15,Wolfhill,
224563,IE,29,Multyfarnham,
224564,IE,11,Ballinskelligs,
224565,IE,10,Moylough,
224566,IE,6,Carrigart,
224567,IE,16,Knocklong,
224568,IE,6,Bunbeg,
224569,IE,12,Curragh Camp,
224570,IE,4,Blackpool,
224571,IE,31,Ballybrew,
224572,IE,23,Croghan,
224573,IE,19,Drumbilla,
224574,IE,12,Carton,
224575,IE,16,Shanagolden,
224576,IE,6,Barnesmore,
224577,IE,7,Esker,
224578,IE,7,Windy Arbour,
224579,IE,15,Attanagh,
224580,IE,11,Knockbrack,
224581,IE,6,Ramelton,
224582,IE,16,Ballyagran,
224583,IE,16,Athlacca,
224584,IE,6,Monasteraden,
224585,IE,11,Woodford,
224586,IE,4,Farran,
224587,IE,10,Bullaun,
224588,IE,1,Blacklion,
224589,IE,3,Crusheen,
224590,IE,6,Kerrykeel,
224591,IE,23,Crinkle,
224592,IE,10,Ballyconneely,
224593,IE,18,Abbeylara,
224594,IE,12,Kildoon,
224595,IE,23,Kinnitty,
224596,IE,23,Ballinagar,
224597,IE,30,Bridgetown,
224598,IE,10,Moyard,
224599,IE,1,Myshall,
224600,IE,7,Glencullen,
224601,IE,26,Clogheen,
224602,IE,21,Clonalvy,
224603,IE,22,Scotshouse,
224604,IE,11,Portmagee,
224605,IE,12,Narraghmore,
224606,IE,25,Lecarrow,
224607,IE,23,Coole,
224608,IE,2,Crossdoney,
224609,IE,27,Dunhill,
224610,IE,7,Balrothery,
224611,IE,24,Brideswell,
224612,IE,18,Ballinalee,
224613,IE,18,Carrickboy,
224614,IE,30,Rosbercon,
224615,IE,10,Letterfrack,
224616,IE,10,Roundstone,
224617,IE,24,Cootehall,
224618,IE,31,Newcastle,
224619,IE,27,Lemybrien,
224620,IE,12,Washington,
224621,IE,2,Clifferna,
224622,IE,19,Slieve,
224623,IE,30,Lough,
224624,IE,31,Valleymount,
224625,IE,6,Kilmacrennan,
224626,IE,12,Rosetown,
224627,IE,12,Timolin,
224628,IE,31,Newtown Mount Kennedy,
224629,IE,18,Ballinamuck,
224630,IE,26,Drangan,
224631,IE,6,Castlefinn,
224632,IE,25,Geevagh,
224633,IE,14,Keshcarrigan,
224634,IE,29,Ballynacargy,
224635,IE,3,Ballynacally,
224636,IE,10,Ballinderreen,
224637,IE,15,Huntington,
224638,IE,29,Ballynagore,
224639,IE,22,Tullyvin,
224640,IE,14,Kiltyclogher,
224641,IE,23,Ballyboy,
224642,IE,6,Inver,
224643,IE,16,Blackpool,
224644,IE,29,Tang,
224645,IE,20,Achill Sound,
224646,IE,24,Ballinameen,
224647,IE,21,Wilkinstown,
224648,IE,4,Aghabullogue,
224649,IE,10,Dunmore,
224650,IE,21,Donaghmore,
224651,IE,3,Kildysart,
224652,IE,13,Kilmacow,
224653,IE,25,Castlebaldwin,
224654,IE,21,Robinstown,
224655,IE,21,Walterstown,
224656,IE,3,Ruan,
224657,IE,30,Taghmon,
224658,IE,10,Cleggan,
224659,IE,25,Curry,
224660,IE,26,Templederry,
224661,IE,26,Grangemockler,
224662,IE,30,Davidstown,
224663,IE,14,Cloone,
224664,IE,6,Crolly,
224665,IE,14,Glenfarne,
224666,IE,4,Ballinacurra,
224667,IE,10,Ardrahan,
224668,IE,31,Scalp,
224669,IE,10,Killimor,
224670,IE,11,Knockroe,
224671,IE,6,Maghera,
224672,IE,12,Punchestown,
224673,IE,26,Killoscully,
224674,IE,22,Magheracloone,
224675,IE,26,Commons,
224676,IE,4,Ballinspittle,
224677,IE,23,Broughal,
224678,IE,18,Abbeyshrule,
224679,IE,18,Legan,
224680,IE,16,Fedamore,
224681,IE,13,Tullaroan,
224682,IE,10,Kiltulla,
224683,IE,15,Camross,
224684,IE,23,Erry,
224685,IE,26,Ballyneety,
224686,IE,30,Drinagh,
224687,IE,1,Clonegal,
224688,IE,15,Ballintubbert,
224689,IE,27,Killea,
224690,IE,26,Bawn,
224691,IE,21,Colp,
224692,IE,24,Tulsk,
224693,IE,29,Milltownpass,
224694,IE,20,Bohola,
224695,IE,2,Béal Átha Na Neach,
224696,IE,15,Coolrain,
224697,IE,26,Littleton,
224698,IE,12,Ardscull,
224699,IE,23,Shannonbridge,
224700,IE,29,Ballynacarrigy,
224701,IE,4,Rushbrooke,
224702,IE,4,Glenville,
224703,IE,12,Mylerstown,
224704,IE,23,Rath,
224705,IE,10,Gortmore,
224706,IE,31,Ballinagore,
224707,IE,25,Culleens,
224708,IE,23,Clonlyon,
224709,IE,6,Burnfoot,
224710,IE,4,Ballinascarthy,
224711,IE,3,Flagmount,
224712,IE,4,Enniskean,
224713,IE,16,Coonagh,
224714,IE,30,Coolroe,
224715,IE,29,Glasson,
224716,IE,15,Graigueavoice,
224717,IE,4,Lisgoold,
224718,IE,11,Glin,
224719,IE,31,Laragh,
224720,IE,30,Oilgate,
224721,IE,22,Scotstown,
224722,IE,12,Quinsborough,
224723,IE,6,Naran,
224724,IE,3,Knockalough,
224725,IE,23,Sharavogue,
224726,IE,23,Walshisland,
224727,IE,3,Turlough,
224728,IE,6,Killygordon,
224729,IE,20,Kilmovee,
224730,IE,7,Abbotstown,
224731,IE,2,Glangevlin,
224732,IE,12,Easton,
224733,IE,13,Carrigeen,
224734,IE,12,Gallows Glen,
224735,IE,10,Barna,
224736,IE,30,Ballycanew,
224737,IE,21,Rathcore,
224738,IE,26,Holycross,
224739,IE,21,Betaghstown,
224740,IE,7,Belcamp,
224741,IE,4,Berrings,
224742,IE,30,Riverchapel,
224743,IE,21,Rathtroane,
224744,IE,7,Kilmore,
224745,IE,24,Clooncan,
224746,IE,31,Grange Con,
224747,IE,31,Knockatemple,
224748,IE,12,Coolearagh,
224749,IE,31,Brockagh,
224750,IE,7,Baldwinstown,
224751,IE,4,Glennagoul,
224752,IE,21,Baile Shláine,
224753,IE,14,Ballynameeltoge,
224754,IE,31,Trooperstown,
224755,IE,12,Tipperkevin,
224756,IE,21,Drumcondra,
224757,IE,11,Tairbeart,
224758,IE,3,Skaghard,
224759,IE,27,Woodhouse Cross Roads,
224760,IE,18,Droim Lis,
224761,IE,10,Scregg East,
224762,IE,13,Lisdowney,
224763,IE,31,Aghavannagh,
224764,IE,31,Annacurragh,
224765,IE,20,Ballylassa,
224766,IE,10,Killoscobe,
224767,IE,24,Scramoge,
224768,IE,3,Cloghannmore,
224769,IE,11,Tarmon,
224770,IE,11,Kilteean,
224771,IE,12,Mucklon,
224772,IE,21,Bohermeen,
224773,IE,31,Garryknock,
224774,IE,3,Ardsollus,
224775,IE,12,Graney,
224776,IE,26,Almaseed Bridge,
224777,IE,13,Moglass,
224778,IE,13,Barrack Village,
224779,IE,15,Knocklead,
224780,IE,3,Ballinruan,
224781,IE,7,Cappoge,
224782,IE,12,Bunglass,
224783,IE,2,Ryefield,
224784,IE,7,Fort Bridge,
224785,IE,3,Carran,
224786,IE,10,Ballygarriff,
224787,IE,12,Boleybeg Cross Roads,
224788,IE,31,Sandy Ford,
224789,IE,16,Feadamair,
224790,IE,16,Monaster,
224791,IE,31,White Hall,
224792,IE,4,Bantigeen Cross Roads,
224793,IE,15,Clondarrig,
224794,IE,31,Woodfield,
224795,IE,18,Crossea,
224796,IE,31,Sraghmore,
224797,IE,4,Charless Bridge,
224798,IE,4,Ballindeenisk Cross Roads,
224799,IE,7,Ballyboghil,
224800,IE,10,Tullanwicky,
224801,IE,15,Ballinrally,
224802,IE,10,Crossconnell,
224803,IE,27,Garrycloyne,
224804,IE,3,Boherglass,
224805,IE,16,Spittle,
224806,IE,3,Annagore Bridge,
224807,IE,26,Rear Cross,
224808,IE,31,Drumgoff Bridge,
224809,IE,31,Moneymore,
224810,IE,11,Ballymore,
224811,IE,27,Hacketstown,
224812,IE,4,Ballingeary,
224813,IE,23,Ballyheashill,
224814,IE,6,Frosses,
224815,IE,29,Crookedwood,
224816,IE,6,Pettigo,
224817,IE,27,Curraheen,
224818,IE,25,Skreen,
224819,IE,3,Labasheeda,
224820,IE,4,Derrybrook,
224821,IE,26,Burncourt,
224822,IE,30,Bannow,
224823,IE,12,Eadestown,
224824,IE,21,Ross,
224825,IE,29,Craddanstown,
224826,IE,31,Carrigeershinnagh,
224827,IE,27,Glendine Bridge,
224828,IE,16,Béal An Átha,
224829,IE,2,Drumcrow South,
224830,IE,31,Ballytoole,
224831,IE,27,Castlerichard,
224832,IE,16,Blane Bridge,
224833,IE,24,Toberdan,
224834,IE,21,Baile Íomhair,
224835,IE,29,Lynnbury,
224836,IE,31,Coan,
224837,IE,3,Cahermacun,
224838,IE,1,Milltown,
224839,IE,26,Bennett's Bridge,
224840,IE,7,Drumleck,
224841,IE,29,Grange And Kiltober,
224842,IE,15,Aghaboe,
224843,IE,26,Saucestown Bridge,
224844,IE,26,Graystown,
224845,IE,2,Mullagh,
224846,IE,27,Ballinamult,
224847,IE,4,Killavullen,
224848,IE,14,Ballinagleragh,
224849,IE,7,Saint Margaret's,
224850,IE,30,Adamstown,
224851,IE,26,Lorrha,
224852,IE,16,Galbally,
224853,IE,16,Garryspillane,
224854,IE,31,Ballinaclash,
224855,IE,26,Emly,
224856,IE,10,Tully Cross,
224857,IE,15,Timahoe,
224858,IE,18,Moydow,
224859,IE,15,Ballymaddock,
224860,IE,12,Boakefield,
224861,IE,27,Coill Mhic Thomáisín,
224862,IE,2,Lisduff,
224863,IE,10,Curragh West,
224864,IE,31,Shankill,
224865,IE,27,Ballycurrane Cross Roads,
224866,IE,4,Kilcoran,
224867,IE,20,Terrybaun,
224868,IE,29,An Baile Mór,
224869,IE,24,Ballinafad,
224870,IE,24,Cloonown,
224871,IE,4,Moanflugh,
224872,IE,15,Ballinteskin,
224873,IE,7,Luttrell's Cross Roads,
224874,IE,21,Bective,
224875,IE,18,Caonach,
224876,IE,12,Arthurstown,
224877,IE,21,Ardcath,
224878,IE,12,Windmill Cross Roads,
224879,IE,31,Byrnes Cross Roads,
224880,IE,26,Renaghmore,
224881,IE,25,Knocknahur,
224882,IE,31,Kilbride,
224883,IE,27,Woodstown,
224884,IE,22,Latton,
224885,IE,4,Kiskeam,
224886,IE,14,Aghavas,
224887,IE,22,Rockcorry,
224888,IE,26,Bouladuff,
224889,IE,13,Freshford,
224890,IE,4,Burnfort,
224891,IE,4,Farnanes,
224892,IE,26,Ballinure,
224893,IE,30,Kilmore,
224894,IE,20,Partry,
224895,IE,26,Clonoulty,
224896,IE,4,Knockanare,
224897,IE,1,Kildavin,
224898,IE,29,Coralstown,
224899,IE,4,Newtownshandrum,
224900,IE,16,Nicker,
224901,IE,16,Brackbaun Bridge,
224902,IE,3,Fahee,
224903,IE,7,Golden Ball,
224904,IE,21,Ross Cross Roads,
224905,IE,2,Lavey,
224906,IE,19,Hackett's Cross,
224907,IE,3,Lismorahaun,
224908,IE,4,Garranelahan Cross Roads,
224909,IE,12,Obelisks,
224910,IE,12,Mylerstown Cross Roads,
224911,IE,3,An Tulach,
224912,IE,23,Killoneen,
224913,IE,23,Barnaboy,
224914,IE,7,Ballycorden,
224915,IE,21,Cross Guns,
224916,IE,18,Cornacullew,
224917,IE,10,Lisduff,
224918,IE,12,Splithill Cross Roads,
224919,IE,12,Maoin,
224920,IE,22,Tyholland,
224921,IE,1,Saint Mullins,
224922,IE,24,Rockhill,
224923,IE,16,Herbertstown,
224924,IE,10,Kinvarra,
224925,IE,10,An Cheathrú Rua,
224926,IE,29,Drumcree,
224927,IE,29,The Downs,
224928,IE,23,Kilcumber Bridge,
224929,IE,25,Carrowreagh,
224930,IE,4,Moneynacroha Cross Roads,
224931,IE,3,D'esterre's Bridge,
224932,IE,16,Creeves,
224933,IE,15,Glendineoregan,
224934,IE,31,Ballyhook,
224935,IE,12,Davidstown,
224936,IE,12,An Ráth Mhór,
224937,IE,27,Knockboy,
224938,IE,21,Dunderry,
224939,IE,21,Collegeland,
224940,IE,10,Cloonmoylan,
224941,IE,26,Glenbreedy,
224942,IE,12,Nicholastown,
224943,IE,12,Kilkea,
224944,IE,26,Killenaule,
224945,IE,30,Bree,
224946,IE,30,Fearna,
224947,IE,4,Rylane,
224948,IE,21,Carnaross,
224949,IE,31,Síol Éalaigh,
224950,IE,23,Stonehouse,
224951,IE,21,Drumone,
224952,IE,2,Lisgrea,
224953,IE,21,Clongall Bridge,
224954,IE,15,Ballyhunpahane,
224955,IE,31,Ballylow,
224956,IE,26,Modreeny,
224957,IE,4,Corran Cross Roads,
224958,IE,26,Ballyoughter Bridge,
224959,IE,15,Kilcruise,
224960,IE,26,Bushfield,
224961,IE,21,Greenanstown,
224962,IE,19,Rathescar Cross,
224963,IE,3,Cloonusker,
224964,IE,27,Monalour,
224965,IE,16,Ballinvreena,
224966,IE,3,Aughboy,
224967,IE,12,Ballynadrumny,
224968,IE,31,Ballinagee Bridge,
224969,IE,31,Granabeg,
224970,IE,1,Rathanna,
224971,IE,7,Cill Iníon Léinín,
224972,IE,21,Culmullin Cross Roads,
224973,IE,31,Lugnaskeagh,
224974,IE,4,Redforge Cross Roads,
224975,IE,1,Kildavan,
224976,IE,15,Garranmaconly,
224977,IE,15,Srahanboy,
224978,IE,30,Ballyroe,
224979,IE,4,Curraheen,
224980,IE,4,Togher,
224981,IE,29,Rathconrath,
224982,IE,4,Newmarket,
224983,IE,10,Monivea,
224984,IE,24,Creggs,
224985,IE,11,Lispole,
224986,IE,1,The Grove,
224987,IE,16,Elton,
224988,IE,10,Letter More,
224989,IE,20,Rosturk,
224990,IE,10,Kiltullagh,
224991,IE,13,Rathgarvan,
224992,IE,3,Inagh,
224993,IE,19,Collann,
224994,IE,31,Corragh,
224995,IE,19,Drumcar,
224996,IE,6,Drumadowan,
224997,IE,12,Hortland,
224998,IE,26,Flemingtown,
224999,IE,13,Haggard,
225000,IE,31,Baravore,
225001,IE,10,Stonetown,
225002,IE,16,Glenogra Bridge,
225003,IE,10,Owenbristy,
225004,IE,13,Dunn's Cross Roads,
225005,IE,21,Clonard,
225006,IE,29,Fore,
225007,IE,12,Broomfield Cross Roads,
225008,IE,15,Tankardstown Bridge,
225009,IE,2,Eighter,
225010,IE,31,Bridgeland,
225011,IE,15,Coorlaghan,
225012,IE,12,Ponsonby Bridge,
225013,IE,31,Lowtown,
225014,IE,13,Redbog,
225015,IE,2,Drumroe,
225016,IE,7,Drisnoge,
225017,IE,16,Carrigeen Cross Roads,
225018,IE,4,Garryduff,
225019,IE,27,Feagarrid,
225020,IE,13,Pottlerath,
225021,IE,29,Droichead Chaisleán Loiste,
225022,IE,12,Cappagh,
225023,IE,21,Bobsville,
225024,IE,23,Brooklawn,
225025,IE,15,Ballinfulla,
225026,IE,10,Cankilly,
225027,IE,30,Curraduff Cross Roads,
225028,IE,25,Dromore West,
225029,IE,20,Killasser,
225030,IE,6,An Clochán Liath,
225031,IE,23,Annamoe,
225032,IE,31,Newpark,
225033,IE,6,Fintown,
225034,IE,21,Rathdrinagh,
225035,IE,30,Newtown,
225036,IE,14,Drumshambo,
225037,IE,10,Newcastle,
225038,IE,1,Bilboa,
225039,IE,26,Lattin,
225040,IE,11,Gneeveguilla,
225041,IE,12,Larkfield,
225042,IE,30,Arthurstown,
225043,IE,22,Doohamlet,
225044,IE,15,Laught,
225045,IE,7,Redgap,
225046,IE,23,Rathcobican,
225047,IE,21,Ash Field,
225048,IE,27,An Baile Nua,
225049,IE,21,Kilmainham Wood,
225050,IE,12,Kilshanchoe,
225051,IE,4,Sheskinny Cross,
225052,IE,26,Ninemilehouse,
225053,IE,4,Glannagaul,
225054,IE,26,Ballygodboy,
225055,IE,10,Gortfadda,
225056,IE,10,Caltraghlea,
225057,IE,1,Burren Bridge,
225058,IE,29,Tullaghanmore,
225059,IE,15,Raheenanisky,
225060,IE,13,Dungarvan,
225061,IE,15,Darú,
225062,IE,24,Kinard,
225063,IE,4,Finnow Bridge,
225064,IE,4,Ballyleary,
225065,IE,30,Croghan,
225066,IE,4,Vicarstown,
225067,IE,15,Cullahill,
225068,IE,4,Dromina,
225069,IE,2,Killashandra,
225070,IE,26,Templetouhy,
225071,IE,26,Ballinderry,
225072,IE,16,Ardpatrick,
225073,IE,25,Streamstown,
225074,IE,31,Hollywood,
225075,IE,3,Mauricemills,
225076,IE,31,Lockstown Upper,
225077,IE,26,Anglesry Bridge,
225078,IE,3,Castletown,
225079,IE,13,Kane's Bridge,
225080,IE,16,Cloghansoun Bridge,
225081,IE,31,Kilbaylet,
225082,IE,30,New Bridge,
225083,IE,26,Curreeny,
225084,IE,10,Springvale,
225085,IE,21,Balrath,
225086,IE,21,Annesbrook,
225087,IE,23,Barrysbrook,
225088,IE,12,Carbury Sweep,
225089,IE,4,An Seanbhaile Mór,
225090,IE,31,Clogh,
225091,IE,15,The Togher,
225092,IE,12,Moatfield Cross Roads,
225093,IE,26,Inch,
225094,IE,10,Killeen,
225095,IE,15,Tigh Mochua,
225096,IE,3,Derrycon,
225097,IE,26,Sedboro,
225098,IE,4,Ballyvorisheen,
225099,IE,26,Loch Ceann,
225100,IE,1,Kilbride Cross Roads,
225101,IE,7,Blachardstown,
225102,IE,7,Woodtown,
225103,IE,16,Ardagh,
225104,IE,26,Hollyford,
225105,IE,12,Brannockstown,
225106,IE,4,Meelin,
225107,IE,6,Rossnowlagh,
225108,IE,19,Rampark,
225109,IE,4,Adrivale,
225110,IE,3,Nester's Bridge,
225111,IE,16,Tooreendonnell,
225112,IE,31,Ballintober,
225113,IE,3,Oughtmama,
225114,IE,16,Downey's Cross Roads,
225115,IE,21,Kiltale,
225116,IE,23,Leabeg,
225117,IE,15,The Great Heath Of Maryborough,
225118,IE,31,Keadeen,
225119,IE,26,Moanvaun,
225120,IE,4,Cill An Mhuilinn,
225121,IE,31,Stranahely,
225122,IE,14,Annaghmore,
225123,IE,16,Ahnagh Bridge,
225124,IE,27,Graigue,
225125,IE,21,Ballyearn,
225126,IE,31,Hartstown,
225127,IE,6,Loughros,
225128,IE,26,Dromineer,
225129,IE,13,Owning,
225130,IE,23,Cree,
225131,IE,19,Ceann Chlochair,
225132,IE,4,Barnaviddane,
225133,IE,1,Ballycrinnigan,
225134,IE,29,Dealbhna,
225135,IE,16,Old Kildimo,
225136,IE,26,Killenoher,
225137,IE,12,Ballindrum,
225138,IE,12,Kilmore,
225139,IE,21,Kilskeer,
225140,IE,26,High Street,
225141,IE,20,Ballintubber,
225142,IE,15,Drimmo,
225143,IE,7,Balrickard,
225144,IE,13,Clomantagh,
225145,IE,21,Cross Keys,
225146,IE,10,Lisheenavalla,
225147,IE,4,Kean Bridge,
225148,IE,12,Calfstown,
225149,IE,3,Drumandoora,
225150,IE,20,Bekan,
225151,IE,16,Doon,
225152,IE,26,Garrykennedy,
225153,IE,30,Kilmuckridge,
225154,IE,31,Waterloo Bridge,
225155,IE,13,Cross Of Beggar,
225156,IE,26,Boolakennedy,
225157,IE,26,Ballagh,
225158,IE,12,Inchaquire,
225159,IE,10,Carhoon,
225160,IE,10,Colmanstown,
225161,IE,23,Dunkerrin,
225162,IE,16,Caherlane,
225163,IE,4,Shanballymore,
225164,IE,14,Fivemilebourne,
225165,IE,25,Lislary,
225166,IE,21,Bush,
225167,IE,26,Cloonyross Cross Roads,
225168,IE,10,Aucloggeen,
225169,IE,29,An Chúil,
225170,IE,3,Aghaglinny North,
225171,IE,19,Ballymakenny,
225172,IE,2,Searcóg,
225173,IE,6,Altnapaste,
225174,IE,20,Ballycarra,
225175,IE,30,Knockstown,
225176,IE,15,Bunlacken,
225177,IE,21,Harlinstown,
225178,IE,1,Ballymartin,
225179,IE,26,Ara Bridge,
225180,IE,26,Ballyneil,
225181,IE,14,Rossinver,
225182,IE,30,Coolgreany,
225183,IE,12,Crookstown,
225184,IE,4,Rockchapel,
225185,IE,6,Kingarrow,
225186,IE,3,Leana,
225187,IE,13,Muileann An Bhata,
225188,IE,12,Graigue,
225189,IE,21,Roachtown,
225190,IE,29,Ballinalack,
225191,IE,4,Monkstown,
225192,IE,18,Mullanalaghta,
225193,IE,20,Ballyhean,
225194,IE,23,Screggan,
225195,IE,15,Clonduff,
225196,IE,26,Milestone,
225197,IE,26,Currabaha Cross,
225198,IE,10,Eyrecourt,
225199,IE,25,Rathlee,
225200,IE,31,Roddenagh,
225201,IE,12,Hamilton's Bridge,
225202,IE,3,Doorus,
225203,IE,21,Rathmolyan,
225204,IE,1,Ballynabranagh,
225205,IE,31,Aurora,
225206,IE,25,Beltra,
225207,IE,11,Kilcummin,
225208,IE,10,Caltra,
225209,IE,31,Aghow,
225210,IE,21,Dollys Grove,
225211,IE,12,Ticknevin Bridge,
225212,IE,10,Aughrim,
225213,IE,1,Bishopland Ballymore Road,
225214,IE,1,Friarstown Bridge,
225215,IE,10,Kilnalag,
225216,IE,31,Kilmore,
225217,IE,23,Creggan,
225218,IE,15,Srahbaun,
225219,IE,4,Templemartin,
225220,IE,23,Ballyhugh,
225221,IE,21,Castlecor,
225222,IE,13,Dunnamaggan,
225223,IE,26,Cill Náile,
225224,IE,23,Derryrobinson,
225225,IE,29,Castletown,
225226,IE,4,Ballard,
225227,IE,10,Eskerboy,
225228,IE,21,Tinkerslane,
225229,IE,15,Inchanisky,
225230,IE,11,Lisselton,
225231,IE,4,Nohoval,
225232,IE,31,Cloghoge,
225233,IE,24,Béal Na Mbuillí,
225234,IE,26,Coalbrook,
225235,IE,10,Ballyclery,
225236,IE,23,Lumcloon Bridge,
225237,IE,15,Donaghmore,
225238,IE,22,Tonagh,
225239,IE,1,Hooper's Cross Roads,
225240,IE,20,Stonepark,
225241,IE,14,Drumcong,
225242,IE,30,Ballygarrett,
225243,IE,6,Carn,
225244,IE,10,Castleblakeney,
225245,IE,4,Liscarroll,
225246,IE,25,Carrowmore,
225247,IE,12,Dunbyrne,
225248,IE,13,Cuffes Grange,
225249,IE,26,Ballylusky,
225250,IE,29,Muilte Farannáin,
225251,IE,27,Browns Cross Roads,
225252,IE,30,Doran's Cross Roads,
225253,IE,4,Mogeely,
225254,IE,30,Courthoyle,
225255,IE,15,Baile Uí Laigheanáin,
225256,IE,2,Sraloaghan,
225257,IE,26,Coolross,
225258,IE,15,Raheen,
225259,IE,6,Gweedore,
225260,IE,25,Ballymoneen,
225261,IE,10,Derrygoolin,
225262,IE,4,Ahaphuca Bridge,
225263,IE,24,Derrylahan,
225264,IE,26,Ballingarry Bridge,
225265,IE,26,Kilmastulla Bridge,
225266,IE,16,Duntryleague,
225267,IE,10,Roo,
225268,IE,13,Lukeswell,
225269,IE,10,Curragh,
225270,IE,25,Ballinafad,
225271,IE,16,Kilmurry,
225272,IE,16,Ballyorgan,
225273,IE,31,Rodena Bridge,
225274,IE,14,Kilnagross,
225275,IE,23,Mountbolus,
225276,IE,26,Lisheen Cross Roads,
225277,IE,23,Hawkswood,
225278,IE,26,Kilbreedy,
225279,IE,10,Port Omna,
225280,IE,15,Kilcolnanbane,
225281,IE,4,Castle Wrixon,
225282,IE,26,Luska,
225283,IE,15,Ballythomas,
225284,IE,27,Rathgormuck,
225285,IE,15,Redgate Cross Roads,
225286,IE,25,Tap,
225287,IE,7,Dunsink,
225288,IE,2,Scrabby,
225289,IE,3,Corrofin,
225290,IE,10,Prospect,
225291,IE,10,Ballyhall,
225292,IE,21,Copperalley,
225293,IE,14,Béal An Átha Móir,
225294,IE,25,Tobercurry,
225295,IE,10,Castlegar,
225296,IE,4,Ballyre,
225297,IE,23,Highstreet,
225298,IE,10,Looscaun,
225299,IE,23,Lemanaghan,
225300,IE,4,Power's Bridge,
225301,IE,13,Bishopshall,
225302,IE,25,Baile Idir Dhá Abhainn,
225303,IE,21,The Cross Guns,
225304,IE,26,Thomastown Castle,
225305,IE,30,Kiltealy,
225306,IE,4,Cross Barry,
225307,IE,22,Smithborough,
225308,IE,20,Cross,
225309,IE,4,Kilcully,
225310,IE,3,Willbrook,
225311,IE,27,Kilmeadan,
225312,IE,30,Killurin,
225313,IE,25,Branchfield,
225314,IE,10,Twomileditch,
225315,IE,7,Cunard,
225316,IE,12,Russellstown,
225317,IE,16,Doonane,
225318,IE,7,Annfield,
225319,IE,4,Sixmilewater,
225320,IE,10,Glinsk,
225321,IE,13,Barrabehy,
225322,IE,20,Hollymount,
225323,IE,23,Belmont,
225324,IE,13,Johnstown,
225325,IE,29,New Town,
225326,IE,3,Bunratty East,
225327,IE,20,Coolshinnagh,
225328,IE,13,Turkstown,
225329,IE,3,Cregg,
225330,IE,10,Killtullagh,
225331,IE,4,Kilcrea,
225332,IE,29,Clonyhague,
225333,IE,2,Poles,
225334,IE,23,Ballyfore,
225335,IE,13,Clonard,
225336,IE,20,Scardaun,
225337,IE,20,Ballygarriff,
225338,IE,7,Summerton,
225339,IE,13,Grange,
225340,IE,26,Manseltown,
225341,IE,2,Drumbar,
225342,IE,20,Treannagleragh,
225343,IE,13,Seven Houses Cross Roads,
225344,IE,16,Caisleáñ Ui Chonaill,
225345,IE,6,Graffy,
225346,IE,26,Quinlisk's Cross,
225347,IE,25,Templeboy,
225348,IE,4,Durrus,
225349,IE,11,Gabbett's Bridge,
225350,IE,21,Millbrook,
225351,IE,11,Brosna,
225352,IE,10,Woodford,
225353,IE,2,Milltown,
225354,IE,3,Lehinch,
225355,IE,27,Abbeyside,
225356,IE,3,Latoon Bridge,
225357,IE,6,Droim Fraoigh,
225358,IE,10,Kilcahill,
225359,IE,16,Cross Of The Tree,
225360,IE,24,Ballydangan,
225361,IE,30,Glasacken,
225362,IE,15,Kilcavan,
225363,IE,11,Glanballima,
225364,IE,19,Rossenmore,
225365,IE,25,Moneygold,
225366,IE,10,Claddaghduff,
225367,IE,30,Oulart,
225368,IE,19,Jenkinstown Cross,
225369,IE,6,Barnes Bridge,
225370,IE,4,Fivemilebridge,
225371,IE,4,Lombardstown,
225372,IE,18,Lisryan,
225373,IE,6,Portnoo,
225374,IE,4,Fort Cross Roads,
225375,IE,16,Gouldavoher,
225376,IE,3,O'callaghansmills,
225377,IE,30,Ballymurn,
225378,IE,11,Ballymacelligott,
225379,IE,31,Coolkenno,
225380,IE,25,Ballysadare,
225381,IE,10,Finisklin,
225382,IE,4,Ballintemple,
225383,IE,1,Tiknock,
225384,IE,30,Redgate,
225385,IE,29,Auburn,
225386,IE,3,Knocknamucky,
225387,IE,29,Drumcre,
225388,IE,31,Ballycoyle,
225389,IE,15,Maryboro',
225390,IE,26,Silvermines,
225391,IE,23,Syngefield,
225392,IE,20,Kilmeena,
225393,IE,14,Balinlig,
225394,IE,2,Cloverhill,
225395,IE,3,Baile Uí Bheoláin,
225396,IE,31,Balliahinch,
225397,IE,4,Curranvellikeen Cross Roads,
225398,IE,30,Clonroche,
225399,IE,7,Deans Grange,
225400,IE,24,Kilteevan Cross Roads,
225401,IE,4,An Scoil,
225402,IE,10,Montpelier,
225403,IE,4,Brooklodge,
225404,IE,7,Dollymount,
225405,IE,23,Limekiln,
225406,IE,20,Islandeady,
225407,IE,26,Ballydine,
225408,IE,4,Sligga Bridge,
225409,IE,29,Faughalstown,
225410,IE,4,Ray Bridge,
225411,IE,1,Muine Bheag,
225412,IE,16,Newcastle West,
225413,IE,6,Leitir Ceanainn,
225414,IE,4,An Sciobairin,
225415,IE,6,Legland,
225416,IE,4,Tigh Molaige,
225417,IE,3,Milltown Malbay,
225418,IE,4,Ballinadee,
225419,IE,7,Skephubble,
225420,IE,30,Piercetown,
225421,IE,13,Ballycallan,
225422,IE,30,Island Bridge,
225423,IE,1,Grangeford,
225424,IE,1,Orchard Bridge,
225425,IE,30,Chapel,
225426,IE,26,Kilsallagh,
225427,IE,4,Keel,
225428,IE,26,Templetuohy,
225429,IE,23,Nahana,
225430,IE,3,Rossanure,
225431,IE,10,Ballagh,
225432,IE,2,Derry,
225433,IE,19,Dunany,
225434,IE,19,Killincoole,
225435,IE,27,Dunmore,
225436,IE,10,Kylebrack,
225437,IE,10,Camus,
225438,IE,13,Cill Chainnigh,
225439,IE,7,Baile Átha Cliath,
225440,IE,11,Six Crosses,
225441,IE,15,Coornariska,
225442,IE,10,Tarrea,
225443,IE,3,Feenagh,
225444,IE,11,Scartaglin,
225445,IE,25,Drumfin,
225446,IE,12,Claonadh,
225447,IE,20,Drunganagh,
225448,IE,13,Freneystown,
225449,IE,23,Coolderry,
225450,IE,18,Cloontuskert,
225451,IE,1,Rathernan Bridge,
225452,IE,11,Kilgobnet,
225453,IE,23,Templepark,
225454,IE,16,Cloghane Bridge,
225455,IE,10,Tinny Park,
225456,IE,12,Knocknacree Cross Roads,
225457,IE,19,Dillonstown Cross,
225458,IE,15,Ballyfoyle,
225459,IE,26,Glenahilty,
225460,IE,26,Arragh More,
225461,IE,15,Ashfield,
225462,IE,1,Shangarry Cross Roads,
225463,IE,12,Ballyboggan Bridge,
225464,IE,4,Meen Bridge,
225465,IE,6,Cloghan,
225466,IE,4,Oysterhaven,
225467,IE,23,Ballincur,
225468,IE,10,Bookeen,
225469,IE,3,Kilconnell,
