locId,country,region,city,postcode
229907,IR,,,
229908,IR,30,Mashad,
229909,IR,26,Tehran,
229910,IR,28,Isfahan,
229911,IR,7,Shiraz,
229912,IR,26,Karaj,
229913,IR,16,Khorasan,
229914,IR,3,Iran,
229915,IR,1,Maragheh,
229916,IR,23,Sharif,
229917,IR,21,Azad,
229918,IR,11,Molla,
229919,IR,28,Esfahan,
229920,IR,7,Mehr,
229921,IR,30,Mashhad,
229922,IR,21,Shahrak,
229923,IR,33,Evin,
229924,IR,7,Shahid,
229925,IR,1,Tabriz,
229926,IR,27,Imam,
229927,IR,10,Ilam,
229928,IR,7,Kashan,
229929,IR,24,Arak,
229930,IR,15,Kordestan,
229931,IR,28,Kashanak,
229932,IR,8,Send,
229933,IR,24,Chamran,
229934,IR,29,Kerman,
229935,IR,11,Shahrood,
229936,IR,26,Pars,
229937,IR,25,Semnan,
229938,IR,9,Gostar,
229939,IR,4,Tamin,
229940,IR,17,Shahr,
229941,IR,27,Zanjan,
229942,IR,31,Mansoori,
229943,IR,11,Golestan,
229944,IR,30,Sabzevar,
229945,IR,24,Alborz,
229946,IR,31,Park,
229947,IR,5,Hejrat,
229948,IR,15,Pardis,
229949,IR,7,Jahrom,
229950,IR,25,Larestan,
229951,IR,4,Zahedan,
229952,IR,23,Borujerd,
229953,IR,4,Chabahar,
229954,IR,11,Bandar,
229955,IR,32,Ardabil,
229956,IR,8,Almas,
229957,IR,32,Ardebil,
229958,IR,27,Emam,
229959,IR,15,Shahid Chamran,
229960,IR,22,Bank,
229961,IR,27,Qazvin,
229962,IR,30,Jahan,
229963,IR,22,Bushehr,
229964,IR,2,Sabz,
229965,IR,17,Sari,
229966,IR,13,Kermanshah,
229967,IR,7,Fassa,
229968,IR,30,Rasan,
229969,IR,30,Ferdowsi,
229970,IR,17,Tonekabon,
229971,IR,7,Shohada,
229972,IR,4,Dadeh,
229973,IR,17,Behshahr,
229974,IR,22,Barid,
229975,IR,8,Rasht,
229976,IR,29,Afzar,
229977,IR,7,Shahed,
229978,IR,30,Fars,
229979,IR,26,Lavasan,
229980,IR,15,Dezful,
229981,IR,7,Yasooj,
229982,IR,7,Yasuj,
229983,IR,7,Fasa,
229984,IR,29,Rafsanjan,
229985,IR,1,Payam,
229986,IR,7,Bayan,
229987,IR,30,Golshahr,
229988,IR,17,Babol,
229989,IR,9,Hamadan,
229990,IR,28,Najafabad,
229991,IR,11,Bozorg,
229992,IR,30,Birjand,
229993,IR,30,Quchan,
229994,IR,15,Ahwaz,
229995,IR,5,Andisheh,
229996,IR,30,Khashmar,
229997,IR,34,Peyvand,
229998,IR,24,Saveh,
229999,IR,28,Sanabad,
230000,IR,15,Mahshahr,
230001,IR,1,Babak,
230002,IR,37,Gorgan,
230003,IR,32,Baran,
230004,IR,28,Faran,
230005,IR,3,Arman,
230006,IR,9,Malayer,
230007,IR,15,Shahab,
230008,IR,15,Pirooz,
230009,IR,30,Gonabad,
230010,IR,17,Rafi,
230011,IR,26,Sepahan,
230012,IR,31,Yazd,
230013,IR,2,Urmia,
230014,IR,9,Bahar,
230015,IR,29,Vali,
230016,IR,23,Najafi,
230017,IR,26,Damavand,
230018,IR,25,Gilan,
230019,IR,26,Karadj,
230020,IR,7,Sharqi,
230021,IR,24,Ghom,
230022,IR,31,Hamedan,
230023,IR,28,Khorasgan,
230024,IR,11,Qeshm,
230025,IR,15,Farrokh,
230026,IR,3,Saman,
230027,IR,13,Shahre,
230028,IR,35,Gilas,
230029,IR,13,Mehregan,
230030,IR,27,Chapar,
230031,IR,26,Eslamshahr,
230032,IR,15,Ahvaz,
230033,IR,30,Nimruz,
230034,IR,33,Kavir,
230035,IR,26,Towchal,
230036,IR,28,Shahreza,
230037,IR,4,Zabol,
230038,IR,28,Chahar Bagh,
230039,IR,1,Post,
230040,IR,29,Hoor,
230041,IR,2,Mianeh,
230042,IR,26,Garmsar,
230043,IR,1,Malekan,
230044,IR,1,Bonab,
230045,IR,10,Shahid Madani,
230046,IR,32,Shahrivar,
230047,IR,30,Silk,
230048,IR,24,Adineh,
230049,IR,1,Marand,
230050,IR,1,Mahabad,
230051,IR,1,Maku,
230052,IR,29,Jiroft,
230053,IR,16,Novin,
230054,IR,29,Sirjan,
230055,IR,30,Melli,
230056,IR,11,Amir,
230057,IR,11,Dargaz,
230058,IR,30,Bala,
230059,IR,1,Shahsavar,
230060,IR,29,Mahan,
230061,IR,32,Pishgaman,
230062,IR,25,Baghestan,
230063,IR,7,Arsenjan,
230064,IR,29,Kowsar,
230065,IR,22,Sina,
230066,IR,29,Ghasr,
230067,IR,31,Meybod,
230068,IR,19,Kashani,
230069,IR,27,Parsian,
230070,IR,11,Kish,
230071,IR,24,Ashtian,
230072,IR,28,Zarrin Shahr,
230073,IR,24,Mahallat,
230074,IR,30,Naser,
230075,IR,5,Chavil,
230076,IR,2,Farhangian,
230077,IR,8,Lahijan,
230078,IR,28,Jolfa,
230079,IR,33,Malek,
230080,IR,16,Shahin,
230081,IR,28,Azar,
230082,IR,7,Neyriz,
230083,IR,4,Takhti,
230084,IR,15,Alavi,
230085,IR,23,Azna,
230086,IR,30,Aryan,
230087,IR,30,Hazrati,
230088,IR,30,Tabas,
230089,IR,30,Resalat,
230090,IR,30,Shand,
230091,IR,17,Amol,
230092,IR,24,Azadshahr,
230093,IR,30,Asad Abad,
230094,IR,10,Zaman,
230095,IR,29,Zarand,
230096,IR,29,Baft,
230097,IR,11,Lengeh,
230098,IR,11,Minab,
230099,IR,1,Shabestar,
230100,IR,30,Taybad,
230101,IR,7,Khayyam,
230102,IR,30,Safa,
230103,IR,24,Delijan,
230104,IR,28,Golpayegan,
230105,IR,28,Natanz,
230106,IR,7,Mobarakeh,
230107,IR,28,Daran,
230108,IR,12,Kermani,
230109,IR,24,Tafresh,
230110,IR,2,Miandoab,
230111,IR,15,Deylam,
230112,IR,24,Salafchegan,
230113,IR,4,Khash,
230114,IR,30,Kabir,
230115,IR,22,Borazjan,
230116,IR,7,Sistan,
230117,IR,22,Saravan,
230118,IR,22,Khark,
230119,IR,7,Pasargad,
230120,IR,16,Saghez,
230121,IR,16,Marivan,
230122,IR,31,Mehdi,
230123,IR,23,Delfan,
230124,IR,13,Khoram,
230125,IR,35,Bastak,
230126,IR,27,Ferdows,
230127,IR,27,Sakhteman,
230128,IR,13,Hedayat,
230129,IR,9,Nahavand,
230130,IR,10,Mehran,
230131,IR,7,Aliabad,
230132,IR,30,Shafa,
230133,IR,15,Vahid,
230134,IR,7,Baharestan,
230135,IR,30,Sarakhs,
230136,IR,30,Razavi,
230137,IR,7,Estahban,
230138,IR,17,Khorshid,
230139,IR,22,Kangan,
230140,IR,7,Azadegan,
230141,IR,10,Firozabad,
230142,IR,3,Farrokhshahr,
230143,IR,9,Zarreh,
230144,IR,30,Bardeskan,
230145,IR,30,Esfarayen,
230146,IR,7,Negarestan,
230147,IR,15,Behbahan,
230148,IR,15,Behbehan,
230149,IR,15,Shooshtar,
230150,IR,28,Eziran,
230151,IR,4,Iranshahr,
230152,IR,27,Mihan,
230153,IR,1,Bazargan,
230154,IR,7,Sardasht,
230155,IR,2,Takab,
230156,IR,18,Zarin,
230157,IR,27,Abhar,
230158,IR,27,Zangan,
230159,IR,15,Hemayat,
230160,IR,30,Simorgh,
230161,IR,13,Aftab,
230162,IR,15,Gohar,
230163,IR,2,Orumiyeh,
230164,IR,11,Astan,
230165,IR,7,Zargan,
230166,IR,17,Kian,
230167,IR,30,Khaf,
230168,IR,30,Shirvan,
230169,IR,2,Khoy,
230170,IR,25,Shahmirzad,
230171,IR,25,Damghan,
230172,IR,27,Meydan,
230173,IR,16,Sanandaj,
230174,IR,2,Sarab,
230175,IR,33,Ahar,
230176,IR,23,Azadi,
230177,IR,26,Salar,
230178,IR,24,Khomein,
230179,IR,27,Gonbad,
230180,IR,17,Majid,
230181,IR,17,Eram,
230182,IR,15,Dezfool,
230183,IR,15,Shoosh,
230184,IR,15,Mohsen,
230185,IR,7,Reza,
230186,IR,30,Yadegar,
230187,IR,4,Sadi,
230188,IR,16,Majin,
230189,IR,37,Ghaznavi,
230190,IR,30,Mahdavi,
230191,IR,28,Razan,
230192,IR,25,Moghan,
230193,IR,22,Abad,
230194,IR,5,Mohammad,
230195,IR,13,Mostafa,
230196,IR,29,Ramezani,
230197,IR,13,Shakib,
230198,IR,16,Shahini,
230199,IR,32,Razi,
230200,IR,9,Lalejin,
230201,IR,2,Nowshahr,
230202,IR,4,Afshan,
230203,IR,7,Jadid,
230204,IR,1,Sahlan,
230205,IR,7,Dehkadeh,
230206,IR,28,Hakim,
230207,IR,7,Khalil,
230208,IR,7,Torkan,
230209,IR,2,Salmas,
230210,IR,17,Shasta,
230211,IR,3,Lordegan,
230212,IR,10,Dehloran,
230213,IR,7,Javanan,
230214,IR,30,Faruj,
230215,IR,22,Ganaveh,
230216,IR,29,Avaran,
230217,IR,30,Nehbandan,
230218,IR,10,Abdanan,
230219,IR,30,Samangan,
230220,IR,30,Torshiz,
230221,IR,11,Negar,
230222,IR,27,Sazan,
230223,IR,30,Taraz,
230224,IR,11,Talar,
230225,IR,7,Afra,
230226,IR,2,Miyandoab,
230227,IR,4,Sardaran,
230228,IR,30,Barg,
230229,IR,8,Keyhan,
230230,IR,1,Hamid,
230231,IR,17,Parsa,
230232,IR,30,Shayegan,
230233,IR,29,Khabar,
230234,IR,24,Mahestan,
230235,IR,9,Hezareh,
230236,IR,1,Vakil,
230237,IR,30,Mortezá,
230238,IR,4,Barekat,
230239,IR,26,Shahriyar,
230240,IR,18,Zarrin,
230241,IR,11,Rahbaran,
230242,IR,3,Shahriar,
230243,IR,27,Aras,
230244,IR,8,Fasham,
230245,IR,32,Parsabad,
230246,IR,27,Afarin,
230247,IR,2,Sabalan,
230248,IR,22,Genaveh,
230249,IR,15,Keshvar,
230250,IR,3,Shahryar,
230251,IR,7,Arad,
230252,IR,8,Shekari,
230253,IR,24,Vahed,
230254,IR,23,Aleshtar,
230255,IR,22,Bonyad,
230256,IR,7,Bakhtiari,
230257,IR,5,Mahtab,
230258,IR,9,Mohajeran,
230259,IR,24,Nimvar,
230260,IR,24,Shazand,
230261,IR,8,Gasht,
230262,IR,30,Yadak,
230263,IR,27,Takestan,
230264,IR,30,Shamekh,
230265,IR,27,Abyek,
230266,IR,37,Rizi,
230267,IR,13,Kangavar,
230268,IR,27,Alvand,
230269,IR,7,Rasa,
230270,IR,30,Maskan,
230271,IR,2,Naghadeh,
230272,IR,8,Side,
230273,IR,8,Zarrineh,
230274,IR,29,Bardsir,
230275,IR,7,Zirab,
230276,IR,17,Tamishan,
230277,IR,17,Neka,
230278,IR,30,Abbasabad,
230279,IR,30,Bahreh,
230280,IR,27,Ramin,
230281,IR,17,Ramsar,
230282,IR,23,Abbas Abad,
230283,IR,17,Kalaleh,
230284,IR,17,Chashm,
230285,IR,28,Bahabad,
230286,IR,13,Puyan,
230287,IR,31,Bafq,
230288,IR,31,Mehriz,
230289,IR,31,Ardakan,
230290,IR,31,Taft,
230291,IR,7,Sepidar,
230292,IR,11,Karbala,
230293,IR,15,Taha,
230294,IR,28,Dizicheh,
230295,IR,28,Ardestan,
230296,IR,28,Kelishad,
230297,IR,28,Falavarjan,
230298,IR,28,Khansar,
230299,IR,28,Dorcheh,
230300,IR,7,Jamshid,
230301,IR,30,Neyshabur,
230302,IR,15,Kurdistan,
230303,IR,33,Kavan,
230304,IR,15,Abadan,
230305,IR,10,Farid,
230306,IR,1,Soofian,
230307,IR,32,Khalkhal,
230308,IR,26,Rakhsh,
230309,IR,15,Andimeshk,
230310,IR,35,Vana,
230311,IR,30,Jomhuri,
230312,IR,28,Javadi,
230313,IR,7,Hadi,
230314,IR,30,Kashmar,
230315,IR,4,Asrar,
230316,IR,27,Kalat,
230317,IR,16,Bijar,
230318,IR,26,Varamin,
230319,IR,24,Nazar,
230320,IR,16,Ghazvin,
230321,IR,28,Mohammadiyeh,
230322,IR,8,Talesh,
230323,IR,30,Roshtkhar,
230324,IR,7,Bakhtiyari,
230325,IR,23,Aligoodarz,
230326,IR,7,Garmeh,
230327,IR,5,Vahdat,
230328,IR,7,Kavar,
230329,IR,7,Hormoz,
230330,IR,7,Eshkanan,
230331,IR,29,Jannat,
230332,IR,22,Sarvestan,
230333,IR,17,Daliran,
230334,IR,7,Lamerd,
230335,IR,15,Ashkanan,
230336,IR,15,Kazemi,
230337,IR,31,Hormozan,
230338,IR,30,Ahmadiyeh,
230339,IR,17,Kalleh Bast,
230340,IR,30,Mortazavi,
230341,IR,26,Hashtgerd,
230342,IR,23,Rashidi,
230343,IR,30,Baghdad,
230344,IR,1,Asan,
230345,IR,30,Shams,
230346,IR,28,Tangestan,
230347,IR,25,Astaneh,
230348,IR,8,Astara,
230349,IR,1,Sara,
230350,IR,24,Langrood,
230351,IR,30,Karimkhan,
230352,IR,15,Babel,
230353,IR,23,Rashid,
230354,IR,35,Nahar,
230355,IR,11,Daru,
230356,IR,3,Shimbar,
230357,IR,29,Sheikh,
230358,IR,28,Homa,
230359,IR,13,Yaran,
230360,IR,29,Parand,
230361,IR,30,Najaf,
230362,IR,30,Zharf,
230363,IR,30,Ansar,
230364,IR,17,Gonar,
230365,IR,1,Parnak,
230366,IR,23,Shisheh,
230367,IR,28,Ravand,
230368,IR,15,Tina,
230369,IR,10,Sepah,
230370,IR,23,Kamalvand,
230371,IR,23,Khorramabad,
230372,IR,30,Avar,
230373,IR,27,Baba,
230374,IR,5,Ghazanfari,
230375,IR,17,Didgah,
230376,IR,10,Hamgam,
230377,IR,7,Salari,
230378,IR,27,Ashena,
230379,IR,30,Ostad,
230380,IR,30,Ideh,
230381,IR,24,Qom,
230382,IR,9,Cheshmeh Pahn-e Nanaj,
230383,IR,13,Hash,
230384,IR,7,Khesht,
230385,IR,28,Khomeynishahr,
230386,IR,29,Charook,
230387,IR,26,Chizar,
230388,IR,28,Niasar,
230389,IR,30,Ahang,
230390,IR,16,Kamyaran,
230391,IR,16,Baneh,
230392,IR,8,Chaboksar,
230393,IR,7,Bavanat,
230394,IR,22,Sedeh,
230395,IR,22,Velayat,
230396,IR,27,Ghorveh,
230397,IR,11,Abadani,
230398,IR,9,Famenin,
230399,IR,9,Samen,
230400,IR,25,Mojen,
230401,IR,29,Lenjan,
230402,IR,27,Ziarat,
230403,IR,28,Kurd,
230404,IR,28,Tehran,
230405,IR,30,Mashad,
230406,IR,7,Shiraz,
230407,IR,26,Karaj,
230408,IR,16,Khorasan,
230409,IR,3,Iran,
230410,IR,33,Maragheh,
230411,IR,30,Mashhad,
230412,IR,15,Sharif,
230413,IR,26,Darband,
230414,IR,1,Azad,
230415,IR,7,Sadra,
230416,IR,10,Mehr,
230417,IR,1,Shahrak,
230418,IR,26,Evin,
230419,IR,33,Tabriz,
230420,IR,10,Ilam,
230421,IR,7,Kashan,
230422,IR,15,Kordestan,
230423,IR,15,Jahad,
230424,IR,26,Darabad,
230425,IR,34,Chamran,
230426,IR,26,Pars,
230427,IR,35,Shahr,
230428,IR,36,Zanjan,
230429,IR,4,Mansoori,
230430,IR,26,Golestan,
230431,IR,39,Alborz,
230432,IR,4,Park,
230433,IR,16,Hejrat,
230434,IR,15,Pardis,
230435,IR,7,Zahedan,
230436,IR,4,Chabahar,
230437,IR,26,Bandar,
230438,IR,32,Ardabil,
230439,IR,33,Almas,
230440,IR,32,Ardebil,
230441,IR,15,Emam,
230442,IR,23,Shahid Chamran,
230443,IR,22,Bank,
230444,IR,26,Qazvin,
230445,IR,26,Andisheh,
230446,IR,22,Bushehr,
230447,IR,26,Shahriar,
230448,IR,33,Sabz,
230449,IR,35,Sari,
230450,IR,15,Khorramshahr,
230451,IR,7,Fasa,
230452,IR,32,Baran,
230453,IR,23,Shohada,
230454,IR,35,Behshahr,
230455,IR,22,Barid,
230456,IR,33,Lavasan,
230457,IR,15,Dezful,
230458,IR,33,Payam,
230459,IR,33,Golshahr,
230460,IR,35,Babol,
230461,IR,28,Najafabad,
230462,IR,11,Bozorg,
230463,IR,15,Ahwaz,
230464,IR,24,Saveh,
230465,IR,15,Mahshahr,
230466,IR,32,Babak,
230467,IR,1,Urmia,
230468,IR,7,Mobarakeh,
230469,IR,13,Gilan,
230470,IR,26,Karadj,
230471,IR,39,Ghom,
230472,IR,11,Qeshm,
230473,IR,34,Saman,
230474,IR,13,Mehregan,
230475,IR,1,Chapar,
230476,IR,26,Eslamshahr,
230477,IR,15,Ahvaz,
230478,IR,33,Kavir,
230479,IR,26,Towchal,
230480,IR,28,Shahreza,
230481,IR,4,Zabol,
230482,IR,7,Mahdieh,
230483,IR,33,Mianeh,
230484,IR,33,Malekan,
230485,IR,33,Bonab,
230486,IR,33,Ilkhchi,
230487,IR,32,Shahrivar,
230488,IR,33,Marand,
230489,IR,1,Mahabad,
230490,IR,1,Maku,
230491,IR,16,Novin,
230492,IR,33,Amir,
230493,IR,33,Shahsavar,
230494,IR,1,Naghadeh,
230495,IR,26,Baghestan,
230496,IR,15,Kowsar,
230497,IR,27,Kashani,
230498,IR,11,Parsian,
230499,IR,28,Zarrin Shahr,
230500,IR,33,Farhangian,
230501,IR,33,Jolfa,
230502,IR,35,Amol,
230503,IR,35,Ahang,
230504,IR,22,Abad,
230505,IR,10,Zaman,
230506,IR,11,Minab,
230507,IR,33,Shabestar,
230508,IR,32,Namin,
230509,IR,13,Khayyam,
230510,IR,13,Bidgol,
230511,IR,33,Daran,
230512,IR,1,Miandoab,
230513,IR,15,Deylam,
230514,IR,22,Borazjan,
230515,IR,22,Saravan,
230516,IR,11,Azadegan,
230517,IR,15,Mehdi,
230518,IR,26,Almehdi,
230519,IR,13,Hedayat,
230520,IR,10,Mehran,
230521,IR,3,Azadi,
230522,IR,7,Aliabad,
230523,IR,5,Gachsaran,
230524,IR,15,Vahid,
230525,IR,35,Khorshid,
230526,IR,22,Kangan,
230527,IR,33,Ahar,
230528,IR,29,Zarreh,
230529,IR,10,Shahid Madani,
230530,IR,7,Negarestan,
230531,IR,15,Behbahan,
230532,IR,15,Behbehan,
230533,IR,15,Shooshtar,
230534,IR,1,Bazargan,
230535,IR,16,Sardasht,
230536,IR,1,Takab,
230537,IR,1,Zangan,
230538,IR,15,Hemayat,
230539,IR,15,Izeh,
230540,IR,15,Dezfool,
230541,IR,7,Zargan,
230542,IR,35,Kian,
230543,IR,1,Khoy,
230544,IR,1,Meydan,
230545,IR,16,Sanandaj,
230546,IR,33,Sarab,
230547,IR,12,Salar,
230548,IR,23,Abuzar,
230549,IR,33,Gonbad,
230550,IR,15,Majid,
230551,IR,15,Mohsen,
230552,IR,26,Velenjak,
230553,IR,15,Reza,
230554,IR,26,Mozaffar,
230555,IR,33,Vali,
230556,IR,4,Yadegar,
230557,IR,16,Majin,
230558,IR,35,Razan,
230559,IR,30,Moghan,
230560,IR,5,Mohammad,
230561,IR,22,Arash,
230562,IR,16,Shahini,
230563,IR,32,Razi,
230564,IR,33,Nowshahr,
230565,IR,7,Jadid,
230566,IR,33,Sahlan,
230567,IR,15,Dehkadeh,
230568,IR,4,Sakhteman,
230569,IR,1,Salmas,
230570,IR,10,Dehloran,
230571,IR,5,Ganaveh,
230572,IR,10,Abdanan,
230573,IR,13,Samangan,
230574,IR,15,Qods,
230575,IR,33,Talar,
230576,IR,35,Afra,
230577,IR,1,Poldasht,
230578,IR,1,Miyandoab,
230579,IR,15,Hamid,
230580,IR,35,Parsa,
230581,IR,13,Shayegan,
230582,IR,15,Morteza,
230583,IR,22,Barekat,
230584,IR,26,Bonyad,
230585,IR,26,Shahriyar,
230586,IR,33,Zarrin,
230587,IR,36,Aras,
230588,IR,26,Fasham,
230589,IR,32,Parsabad,
230590,IR,33,Sabalan,
230591,IR,22,Genaveh,
230592,IR,26,Shahryar,
230593,IR,26,Arad,
230594,IR,38,Takestan,
230595,IR,13,Baharan,
230596,IR,13,Kangavar,
230597,IR,1,Piranshahr,
230598,IR,10,Zarrineh,
230599,IR,32,Anar,
230600,IR,35,Neka,
230601,IR,26,Abbasabad,
230602,IR,26,Ramin,
230603,IR,15,Bostan,
230604,IR,35,Chashm,
230605,IR,16,Sepidar,
230606,IR,36,Karbala,
230607,IR,7,Hezar,
230608,IR,26,Kaman,
230609,IR,16,Nowin,
230610,IR,1,Khaneh,
230611,IR,28,Dorcheh,
230612,IR,15,Kurdistan,
230613,IR,32,Kavan,
230614,IR,15,Abadan,
230615,IR,26,Chahar Bagh,
230616,IR,33,Hadishahr,
230617,IR,7,Jannat,
230618,IR,11,Kalat,
230619,IR,16,Bane,
230620,IR,16,Kamyaran,
230621,IR,16,Bijar,
230622,IR,16,Dehgolan,
230623,IR,16,Marivan,
230624,IR,16,Baneh,
230625,IR,15,Nazar,
230626,IR,16,Ghazvin,
230627,IR,28,Mohammadiyeh,
230628,IR,26,Ferdows,
230629,IR,10,Garmeh,
230630,IR,7,Mohr,
230631,IR,7,Kavar,
230632,IR,1,Sadr,
230633,IR,33,Peyk,
230634,IR,7,Darab,
230635,IR,1,Sheykh,
230636,IR,17,Azad Shahr,
230637,IR,15,Daliran,
230638,IR,3,Mamasani,
230639,IR,15,Kazemi,
230640,IR,33,Malek,
230641,IR,15,Ahmadiyeh,
230642,IR,22,Bast,
230643,IR,26,Hashtgerd,
230644,IR,13,Rashidi,
230645,IR,33,Asan,
230646,IR,16,Sara,
230647,IR,32,Zand,
230648,IR,33,Nahar,
230649,IR,33,Khajeh,
230650,IR,23,Kaveh,
230651,IR,33,Najaf,
230652,IR,9,Ansar,
230653,IR,11,Gonar,
230654,IR,13,Jalal,
230655,IR,1,Ravand,
230656,IR,35,Eram,
230657,IR,10,Sepah,
230658,IR,5,Baba,
230659,IR,10,Hasan,
230660,IR,7,Abadeh,
230661,IR,22,Sedeh,
230662,IR,42,Hesar,
230663,IR,11,Ziarat,
230664,IR,33,Mamagan,
230665,IR,15,Gotvand,
230666,IR,34,Peik,
230667,IR,26,Avan,
230668,IR,28,Chadegan,
230669,IR,35,Tiran,
230670,IR,3,Farsan,
230671,IR,26,Eyvanaki,
230672,IR,7,Arsanjan,
230673,IR,7,Sepidan,
230674,IR,36,Salman,
230675,IR,39,Safashahr,
230676,IR,15,Masiri,
230677,IR,26,Fisherabad,
230678,IR,26,Teheran,
230679,IR,1,Orumiyeh,
230680,IR,2,Miandoab,
230681,IR,26,Tehran,
230682,IR,39,Qom,
230683,IR,1,Tabriz,
230684,IR,36,Gonbad,
230685,IR,30,Khodabandeh,
230686,IR,13,Sahneh,
230687,IR,16,Aryan,
230688,IR,24,Komijan,
230689,IR,28,Semirom,
230690,IR,28,Varzaneh,
230691,IR,5,Andisheh,
230692,IR,32,Meshgin Shahr,
230693,IR,13,Badr,
230694,IR,15,Hamidiyeh,
230695,IR,26,Afshar,
230696,IR,1,Khan,
230697,IR,35,Taneh,
230698,IR,7,Shahid Bahonar,
230699,IR,33,Iman,
230700,IR,15,Bahmanshir,
230701,IR,29,Kahnooj,
230702,IR,1,Dorud,
230703,IR,7,Chasht,
230704,IR,15,Shadegan,
230705,IR,15,Ramhormoz,
230706,IR,27,Varagh,
230707,IR,3,Hafshejan,
230708,IR,3,Jooneghan,
230709,IR,29,Azali,
230710,IR,15,Omidiyeh,
230711,IR,8,Ardejan,
230712,IR,33,Miyaneh,
230713,IR,13,Akram,
230714,IR,16,Saleh,
230715,IR,11,Farsi,
230716,IR,26,Tarasht,
230717,IR,11,Eslamabad,
230718,IR,4,Sadegh,
230719,IR,13,Ravansar,
230720,IR,22,Delvar,
230721,IR,32,Soola,
230722,IR,32,Germi,
230723,IR,32,Meshkin Shahr,
230724,IR,28,Human,
230725,IR,36,Bahman,
230726,IR,28,Nargan,
230727,IR,1,Shot,
230728,IR,30,Helal,
230729,IR,11,Khamir,
230730,IR,28,Hajiabad,
230731,IR,26,Parsiyan,
230732,IR,10,Fatemiyeh,
230733,IR,11,Jask,
230734,IR,30,Masina,
230735,IR,22,Khorshidi,
230736,IR,30,Arvand,
230737,IR,33,Saran,
230738,IR,28,Barati,
230739,IR,16,Kariz,
230740,IR,26,Fardis,
230741,IR,28,Shahin Shahr,
230742,IR,16,Saqqez,
230743,IR,16,Sarvabad,
230744,IR,29,Mashiz,
230745,IR,29,Afraz,
230746,IR,22,Khezri,
230747,IR,30,Darmian,
230748,IR,7,Gerash,
230749,IR,13,Negareh,
230750,IR,35,Borujen,
230751,IR,25,Sobhan,
230752,IR,36,Boluk,
230753,IR,9,Sheverin,
230754,IR,26,Sangan,
230755,IR,32,Zahra,
230756,IR,1,Naqadeh,
230757,IR,7,Vanda,
230758,IR,13,Bayer,
230759,IR,19,Behdasht,
230760,IR,36,Mehrabad,
230761,IR,8,Bazar,
230762,IR,22,Ziyarat,
230763,IR,27,Zamin,
230764,IR,33,Kaleh,
230765,IR,35,Kala,
230766,IR,4,Mashin,
230767,IR,11,Vanak,
230768,IR,7,Keshavarzi,
230769,IR,33,Hafez,
230770,IR,13,Siman,
230771,IR,13,Agah,
230772,IR,28,Rezvanshahr,
230773,IR,27,Khomam,
230774,IR,33,Salamat,
230775,IR,26,Kordabad,
230776,IR,15,Sard,
230777,IR,35,Beshel,
230778,IR,17,Kelarabad,
230779,IR,7,Masjed,
230780,IR,35,Ilika,
230781,IR,7,Ahel,
230782,IR,35,Shir,
230783,IR,22,Parvaz,
230784,IR,8,Manjil,
230785,IR,8,Masal,
230786,IR,35,Vala,
230787,IR,3,Shalamzar,
230788,IR,7,Gharbi,
230789,IR,11,Gazi,
230790,IR,7,Zangiabad,
230791,IR,31,Sayeh,
230792,IR,1,Sarv,
230793,IR,26,Narmak,
230794,IR,30,Falak,
230795,IR,1,Bagh,
230796,IR,11,Ghadir,
230797,IR,22,Chahar Mahal,
230798,IR,35,Tamishan,
230799,IR,16,Naderi,
230800,IR,26,Karadje,
230801,IR,26,Janbazan,
230802,IR,30,Hasanak,
230803,IR,7,Evaz,
230804,IR,3,Boldaji,
230805,IR,15,Imam Khomeyni,
230806,IR,11,Soro,
230807,IR,15,Qasem,
230808,IR,26,Kamal,
230809,IR,33,Piyam,
230810,IR,29,Rabor,
230811,IR,3,Irancheh,
230812,IR,32,Astana,
230813,IR,26,Shahran,
230814,IR,1,Bastam,
230815,IR,5,Sisakht,
230816,IR,30,Jajarm,
230817,IR,19,Dehghan,
230818,IR,17,Ramian,
230819,IR,32,Tappeh,
230820,IR,16,Shrifabad,
230821,IR,8,Lashtenesha,
230822,IR,35,Chamestan,
230823,IR,32,Abazar,
230824,IR,29,Karag,
230825,IR,11,Ebrahimi,
230826,IR,25,Shahrud,
230827,IR,9,Chali,
230828,IR,15,Emam Reza,
230829,IR,17,Chalus,
230830,IR,33,Azar Shahr,
230831,IR,15,Rahimi,
230832,IR,24,Farmahin,
230833,IR,31,Marvast,
230834,IR,33,Mehraban,
230835,IR,22,Shaft,
230836,IR,30,Deyhuk,
230837,IR,30,Rask,
230838,IR,22,Ahram,
230839,IR,28,Varna,
230840,IR,32,Rostamabad,
230841,IR,23,Chaghabal,
230842,IR,23,Anbar,
230843,IR,22,Jazireh,
230844,IR,26,Robat Karim,
230845,IR,11,Nafti,
230846,IR,36,Sharak,
230847,IR,28,Sepideh,
230848,IR,19,Didar,
230849,IR,34,Soheyl,
230850,IR,9,Kaboodrahang,
230851,IR,2,Karan,
230852,IR,5,Basht,
230853,IR,4,Jama,
230854,IR,15,Ahangari,
230855,IR,30,Mavad,
230856,IR,15,Jaber,
230857,IR,16,Sepehran,
230858,IR,7,Nimeh,
230859,IR,22,Sana,
230860,IR,36,Saha,
230861,IR,11,Divan,
230862,IR,7,Badani,
230863,IR,35,Parvar,
230864,IR,34,Parandak,
230865,IR,1,Kayer,
230866,IR,1,Tavan,
230867,IR,8,Keshavar,
230868,IR,26,Golestanak,
230869,IR,35,Koln,
230870,IR,29,Anbarabad,
230871,IR,9,Asadabad,
230872,IR,26,Aran,
230873,IR,33,Daragh,
230874,IR,8,Kiashahr,
230875,IR,8,Langarud,
230876,IR,29,Miduk,
230877,IR,15,Paytakht,
230878,IR,16,Nasl,
230879,IR,13,Malekshahi,
230880,IR,16,Best,
230881,IR,11,Beyt,
230882,IR,22,Dayyer,
230883,IR,26,Sarasiab,
230884,IR,29,Rayen,
230885,IR,29,Rang,
230886,IR,33,Amirabad,
230887,IR,35,Rostamkola,
230888,IR,15,Hendijan,
230889,IR,26,Mahdasht,
230890,IR,26,Malard,
230891,IR,28,Dark,
230892,IR,26,Eshtehard,
230893,IR,35,Zaghmarz,
230894,IR,15,Nasir,
230895,IR,30,Sorkh,
230896,IR,29,Doran,
230897,IR,27,Barin,
230898,IR,9,Sharq,
230899,IR,1,Ali Abad,
230900,IR,10,Amlak,
230901,IR,10,Salehabad,
230902,IR,28,Harand,
230903,IR,30,Sulaimani,
230904,IR,35,Babul,
230905,IR,30,Madeh,
230906,IR,27,Abi,
230907,IR,33,Heris,
230908,IR,11,Lavan,
230909,IR,13,Zard,
230910,IR,15,Madan,
230911,IR,33,Azaran,
230912,IR,30,Khak,
230913,IR,8,Golpar,
230914,IR,29,Goldan,
230915,IR,16,Morvarid,
230916,IR,15,Shushtar,
230917,IR,7,Kazeroun,
230918,IR,13,Lavasani,
230919,IR,26,Darrous,
230920,IR,16,Qurveh,
230921,IR,30,Golian,
230922,IR,35,Shahidabad,
230923,IR,13,Karkhaneh,
230924,IR,21,Sayan,
230925,IR,32,Tazeh,
230926,IR,7,Seyyed,
230927,IR,13,Paveh,
230928,IR,15,Kavian,
230929,IR,26,Khorram Dasht,
230930,IR,8,Tonkabon,
230931,IR,1,Ghoshchi,
230932,IR,16,Serishabad,
230933,IR,29,Ravar,
230934,IR,22,Emam Hasan,
230935,IR,9,Alsard,
230936,IR,33,Savalan,
230937,IR,3,Falat,
230938,IR,17,Nili,
230939,IR,13,Chehr,
230940,IR,35,Baladeh,
230941,IR,33,Nam Avaran,
230942,IR,11,Nikan,
230943,IR,11,Herang,
230944,IR,7,Ashena,
230945,IR,22,Abol,
230946,IR,8,Siahkal,
230947,IR,15,Nasiri,
230948,IR,7,Jahan Nama,
230949,IR,15,Kiyan,
230950,IR,1,Hampa,
230951,IR,15,Ramshir,
230952,IR,35,Pasand,
230953,IR,28,Dowlatabad,
230954,IR,33,Khameneh,
230955,IR,30,Alam,
230956,IR,33,Sungun,
230957,IR,33,Benis,
230958,IR,11,Tahran,
230959,IR,26,Tehran Sar,
230960,IR,35,Babol Sar,
230961,IR,16,Kar,
230962,IR,1,Ali,
230963,IR,28,Fulad Shahr,
230964,IR,11,Abu Musa,
230965,IR,33,Tebriz,
230966,IR,10,Sofreh,
230967,IR,11,Safid,
230968,IR,1,Band,
230969,IR,19,Thardan,
230970,IR,16,Tabriz Khatun,
230971,IR,33,Tebaqli,
230972,IR,1,Bukan,
230973,IR,8,Ahak Kalan,
230974,IR,1,Bi Bakran,
230975,IR,26,Tehran Now,
230976,IR,8,Mazandaran Mahalleh,
230977,IR,28,Farrokhi,
230978,IR,22,Dayer,
230979,IR,26,Tehran Dasht,
230980,IR,16,Qorveh,
230981,IR,35,Alasht,
230982,IR,16,Takhteh,
230983,IR,17,Abrang,
230984,IR,33,Sangin,
230985,IR,37,Gonbad-e Qabus,
230986,IR,37,Kord,
230987,IR,33,Masan,
230988,IR,33,Shir Amin,
230989,IR,24,Khomeyn,
230990,IR,33,Cheran,
230991,IR,11,Teben,
230992,IR,7,Sha Taslim,
230993,IR,30,Seah Kal,
230994,IR,1,Balestan,
230995,IR,8,Tashtmastan,
230996,IR,17,Chalak Roor,
230997,IR,17,Bedraq-e Pa'in,
230998,IR,35,Juybar,
230999,IR,26,Ziba Dasht-e Bala,
231000,IR,33,Ghezel Dizaj,
231001,IR,24,Shahresduneh,
231002,IR,30,Haft,
231003,IR,7,Rigan,
231004,IR,33,Meyaneh,
231005,IR,37,Vatan,
231006,IR,15,Shush,
231007,IR,24,Latadar,
231008,IR,8,Kajjeh,
231009,IR,24,Majwar,
231010,IR,23,Amar,
231011,IR,30,Fulad,
231012,IR,22,Khormuj,
231013,IR,26,Tehran Pars,
231014,IR,26,Shian,
231015,IR,22,Charak,
231016,IR,39,Rastak,
231017,IR,30,Sadid,
231018,IR,32,Farab,
231019,IR,33,Hava,
231020,IR,33,Malekzadeh,
231021,IR,33,Torkaman,
231022,IR,17,Minudasht,
231023,IR,5,Do Gonbadan,
231024,IR,22,Choghadak,
231025,IR,30,Taji,
231026,IR,29,Shahri,
231027,IR,8,Damash,
231028,IR,30,Bojnurd,
231029,IR,1,Molla Haji,
231030,IR,35,Laleh Koti,
231031,IR,11,Sirik,
231032,IR,29,Baravat,
231033,IR,22,Fariab,
231034,IR,8,Lisar,
231035,IR,28,Kalleh,
231036,IR,11,Senderk,
231037,IR,26,Rashteh,
231038,IR,1,Bokan,
231039,IR,37,Araz Gol,
231040,IR,1,Gonbad-e Molla `isa,
231041,IR,15,Khowr-e Duraq,
231042,IR,30,Kang,
231043,IR,33,Aval,
231044,IR,30,Ahmad,
231045,IR,32,Mali,
231046,IR,30,Payeh,
231047,IR,30,Sarayan,
231048,IR,28,Ardistan,
231049,IR,28,Mash,
231050,IR,1,Tabriz Jani,
231051,IR,39,Langerud,
231052,IR,26,Tajrish,
231053,IR,23,Borugerd,
231054,IR,28,Vanjir,
231055,IR,29,Tolombeh Khaneh-ye Mozaffarabad,
231056,IR,13,Tazehabad-e Badr Gerd,
231057,IR,15,Khazriyeh,
231058,IR,1,Uzgun,
231059,IR,15,Andika,
231060,IR,26,Rey Zamin,
231061,IR,26,Mehr Shahr,
231062,IR,8,Bandar-e Anzali,
231063,IR,15,Khod,
231064,IR,15,Kordestan Sofla,
231065,IR,1,Badam,
231066,IR,7,Bid Zard-e Bala,
231067,IR,13,Harsin,
231068,IR,22,Siraf,
231069,IR,3,Farsa,
231070,IR,16,Yaminan,
231071,IR,16,Armardeh,
231072,IR,16,Saheb,
231073,IR,16,Dezaj,
231074,IR,15,Taban,
231075,IR,10,Fath,
231076,IR,26,Jamaran,
231077,IR,13,Khorram Abad,
231078,IR,30,Rasak,
231079,IR,8,Rudsar,
231080,IR,23,Aligudarz,
231081,IR,39,Hoseynabad-e Zand,
231082,IR,17,Litvan,
231083,IR,15,Lekavigeh-e Seh,
231084,IR,33,Khosraq,
231085,IR,30,Hesam,
231086,IR,30,Fadak,
231087,IR,29,Zadeh,
231088,IR,33,Shanjan,
231089,IR,10,Nasr,
231090,IR,1,Sulduz,
231091,IR,33,Noor Abad,
231092,IR,15,Bandar-e Mahshahr,
231093,IR,37,Gomishan,
231094,IR,7,Eqlid,
231095,IR,11,Sooza,
231096,IR,33,Alvan,
231097,IR,26,Shahrak-e Havaniruz,
231098,IR,28,Lohrasabiyeh,
231099,IR,33,Gonbarf,
231100,IR,26,Arababad,
231101,IR,23,Ganjineh,
231102,IR,28,Yazdabad,
231103,IR,42,Shandiz,
231104,IR,23,Kuhdasht,
231105,IR,5,Lendeh,
231106,IR,36,Makin,
231107,IR,17,Farang,
231108,IR,28,Kaj,
231109,IR,7,Kazerun,
231110,IR,33,Ashaqi Chelleh Khaneh,
231111,IR,11,Sadar,
231112,IR,30,Golnam,
231113,IR,15,Susangerd,
231114,IR,33,Koli,
231115,IR,28,Largan,
231116,IR,17,Daland,
231117,IR,35,Baki,
231118,IR,24,Nakhjirevan,
231119,IR,28,Hemmatabad,
231120,IR,35,Rostam Kala,
231121,IR,13,Sonqor,
231122,IR,35,Amir Kala,
231123,IR,10,Serkan,
231124,IR,34,Ashianeh,
231125,IR,17,Delgosha,
231126,IR,28,Safadasht,
231127,IR,28,Marbin,
231128,IR,33,Khalaj,
231129,IR,8,Sarem,
231130,IR,35,Polur,
231131,IR,15,Mohandes,
231132,IR,30,Manesh,
231133,IR,33,Ahmadi,
231134,IR,16,Zarvan,
231135,IR,5,Marin,
231136,IR,32,Baris,
231137,IR,4,Garan,
231138,IR,7,Bagha,
231139,IR,31,Yasna,
231140,IR,26,Valian,
231141,IR,33,Kandovan,
231142,IR,29,Part,
231143,IR,23,Makan,
231144,IR,26,Khorramdasht,
231145,IR,30,Hang,
231146,IR,10,Fajr,
231147,IR,30,Paliz,
231148,IR,8,Sibon,
231149,IR,31,Rasti,
231150,IR,27,Sanj,
231151,IR,15,Neyzar,
231152,IR,25,Kohan,
231153,IR,33,Sohrab,
231154,IR,1,Navar,
231155,IR,15,Farahani,
231156,IR,16,Tazhan,
231157,IR,15,Hafar,
231158,IR,35,Haraz,
231159,IR,13,Namdar,
231160,IR,33,Damirchi,
231161,IR,33,Kondori,
231162,IR,13,Shoraka,
231163,IR,29,Ovan,
231164,IR,28,Khonsar,
231165,IR,15,Estil,
231166,IR,15,Karimi,
231167,IR,27,Karkhan,
231168,IR,33,Bashir,
231169,IR,13,Ravan,
231170,IR,11,Kani,
231171,IR,15,Kuy-e Farhangian,
231172,IR,38,Bandar,
231173,IR,34,Arak,
231174,IR,34,Delijan,
231175,IR,42,Mashhad,
231176,IR,33,Hokmabad,
231177,IR,37,Daland,
231178,IR,41,Birjand,
231179,IR,40,Yazd,
231180,IR,40,Mobadak,
231181,IR,38,Qazvin,
231182,IR,38,Abyek,
231183,IR,42,Sabzevar,
231184,IR,35,Ramak,
231185,IR,42,Neyshabur,
231186,IR,34,Khomeyn,
231187,IR,44,Tehran Dasht,
231188,IR,36,Abhar,
231189,IR,35,Chalus,
231190,IR,43,Bojnurd,
231191,IR,28,Nejafabad,
231192,IR,5,Mahmudabad-e Pa'in,
231193,IR,35,Shahrak-e Daneshgah,
231194,IR,42,Khashmar,
231195,IR,26,Tehran-e Now,
231196,IR,28,Mojtame`-e Maskuni-ye Milad,
231197,IR,35,Tonekabon,
231198,IR,28,Shahrak-e Mohammad-e Montazeri,
231199,IR,34,Saveh,
231200,IR,7,Abadeh Abgarm,
231201,IR,28,Salehabad,
231202,IR,23,Valanjerd,
231203,IR,39,Ferdows,
231204,IR,28,Kashan,
231205,IR,36,Emam,
231206,IR,4,Yekta,
231207,IR,3,Shahrak,
231208,IR,11,Najafi,
231209,IR,36,Imam,
231210,IR,42,Mashad,
231211,IR,40,Park,
231212,IR,42,Fars,
231213,IR,5,Yasooj,
231214,IR,28,Khomeyni Shahr,
231215,IR,5,Yasuj,
231216,IR,42,Mobarakeh,
231217,IR,43,Jahan,
231218,IR,9,Hamedan,
231219,IR,38,Mianeh,
231220,IR,25,Garmsar,
231221,IR,34,Shahsavar,
231222,IR,28,Sina,
231223,IR,34,Ashtian,
231224,IR,4,Sahand,
231225,IR,34,Azadshahr,
231226,IR,34,Tafresh,
231227,IR,42,Kabir,
231228,IR,8,Saravan,
231229,IR,11,Bastak,
231230,IR,8,Rezvanshahr,
231231,IR,42,Gonabad,
231232,IR,7,Larestan,
231233,IR,42,Bardeskan,
231234,IR,11,Sardasht,
231235,IR,29,Zarin,
231236,IR,38,Zangan,
231237,IR,42,Khaf,
231238,IR,43,Shirvan,
231239,IR,37,Dadeh,
231240,IR,34,Khomein,
231241,IR,35,Majid,
231242,IR,42,Sangan,
231243,IR,41,Reza,
231244,IR,40,Tabas,
231245,IR,42,Razavi,
231246,IR,5,Pasdaran,
231247,IR,23,Razan,
231248,IR,8,Nowshahr,
231249,IR,29,Salmanshahr,
231250,IR,33,Piam,
231251,IR,40,Hakim,
231252,IR,35,Shasta,
231253,IR,7,Bahman,
231254,IR,41,Nehbandan,
231255,IR,42,Torshiz,
231256,IR,7,Khavaran,
231257,IR,36,Sazan,
231258,IR,41,Barg,
231259,IR,29,Safa,
231260,IR,37,Mahestan,
231261,IR,23,Keshvar,
231262,IR,35,Vahed,
231263,IR,34,Mahallat,
231264,IR,34,Shazand,
231265,IR,34,Astaneh,
231266,IR,4,Gasht,
231267,IR,36,Alvand,
231268,IR,38,Torkan,
231269,IR,35,Shirgah,
231270,IR,42,Maskan,
231271,IR,35,Babolsar,
231272,IR,26,Pakdasht,
231273,IR,42,Bahreh,
231274,IR,4,Pasin,
231275,IR,8,Shilat,
231276,IR,36,Khodabandeh,
231277,IR,42,Kashmar,
231278,IR,42,Kakhk,
231279,IR,42,Garmeh,
231280,IR,42,Samangan,
231281,IR,29,Hormoz,
231282,IR,28,Mehregan,
231283,IR,7,Kazemi,
231284,IR,41,Malek Ashtar,
231285,IR,42,Quchan,
231286,IR,38,Parsian,
231287,IR,41,Shams,
231288,IR,8,Homa,
231289,IR,28,Nikabad,
231290,IR,42,Avar,
231291,IR,37,Didgah,
231292,IR,42,Rasan,
231293,IR,29,Negar,
231294,IR,11,Khalil,
231295,IR,35,Ziarat,
231296,IR,38,Avan,
231297,IR,25,Eyvanaki,
231298,IR,7,Sarvestan,
231299,IR,7,Khonj,
231300,IR,7,Bazargan,
231301,IR,3,Karan,
231302,IR,42,Melli,
231303,IR,4,Madeh,
231304,IR,9,Aliabad,
231305,IR,38,Varagh,
231306,IR,42,Farsi,
231307,IR,33,Anbarabad,
231308,IR,9,Ghorveh,
231309,IR,40,Taft,
231310,IR,42,Helal,
231311,IR,5,Mariz,
231312,IR,11,Hajiabad,
231313,IR,11,Masina,
231314,IR,7,Shahid Chamran,
231315,IR,9,Kian,
231316,IR,34,Behdasht,
231317,IR,43,Bazar,
231318,IR,38,Zamin,
231319,IR,42,Siman,
231320,IR,35,Kelarabad,
231321,IR,28,Baghmalek,
231322,IR,43,Jajarm,
231323,IR,5,Najafabad,
231324,IR,42,Gazi,
231325,IR,7,Safashahr,
231326,IR,4,Rask,
231327,IR,7,Sarv,
231328,IR,15,Safi,
231329,IR,34,Baharan,
231330,IR,1,Salamat,
231331,IR,42,Mohammad Abad,
231332,IR,40,Marvast,
231333,IR,29,Baghin,
231334,IR,8,Amlash,
231335,IR,29,Nafti,
231336,IR,34,Azna,
231337,IR,7,Sarvan,
231338,IR,9,Kashani,
231339,IR,41,Darmian,
231340,IR,38,Didar,
231341,IR,9,Damagh,
231342,IR,43,Esfarayen,
231343,IR,34,Karkhaneh,
231344,IR,7,Ahangari,
231345,IR,42,Yadak,
231346,IR,9,Yeganeh,
231347,IR,43,Ideh,
231348,IR,35,Saran,
231349,IR,42,Sarakhs,
231350,IR,41,Simorgh,
231351,IR,28,Aran,
231352,IR,4,Beyt,
231353,IR,44,Amirabad,
231354,IR,38,Parsiyan,
231355,IR,38,Kaman,
231356,IR,38,Abazar,
231357,IR,42,Nasir,
231358,IR,43,Faruj,
231359,IR,42,Sorkh,
231360,IR,36,Barin,
231361,IR,4,Bazman,
231362,IR,43,Zard,
231363,IR,42,Khak,
231364,IR,35,Ramsar,
231365,IR,42,Khezri,
231366,IR,40,Meybod,
231367,IR,36,Sayan,
231368,IR,7,Nowdan,
231369,IR,34,Khorram Dasht,
231370,IR,28,Kavian,
231371,IR,42,Aryan,
231372,IR,11,Chang,
231373,IR,7,Basij,
231374,IR,35,Abrang,
231375,IR,28,Mellat,
231376,IR,40,Bakhtiyari,
231377,IR,42,Haft,
231378,IR,29,Rigan,
231379,IR,23,Golestanak,
231380,IR,22,Shekari,
231381,IR,9,Vian,
231382,IR,38,Mihan,
231383,IR,4,Kashi,
231384,IR,42,Tiran,
231385,IR,4,Geraf,
231386,IR,35,Shahri,
231387,IR,37,Amlak,
231388,IR,34,Kalleh,
231389,IR,7,Sakhteman,
231390,IR,29,Ahmad,
231391,IR,40,Ardakan,
231392,IR,42,Payeh,
231393,IR,9,Bayan,
231394,IR,41,Sadid,
231395,IR,35,Mali,
231396,IR,5,Fath,
231397,IR,42,Fadak,
231398,IR,42,Nasr,
231399,IR,11,Charak,
231400,IR,36,Ramin,
231401,IR,7,Morvarid,
231402,IR,41,Asad Abad,
231403,IR,42,Gozari,
231404,IR,41,Golnam,
231405,IR,4,Giti,
231406,IR,9,Serkan,
231407,IR,11,Kargozari,
231408,IR,35,Delgosha,
231409,IR,42,Khalaj,
231410,IR,8,Borna,
231411,IR,5,Sepidar,
231412,IR,22,Ahmadi,
231413,IR,7,Zarvan,
231414,IR,38,Tavan,
231415,IR,33,Gaman,
231416,IR,28,Yasna,
231417,IR,44,Valian,
231418,IR,34,Makan,
231419,IR,41,Hang,
231420,IR,41,Paliz,
231421,IR,40,Rasti,
231422,IR,38,Sanj,
231423,IR,42,Neyzar,
231424,IR,42,Arvand,
231425,IR,7,Sohrab,
231426,IR,9,Navar,
231427,IR,29,Gahan,
231428,IR,11,Namdar,
231429,IR,29,Taraz,
231430,IR,33,Ovan,
231431,IR,9,Latif,
231432,IR,34,Karkhan,
231433,IR,35,Kani,
231434,IR,8,Sarvandan,
231435,IR,42,Koli,
231436,IR,15,Noor Abad,
231437,IR,29,Kharabad,
231438,IR,35,Shahi,
231439,IR,5,Suq,
231440,IR,33,Bostanabad,
231441,IR,5,Dehdast,
231442,IR,35,Sharik Kola,
231443,IR,28,Shahrak-e Maskuni-ye Simorgh,
231444,IR,15,Garma,
231445,IR,7,Sang,
231446,IR,8,Sharan,
231447,IR,15,Haffar,
231448,IR,38,Baya,
231449,IR,42,Hoseyni,
231450,IR,22,Bakhsh,
231451,IR,37,Jahan Bin,
231452,IR,42,Gash,
231453,IR,29,Mahdi,
231454,IR,38,Adad,
231455,IR,32,Abzar,
231456,IR,38,Safari,
231457,IR,43,Dasht,
231458,IR,4,Mohammadi,
231459,IR,26,Peyvand,
231460,IR,42,Karizan,
231461,IR,38,Asadi,
231462,IR,28,Yaftabad,
231463,IR,4,Saidi,
231464,IR,41,Mavad,
231465,IR,11,Janah,
231466,IR,26,Bordabad,
231467,IR,41,Baghdad,
231468,IR,8,Sara,
231469,IR,35,Sa`id Kola,
231470,IR,9,Paridar,
231471,IR,26,Marlik,
231472,IR,22,Atiyeh,
231473,IR,36,Anjoman,
231474,IR,36,Meshkin,
231475,IR,22,Amiri,
231476,IR,7,Boland,
231477,IR,22,Barak,
231478,IR,35,Ara,
231479,IR,26,Tamasha,
231480,IR,1,Tamak,
231481,IR,8,Sharam,
231482,IR,16,Mehrab,
231483,IR,33,Keyvan,
231484,IR,1,Behestan,
231485,IR,15,Banader,
231486,IR,42,Shirin,
231487,IR,42,Alvan,
231488,IR,42,Golriz,
231489,IR,7,Yazdan,
231490,IR,15,Dakal,
231491,IR,1,Savan,
231492,IR,15,Darb,
231493,IR,44,Vila,
231494,IR,42,Chodan,
231495,IR,15,Abrak,
231496,IR,15,Khavar,
231497,IR,36,Soha,
231498,IR,33,Takht,
231499,IR,9,Pavan,
231500,IR,7,Maghreb,
231501,IR,32,Simin,
231502,IR,4,Kosha,
231503,IR,7,Feshar,
231504,IR,7,Kargah,
231505,IR,41,Hami,
231506,IR,44,Nariyan,
231507,IR,33,Shisheh,
231508,IR,33,Razin,
231509,IR,15,Saramad,
231510,IR,25,Rahbar,
231511,IR,28,Eskandari,
231512,IR,40,Mehrabani,
231513,IR,33,Tarani,
231514,IR,42,Shahsavan,
231515,IR,33,Armeh,
231516,IR,40,Golshan,
231517,IR,41,Faratan,
231518,IR,35,Nashtarood,
231519,IR,7,Lar,
231520,IR,33,As,
231521,IR,33,Kaleybar,
231522,IR,35,Pa'in Semes Kandeh,
231523,IR,29,Bahrami,
231524,IR,41,Hirad,
231525,IR,1,Darman,
231526,IR,22,Bid Boland,
231527,IR,35,Galugah,
231528,IR,42,Khosravi,
231529,IR,15,Tarah,
231530,IR,28,Tihran,
231531,IR,35,Osa,
231532,IR,35,Salman Shahr,
231533,IR,26,Shahrak-e Shahid Hoseyn-e Kharrazi,
231534,IR,28,Baharestan,
231535,IR,7,Manal,
231536,IR,43,Khademi,
231537,IR,8,Taleghan,
231538,IR,35,Sepideh,
231539,IR,29,Hashemi,
231540,IR,13,Soleyman,
231541,IR,33,Shamloo,
231542,IR,26,Shadabad,
231543,IR,4,Safar,
231544,IR,28,Lashkar,
231545,IR,41,Atashkadeh,
231546,IR,8,Ghazian,
231547,IR,26,Pishva,
231548,IR,26,Jamshidiyeh,
231549,IR,26,Abasabad,
231550,IR,9,Tuysarkan,
231551,IR,35,Ira,
231552,IR,35,Noj,
231553,IR,11,Masheh,
231554,IR,8,Seyfi,
231555,IR,42,Mina,
231556,IR,34,Eskan,
231557,IR,42,Shadman,
231558,IR,7,Chamani,
231559,IR,9,Tuyserkan,
231560,IR,13,Kermanshahan,
231561,IR,22,Khormoj,
231562,IR,9,Khaku,
231563,IR,26,Sa`idabad,
231564,IR,29,Mehrgan,
231565,IR,34,Adineh,
231566,IR,1,Borhan,
231567,IR,7,Koshan,
231568,IR,33,Keh,
231569,IR,26,Mojtam`e-e Maskuni-ye Sarvestan,
231570,IR,28,Solar,
231571,IR,38,Amad,
231572,IR,35,Nashtarud,
231573,IR,11,Deh,
231574,IR,35,Kandak,
231575,IR,16,Naji,
231576,IR,33,Arjan,
231577,IR,28,Sokkan,
231578,IR,8,Lima,
231579,IR,29,Ziba,
