locId,country,region,city,postcode
246520,JM,,,
246521,JM,8,Kingston,
246522,JM,12,Montego Bay,
246523,JM,16,Negril,
246524,JM,9,Ocho Rios,
246525,JM,12,Montego,
246526,JM,10,Port Henderson,
246527,JM,9,Discovery Bay,
246528,JM,4,Mandeville,
246529,JM,10,Old Harbour,
246530,JM,10,Portmore,
246531,JM,10,Kilbies,
246532,JM,10,Spanish Town,
246533,JM,15,Albert Town,
246534,JM,9,Bamboo,
246535,JM,9,Scarborough,
246536,JM,12,Maroon Town,
246537,JM,1,May Pen,
246538,JM,15,Falmouth,
246539,JM,11,Carisbrook,
246540,JM,11,Myersville Church,
246541,JM,2,Lucea,
246542,JM,16,Cornwall,
246543,JM,11,Black River,
246544,JM,10,Kentish,
246545,JM,13,Highgate,
246546,JM,16,Glasgow,
246547,JM,10,Braeton,
246548,JM,1,Portland,
246549,JM,16,Savanna-la-mar,
246550,JM,8,Guava Ridge,
246551,JM,11,Bull Savanna,
246552,JM,4,Hanover,
246553,JM,11,Junction,
246554,JM,7,Port Antonio,
246555,JM,13,Port Maria,
246556,JM,8,Bull Bay,
246557,JM,7,Orange Bay,
246558,JM,14,Village,
246559,JM,1,Diamond,
246560,JM,13,Boscobel,
246561,JM,7,Boston,
246562,JM,11,Nain,
246563,JM,12,Cambridge,
246564,JM,14,Morant Bay,
246565,JM,10,Linstead,
246566,JM,9,Saint Ann's Bay,
246567,JM,13,Annotto Bay,
246568,JM,1,Chapelton,
246569,JM,1,York,
246570,JM,10,New York,
246571,JM,1,Raymonds,
246572,JM,16,Petersfield,
246573,JM,15,Duncans,
246574,JM,1,Sandy Bay,
246575,JM,4,Christiana,
246576,JM,10,Ewarton,
246577,JM,8,Red Hills,
246578,JM,8,Washington Gardens,
246579,JM,8,Mavis Bank,
246580,JM,1,Alexandria,
246581,JM,1,Cumberland,
246582,JM,8,Mona Heights,
246583,JM,7,Islington,
246584,JM,9,Runaway Bay,
246585,JM,10,Gregory Park,
246586,JM,1,Hayes,
246587,JM,10,Bernard Lodge,
246588,JM,10,Glengoffe,
246589,JM,11,Hopewell,
246590,JM,14,Yallahs,
246591,JM,8,Dunrobin,
246592,JM,8,Constant Spring,
246593,JM,11,Malvern,
246594,JM,1,Borobridge,
246595,JM,8,Liguanea,
246596,JM,16,Little London,
246597,JM,1,Goshen,
246598,JM,1,Crofts Hill,
246599,JM,4,Isle,
246600,JM,11,Santa Cruz,
246601,JM,1,Lionel Town,
246602,JM,8,Harbour View,
246603,JM,15,Sherwood Content,
246604,JM,17,Vineyard Town,
246605,JM,14,Bath,
246606,JM,11,Thornton,
246607,JM,1,Race Course,
246608,JM,9,Clarks Town,
246609,JM,16,Hartford,
246610,JM,10,Bog Walk,
246611,JM,9,Forest,
246612,JM,1,Four Paths,
246613,JM,10,Waterloo,
246614,JM,10,Passage Fort,
246615,JM,9,Golden,
246616,JM,1,Trout Hall,
246617,JM,4,Hatfield,
246618,JM,1,Bushy Park,
246619,JM,10,Sydenham,
246620,JM,13,Oracabessa,
246621,JM,8,Maverly,
246622,JM,10,Bushy Park,
246623,JM,11,Hampton,
246624,JM,9,Eltham,
246625,JM,7,Buff Bay,
246626,JM,15,Jackson Town,
246627,JM,13,Brooklyn,
246628,JM,8,Jacks Hill,
246629,JM,4,Kendal,
246630,JM,9,Browns Town,
246631,JM,7,Stony Hill,
246632,JM,9,Steer Town,
246633,JM,8,Half Way Tree,
246634,JM,9,Higgin Town,
246635,JM,7,Williamsfield,
246636,JM,11,Balaclava,
246637,JM,8,New Kingston,
246638,JM,8,Newport West,
246639,JM,1,Crooked River,
246640,JM,4,Porus,
246641,JM,10,Angels,
246642,JM,2,Cauldwell,
246643,JM,4,Chudleigh,
246644,JM,9,Moneague,
246645,JM,8,Pembroke Hall,
246646,JM,1,Halse Hall,
246647,JM,10,Longville Park,
246648,JM,1,Belmont,
246649,JM,11,Rose Hall,
246650,JM,15,Deeside,
246651,JM,11,Lancaster,
246652,JM,16,Whitehouse,
246653,JM,11,Southfield,
246654,JM,12,Reading,
246655,JM,8,Rock Hall,
246656,JM,4,Lincoln,
246657,JM,8,Gordon Town,
246658,JM,13,Ramble,
246659,JM,1,Fairburn,
246660,JM,14,Seaforth,
246661,JM,15,Florida,
246662,JM,7,Windsor,
246663,JM,9,Milford,
246664,JM,1,Thompson Town,
246665,JM,8,Papine,
246666,JM,10,Central Village,
246667,JM,7,Hope,
246668,JM,10,Riversdale,
246669,JM,1,Spaldings,
246670,JM,1,Rocky Point,
246671,JM,10,Old Harbour Bay,
246672,JM,9,Mammee Bay,
246673,JM,1,Oaks,
246674,JM,8,Saint Peter's,
246675,JM,11,Friendship,
246676,JM,8,Lebanon,
246677,JM,2,Lethe,
246678,JM,9,Priory,
246679,JM,10,August Town,
246680,JM,8,Cross Roads,
246681,JM,10,Tharp Pen,
246682,JM,11,Lacovia,
246683,JM,10,Ivy Mount,
246684,JM,15,Georgia,
246685,JM,1,Clarendon Park,
246686,JM,8,Barbican,
246687,JM,8,Hope Pastures,
246688,JM,10,Free Town,
246689,JM,1,Freetown,
246690,JM,10,Dalvey,
246691,JM,4,Isles,
246692,JM,10,Masters,
246693,JM,1,Claredon Park,
246694,JM,9,Gibraltar,
246695,JM,17,Port Royal,
246696,JM,10,Crescent,
246697,JM,9,Staketon,
246698,JM,4,Knockpatrick,
246699,JM,10,Good Hope,
246700,JM,11,Treasure Beach,
246701,JM,1,James Hill,
246702,JM,1,Palmers Cross,
246703,JM,8,Swallowfield,
246704,JM,10,Spring,
246705,JM,10,Stanberry Grove,
246706,JM,8,Grove,
246707,JM,10,Old Harbor,
246708,JM,12,Ironshore,
246709,JM,1,Toll Gate,
246710,JM,10,Rose Valley,
246711,JM,1,Osborne Store,
246712,JM,10,Twickenham Park,
246713,JM,1,Amity,
246714,JM,10,Jackson Village,
246715,JM,10,Springfield,
246716,JM,10,Redwood,
246717,JM,13,Brainerd,
246718,JM,9,Stanmore Grove,
246719,JM,7,Sta Apple Grove,
246720,JM,1,Palmers,
246721,JM,12,Palmyra,
246722,JM,12,Anchovy,
246723,JM,12,Hampden,
246724,JM,8,Stanmer,
246725,JM,15,Windsor House,
246726,JM,1,Kellits,
246727,JM,9,Market,
246728,JM,14,Port Morant,
246729,JM,10,Bellevue Heights,
246730,JM,11,Brompton,
246731,JM,10,Macca Tree,
246732,JM,1,Brixton Hill,
246733,JM,8,Beverly Hills,
246734,JM,16,Kings Pen,
246735,JM,11,Maggotty,
246736,JM,11,Siloah,
246737,JM,11,Park,
246738,JM,16,Gran Hill,
246739,JM,8,Golden Spring,
246740,JM,1,Sanguinetti,
246741,JM,9,Seville Heights,
246742,JM,8,Lawrence Tavern,
246743,JM,4,Devon,
246744,JM,1,Mocho,
246745,JM,10,Byndloss,
246746,JM,8,Castleton,
246747,JM,9,Lodge,
246748,JM,1,Hillside,
246749,JM,2,Green Island,
246750,JM,7,Richmond,
246751,JM,4,Williamsfield,
246752,JM,12,Albion,
246753,JM,4,Warwick,
246754,JM,11,Prospect,
246755,JM,9,Bromley,
246756,JM,16,Wakefield,
246757,JM,8,Dallas Castle,
246758,JM,16,Grange,
246759,JM,10,Cedar Valley,
246760,JM,1,Denbigh,
246761,JM,8,Jones Town,
246762,JM,17,Rollington Town,
246763,JM,1,Scotts Pass,
246764,JM,8,Oberlin,
246765,JM,8,Claremont,
246766,JM,15,Phoenix,
246767,JM,7,Richmond Hill,
246768,JM,10,Grantham,
246769,JM,15,Stewart Town,
246770,JM,11,Berlin,
246771,JM,12,Adelphi,
246772,JM,11,Mexico,
246773,JM,10,Jackson's Village,
246774,JM,13,Gayle,
246775,JM,7,Providence,
246776,JM,9,Cambrook,
246777,JM,15,Clarks Town,
246778,JM,10,Giblatore,
246779,JM,4,Newark,
246780,JM,1,Lime Hall,
246781,JM,10,Barton,
246782,JM,2,Hopewell,
