locId,country,region,city,postcode
246906,JP,,,
246907,JP,40,Tokyo,
246908,JP,32,Osaka,
246909,JP,19,Yokohama,
246910,JP,27,Minato,
246911,JP,14,Naka,
246912,JP,34,Kawagoe,
246913,JP,13,Kobe,
246914,JP,19,Hadano,
246915,JP,43,Wakayama,
246916,JP,40,Setagaya,
246917,JP,12,Hyogo,
246918,JP,7,Fukuoka,
246919,JP,8,Kanagawa,
246920,JP,1,Nagoya,
246921,JP,19,Kawasaki,
246922,JP,4,Kashiwa,
246923,JP,47,Okinawa,
246924,JP,29,Niigata,
246925,JP,4,Chiba,
246926,JP,40,Fuchu,
246927,JP,34,Negoya,
246928,JP,13,Nishinomiya,
246929,JP,37,Shizuoka,
246930,JP,26,Nagano,
246931,JP,4,Sakura,
246932,JP,4,Asahi,
246933,JP,12,Mitsui,
246934,JP,5,Toyo,
246935,JP,25,Miyazaki,
246936,JP,19,Isehara,
246937,JP,31,Okayama,
246938,JP,19,Chigasaki,
246939,JP,22,Kyoto,
246940,JP,8,Fukushima,
246941,JP,12,Showa,
246942,JP,34,Nishi,
246943,JP,34,Koshigaya,
246944,JP,14,Hitachi,
246945,JP,1,Miyoshi,
246946,JP,6,Fukui,
246947,JP,1,Kowa,
246948,JP,34,Urawa,
246949,JP,37,Fuji,
246950,JP,42,Toyama,
246951,JP,45,Ogori,
246952,JP,12,Miyagi,
246953,JP,25,Matoba,
246954,JP,45,Kagawa,
246955,JP,37,Hamamatsu,
246956,JP,40,Kasumigaseki,
246957,JP,15,Konami,
246958,JP,40,Kyodo,
246959,JP,34,Wako,
246960,JP,40,Chofu,
246961,JP,40,Minami,
246962,JP,39,Tokushima,
246963,JP,28,Nara,
246964,JP,42,Kitano,
246965,JP,39,Nishishin-machi,
246966,JP,29,Honcho,
246967,JP,11,Hiroshima,
246968,JP,7,Kanda,
246969,JP,5,Shinmachi,
246970,JP,1,Okazaki,
246971,JP,32,Takatsuki,
246972,JP,20,Nakamura,
246973,JP,40,Takanawa,
246974,JP,25,Nakamachi,
246975,JP,9,Gifu,
246976,JP,35,Otsu,
246977,JP,18,Kagoshima,
246978,JP,40,Marunouchi,
246979,JP,11,Machi,
246980,JP,12,Chuo,
246981,JP,34,Shinjuku,
246982,JP,1,Konan,
246983,JP,34,Onishi,
246984,JP,40,Minami-aoyama,
246985,JP,44,Takahata,
246986,JP,26,Nakahara,
246987,JP,40,Shinbashi,
246988,JP,44,Yamagata,
246989,JP,40,Omori,
246990,JP,19,Shimonumabe,
246991,JP,5,Matsuyama,
246992,JP,2,Akita,
246993,JP,19,Fujisawa,
246994,JP,19,Ikuta,
246995,JP,40,Kitamura,
246996,JP,12,Sapporo,
246997,JP,38,Honda,
246998,JP,23,Ueno,
246999,JP,17,Sanbancho,
247000,JP,40,Mitaka,
247001,JP,40,Toranomon,
247002,JP,19,Shibuya,
247003,JP,34,Kasukabe,
247004,JP,27,Higashi,
247005,JP,4,Funabashi,
247006,JP,40,Tanashi,
247007,JP,32,Sakai,
247008,JP,13,Hon-machi,
247009,JP,13,Kakogawa,
247010,JP,29,Umeda,
247011,JP,16,Morioka,
247012,JP,6,Higashiyama,
247013,JP,18,Iwamoto,
247014,JP,34,Sugaya,
247015,JP,32,Ibaragi,
247016,JP,18,Sato,
247017,JP,19,Zama,
247018,JP,7,Nishiku,
247019,JP,2,Katano,
247020,JP,32,Toyonaka,
247021,JP,37,Shimizu,
247022,JP,33,Kasuga,
247023,JP,33,Saga,
247024,JP,1,Toyohashi,
247025,JP,34,Asaka,
247026,JP,13,Amagasaki,
247027,JP,35,Yasu,
247028,JP,21,Kita,
247029,JP,34,Ageo,
247030,JP,19,Yokosuka,
247031,JP,34,Sayama,
247032,JP,3,Futamata,
247033,JP,4,Fusa,
247034,JP,22,Kameshima,
247035,JP,24,Sendai,
247036,JP,23,Yokkaichi,
247037,JP,8,Murata,
247038,JP,3,Aomori,
247039,JP,16,Futaba,
247040,JP,12,Kyowa,
247041,JP,12,Taisei,
247042,JP,12,Yachiyo,
247043,JP,14,Tsukuba,
247044,JP,36,Matsue,
247045,JP,32,Ibaraki,
247046,JP,15,Isuzu,
247047,JP,21,Kumamoto,
247048,JP,32,Miyake,
247049,JP,5,Sakaishi,
247050,JP,27,Nagasaki,
247051,JP,24,Takakura,
247052,JP,33,Kanzaki,
247053,JP,9,Kami,
247054,JP,17,Takamatsu,
247055,JP,40,Otemachi,
247056,JP,12,Obihiro,
247057,JP,26,Nakano,
247058,JP,42,Ishida,
247059,JP,12,Kushiro,
247060,JP,12,Muroran,
247061,JP,36,Otsuka,
247062,JP,33,Tanaka,
247063,JP,38,Utsunomiya,
247064,JP,41,Tottori,
247065,JP,44,Tsuruoka,
247066,JP,7,Okuma,
247067,JP,45,Yasuda,
247068,JP,39,Naruto,
247069,JP,13,Miki,
247070,JP,31,Tama,
247071,JP,30,Oita,
247072,JP,21,Yuge,
247073,JP,19,Hayashi,
247074,JP,46,Kofu,
247075,JP,34,Warabi,
247076,JP,38,Ashikaga,
247077,JP,12,Hakodate,
247078,JP,29,Shibata,
247079,JP,23,Seki,
247080,JP,34,Kawaguchi,
247081,JP,38,Tochigi,
247082,JP,20,Kochi,
247083,JP,1,Shinkawa,
247084,JP,36,Masuda,
247085,JP,37,Mori,
247086,JP,15,Kanazawa,
247087,JP,40,Roppongi,
247088,JP,13,Akashi,
247089,JP,45,Yamaguchi,
247090,JP,23,Matsusaka,
247091,JP,33,Takeo,
247092,JP,33,Karatsu,
247093,JP,33,Imari,
247094,JP,33,Arita,
247095,JP,33,Ureshino,
247096,JP,14,Kashima,
247097,JP,33,Tosu,
247098,JP,27,Sasebo,
247099,JP,27,Isahaya,
247100,JP,27,Shimabara,
247101,JP,27,Hirado,
247102,JP,27,Arikawa,
247103,JP,27,Fukue,
247104,JP,40,Nishimura,
247105,JP,11,Yokogawa,
247106,JP,12,Kaga,
247107,JP,27,Daiho,
247108,JP,33,Toho,
247109,JP,32,Daito,
247110,JP,36,Hirata,
247111,JP,12,Asahikawa,
247112,JP,35,Murai,
247113,JP,39,Nomura,
247114,JP,40,Uchisaiwaicho,
247115,JP,34,Ogawa,
247116,JP,47,Naha,
247117,JP,42,Nakashima,
247118,JP,11,Koyo,
247119,JP,34,Harajuku,
247120,JP,36,Izumo,
247121,JP,40,Sumida,
247122,JP,45,Iwakuni,
247123,JP,23,Suzuka,
247124,JP,5,Hojo,
247125,JP,4,Narita,
247126,JP,17,Sakaide,
247127,JP,12,Tomakomai,
247128,JP,27,Shiohama,
247129,JP,23,Kuwana,
247130,JP,40,Tokio,
247131,JP,18,Hirakawa,
247132,JP,40,Shimbashi,
247133,JP,47,Ishikawa,
247134,JP,10,Shima,
247135,JP,41,Yonago,
247136,JP,5,Niihama,
247137,JP,1,Kariya,
247138,JP,23,Nabari,
247139,JP,37,Suzuki,
247140,JP,1,Akasaka,
247141,JP,15,Awazu,
247142,JP,26,Komoro,
247143,JP,1,Ichinomiya,
247144,JP,26,Akaho,
247145,JP,47,Ginowan,
247146,JP,27,Nagata,
247147,JP,33,Yobuko,
247148,JP,37,Yamanashi,
247149,JP,1,Tokoname,
247150,JP,13,Himeji,
247151,JP,40,Machida,
247152,JP,1,Toyota,
247153,JP,26,Ueda,
247154,JP,12,Kyoritsu,
247155,JP,4,Kisarazu,
247156,JP,26,Otsuma,
247157,JP,25,Mochida,
247158,JP,40,Shibaura,
247159,JP,47,Nakanishi,
247160,JP,23,Toba,
247161,JP,5,Misaki,
247162,JP,38,Kanuma,
247163,JP,31,Tsuyama,
247164,JP,40,Hino,
247165,JP,45,Tokuyama,
247166,JP,25,Miyakonojo,
247167,JP,16,Ichinoseki,
247168,JP,34,Azabu,
247169,JP,13,Kibi,
247170,JP,5,Uwajima,
247171,JP,13,Tatsuno,
247172,JP,42,Takaoka,
247173,JP,38,Oyama,
247174,JP,31,Kurashiki,
247175,JP,7,Kitakyushu,
247176,JP,4,Ichikawa,
247177,JP,33,Oshima,
247178,JP,11,Kure,
247179,JP,40,Tamagawa,
247180,JP,15,Komatsu,
247181,JP,7,Kurume,
247182,JP,21,Yatsushiro,
247183,JP,8,Iwaki,
247184,JP,35,Nagahama,
247185,JP,9,Ogaki,
247186,JP,43,Kagoya,
247187,JP,27,Yamanaka,
247188,JP,44,Usen,
247189,JP,7,Kanematsu,
247190,JP,12,Sankei,
247191,JP,43,Yuasa,
247192,JP,3,Misawa,
247193,JP,14,Iwai,
247194,JP,29,Muramatsu,
247195,JP,47,Nishihara,
247196,JP,5,Komatu,
247197,JP,42,Takenouchi,
247198,JP,18,Okachi,
247199,JP,15,Unyu,
247200,JP,10,Tomioka,
247201,JP,27,Eiko,
247202,JP,13,Yashiro,
247203,JP,17,Uchida,
247204,JP,44,Nagai,
247205,JP,45,Nobuyuki,
247206,JP,40,Fussa,
247207,JP,45,Ryoka,
247208,JP,17,Ushijima,
247209,JP,12,Bibai,
247210,JP,40,Azuma,
247211,JP,7,Akizuki,
247212,JP,1,Takashi,
247213,JP,18,Tajima,
247214,JP,7,Tani,
247215,JP,25,Kobayashi,
247216,JP,35,Yamamoto,
247217,JP,28,Sakurai,
247218,JP,39,Izawa,
247219,JP,44,Nishikawa,
247220,JP,42,Takeuchi,
247221,JP,11,Matsunaga,
247222,JP,12,Mizuho,
247223,JP,26,Nakazawa,
247224,JP,26,Niimura,
247225,JP,13,Ikeda,
247226,JP,7,Yanagawa,
247227,JP,12,Ishikura,
247228,JP,32,Izumi,
247229,JP,13,Hayashida,
247230,JP,4,Noda,
247231,JP,34,Koizumi,
247232,JP,11,Tomo,
247233,JP,19,Zushi,
247234,JP,12,Nitto,
247235,JP,33,Tsuji,
247236,JP,34,Toda,
247237,JP,29,Arai,
247238,JP,26,Takeshi,
247239,JP,19,Tsurumi,
247240,JP,10,Shimonita,
247241,JP,5,Yoshino,
247242,JP,26,Hoshina,
247243,JP,44,Tomizawa,
247244,JP,4,Ohara,
247245,JP,19,Yamakita,
247246,JP,12,Date,
247247,JP,8,Sukagawa,
247248,JP,11,Iwasaki,
247249,JP,5,Tobe,
247250,JP,16,Yamada,
247251,JP,7,Koga,
247252,JP,12,Otaru,
247253,JP,1,Nishio,
247254,JP,32,Kadoma,
247255,JP,32,Izumiotsu,
247256,JP,7,Miyata,
247257,JP,7,Yodogawa,
247258,JP,11,Shinichi,
247259,JP,43,Kitahara,
247260,JP,7,Kishi,
247261,JP,7,Kuga,
247262,JP,26,Kurita,
247263,JP,44,Nikke,
247264,JP,28,Shinsho,
247265,JP,13,Toyooka,
247266,JP,2,Narazaki,
247267,JP,29,Ohmi,
247268,JP,28,Horyuji,
247269,JP,25,Meitsu,
247270,JP,37,Numazu,
247271,JP,5,Oguri,
247272,JP,27,Yagami,
247273,JP,21,Kikuchi,
247274,JP,18,Asama,
247275,JP,1,Komaki,
247276,JP,12,Midori,
247277,JP,24,Furukawa,
247278,JP,45,Hikari,
247279,JP,46,Shoji,
247280,JP,39,Tachibana,
247281,JP,26,Matsumoto,
247282,JP,45,Nami,
247283,JP,47,Ishigaki,
247284,JP,47,Taketomi,
247285,JP,30,Shindo,
247286,JP,11,Shirakawa,
247287,JP,34,Yoshikawa,
247288,JP,14,Tomobe,
247289,JP,37,Shimoda,
247290,JP,29,Kashiwazaki,
247291,JP,12,Kitami,
247292,JP,32,Tsuda,
247293,JP,32,Matsubara,
247294,JP,36,Asai,
247295,JP,22,Ogura,
247296,JP,31,Katsuta,
247297,JP,8,Komiya,
247298,JP,21,Fujimoto,
247299,JP,12,Mombetsu,
247300,JP,22,Yawata,
247301,JP,40,Musashino,
247302,JP,16,Miyako,
247303,JP,21,Fukumoto,
247304,JP,16,Ohashi,
247305,JP,18,Yamano,
247306,JP,41,Wakasa,
247307,JP,35,Yokaichi,
247308,JP,27,Suga,
247309,JP,34,Kubota,
247310,JP,43,Minabe,
247311,JP,18,Kojima,
247312,JP,17,Higashiura,
247313,JP,28,Yamato,
247314,JP,25,Shonai,
247315,JP,36,Kamaya,
247316,JP,27,Kazusa,
247317,JP,27,Kuchinotsu,
247318,JP,27,Chijiwa,
247319,JP,43,Hiki,
247320,JP,1,Okada,
247321,JP,4,Tateyama,
247322,JP,3,Kashiwagi,
247323,JP,7,Yamae,
247324,JP,47,Koki,
247325,JP,44,Yonezawa,
247326,JP,42,Isurugi,
247327,JP,42,Fukuno,
247328,JP,17,Tatsukawa,
247329,JP,45,Towa,
247330,JP,25,Kajiyama,
247331,JP,40,Hikawa,
247332,JP,16,Sokei,
247333,JP,19,Shibusawa,
247334,JP,26,Chino,
247335,JP,1,Nakayama,
247336,JP,34,Katayama,
247337,JP,9,Inuyama,
247338,JP,1,Kasugai,
247339,JP,39,Mitani,
247340,JP,6,Katsuyama,
247341,JP,23,Nishiki,
247342,JP,16,Tono,
247343,JP,45,Daido,
247344,JP,47,Nago,
247345,JP,7,Fukuma,
247346,JP,24,Niiyama,
247347,JP,14,Noguchi,
247348,JP,39,Ishii,
247349,JP,28,Miwa,
247350,JP,4,Shibayama,
247351,JP,26,Mariko,
247352,JP,1,Manda,
247353,JP,44,Sakata,
247354,JP,38,Karasuyama,
247355,JP,29,Oyamada,
247356,JP,9,Tarui,
247357,JP,9,Sekigahara,
247358,JP,9,Godo,
247359,JP,33,Katashima,
247360,JP,44,Ichijo,
247361,JP,13,Kinosaki,
247362,JP,22,Maizuru,
247363,JP,30,Hinode,
247364,JP,18,Tanto,
247365,JP,1,Takahama,
247366,JP,13,Yoka,
247367,JP,30,Tsukumi,
247368,JP,26,Toyono,
247369,JP,18,Usui,
247370,JP,7,Iizuka,
247371,JP,12,Chikushi,
247372,JP,7,Kokura,
247373,JP,30,Beppu,
247374,JP,7,Tsuiki,
247375,JP,7,Hakata,
247376,JP,10,Kiryu,
247377,JP,11,Maruyama,
247378,JP,12,Meiji,
247379,JP,35,Hosaka,
247380,JP,46,Enzan,
247381,JP,5,Masaki,
247382,JP,24,Takaki,
247383,JP,16,Maezawa,
247384,JP,27,Shirato,
247385,JP,8,Shirane,
247386,JP,18,Kanai,
247387,JP,32,Kishiwada,
247388,JP,32,Hirakata,
247389,JP,13,Kawanishi,
247390,JP,24,Obayashi,
247391,JP,27,Okura,
247392,JP,26,Akamatsu,
247393,JP,13,Itami,
247394,JP,12,Kawabata,
247395,JP,14,Sanno,
247396,JP,10,Tamamura,
247397,JP,10,Shibukawa,
247398,JP,12,Yoichi,
247399,JP,40,Kodaira,
247400,JP,4,Makuhari,
247401,JP,4,Kamogawa,
247402,JP,4,Togane,
247403,JP,38,Sano,
247404,JP,40,Kokubunji,
247405,JP,38,Nikko,
247406,JP,12,Taihei,
247407,JP,27,Osaki,
247408,JP,35,Takata,
247409,JP,4,Toride,
247410,JP,38,Tanuma,
247411,JP,8,Ajima,
247412,JP,43,Sakae,
247413,JP,34,Hanyu,
247414,JP,32,Yoshimi,
247415,JP,4,Anesaki,
247416,JP,34,Kazo,
247417,JP,35,Takada,
247418,JP,29,Koide,
247419,JP,2,Omagari,
247420,JP,16,Kamaishi,
247421,JP,24,Seino,
247422,JP,26,Saku,
247423,JP,18,Shirai,
247424,JP,34,Juroku,
247425,JP,27,Eguchi,
247426,JP,25,Kurogi,
247427,JP,42,Kosugi,
247428,JP,15,Ushitsu,
247429,JP,46,Uenohara,
247430,JP,7,Shiobara,
247431,JP,4,Yotsukaido,
247432,JP,29,Suibara,
247433,JP,34,Shiraoka,
247434,JP,3,Sekine,
247435,JP,37,Mishima,
247436,JP,1,Taguchi,
247437,JP,19,Yamanouchi,
247438,JP,2,Yashima,
247439,JP,26,Iida,
247440,JP,32,Kawada,
247441,JP,42,Fukushi,
247442,JP,34,Kuki,
247443,JP,39,Takano,
247444,JP,11,Yutaka,
247445,JP,11,Shin,
247446,JP,11,Tokura,
247447,JP,29,Shimazaki,
247448,JP,12,Okajima,
247449,JP,18,Tsuruta,
247450,JP,43,Tanabe,
247451,JP,5,Enomoto,
247452,JP,21,Nishiyama,
247453,JP,33,Shiota,
247454,JP,35,Kataoka,
247455,JP,13,Takasago,
247456,JP,28,Mima,
247457,JP,1,Tosaki,
247458,JP,11,Takuma,
247459,JP,37,Sakuma,
247460,JP,2,Toyoshima,
247461,JP,43,Mizukami,
247462,JP,29,Taiko,
247463,JP,33,Ochi,
247464,JP,43,Hashimoto,
247465,JP,32,Yamazaki,
247466,JP,39,Kawamata,
247467,JP,43,Tonami,
247468,JP,37,Okabe,
247469,JP,27,Yamashita,
247470,JP,25,Toi,
247471,JP,37,Shimada,
247472,JP,37,Mikura,
247473,JP,4,Togawa,
247474,JP,37,Yaizu,
247475,JP,47,Hazama,
247476,JP,19,Odawara,
247477,JP,44,Sado,
247478,JP,8,Tokiwa,
247479,JP,47,Kumi,
247480,JP,40,Yoko,
247481,JP,24,Kozo,
247482,JP,23,Hamajima,
247483,JP,18,Furusato,
247484,JP,34,Sakaguchi,
247485,JP,19,Maguchi,
247486,JP,11,Ichi,
247487,JP,39,Hara,
247488,JP,39,Nasa,
247489,JP,34,Soka,
247490,JP,7,Nakatsu,
247491,JP,12,Yasukawa,
247492,JP,10,Kaneko,
247493,JP,15,Nose,
247494,JP,17,Kose,
247495,JP,18,Sueyoshi,
247496,JP,7,Nakamatsu,
247497,JP,3,Hachinohe,
247498,JP,37,Iwata,
247499,JP,40,Haneda,
247500,JP,22,Kawahara,
247501,JP,13,Senzo,
247502,JP,27,Nozaki,
247503,JP,26,Itabashi,
247504,JP,42,Yokoyama,
247505,JP,36,Hamada,
247506,JP,8,Hamano,
247507,JP,36,Arashima,
247508,JP,18,China,
247509,JP,40,Mita,
247510,JP,14,Inoue,
247511,JP,24,Aikawa,
247512,JP,19,Atugi,
247513,JP,10,Takasaki,
247514,JP,6,Matsuoka,
247515,JP,28,Haibara,
247516,JP,17,Marugame,
247517,JP,45,Nagato,
247518,JP,36,Taki,
247519,JP,21,Kanagi,
247520,JP,29,Yoshida,
247521,JP,40,Nango,
247522,JP,22,Yahata,
247523,JP,11,Koji,
247524,JP,15,Yamashiro,
247525,JP,19,Mine,
247526,JP,43,Hidaka,
247527,JP,19,Atsugi,
247528,JP,42,Ogino,
247529,JP,29,Ojiya,
247530,JP,34,Shiki,
247531,JP,1,Iwakura,
247532,JP,16,Ando,
247533,JP,1,Otani,
247534,JP,11,Tokuichi,
247535,JP,27,Naru,
247536,JP,25,Takachiho,
247537,JP,40,Minowa,
247538,JP,40,Kiyose,
247539,JP,1,Suyama,
247540,JP,38,Tomita,
247541,JP,26,Kurosawa,
247542,JP,5,Okamura,
247543,JP,32,Kaizuka,
247544,JP,7,Hata,
247545,JP,11,Wada,
247546,JP,26,Okaya,
247547,JP,29,Somi,
247548,JP,6,Tone,
247549,JP,42,Yokota,
247550,JP,21,Fujita,
247551,JP,23,Komono,
247552,JP,15,Shoin,
247553,JP,29,Kameda,
247554,JP,11,Nada,
247555,JP,29,Tsubame,
247556,JP,11,Mihara,
247557,JP,31,Takahashi,
247558,JP,27,Kurosaki,
247559,JP,3,Same,
247560,JP,38,Fujiwara,
247561,JP,7,Sugawara,
247562,JP,38,Omiya,
247563,JP,26,Kinoshita,
247564,JP,7,Yamaka,
247565,JP,2,Ikari,
247566,JP,18,Aoto,
247567,JP,22,Sonobe,
247568,JP,45,Ejiri,
247569,JP,32,Kyobashi,
247570,JP,21,Takase,
247571,JP,8,Onahama,
247572,JP,18,Maeyama,
247573,JP,26,Sakaki,
247574,JP,27,Akao,
247575,JP,8,Sugita,
247576,JP,40,Kamada,
247577,JP,18,Shiraki,
247578,JP,24,Yoshioka,
247579,JP,22,Komori,
247580,JP,12,Kaisei,
247581,JP,17,Motoshima,
247582,JP,33,Hoshika,
247583,JP,19,Miura,
247584,JP,4,Nemoto,
247585,JP,34,Araki,
247586,JP,42,Taniguchi,
247587,JP,18,Haru,
247588,JP,1,Utsumi,
247589,JP,18,Ohira,
247590,JP,32,Kajima,
247591,JP,15,Ihori,
247592,JP,18,Kawamoto,
247593,JP,25,Kozaki,
247594,JP,28,Muro,
247595,JP,29,Kamo,
247596,JP,29,Itoigawa,
247597,JP,47,Tomori,
247598,JP,47,Shika,
247599,JP,41,Daisen,
247600,JP,20,Nankai,
247601,JP,44,Asuka,
247602,JP,27,Fukuda,
247603,JP,47,Takara,
247604,JP,38,Maeda,
247605,JP,47,Yoshihara,
247606,JP,25,Nobeoka,
247607,JP,18,Tashima,
247608,JP,7,Kurokawa,
247609,JP,44,Wago,
247610,JP,19,Horiguchi,
247611,JP,12,Mitsuiwa,
247612,JP,30,Hida,
247613,JP,35,Hirose,
247614,JP,12,Chitose,
247615,JP,18,Yoshinori,
247616,JP,13,Mega,
247617,JP,11,Akitsu,
247618,JP,32,Kawata,
247619,JP,7,Omuta,
247620,JP,19,Kaneda,
247621,JP,37,Maejima,
247622,JP,30,Takeda,
247623,JP,42,Matsuo,
247624,JP,21,Kaneuchi,
247625,JP,1,Iwatsu,
247626,JP,28,Tatsuta,
247627,JP,21,Mifune,
247628,JP,14,Mito,
247629,JP,7,Nagase,
247630,JP,27,Mura,
247631,JP,15,Shinohara,
247632,JP,26,Aida,
247633,JP,12,Takigawa,
247634,JP,27,Aoki,
247635,JP,29,Waseda,
247636,JP,16,Sekiguchi,
247637,JP,40,Motoyama,
247638,JP,35,Tsuchiyama,
247639,JP,1,Tahara,
247640,JP,2,Odate,
247641,JP,24,Tomiya,
247642,JP,12,Meguro,
247643,JP,17,Yamawaki,
247644,JP,36,Shinji,
247645,JP,15,Sora,
247646,JP,39,Hirano,
247647,JP,1,Chiryu,
247648,JP,13,Toyotomi,
247649,JP,1,Nagashima,
247650,JP,27,Tagami,
247651,JP,41,Yasui,
247652,JP,35,Hikone,
247653,JP,29,Sasagawa,
247654,JP,14,Ogitsu,
247655,JP,9,Mino,
247656,JP,32,Makino,
247657,JP,5,Kawakami,
247658,JP,16,Kanezawa,
247659,JP,27,Hama,
247660,JP,40,Kunitachi,
247661,JP,18,Magome,
247662,JP,3,Kakizaki,
247663,JP,47,Tsuken,
247664,JP,22,Kinugasa,
247665,JP,6,Morita,
247666,JP,10,Numata,
247667,JP,19,Hodogaya,
247668,JP,27,Kamigoto,
247669,JP,47,Chuta,
247670,JP,1,Okuda,
247671,JP,42,Kano,
247672,JP,27,Kubo,
247673,JP,11,Obatake,
247674,JP,45,Otake,
247675,JP,21,Misumi,
247676,JP,28,Kawai,
247677,JP,29,Maki,
247678,JP,5,Tomari,
247679,JP,12,Koshin,
247680,JP,2,Hachimori,
247681,JP,5,Goda,
247682,JP,12,Samani,
247683,JP,12,Yubetsu,
247684,JP,12,Koshimizu,
247685,JP,16,Mizusawa,
247686,JP,16,Shizukuishi,
247687,JP,23,Nakadate,
247688,JP,16,Joboji,
247689,JP,16,Kanegasaki,
247690,JP,16,Otsuchi,
247691,JP,16,Hanamaki,
247692,JP,27,Taira,
247693,JP,37,Kitayama,
247694,JP,34,Kodama,
247695,JP,23,Akeno,
247696,JP,34,Ogose,
247697,JP,33,Kodomo,
247698,JP,19,Sakawa,
247699,JP,30,Uematsu,
247700,JP,11,Yokoo,
247701,JP,32,Takaishi,
247702,JP,1,Seto,
247703,JP,43,Tenma,
247704,JP,5,Imabari,
247705,JP,15,Tsubata,
247706,JP,38,Ishibashi,
247707,JP,21,Nakabaru,
247708,JP,11,Takehara,
247709,JP,30,Usuki,
247710,JP,27,Tutu,
247711,JP,45,Shimonoseki,
247712,JP,1,Nakagawa,
247713,JP,39,Bando,
247714,JP,42,Fushiki,
247715,JP,23,Kata,
247716,JP,17,Kosai,
247717,JP,47,Yuji,
247718,JP,11,Miyabara,
247719,JP,23,Kameyama,
247720,JP,4,Shisui,
247721,JP,47,Yogi,
247722,JP,19,Hiratsuka,
247723,JP,14,Tamatsukuri,
247724,JP,10,Isesaki,
247725,JP,11,Harada,
247726,JP,2,Yokote,
247727,JP,11,Yanaizu,
247728,JP,18,Ihara,
247729,JP,12,Nayoro,
247730,JP,44,Higashine,
247731,JP,38,Bato,
247732,JP,4,Kimitsu,
247733,JP,26,Mochizuki,
247734,JP,12,Fukagawa,
247735,JP,37,Iruma,
247736,JP,29,Samukawa,
247737,JP,19,Koichi,
247738,JP,3,Obata,
247739,JP,29,Murakami,
247740,JP,11,Mirasaka,
247741,JP,20,Arioka,
247742,JP,31,Nagao,
247743,JP,17,Tadotsu,
247744,JP,38,Motegi,
247745,JP,27,Sugawa,
247746,JP,29,Nagaoka,
247747,JP,45,Yuno,
247748,JP,10,Yoshii,
247749,JP,18,Ibusuki,
247750,JP,11,Kaita,
247751,JP,27,Omura,
247752,JP,18,Kaho,
247753,JP,18,Akune,
247754,JP,30,Saganoseki,
247755,JP,39,Baba,
247756,JP,21,Minamata,
247757,JP,27,Emukae,
247758,JP,18,Kushikino,
247759,JP,39,Anabuki,
247760,JP,11,Kiyotake,
247761,JP,6,Obama,
247762,JP,18,Kanoya,
247763,JP,24,Shiroishi,
247764,JP,8,Ohori,
247765,JP,45,Ezaki,
247766,JP,44,Atsumi,
247767,JP,43,Fujii,
247768,JP,11,Yano,
247769,JP,27,Ozaki,
247770,JP,22,Nonaka,
247771,JP,10,Matsuida,
247772,JP,21,Shioya,
247773,JP,40,Koganei,
247774,JP,10,Tsukiyono,
247775,JP,22,Kameoka,
247776,JP,13,Sanda,
247777,JP,11,Mitsu,
247778,JP,39,Tsubaki,
247779,JP,4,Tabuchi,
247780,JP,25,Shiratori,
247781,JP,31,Okutsu,
247782,JP,39,Shibahara,
247783,JP,3,Hiranuma,
247784,JP,25,Kawashima,
247785,JP,13,Sumoto,
247786,JP,28,Tosa,
247787,JP,11,Miyauchi,
247788,JP,12,Mikawa,
247789,JP,1,Miya,
247790,JP,34,Gyoda,
247791,JP,44,Tamakawa,
247792,JP,29,Takane,
247793,JP,4,Katsuura,
247794,JP,2,Yuzawa,
247795,JP,29,Nakajo,
247796,JP,8,Otaki,
247797,JP,8,Motomiya,
247798,JP,21,Aizu,
247799,JP,33,Okawa,
247800,JP,12,Akkeshi,
247801,JP,39,Sho,
247802,JP,4,Sanuki,
247803,JP,28,Ouda,
247804,JP,13,Ikaruga,
247805,JP,43,Kudoyama,
247806,JP,43,Arida,
247807,JP,15,Sasahara,
247808,JP,9,Hiromi,
247809,JP,13,Ashiya,
247810,JP,45,Hirao,
247811,JP,19,Matsuda,
247812,JP,29,Ishiguro,
247813,JP,39,Deai,
247814,JP,14,Yuki,
247815,JP,22,Yagi,
247816,JP,35,Moriyama,
247817,JP,25,Suenaga,
247818,JP,44,Nagamatsu,
247819,JP,45,Kuwahara,
247820,JP,28,Tenri,
247821,JP,34,Muraoka,
247822,JP,4,Kinjo,
247823,JP,29,Kaji,
247824,JP,42,Namerikawa,
247825,JP,12,Kawakita,
247826,JP,42,Nakajima,
247827,JP,15,Nanao,
247828,JP,29,Miyagawa,
247829,JP,8,Koriyama,
247830,JP,43,Susami,
247831,JP,18,Kumano,
247832,JP,43,Kushimoto,
247833,JP,43,Koza,
247834,JP,43,Shingu,
247835,JP,18,Kaseda,
247836,JP,43,Kokawa,
247837,JP,43,Kainan,
247838,JP,43,Minoshima,
247839,JP,22,Mihama,
247840,JP,43,Gobo,
247841,JP,29,Budo,
247842,JP,16,Utsuno,
247843,JP,40,Okata,
247844,JP,12,Sango,
247845,JP,36,Takatsu,
247846,JP,34,Wakita,
247847,JP,1,Yahagi,
247848,JP,7,Toyotsu,
247849,JP,9,Kosaka,
247850,JP,13,Kamigumi,
247851,JP,12,Ochiai,
247852,JP,5,Ouchi,
247853,JP,12,Keimei,
247854,JP,40,Kasai,
247855,JP,24,Rifu,
247856,JP,3,Fujisaki,
247857,JP,34,Kumagai,
247858,JP,13,Shizuki,
247859,JP,7,Miyaji,
247860,JP,1,Gamagori,
247861,JP,14,Ushiku,
247862,JP,41,Chizu,
247863,JP,26,Tokuma,
247864,JP,30,Akane,
247865,JP,41,Kishimoto,
247866,JP,4,Yokoshiba,
247867,JP,9,Nakatsugawa,
247868,JP,1,Inasawa,
247869,JP,41,Kanayama,
247870,JP,15,Kanami,
247871,JP,37,Fukuroi,
247872,JP,19,Kamakura,
247873,JP,27,Tashiro,
247874,JP,21,Fumoto,
247875,JP,44,Sagae,
247876,JP,24,Kannari,
247877,JP,20,Shiwa,
247878,JP,39,Kokufu,
247879,JP,33,Tamashima,
247880,JP,13,Iwami,
247881,JP,36,Nichihara,
247882,JP,18,Kaminaka,
247883,JP,9,Kanayama-cho,
247884,JP,45,Hofu,
247885,JP,45,Kaminoseki,
247886,JP,6,Takefu,
247887,JP,6,Sabae,
247888,JP,45,Hagi,
247889,JP,42,Shinminato,
247890,JP,15,Nonoichi,
247891,JP,12,Iwamizawa,
247892,JP,12,Fujimi,
247893,JP,26,Suwa,
247894,JP,13,Haramura,
247895,JP,21,Takamori,
247896,JP,33,Mimasaka,
247897,JP,8,Tsutsumi,
247898,JP,42,Johana,
247899,JP,42,Fukumitsu,
247900,JP,26,Iijima,
247901,JP,36,Ichiyama,
247902,JP,1,Tsushima,
247903,JP,1,Kanie,
247904,JP,1,Kiyosu,
247905,JP,38,Mooka,
247906,JP,18,Okuchi,
247907,JP,18,Shibushi,
247908,JP,18,Makurazaki,
247909,JP,36,Torii,
247910,JP,12,Shotoku,
247911,JP,21,Senzoku,
247912,JP,7,Kusano,
247913,JP,46,Shirasu,
247914,JP,10,Takahira,
247915,JP,5,Yosida,
247916,JP,4,Okamoto,
247917,JP,27,Tsuyoshi,
247918,JP,27,Tsukiji,
247919,JP,45,Awano,
247920,JP,40,Toshima,
247921,JP,8,Hatori,
247922,JP,45,Kamimura,
247923,JP,47,Hukai,
247924,JP,12,Kakuta,
247925,JP,29,Sawada,
247926,JP,45,Akiyoshi,
247927,JP,5,Sumino,
247928,JP,8,Iwao,
247929,JP,31,Kayo,
247930,JP,21,Ueki,
247931,JP,40,Oomori,
247932,JP,30,Shigeoka,
247933,JP,18,Koike,
247934,JP,18,Yamakawa,
247935,JP,11,Ogata,
247936,JP,15,Nakabayashi,
247937,JP,7,Morooka,
247938,JP,46,Hayakawa,
247939,JP,24,Sangenjaya,
247940,JP,24,Miyazawa,
247941,JP,11,Miyosi,
247942,JP,47,Nariya,
247943,JP,24,Kamata,
247944,JP,39,Wakabayashi,
247945,JP,21,Higuchi,
247946,JP,4,Tiba,
247947,JP,12,Hiroo,
247948,JP,37,Simizu,
247949,JP,45,Hori,
247950,JP,38,Sekiya,
247951,JP,40,Toyoda,
247952,JP,43,Hasimoto,
247953,JP,7,Sumiyoshi,
247954,JP,29,Kamiyama,
247955,JP,16,Kuriyama,
247956,JP,42,Nakata,
247957,JP,34,Nakai,
247958,JP,18,Haruo,
247959,JP,19,Karino,
247960,JP,32,Koyama,
247961,JP,7,Iwaya,
247962,JP,13,Yamasaki,
247963,JP,35,Katada,
247964,JP,42,Hagiwara,
247965,JP,28,Tsuchida,
247966,JP,35,Sakamoto,
247967,JP,7,Tagawa,
247968,JP,6,Katsumi,
247969,JP,3,Kawauti,
247970,JP,8,Hirota,
247971,JP,18,Shiro,
247972,JP,45,Ogihara,
247973,JP,24,Takagi,
247974,JP,13,Nishiwaki,
247975,JP,38,Takanori,
247976,JP,47,Onaga,
247977,JP,40,Mishuku,
247978,JP,11,Tada,
247979,JP,42,Ikejiri,
247980,JP,26,Yukawa,
247981,JP,1,Odaka,
247982,JP,47,Genka,
247983,JP,9,Tominaga,
247984,JP,45,Koda,
247985,JP,43,Sada,
247986,JP,37,Yoshinaga,
247987,JP,25,Takahara,
247988,JP,39,Yanase,
247989,JP,12,Kuroiwa,
247990,JP,13,Tsukuda,
247991,JP,14,Moriya,
247992,JP,21,Yanagi,
247993,JP,45,Yamaguti,
247994,JP,38,Mamada,
247995,JP,1,Tsujimura,
247996,JP,36,Kizuki,
247997,JP,32,Fuse,
247998,JP,10,Iwamura,
247999,JP,8,Miyama,
248000,JP,47,Anri,
248001,JP,11,Kamihara,
248002,JP,18,Arimura,
248003,JP,29,Shiozawa,
248004,JP,40,Terashima,
248005,JP,47,Kimu,
248006,JP,29,Katagai,
248007,JP,21,Sasakura,
248008,JP,29,Miyamoto,
248009,JP,20,Irino,
248010,JP,21,Ishihara,
248011,JP,42,Kohara,
248012,JP,46,Komuro,
248013,JP,7,Uchino,
248014,JP,29,Kawaguti,
248015,JP,27,Okuura,
248016,JP,28,Imai,
248017,JP,16,Taro,
248018,JP,12,Naito,
248019,JP,11,Yanagida,
248020,JP,5,Horie,
248021,JP,37,Washizu,
248022,JP,43,Taiji,
248023,JP,8,Ozawa,
248024,JP,19,Totsuka,
248025,JP,26,Togari,
248026,JP,36,Sanada,
248027,JP,13,Nojima,
248028,JP,13,Aioi,
248029,JP,4,Shibazaki,
248030,JP,12,Hirono,
248031,JP,42,Uchiyama,
248032,JP,3,Hiroto,
248033,JP,16,Tayama,
248034,JP,44,Sugiyama,
248035,JP,35,Funaki,
248036,JP,45,Kuwabara,
248037,JP,46,Narusawa,
248038,JP,9,Nakagiri,
248039,JP,27,Matubara,
248040,JP,45,Hanaoka,
248041,JP,36,Hashi,
248042,JP,34,Ogano,
248043,JP,24,Kadowaki,
248044,JP,12,Kudo,
248045,JP,26,Takai,
248046,JP,12,Taiki,
248047,JP,16,Sawa,
248048,JP,13,Itoi,
248049,JP,47,Uehara,
248050,JP,18,Yomura,
248051,JP,24,Miyano,
248052,JP,25,Kumada,
248053,JP,2,Yokobori,
248054,JP,6,Mikata,
248055,JP,11,Akagawa,
248056,JP,43,Iwashiro,
248057,JP,4,Ichihara,
248058,JP,21,Kamei,
248059,JP,5,Aoshima,
248060,JP,5,Tsutsui,
248061,JP,18,Nishino,
248062,JP,19,Aihara,
248063,JP,11,Tomota,
248064,JP,24,Motoyoshi,
248065,JP,29,Togami,
248066,JP,12,Ishiyama,
248067,JP,20,Hiraishi,
248068,JP,38,Kuzuu,
248069,JP,35,Noji,
248070,JP,12,Komadome,
248071,JP,29,Yamauchi,
248072,JP,14,Mizuki,
248073,JP,47,Itoman,
248074,JP,27,Kuwa,
248075,JP,21,Horikawa,
248076,JP,24,Kakuda,
248077,JP,23,Taisho,
248078,JP,19,Hayama,
248079,JP,20,Akaoka,
248080,JP,20,Yusuhara,
248081,JP,20,Noichi,
248082,JP,23,Chikusa,
248083,JP,44,Kiyokawa,
248084,JP,29,Chujo,
248085,JP,30,Arato,
248086,JP,47,Tsukayama,
248087,JP,11,Hiro,
248088,JP,34,Yono,
248089,JP,4,Kinsho,
248090,JP,38,Tateiwa,
248091,JP,19,Hiyoshi,
248092,JP,22,Iwataki,
248093,JP,11,Higashino,
248094,JP,22,Muko,
248095,JP,42,Uozu,
248096,JP,33,Imamura,
248097,JP,45,Sekido,
248098,JP,38,Heya,
248099,JP,26,Katagiri,
248100,JP,37,Kachi,
248101,JP,24,Ishinomaki,
248102,JP,25,Kuroki,
248103,JP,14,Kasama,
248104,JP,14,Kitaibaraki,
248105,JP,14,Ryugasaki,
248106,JP,14,Itako,
248107,JP,14,Mitsukaido,
248108,JP,22,Katsura,
248109,JP,46,Iwama,
248110,JP,14,Iwase,
248111,JP,14,Daigo,
248112,JP,14,Hokota,
248113,JP,4,Hasaki,
248114,JP,14,Edosaki,
248115,JP,36,Miho,
248116,JP,25,Kawachi,
248117,JP,32,Sakuragawa,
248118,JP,12,Yawara,
248119,JP,14,Makabe,
248120,JP,14,Ishige,
248121,JP,14,Fujishiro,
248122,JP,14,Shimodate,
248123,JP,14,Ishioka,
248124,JP,14,Oarai,
248125,JP,14,Takahagi,
248126,JP,6,Mikuni,
248127,JP,1,Taya,
248128,JP,41,Sekigane,
248129,JP,42,Inami,
248130,JP,8,Towada,
248131,JP,47,Dana,
248132,JP,40,Hachioji,
248133,JP,42,Yatsuo,
248134,JP,27,Taiho,
248135,JP,11,Koi,
248136,JP,12,Kikusui,
248137,JP,26,Tomono,
248138,JP,37,Monzen,
248139,JP,15,Matto,
248140,JP,15,Hakui,
248141,JP,29,Katamachi,
248142,JP,1,Kuroda,
248143,JP,33,Yamaya,
248144,JP,26,Takato,
248145,JP,26,Iiyama,
248146,JP,1,Isshiki,
248147,JP,1,Taketoyo,
248148,JP,12,Tsukisamu,
248149,JP,12,Soya,
248150,JP,22,Amino,
248151,JP,5,Emoto,
248152,JP,11,Fukuyama,
248153,JP,12,Shiretoko,
248154,JP,3,Tsuchiya,
248155,JP,8,Naganuma,
248156,JP,8,Kotagawa,
248157,JP,29,Hirabayashi,
248158,JP,2,Kitaura,
248159,JP,11,Shinkai,
248160,JP,8,Kumakura,
248161,JP,30,Obira,
248162,JP,23,Otobe,
248163,JP,34,Hatogaya,
248164,JP,38,Yumoto,
248165,JP,4,Choshi,
248166,JP,12,Karyu,
248167,JP,18,Hiraiwa,
248168,JP,43,Kagaya,
248169,JP,16,Karumai,
248170,JP,30,Tachiya,
248171,JP,37,Ikawa,
248172,JP,36,Koryo,
248173,JP,27,Komoda,
248174,JP,31,Takaya,
248175,JP,18,Kawauchi,
248176,JP,29,Ebisu,
248177,JP,36,Imada,
248178,JP,11,Maegawa,
248179,JP,43,Myohoji,
248180,JP,32,Tanigawa,
248181,JP,11,Tajiri,
248182,JP,40,Tachikawa,
248183,JP,1,Kida,
248184,JP,16,Furuta,
248185,JP,47,Banchi,
248186,JP,46,Narisawa,
248187,JP,16,Fukada,
248188,JP,11,Ondo,
248189,JP,37,Kawana,
248190,JP,35,Ichiba,
248191,JP,46,Iino,
248192,JP,33,Nomoto,
248193,JP,12,Osawa,
248194,JP,47,Hamamoto,
248195,JP,28,Hagihara,
248196,JP,33,Shioda,
248197,JP,9,Takayama,
248198,JP,36,Tamaru,
248199,JP,18,Takarabe,
248200,JP,11,Miyajima,
248201,JP,11,Kayama,
248202,JP,18,Iseki,
248203,JP,31,Takahasi,
248204,JP,37,Nishijima,
248205,JP,43,Mukaiyama,
248206,JP,31,Mizushima,
248207,JP,13,Fujie,
248208,JP,1,Otaka,
248209,JP,34,Akai,
248210,JP,18,Kawanabe,
248211,JP,27,Hirayama,
248212,JP,27,Sone,
248213,JP,28,Kashihara,
248214,JP,16,Motoki,
248215,JP,9,Tokuda,
248216,JP,35,Ibuki,
248217,JP,27,Takami,
248218,JP,34,Takasaka,
248219,JP,8,Nozawa,
248220,JP,44,Yamagiwa,
248221,JP,11,Maekawa,
248222,JP,27,Arakawa,
248223,JP,12,Mizuguchi,
248224,JP,26,Matumoto,
248225,JP,40,Tubota,
248226,JP,7,Kuzuha,
248227,JP,15,Orito,
248228,JP,31,Itakura,
248229,JP,18,Sase,
248230,JP,22,Terada,
248231,JP,21,Akahane,
248232,JP,42,Mizuhashi,
248233,JP,9,Ikeno,
248234,JP,43,Daiji,
248235,JP,37,Kiga,
248236,JP,1,Narumi,
248237,JP,29,Mase,
248238,JP,26,Nakasawa,
248239,JP,40,Negishi,
248240,JP,42,Nakada,
248241,JP,11,Hayase,
248242,JP,18,Imaizumi,
248243,JP,8,Fukuhara,
248244,JP,27,Izuhara,
248245,JP,23,Toshi,
248246,JP,25,Hirahara,
248247,JP,32,Yasaka,
248248,JP,18,Kokubo,
248249,JP,3,Nakasato,
248250,JP,13,Shigeyuki,
248251,JP,27,Urata,
248252,JP,37,Mutsumi,
248253,JP,14,Ishizuka,
248254,JP,1,Toyokawa,
248255,JP,23,Kayumi,
248256,JP,6,Hukui,
248257,JP,18,Taniyama,
248258,JP,33,Kagami,
248259,JP,39,Kirikoshi,
248260,JP,40,Dori,
248261,JP,7,Fukunaga,
248262,JP,24,Inai,
248263,JP,13,Torikai,
248264,JP,22,Taka,
248265,JP,27,Ohama,
248266,JP,4,Takeoka,
248267,JP,13,Kusumoto,
248268,JP,47,Harakawa,
248269,JP,3,Kawamori,
248270,JP,34,Niikura,
248271,JP,42,Tateno,
248272,JP,26,Kijima,
248273,JP,14,Mimura,
248274,JP,8,Nakaji,
248275,JP,36,Hishi,
248276,JP,37,Okuyama,
248277,JP,46,Nagasaka,
248278,JP,34,Kumagaya,
248279,JP,18,Hayato,
248280,JP,4,Hasunuma,
248281,JP,26,Konuma,
248282,JP,15,Hatta,
248283,JP,36,Koura,
248284,JP,6,Umeura,
248285,JP,25,Okubo,
248286,JP,47,Teruya,
248287,JP,35,Takamiya,
248288,JP,24,Yakata,
248289,JP,30,Saiki,
248290,JP,27,Takashima,
248291,JP,46,Shimoyama,
248292,JP,30,Yamaura,
248293,JP,26,Nakagomi,
248294,JP,19,Ninomiya,
248295,JP,12,Ogoshi,
248296,JP,41,Mizoguchi,
248297,JP,37,Matsuzaki,
248298,JP,47,Nishizaki,
248299,JP,12,Kushira,
248300,JP,31,Saidaiji,
248301,JP,39,Anan,
248302,JP,25,Nishikata,
248303,JP,29,Iwafune,
248304,JP,11,Onomichi,
248305,JP,7,Ishizaki,
248306,JP,21,Tabata,
248307,JP,24,Kahoku,
248308,JP,40,Ginza,
248309,JP,16,Sakari,
248310,JP,22,Kawabe,
248311,JP,47,Gima,
248312,JP,47,Zukeran,
248313,JP,47,Tokashiki,
248314,JP,23,Ozato,
248315,JP,19,Suehiro,
248316,JP,40,Kohinata,
248317,JP,42,Aimoto,
248318,JP,47,Hirara,
248319,JP,47,Shimoji,
248320,JP,11,Kuba,
248321,JP,27,Hakuto,
248322,JP,26,Maruko,
248323,JP,29,Tsugawa,
248324,JP,36,Shimojo,
248325,JP,23,Soda,
248326,JP,12,Jissen,
248327,JP,37,Inui,
248328,JP,42,Obara,
248329,JP,40,Nerima,
248330,JP,29,Niitsu,
248331,JP,13,Takatori,
248332,JP,4,Onjuku,
248333,JP,31,Hoden,
248334,JP,7,Nogata,
248335,JP,5,Kucho,
248336,JP,13,Aboshi,
248337,JP,28,Hase,
248338,JP,25,Mikado,
248339,JP,24,Yamoto,
248340,JP,31,Niimi,
248341,JP,25,Kamikawa,
248342,JP,1,Hashida,
248343,JP,17,Kotohira,
248344,JP,26,Mure,
248345,JP,5,Kawanoe,
248346,JP,35,Katata,
248347,JP,32,Tondabayashi,
248348,JP,11,Kumami,
248349,JP,35,Imazu,
248350,JP,47,Torishima,
248351,JP,26,Momoyama,
248352,JP,22,Ayabe,
248353,JP,8,Kori,
248354,JP,42,Hiraki,
248355,JP,22,Mineyama,
248356,JP,47,Koshihara,
248357,JP,9,Aoyagi,
248358,JP,36,Taishi,
248359,JP,45,Waku,
248360,JP,26,Shiojiri,
248361,JP,12,Kikyo,
248362,JP,45,Seba,
248363,JP,13,Kiso,
248364,JP,36,Wake,
248365,JP,11,Kake,
248366,JP,7,Hiramatsu,
248367,JP,40,Toyosu,
248368,JP,4,Shibasaki,
248369,JP,12,Homme,
248370,JP,44,Semi,
248371,JP,4,Miyakawa,
248372,JP,31,Hayashima,
248373,JP,2,Takanosu,
248374,JP,18,Ogachi,
248375,JP,13,Yaka,
248376,JP,12,Shirakami,
248377,JP,2,Kazuno,
248378,JP,18,Nishime,
248379,JP,34,Honjo,
248380,JP,5,Yawatahama,
248381,JP,47,Kuniyoshi,
248382,JP,47,Tonaki,
248383,JP,6,Tsuruga,
248384,JP,43,Asso,
248385,JP,42,Kamiichi,
248386,JP,27,Sanri,
248387,JP,47,Nishiharu,
248388,JP,18,Oguchi,
248389,JP,27,Misato,
248390,JP,31,Kuze,
248391,JP,25,Hoso,
248392,JP,47,Nakasone,
248393,JP,39,Asakawa,
248394,JP,3,Yomogita,
248395,JP,40,Shirako,
248396,JP,12,Takikawa,
248397,JP,22,Wachi,
248398,JP,8,Miyashita,
248399,JP,36,Ichimura,
248400,JP,36,Yamasa,
248401,JP,31,Katsumata,
248402,JP,47,Haebaru,
248403,JP,27,Nakanoshima,
248404,JP,27,Imafuku,
248405,JP,47,Yonabaru,
248406,JP,39,Hanoura,
248407,JP,17,Shionoe,
248408,JP,20,Susaki,
248409,JP,17,Kinashi,
248410,JP,27,Shuji,
248411,JP,14,Mizunuma,
248412,JP,23,Chigusa,
248413,JP,17,Shimomura,
248414,JP,17,Naoshima,
248415,JP,6,Maruoka,
248416,JP,30,Tsurusaki,
248417,JP,37,Fujinomiya,
248418,JP,1,Handa,
248419,JP,27,Fukuishi,
248420,JP,4,Note,
248421,JP,16,Kitakami,
248422,JP,35,Aiba,
248423,JP,34,Nogami,
248424,JP,7,Kashii,
248425,JP,5,Namikata,
248426,JP,7,Yukuhashi,
248427,JP,1,Inazawa,
248428,JP,18,Jumonji,
248429,JP,4,Abiko,
248430,JP,19,Honmoku,
248431,JP,19,Sekimoto,
248432,JP,4,Shiroi,
248433,JP,44,Sawauchi,
248434,JP,38,Takatoku,
248435,JP,29,Aomi,
248436,JP,25,Nichinan,
248437,JP,3,Hirosaki,
248438,JP,31,Ibara,
248439,JP,25,Ikata,
248440,JP,39,Komatsushima,
248441,JP,8,Tadano,
248442,JP,5,Miyakubo,
248443,JP,4,Ichibacho,
248444,JP,18,Kokubu,
248445,JP,18,Akina,
248446,JP,45,Kudamatsu,
248447,JP,45,Tabuse,
248448,JP,32,Tennoji,
248449,JP,24,Kitame,
248450,JP,27,Dejima,
248451,JP,18,Yamagami,
248452,JP,35,Kido,
248453,JP,32,Kashiwara,
248454,JP,36,Tako,
248455,JP,13,Ebara,
248456,JP,12,Nemuro,
248457,JP,12,Akabira,
248458,JP,23,Osato,
248459,JP,45,Yanai,
248460,JP,45,Toishi,
248461,JP,1,Fujikawa,
248462,JP,8,Kotaka,
248463,JP,1,Asuke,
248464,JP,7,Amaki,
248465,JP,31,Tamano,
248466,JP,8,Kitakata,
248467,JP,46,Isawa,
248468,JP,30,Kitsuki,
248469,JP,10,Maebashi,
248470,JP,24,Tsukinoki,
248471,JP,21,Iwashita,
248472,JP,47,Takushi,
248473,JP,12,Hokko,
248474,JP,12,Shibetsu,
248475,JP,12,Horonobe,
248476,JP,12,Wakkanai,
248477,JP,4,Chikura,
248478,JP,9,Tsunokawa,
248479,JP,12,Ashoro,
248480,JP,12,Yamakoshi,
248481,JP,8,Matsukawa,
248482,JP,27,Saka,
248483,JP,39,Waki,
248484,JP,40,Shirogane,
248485,JP,18,Shinchi,
248486,JP,4,Kaburaki,
248487,JP,1,Hekinan,
248488,JP,18,Kunigami,
248489,JP,12,Tsubetsu,
248490,JP,32,Suita,
248491,JP,2,Gojome,
248492,JP,29,Kariwa,
248493,JP,4,Matsudo,
248494,JP,19,Urayama,
248495,JP,31,Hinase,
248496,JP,27,Fukusaki,
248497,JP,47,Kura,
248498,JP,8,Mitsuwa,
248499,JP,7,Soeda,
248500,JP,46,Katsunuma,
248501,JP,47,Kana,
248502,JP,46,Otsuki,
248503,JP,7,Nakama,
248504,JP,7,Akaike,
248505,JP,26,Toyoshina,
248506,JP,19,Oiso,
248507,JP,27,Kawara,
248508,JP,7,Himeshima,
248509,JP,30,Hita,
248510,JP,24,Saigawa,
248511,JP,16,Hashiba,
248512,JP,24,Tome,
248513,JP,14,Haji,
248514,JP,12,Bifuka,
248515,JP,13,Tsukaguchi,
248516,JP,11,Muroo,
248517,JP,27,Kurose,
248518,JP,11,Shobara,
248519,JP,15,Funo,
248520,JP,11,Hiwa,
248521,JP,4,Kohata,
248522,JP,8,Takatama,
248523,JP,36,Oike,
248524,JP,35,Fukawa,
248525,JP,18,Ikebe,
248526,JP,19,Kamoi,
248527,JP,9,Gero,
248528,JP,9,Mitake,
248529,JP,9,Mizunami,
248530,JP,9,Toki,
248531,JP,9,Kasamatsu,
248532,JP,36,Kitagata,
248533,JP,4,Narashino,
248534,JP,38,Nishizawa,
248535,JP,9,Nagura,
248536,JP,37,Kanaya,
248537,JP,11,Kojin,
248538,JP,26,Niino,
248539,JP,33,Suminoe,
248540,JP,24,Shiogama,
248541,JP,18,Kawahigashi,
248542,JP,24,Kesennuma,
248543,JP,34,Hanno,
248544,JP,34,Menuma,
248545,JP,34,Hasuda,
248546,JP,44,Shitsu,
248547,JP,43,Misa,
248548,JP,42,Sanka,
248549,JP,1,Fujisato,
248550,JP,12,Kobu,
248551,JP,18,Oshiro,
248552,JP,29,Jojo,
248553,JP,47,Shinto,
248554,JP,12,Moseushi,
248555,JP,38,Ujiie,
248556,JP,35,Kusatsu,
248557,JP,1,Hotei,
248558,JP,1,Kochino,
248559,JP,31,Shincho,
248560,JP,44,Fukuta,
248561,JP,3,Sanbongi,
248562,JP,26,Yokokura,
248563,JP,7,Sasaguri,
248564,JP,12,Biei,
248565,JP,11,Motomachi,
248566,JP,12,Noboribetsu,
248567,JP,12,Otofuke,
248568,JP,12,Kenebetsu,
248569,JP,12,Kohan,
248570,JP,34,Owada,
248571,JP,37,Hanazawa,
248572,JP,14,Katakura,
248573,JP,35,Suijo,
248574,JP,36,Kambara,
248575,JP,18,Yokokawa,
248576,JP,18,Shinokawa,
248577,JP,3,Tateoka,
248578,JP,15,Saida,
248579,JP,8,Tamanoi,
248580,JP,22,Fukuchiyama,
248581,JP,5,Nitta,
248582,JP,18,Yuda,
248583,JP,1,Onuma,
248584,JP,26,Yuba,
248585,JP,6,Futamura,
248586,JP,2,Toga,
248587,JP,26,Mashino,
248588,JP,18,Shiomi,
248589,JP,18,Tarumizu,
248590,JP,31,Minori,
248591,JP,17,Ichii,
248592,JP,12,Yakumo,
248593,JP,38,Kitsuregawa,
248594,JP,38,Mibu,
248595,JP,38,Kaminokawa,
248596,JP,18,Kominato,
248597,JP,16,Hirukawa,
248598,JP,13,Takino,
248599,JP,47,Nozato,
248600,JP,40,Yodobashi,
248601,JP,22,Kizu,
248602,JP,24,Kanetsu,
248603,JP,3,Goshogawara,
248604,JP,34,Satte,
248605,JP,3,Okuno,
248606,JP,44,Hamanaka,
248607,JP,25,Tsuru,
248608,JP,12,Bekkai,
248609,JP,11,Oguni,
248610,JP,34,Nagareyama,
248611,JP,4,Chonan,
248612,JP,47,Tsunami,
248613,JP,12,Kiyosato,
248614,JP,12,Akaigawa,
248615,JP,32,Terauchi,
248616,JP,12,Yubari,
248617,JP,39,Yamase,
248618,JP,29,Muikamachi,
248619,JP,16,Komoto,
248620,JP,26,Azumi,
248621,JP,3,Ohata,
248622,JP,12,Hatoyama,
248623,JP,18,Tarumi,
248624,JP,10,Iwato,
248625,JP,18,Wakimoto,
248626,JP,40,Urayasu,
248627,JP,8,Namie,
248628,JP,12,Gumma,
248629,JP,12,Yunokawa,
248630,JP,12,Kikin,
248631,JP,26,Miyaki,
248632,JP,29,Naoetsu,
248633,JP,29,Tokamachi,
248634,JP,6,Suizu,
248635,JP,33,Ushizu,
248636,JP,31,Hibi,
248637,JP,30,Hiji,
248638,JP,19,Hyuga,
248639,JP,13,Wadayama,
248640,JP,40,Ishino,
248641,JP,28,Gosho,
248642,JP,25,Shinden,
248643,JP,4,Hoda,
248644,JP,19,Takeyama,
248645,JP,10,Hataya,
248646,JP,23,Oyodo,
248647,JP,12,Shintoku,
248648,JP,39,Banzai,
248649,JP,3,Isoya,
248650,JP,7,Amagi,
248651,JP,24,Koshiji,
248652,JP,22,Fushimi,
248653,JP,34,Chichibu,
248654,JP,45,Kiwa,
248655,JP,1,Shitara,
248656,JP,1,Irago,
248657,JP,27,Oishi,
248658,JP,5,Matsumaru,
248659,JP,18,Hishida,
248660,JP,13,Kasumi,
248661,JP,18,Miyachi,
248662,JP,27,Kishu,
248663,JP,47,Tera,
248664,JP,19,Sagamihara,
248665,JP,34,Fukaya,
248666,JP,7,Kobukuro,
248667,JP,7,Tobata,
248668,JP,43,Hongu,
248669,JP,23,Udono,
248670,JP,12,Kaiyo,
248671,JP,35,Maihara,
248672,JP,18,Chiran,
248673,JP,10,Okuwa,
248674,JP,46,Nirasaki,
248675,JP,18,Utsu,
248676,JP,47,Higa,
248677,JP,1,Anjo,
248678,JP,9,Kanehira,
248679,JP,13,Hime,
248680,JP,3,Mutsu,
248681,JP,44,Tomisawa,
248682,JP,12,Urakawa,
248683,JP,3,Obuchi,
248684,JP,37,Fujieda,
248685,JP,38,Moka,
248686,JP,18,Kinen,
248687,JP,16,Kawagishi,
248688,JP,25,Fukase,
248689,JP,47,Gushikawa,
248690,JP,40,Kugayama,
248691,JP,36,Ushio,
248692,JP,13,Nagaya,
248693,JP,21,Maehara,
248694,JP,47,Gushikami,
248695,JP,27,Mitsukoshi,
248696,JP,42,Nyuzen,
248697,JP,14,Ozone,
248698,JP,12,Sakushu,
248699,JP,13,Takarazuka,
248700,JP,7,Maebaru,
248701,JP,21,Hitoyoshi,
248702,JP,27,Sechibaru,
248703,JP,1,Kume,
248704,JP,10,Tatebayashi,
248705,JP,19,Manazuru,
248706,JP,3,Momoishi,
248707,JP,8,Toyoma,
248708,JP,11,Matsushima,
248709,JP,38,Kinugawa,
248710,JP,16,Hiraizumi,
248711,JP,24,Iwanuma,
248712,JP,15,Shirayama,
248713,JP,15,Hakusan,
248714,JP,34,Iwatsuki,
248715,JP,12,Nanae,
248716,JP,29,Moroo,
248717,JP,22,Takasu,
248718,JP,12,Misono,
248719,JP,29,Nakakura,
248720,JP,47,Ishin,
248721,JP,12,Shihoro,
248722,JP,47,Kise,
248723,JP,10,Fujioka,
248724,JP,12,Pippu,
248725,JP,26,Suzaka,
248726,JP,12,Tomisato,
248727,JP,22,Tango,
248728,JP,22,Miyazu,
248729,JP,11,Kannabe,
248730,JP,15,Matsunami,
248731,JP,13,Niki,
248732,JP,13,Hamasaka,
248733,JP,11,Kaichi,
248734,JP,42,Yumura,
248735,JP,9,Tajimi,
248736,JP,16,Yado,
248737,JP,29,Mitsuke,
248738,JP,40,Bancho,
248739,JP,26,Yabuhara,
248740,JP,29,Gosen,
248741,JP,40,Senju,
248742,JP,13,Sasayama,
248743,JP,44,Arasawa,
248744,JP,15,Ukai,
248745,JP,43,Oguma,
248746,JP,39,Komi,
248747,JP,19,Hatano,
248748,JP,15,Hitoto,
248749,JP,32,Kashiwabara,
248750,JP,36,Nima,
248751,JP,8,Kanatsu,
248752,JP,11,Kabe,
248753,JP,19,Doshi,
248754,JP,34,Okegawa,
248755,JP,15,Wajima,
248756,JP,37,Kakegawa,
248757,JP,38,Mashiko,
248758,JP,37,Okitsu,
248759,JP,8,Kito,
248760,JP,44,Yusawa,
248761,JP,34,Fukiage,
248762,JP,23,Aiga,
248763,JP,47,Zamami,
248764,JP,47,Yako,
248765,JP,39,Sadamitsu,
248766,JP,4,Mobara,
248767,JP,12,Shari,
248768,JP,34,Yorii,
248769,JP,12,Ishikari,
248770,JP,22,Habu,
248771,JP,45,Kiyo,
248772,JP,9,Imao,
248773,JP,8,Kuma,
248774,JP,29,Sanjo,
248775,JP,27,Oura,
248776,JP,11,Senda,
248777,JP,18,Sani,
248778,JP,12,Suttu,
248779,JP,9,Kakamigahara,
248780,JP,31,Shoden,
248781,JP,22,Nishijin,
248782,JP,37,Samejima,
248783,JP,13,Sayo,
248784,JP,10,Annaka,
248785,JP,39,Tokusima,
248786,JP,27,Sisi,
248787,JP,40,Komae,
248788,JP,17,Kanonji,
248789,JP,24,Sorimachi,
248790,JP,22,Nanjo,
248791,JP,27,Nagayo,
248792,JP,40,Senjyu,
248793,JP,30,Kusu,
248794,JP,47,Shoshi,
248795,JP,34,Akaiwa,
248796,JP,9,Sunomata,
248797,JP,3,Odai,
248798,JP,40,Gundo,
248799,JP,12,Toyokoro,
248800,JP,34,Tokorozawa,
248801,JP,12,Sunagawa,
248802,JP,27,Komu,
248803,JP,29,Sekiyama,
248804,JP,35,Kinomoto,
248805,JP,31,Tsukui,
248806,JP,37,Oiwake,
248807,JP,12,Kuromatsunai,
248808,JP,19,Yoda,
248809,JP,4,Sawara,
248810,JP,2,Narasaki,
248811,JP,29,Kosuto,
248812,JP,12,Rokugo,
248813,JP,39,Kono,
248814,JP,22,Hiraya,
248815,JP,23,Ugata,
248816,JP,22,Yura,
248817,JP,29,Omae,
248818,JP,39,Wajiki,
248819,JP,39,Hiwasa,
248820,JP,35,Kitahama,
248821,JP,7,Tamachi,
248822,JP,22,Yodo,
248823,JP,26,Nagae,
248824,JP,21,Kusakabe,
248825,JP,18,Uken,
248826,JP,12,Setana,
248827,JP,12,Sobetsu,
248828,JP,12,Horokanai,
248829,JP,12,Esashi,
248830,JP,12,Hamatonbetsu,
248831,JP,12,Wassamu,
248832,JP,12,Tsukigata,
248833,JP,27,Simabara,
248834,JP,12,Abira,
248835,JP,12,Aibetsu,
248836,JP,12,Sarufutsu,
248837,JP,12,Shimukappu,
248838,JP,31,Mikamo,
248839,JP,24,Ogawara,
248840,JP,8,Itsumi,
248841,JP,17,Kozai,
248842,JP,34,Kurosu,
248843,JP,30,Morizane,
248844,JP,47,Kanna,
248845,JP,32,Tanikawa,
248846,JP,3,Harako,
248847,JP,11,Miyahara,
248848,JP,44,Kanisawa,
248849,JP,13,Ehara,
248850,JP,12,Mashike,
248851,JP,27,Mogi,
248852,JP,25,Fukuoji,
248853,JP,44,Tendo,
248854,JP,3,Oirase,
248855,JP,8,Akimoto,
248856,JP,13,Ikuno,
248857,JP,34,Moroyama,
248858,JP,3,Osame,
248859,JP,30,Senzai,
248860,JP,28,Ikoma,
248861,JP,13,Shio,
248862,JP,47,Jana,
248863,JP,25,Sakita,
248864,JP,34,Wakida,
248865,JP,47,Meta,
248866,JP,41,Sakaiminato,
248867,JP,11,Kaneyoshi,
248868,JP,35,Kuku,
248869,JP,13,Nakahiro,
248870,JP,35,Taga,
248871,JP,18,Yoro,
248872,JP,27,Hisaka,
248873,JP,37,Hamana,
248874,JP,30,Hirokawa,
248875,JP,12,Echizen,
248876,JP,22,Anju,
248877,JP,12,Shinryu,
248878,JP,38,Fujihara,
248879,JP,24,Ayukawa,
248880,JP,12,Sannai,
248881,JP,28,Yagyu,
248882,JP,12,Niikappu,
248883,JP,31,Nishitani,
248884,JP,47,Makiya,
248885,JP,7,Katsuki,
248886,JP,18,Yuta,
248887,JP,36,Akatsuka,
248888,JP,24,Tona,
248889,JP,31,Chaya,
248890,JP,44,Osumi,
248891,JP,12,Engaru,
248892,JP,41,Hamamura,
248893,JP,12,Shinai,
248894,JP,25,Todaka,
248895,JP,24,Marumori,
248896,JP,23,Hazu,
248897,JP,31,Yakage,
248898,JP,47,Fukai,
248899,JP,18,Wadomari,
248900,JP,16,Terabayashi,
248901,JP,44,Sakaida,
248902,JP,35,Kaizu,
248903,JP,35,Musa,
248904,JP,13,Hirohata,
248905,JP,47,Agena,
248906,JP,36,Aika,
248907,JP,38,Yaita,
248908,JP,25,Kawasaka,
248909,JP,12,Kuttyan,
248910,JP,8,Miharu,
248911,JP,12,Makubetsu,
248912,JP,38,Kurobane,
248913,JP,19,Hakone,
248914,JP,26,Shimodaira,
248915,JP,2,Hiyama,
248916,JP,11,Tojo,
248917,JP,8,Inawashiro,
248918,JP,47,Ginoza,
248919,JP,29,Seiro,
248920,JP,29,Kosudo,
248921,JP,26,Hiraoka,
248922,JP,4,Yamakura,
248923,JP,29,Shiunji,
248924,JP,36,Taisha,
248925,JP,45,Onoda,
248926,JP,24,Araya,
248927,JP,8,Onagawa,
248928,JP,16,Ichinohe,
248929,JP,3,Noheji,
248930,JP,47,Chatan,
248931,JP,47,Kadena,
248932,JP,47,Motobu,
248933,JP,29,Sibata,
248934,JP,11,Kurahashi,
248935,JP,4,Yachimata,
248936,JP,7,Miyada,
248937,JP,1,Kusai,
248938,JP,37,Mamiya,
248939,JP,40,Shiba,
248940,JP,24,Watari,
248941,JP,12,Tokumitsu,
248942,JP,29,Tochio,
248943,JP,28,Nagara,
248944,JP,24,Wakuya,
248945,JP,25,Kuroi,
248946,JP,23,Hayata,
248947,JP,32,Senriyama,
248948,JP,14,Inada,
248949,JP,26,Toyosato,
248950,JP,42,Kyoden,
248951,JP,33,Sakashita,
248952,JP,18,Futagawa,
248953,JP,27,Kodai,
248954,JP,14,Kihara,
248955,JP,24,Hirasawa,
248956,JP,37,Nishina,
248957,JP,40,Bessho,
248958,JP,43,Kashiyama,
248959,JP,44,Yuza,
248960,JP,47,Chin,
248961,JP,1,Tawara,
248962,JP,26,Akashina,
248963,JP,11,Otomo,
248964,JP,12,Kunneppu,
248965,JP,12,Oketo,
248966,JP,12,Ebetsu,
248967,JP,12,Nakamichi,
248968,JP,11,Tomoda,
248969,JP,4,Kashi,
248970,JP,12,Naebo,
248971,JP,2,Kyokubi,
248972,JP,12,Kombu,
248973,JP,36,Yasugi,
248974,JP,21,Tamana,
248975,JP,21,Hondo,
248976,JP,33,Morodomi,
248977,JP,27,Wakamatsu,
248978,JP,12,Rikubetsu,
248979,JP,12,Rausu,
248980,JP,12,Hayakita,
248981,JP,12,Shikabe,
248982,JP,12,Makkari,
248983,JP,20,Iburi,
248984,JP,39,Mugi,
248985,JP,39,Shishikui,
248986,JP,35,Aeba,
248987,JP,7,Kanada,
248988,JP,45,Nishiichi,
248989,JP,31,Nariwa,
248990,JP,11,Okuni,
248991,JP,21,Sashiki,
248992,JP,47,Akamine,
248993,JP,33,Karatu,
248994,JP,11,Tsukumo,
248995,JP,40,Ryogoku,
248996,JP,23,Nita,
248997,JP,5,Shono,
248998,JP,29,Yoita,
248999,JP,13,Shikata,
249000,JP,5,Uchiko,
249001,JP,35,Echigawa,
249002,JP,10,Kiriu,
249003,JP,24,Matsukura,
249004,JP,27,Hasama,
249005,JP,27,Hongo,
249006,JP,22,Yotsuya,
249007,JP,26,Ichinose,
249008,JP,27,Seno,
249009,JP,5,Saijo,
249010,JP,30,Kakaji,
249011,JP,26,Agematsu,
249012,JP,18,Togo,
249013,JP,25,Sadowara,
249014,JP,8,Kanahashi,
249015,JP,18,Tsuruda,
249016,JP,23,Mukumoto,
249017,JP,16,Omoto,
249018,JP,21,Miyanohara,
249019,JP,35,Katsuno,
249020,JP,5,Iwabuchi,
249021,JP,15,Noroshi,
249022,JP,15,Higashijima,
249023,JP,45,Ajisu,
249024,JP,12,Tokoro,
249025,JP,44,Kaminoyama,
249026,JP,14,Momiyama,
249027,JP,25,Nojiri,
249028,JP,1,Takatsuka,
249029,JP,43,Esumi,
249030,JP,3,Fujishima,
249031,JP,8,Oshio,
249032,JP,44,Shinjo,
249033,JP,45,Nabekura,
249034,JP,43,Koyasan,
249035,JP,12,Tomatsu,
249036,JP,12,Haraguchi,
249037,JP,19,Fujino,
249038,JP,31,Kasaoka,
249039,JP,22,Shinomiya,
249040,JP,7,Nishibata,
249041,JP,1,Shinshiro,
249042,JP,41,Kurayoshi,
249043,JP,36,Gotsu,
249044,JP,24,Koya,
249045,JP,2,Noshiro,
249046,JP,8,Tadami,
249047,JP,8,Nihonmatsu,
249048,JP,29,Shirone,
249049,JP,27,Kizaki,
249050,JP,40,Yanaka,
249051,JP,46,Minobu,
249052,JP,34,Sakado,
249053,JP,43,Miyashiro,
249054,JP,42,Nagasawa,
249055,JP,24,Yagawa,
249056,JP,8,Isobe,
249057,JP,27,Sakiyama,
249058,JP,14,Kuji,
249059,JP,22,Saiin,
249060,JP,41,Yokomi,
249061,JP,25,Takajo,
249062,JP,25,Yamanokuchi,
249063,JP,31,Kamogata,
249064,JP,31,Yorishima,
249065,JP,27,Fukumi,
249066,JP,12,Kamiiso,
249067,JP,34,Nakase,
249068,JP,47,Masuya,
249069,JP,5,Futami,
249070,JP,12,Yuni,
249071,JP,12,Enbetsu,
249072,JP,30,Inukai,
249073,JP,7,Hachiya,
249074,JP,43,Kashino,
249075,JP,45,Izaki,
249076,JP,12,Sakanoue,
249077,JP,47,Nobo,
249078,JP,24,Hippo,
249079,JP,41,Ichise,
249080,JP,18,Nakayoshi,
249081,JP,13,Arima,
249082,JP,31,Senoo,
249083,JP,19,Koshigoe,
249084,JP,28,Tawaramoto,
249085,JP,12,Shimokawa,
249086,JP,19,Tsukagoshi,
249087,JP,17,Shimmei,
249088,JP,18,Sata,
249089,JP,34,Irumagawa,
249090,JP,15,Takanami,
249091,JP,13,Shico,
249092,JP,11,Mukai,
249093,JP,4,Kobata,
249094,JP,10,Akutsu,
249095,JP,44,Kaname,
249096,JP,20,Ikegawa,
249097,JP,46,Inuma,
249098,JP,22,Saeki,
249099,JP,30,Tohata,
249100,JP,11,Hatsukaichi,
249101,JP,40,Nippori,
249102,JP,27,Sasa,
249103,JP,40,Shirokane,
249104,JP,12,Rebun,
249105,JP,34,Sugito,
249106,JP,47,Maza,
249107,JP,35,Minakuchi,
249108,JP,19,Aonohara,
249109,JP,11,Funakoshi,
249110,JP,4,Node,
249111,JP,15,Bira,
249112,JP,47,Kowan,
249113,JP,40,Kichijoji,
249114,JP,14,Simodate,
249115,JP,12,Abashiri,
249116,JP,12,Ashibetsu,
249117,JP,26,Yugawa,
249118,JP,41,Karo,
249119,JP,37,Uyama,
249120,JP,10,Omama,
249121,JP,34,Mitsumine,
249122,JP,38,Kawaharu,
249123,JP,27,Kawatana,
249124,JP,11,Toge,
249125,JP,23,Momotori,
249126,JP,44,Kaishu,
249127,JP,40,Shiodome,
249128,JP,40,Shirakawacho,
249129,JP,20,Suda,
249130,JP,9,Makito,
249131,JP,44,Yamabe,
249132,JP,21,Yuyama,
249133,JP,34,Miyakojima,
249134,JP,24,Otori,
249135,JP,36,Kuromatsu,
249136,JP,17,Utazu,
249137,JP,17,Tonosho,
249138,JP,40,Gyotoku,
249139,JP,19,Ofuna,
249140,JP,29,Maze,
249141,JP,18,Nagayama,
249142,JP,11,Hasagawa,
249143,JP,36,Naoe,
249144,JP,16,Ichinobe,
249145,JP,43,Iwade,
249146,JP,4,Namegawa,
249147,JP,12,Garo,
249148,JP,7,Shinozaki,
249149,JP,29,Kurohime,
249150,JP,16,Ofunato,
249151,JP,12,Rumoi,
249152,JP,45,Maruo,
249153,JP,12,Kyogoku,
249154,JP,21,Nishiko,
249155,JP,27,Hirashima,
249156,JP,18,Kataura,
249157,JP,47,Tomigusuku,
249158,JP,9,Miboro,
249159,JP,21,Aitsu,
249160,JP,42,Kamegaya,
249161,JP,12,Hinaka,
249162,JP,1,Kozakai,
249163,JP,37,Atami,
249164,JP,42,Himi,
249165,JP,12,Toyosaka,
249166,JP,26,Mitsushima,
249167,JP,12,Ogishi,
249168,JP,40,Horinouchi,
249169,JP,8,Numajiri,
249170,JP,4,Katori,
249171,JP,12,Tobetsu,
249172,JP,3,Shiranuka,
249173,JP,35,Tokuhara,
249174,JP,46,Nambu,
249175,JP,18,Hioki,
249176,JP,9,Sugisaki,
249177,JP,32,Takatuki,
249178,JP,28,Gojo,
249179,JP,30,Shimoichi,
249180,JP,2,Minamizawa,
249181,JP,3,Funaoka,
249182,JP,3,Tateishi,
249183,JP,32,Tadaoka,
249184,JP,37,Maisaka,
249185,JP,12,Abasiri,
249186,JP,4,Omigawa,
249187,JP,44,Ashizawa,
249188,JP,23,Kashiwano,
249189,JP,47,Katsuren,
249190,JP,44,Nagatoro,
249191,JP,13,Hirotani,
249192,JP,15,Anamizu,
249193,JP,15,Unoke,
249194,JP,25,Okawachi,
249195,JP,12,Toyoura,
249196,JP,12,Abuta,
249197,JP,12,Okushiri,
249198,JP,34,Kisai,
249199,JP,12,Hokuryu,
249200,JP,12,Bihoro,
249201,JP,12,Shibun,
249202,JP,32,Hanaten,
249203,JP,7,Moji,
249204,JP,22,Monju,
249205,JP,32,Furuichi,
249206,JP,32,Haruki,
249207,JP,12,Uryu,
249208,JP,23,Oroshi,
249209,JP,11,Kawajiri,
249210,JP,12,Matsumae,
249211,JP,28,Koma,
249212,JP,31,Kama,
249213,JP,25,Hoshiyama,
249214,JP,44,Funagata,
249215,JP,3,Kuroishi,
249216,JP,47,Mazya,
249217,JP,24,Shirotori,
249218,JP,43,Komatsubara,
249219,JP,43,Jujo,
249220,JP,12,Atsubetsu,
249221,JP,29,Kawase,
249222,JP,4,Ajiki,
249223,JP,20,Tsuge,
249224,JP,4,Yokaichiba,
249225,JP,8,Sekita,
249226,JP,31,Tatsumiya,
249227,JP,30,Oharu,
249228,JP,20,Tochimoto,
249229,JP,20,Massaki,
249230,JP,12,Urahoro,
249231,JP,15,Mainami,
249232,JP,11,Saba,
249233,JP,18,Nishinoomote,
249234,JP,32,Juso,
249235,JP,40,Muromachi,
249236,JP,40,Yanagibashi,
249237,JP,22,Nohara,
249238,JP,13,Futatsuki,
249239,JP,31,Soja,
249240,JP,31,Katsumada,
249241,JP,31,Hayashino,
249242,JP,31,Kuse,
249243,JP,8,Uchikawa,
249244,JP,25,Tano,
249245,JP,22,Mimata,
249246,JP,31,Ajino,
249247,JP,31,Osakabe,
249248,JP,47,Baten,
249249,JP,23,Owase,
249250,JP,23,Tokusui,
249251,JP,12,Otoineppu,
249252,JP,31,Hanada,
249253,JP,27,Katagami,
249254,JP,13,Naba,
249255,JP,12,Kikonai,
249256,JP,16,Kado,
249257,JP,1,Okoshi,
249258,JP,43,Iimori,
249259,JP,43,Narukami,
249260,JP,36,Hane,
249261,JP,47,Hamakawa,
249262,JP,21,Kiyama,
249263,JP,43,Hosohara,
249264,JP,11,Umehara,
249265,JP,25,Ichiki,
249266,JP,27,Shikama,
249267,JP,45,Yuya,
249268,JP,18,Noma,
249269,JP,47,Kanisu,
249270,JP,47,Katena,
249271,JP,18,Kiten,
249272,JP,47,Sono,
249273,JP,47,Senta,
249274,JP,36,Saki,
249275,JP,38,Komaba,
249276,JP,11,Kisa,
249277,JP,37,Gotemba,
249278,JP,25,Suki,
249279,JP,44,Shiraiwa,
249280,JP,25,Takaharu,
249281,JP,36,Muraki,
249282,JP,18,Urushi,
249283,JP,12,Senjo,
249284,JP,9,Kuwano,
249285,JP,26,Omachi,
249286,JP,20,Shiina,
249287,JP,41,Kaida,
249288,JP,5,Maura,
249289,JP,21,Itsuki,
249290,JP,44,Magara,
249291,JP,27,Kojiro,
249292,JP,42,Daimon,
249293,JP,22,Nagaike,
249294,JP,43,Nishimine,
249295,JP,27,Fukuzaki,
249296,JP,18,Kagosima,
249297,JP,47,Arakaki,
249298,JP,37,Hamakita,
249299,JP,6,Awara,
249300,JP,12,Saru,
249301,JP,8,Joko,
249302,JP,32,Semba,
249303,JP,29,Soumi,
249304,JP,19,Akoma,
249305,JP,40,Kuramae,
249306,JP,30,Ishiuchi,
249307,JP,12,Sakaigawa,
249308,JP,1,Otto,
249309,JP,24,Kiyomizu,
249310,JP,13,Tenjin,
249311,JP,18,Okome,
249312,JP,40,Shirokanedai,
249313,JP,40,Kameari,
249314,JP,7,Karita,
249315,JP,47,Nakao,
249316,JP,23,Sakabe,
249317,JP,37,Sizuoka,
249318,JP,47,Kuwan,
249319,JP,45,Simonoseki,
249320,JP,14,Kadoi,
249321,JP,11,Torigoe,
249322,JP,39,Shichijo,
249323,JP,19,Kawawa,
249324,JP,44,Tazawa,
249325,JP,44,Nogawa,
249326,JP,27,Asahimachi,
249327,JP,22,Ashu,
249328,JP,15,Tsurugi,
249329,JP,23,Kawarada,
249330,JP,40,Sarugakucho,
249331,JP,47,Tise,
249332,JP,45,Suma,
249333,JP,43,Kurusugawa,
249334,JP,33,Kasima,
249335,JP,25,Ishigami,
249336,JP,47,Chan,
249337,JP,22,Tamamizu,
249338,JP,47,Nobu,
249339,JP,38,Akakura,
249340,JP,3,Kabayama,
249341,JP,3,Mora,
249342,JP,24,Ritu,
249343,JP,11,Shiramizu,
249344,JP,26,Neba,
249345,JP,19,Koyasu,
249346,JP,37,Suganuma,
249347,JP,36,Sumikawa,
249348,JP,30,Sugao,
249349,JP,1,Terabe,
249350,JP,12,Hanasaki,
249351,JP,7,Minatomachi,
249352,JP,29,Biwajima,
249353,JP,45,Mitajiri,
249354,JP,27,Urakami,
249355,JP,19,Nakamaru,
249356,JP,29,Shimasaki,
249357,JP,12,Tappu,
249358,JP,40,Haijima,
249359,JP,22,Hashizume,
249360,JP,37,Michibe,
249361,JP,24,Ishihama,
249362,JP,26,Suhara,
249363,JP,18,Iwakawa,
249364,JP,11,Nishimachi,
249365,JP,18,Yonekura,
249366,JP,27,Okawara,
249367,JP,12,Sosuke,
249368,JP,28,Yanagimoto,
249369,JP,47,Nakandakari,
249370,JP,12,Tomamu,
249371,JP,10,Tokyo,
249372,JP,2,Honjo,
249373,JP,40,Ome,
249374,JP,32,Moriguchi,
249375,JP,17,Matoba,
249376,JP,22,Uji,
249377,JP,34,Oi,
249378,JP,36,Oda,
249379,JP,8,Toyoda-machi,
249380,JP,13,Ono,
249381,JP,25,Takanabe,
249382,JP,7,Tanushimaru,
249383,JP,21,Matsubase,
249384,JP,35,Hino,
249385,JP,19,Yugawara,
249386,JP,10,Sakai,
249387,JP,12,Sembiri,
249388,JP,45,Ube,
249389,JP,43,Kabora,
249390,JP,34,Kurihashi,
249391,JP,47,Nakanoku,
249392,JP,34,Konosu,
249393,JP,34,Kamifukuoka,
249394,JP,13,Ako,
249395,JP,32,Yao,
249396,JP,26,Ina,
249397,JP,24,Akautsu,
249398,JP,8,Funehiki,
249399,JP,12,Shiraoi,
249400,JP,12,Toyohoro,
249401,JP,11,Akasaki,
249402,JP,20,Muroto,
249403,JP,14,Koga,
249404,JP,27,Nakazato,
249405,JP,12,Niniu,
249406,JP,13,Yabu,
249407,JP,27,Mie,
249408,JP,3,Namioka,
249409,JP,10,Nakanojo,
249410,JP,19,Imai-kamicho,
249411,JP,23,Ise,
249412,JP,37,Kawazu,
249413,JP,4,Futtsu,
249414,JP,11,Innoshima,
249415,JP,37,Ito,
249416,JP,44,Obanazawa,
249417,JP,26,Atsusayama,
249418,JP,38,Otawara,
249419,JP,44,Yamanobe,
249420,JP,8,Nihommatsu,
249421,JP,23,Tsu,
249422,JP,27,Sonogi,
249423,JP,21,Yamaga,
249424,JP,1,Obu,
249425,JP,5,Iyo,
249426,JP,14,Ami,
249427,JP,7,Kawasaki,
249428,JP,27,Fuefuki,
249429,JP,10,Ota,
249430,JP,11,Nigata,
249431,JP,9,Otani,
249432,JP,8,Ena,
249433,JP,7,Setaka,
249434,JP,39,Ko,
249435,JP,11,Ono,
249436,JP,9,Seto,
249437,JP,5,Ozu,
249438,JP,11,Fuchu,
249439,JP,28,Gose,
249440,JP,26,Tatsuno,
249441,JP,12,Kurohashi,
249442,JP,39,Ikeda,
249443,JP,22,Nomi,
249444,JP,23,Hisai,
249445,JP,27,Huehuki,
249446,JP,14,Sakai,
249447,JP,6,Ono,
249448,JP,36,Imaichi,
249449,JP,33,Kashima,
249450,JP,34,Shobu,
249451,JP,38,Tokujira,
249452,JP,47,Ginama,
249453,JP,40,Itsukaichi,
249454,JP,1,Kisogawa,
249455,JP,43,Shimotsu,
249456,JP,40,Kanamachi,
249457,JP,12,Higashikawa,
249458,JP,12,Kutchan,
249459,JP,40,Okada,
249460,JP,20,Sukumo,
249461,JP,40,Narihira,
249462,JP,8,Miyazaki,
249463,JP,27,Minoo,
249464,JP,47,Nakadomari,
249465,JP,26,Kami-honiri,
249466,JP,47,Syuri,
249467,JP,34,Matsueda,
249468,JP,21,Tomioka,
249469,JP,34,Yamazaki,
249470,JP,18,Ijuin,
249471,JP,39,Kamojima,
249472,JP,40,Nomase,
249473,JP,12,Makomanai-gorgo,
249474,JP,18,Izumi,
249475,JP,14,Sekiyado,
249476,JP,38,Imaichi,
249477,JP,24,Tate,
249478,JP,29,Muika,
249479,JP,32,Higashi-osaka,
249480,JP,8,Kamikita,
249481,JP,12,Nambu,
249482,JP,11,Miyoshi,
249483,JP,40,Higashi-murayama,
249484,JP,12,Kofuku,
249485,JP,2,Anden,
249486,JP,1,Narawa,
249487,JP,12,Utashinai,
249488,JP,12,Shimizu,
249489,JP,37,Sagara,
249490,JP,27,O,
249491,JP,12,Nobinai,
249492,JP,25,Kushima,
249493,JP,46,Ryuo,
249494,JP,8,Yanagawa,
249495,JP,40,Niishimamura,
249496,JP,18,Sendai,
249497,JP,40,Hoshu,
249498,JP,47,Minatogawa,
249499,JP,8,Ono-niimachi,
249500,JP,18,Shimajiri,
249501,JP,12,Tomamae,
249502,JP,31,Shimo-yuge,
249503,JP,13,Tosima,
249504,JP,39,Fujinoike,
249505,JP,40,Asagaya,
249506,JP,20,Aki,
249507,JP,42,Shimminato,
249508,JP,32,Hoshida,
249509,JP,45,Agawa,
249510,JP,39,Yaechi,
249511,JP,4,Naruto,
249512,JP,44,Aterazawa,
249513,JP,7,Umi,
249514,JP,12,Hidaka,
249515,JP,15,Tokumaru,
249516,JP,45,Migita,
249517,JP,42,Yata,
249518,JP,23,Sahara,
249519,JP,34,Omiya,
249520,JP,14,Koga,
249521,JP,10,Doai,
249522,JP,12,Yufutsu,
249523,JP,7,Kawasaki,
249524,JP,7,Kasugabaru,
249525,JP,26,Tatsuno,
249526,JP,35,Hino,
249527,JP,32,Shibatanicho,
249528,JP,14,Tutiura,
249529,JP,39,Ikeda,
249530,JP,31,Wake,
249531,JP,47,Urazoe,
249532,JP,35,Maibara,
249533,JP,8,Ishikawa,
249534,JP,28,Yamato-takada,
249535,JP,14,Sakai,
249536,JP,32,Miyaharacho,
249537,JP,32,Minoo,
249538,JP,13,Kamigori,
249539,JP,24,Matsushima,
249540,JP,40,Araijuku,
249541,JP,8,Haranomachi,
249542,JP,23,Miyamae,
249543,JP,40,Wadahommachi,
249544,JP,36,Furumi,
249545,JP,40,Yagisawa,
249546,JP,31,Mameda,
249547,JP,9,Sunouchi,
249548,JP,12,Kamoenai,
249549,JP,45,Asa,
249550,JP,3,Sannohe,
249551,JP,12,Monbetu,
249552,JP,19,Takatsu-ku,
249553,JP,47,Kin,
249554,JP,3,Kawabe,
249555,JP,34,Tsuruma,
249556,JP,47,Nakijin,
249557,JP,1,Kamori,
249558,JP,12,Irika,
249559,JP,12,Honganji,
249560,JP,40,Higashi-shinagawa,
249561,JP,4,Honno,
249562,JP,27,Ukimachi,
249563,JP,43,Minakami,
249564,JP,40,Fujimicho,
249565,JP,8,Yabuki,
249566,JP,36,Matsushiro,
249567,JP,40,Ogikubo,
249568,JP,10,Naganohara,
249569,JP,9,Kando,
249570,JP,25,Kadogawa,
249571,JP,40,Sibaura,
249572,JP,27,Togitsu,
249573,JP,33,Oka,
249574,JP,12,Teine,
249575,JP,47,Henoko,
249576,JP,46,Kai,
249577,JP,22,Tamba,
249578,JP,24,Niizeki,
249579,JP,44,Kurasawa,
249580,JP,24,Iwakiri,
249581,JP,14,Isozaki,
249582,JP,40,Tokyo,105-0003
249583,JP,32,Osaka,530-0001
249584,JP,1,Nagoya,451-6040
249585,JP,27,Uki,
249586,JP,14,Tokai-mura,
249587,JP,40,Minami-senju,
249588,JP,3,Itayanagi,
249589,JP,47,Oroku,
249590,JP,47,Izu,
249591,JP,39,Itano,
249592,JP,7,Orio,
249593,JP,30,Taketa,
249594,JP,47,Kakazu,
249595,JP,23,Shiratsuka,
249596,JP,9,Yaotsu,
249597,JP,40,Nishigahara,
249598,JP,40,Shibadaimon,
249599,JP,1,Tempaku-ku,
249600,JP,21,Uto,
249601,JP,8,Tanagura,
249602,JP,33,Ogi,
249603,JP,40,Komatsugawa,
249604,JP,47,Onna,
249605,JP,40,Azumabashi,
249606,JP,26,Shizuma,
249607,JP,3,Kamikita,
249608,JP,40,Higashi-nippori,
249609,JP,18,Tachiyama,
249610,JP,43,Taichi,
249611,JP,21,Muta,
249612,JP,27,Imazato,
249613,JP,34,Sakuracho,
249614,JP,40,Takinogawa,
249615,JP,40,Akasaka,
249616,JP,17,Enza,
249617,JP,33,Gotanda,
249618,JP,47,Anza,
249619,JP,20,Usa,
249620,JP,19,Nagatsuta,
249621,JP,7,Meinohama,
249622,JP,2,Hachirougata,
249623,JP,9,Kagashima,
249624,JP,47,Toma,
249625,JP,47,Futenma,
249626,JP,4,Okitu,
249627,JP,7,Itazuke,
249628,JP,19,Hiyoshicho,
249629,JP,27,Yoriki,
249630,JP,1,Hamacho,
249631,JP,4,Kogane,
249632,JP,12,Mukawa,
249633,JP,34,Uruido,
249634,JP,27,Tomie,
249635,JP,26,Machi,
249636,JP,40,Wakamatsucho,
249637,JP,7,Saitozaki,
249638,JP,32,Higashimachi,
249639,JP,40,Ekoda,
249640,JP,25,Aya,
249641,JP,26,Usuda,
249642,JP,23,Teratani,
249643,JP,17,Konzoji,
249644,JP,11,Ujina,
249645,JP,21,Akabane,
249646,JP,34,Nobidome,
249647,JP,31,Tamashima,
249648,JP,34,Matsuyama,
249649,JP,9,Katsuyama,
249650,JP,33,Ikeda,
249651,JP,29,Misato,
249652,JP,8,Yamato,
249653,JP,37,Nagaoka,
249654,JP,9,Osaka,
249655,JP,4,Ushiku,
249656,JP,37,Kita,
249657,JP,41,Akasaki,
249658,JP,41,Fukuyama,
249659,JP,42,Funabashi,
249660,JP,13,Tusi,
249661,JP,33,Nagoya,
249662,JP,40,Kinshicho,
249663,JP,13,Tottori,
249664,JP,43,Konan,
249665,JP,4,Minato,
249666,JP,36,Koshi,
249667,JP,37,Ihara,
249668,JP,28,Koriyama,
249669,JP,24,Kitakami,
249670,JP,19,Nakano,
249671,JP,13,Fukuoka,
249672,JP,14,Yamagata,
249673,JP,8,Miyako,
249674,JP,46,Mura,
249675,JP,12,Hirafu,
249676,JP,9,Fukuoka,
249677,JP,22,Kobe,
249678,JP,34,Arakawa,
249679,JP,44,Higashi,
249680,JP,45,Kuga,
249681,JP,40,Nishikubo,
249682,JP,35,Nagaoka,
249683,JP,23,Takabuku,
249684,JP,32,Jinai,
249685,JP,26,Toyohashi,
249686,JP,13,Sakai,
249687,JP,34,Fukuoka,
249688,JP,24,Onoda,
249689,JP,13,Beppu,
249690,JP,8,Tajima,
249691,JP,4,Oami,
249692,JP,23,Futami,
249693,JP,19,Matsubara,
249694,JP,4,Ichinomiya,
249695,JP,4,Kanaya,
249696,JP,40,Kita,
249697,JP,47,Iramina,
249698,JP,42,Nishinomiya,
249699,JP,37,Kochi,
249700,JP,37,Arai,
249701,JP,19,Ochiai,
249702,JP,43,Matsue,
249703,JP,22,Ishikawa,
249704,JP,19,Misaki,
249705,JP,21,Nishi,
249706,JP,2,Showa,
249707,JP,36,Minami,
249708,JP,19,Shinjuku,
249709,JP,37,Kasai,
249710,JP,12,Rusutsu,
249711,JP,23,Sakura,
249712,JP,47,Awase,
249713,JP,12,Hiroshima,
249714,JP,20,Tano,
249715,JP,31,Sakai,
249716,JP,9,Ota-cho,
249717,JP,16,Oura,
249718,JP,30,Yamaguchi,
249719,JP,8,Date,
249720,JP,37,Ena,
249721,JP,4,Matsuyama,
249722,JP,28,Shirakawa,
249723,JP,35,Kamo,
249724,JP,27,Gaya,
249725,JP,27,Matsubara,
249726,JP,40,Egota,
249727,JP,18,Kajiki,
249728,JP,29,Aikawa,
249729,JP,26,Sakai,
249730,JP,20,Yasu,
249731,JP,40,Atami,
249732,JP,22,Shuchi,
249733,JP,11,Kochi,
249734,JP,41,Kure,
249735,JP,8,Aizu,
249736,JP,14,Osaki,
249737,JP,43,Inami,
249738,JP,9,Masuda,
249739,JP,26,Miyada,
249740,JP,34,Sakura,
249741,JP,21,Ogawa,
249742,JP,9,Miyama,
249743,JP,16,Ube,
249744,JP,10,Fukushima,
249745,JP,35,Nagano,
249746,JP,45,Miyazaki,
249747,JP,40,Matsugi,
249748,JP,5,Ikazaki,
249749,JP,26,Tanaka,
249750,JP,13,Machi,
249751,JP,37,Makinohara,
249752,JP,23,Mie,
249753,JP,32,Fukui,
249754,JP,3,Ajigasawa,
249755,JP,2,Kameda,
249756,JP,12,Teshikaga,
249757,JP,28,Mishima,
249758,JP,10,Saku,
249759,JP,21,Taragi,
249760,JP,38,Fukui,
249761,JP,47,Goya,
249762,JP,19,Ikego,
249763,JP,13,Hamada,
249764,JP,14,Osone,
249765,JP,40,Nishiarai,
249766,JP,29,Tonami,
249767,JP,45,Machi,
249768,JP,6,None,
249769,JP,18,Naze,
249770,JP,42,Miyazaki,
249771,JP,19,Kugenuma,
249772,JP,8,Obama,
249773,JP,5,Imabari-shi,
249774,JP,1,Yoshida,
249775,JP,12,Awa,
249776,JP,8,Atami,
249777,JP,42,Takatsuki,
249778,JP,40,Komagome,
249779,JP,34,Shimo,
249780,JP,1,Fukuoka,
249781,JP,22,Gion,
249782,JP,32,Kawachi,
249783,JP,23,Takanoo,
249784,JP,37,Orido,
249785,JP,24,Koami,
249786,JP,24,Funaoka,
249787,JP,13,Nagoya,
249788,JP,34,Furuichiba,
249789,JP,40,Takaramachi,
249790,JP,19,Kanazawa,
249791,JP,13,Chikusa,
249792,JP,37,Taga,
249793,JP,13,Ama,
249794,JP,19,Namamugi,
249795,JP,29,Sakamachi,
249796,JP,36,Mitoya,
249797,JP,10,Toyooka,
249798,JP,32,Tosabori,
249799,JP,9,Akasaka-cho,
249800,JP,8,Tanakura,
249801,JP,19,Nagatsuda,
249802,JP,7,Kugumiya,
249803,JP,36,Hirakawa,
249804,JP,10,Osaki,
249805,JP,42,Oshima,
249806,JP,20,Yoshino,
249807,JP,13,Kuga,
249808,JP,45,Tachibana,
249809,JP,14,Kajiyama,
249810,JP,15,Taki,
249811,JP,31,Nada,
249812,JP,8,Ohira,
249813,JP,26,Kurokawa,
249814,JP,16,Hirose,
249815,JP,29,Kawakami,
249816,JP,29,Shioya,
249817,JP,44,Fujisaki,
249818,JP,45,Takamori,
249819,JP,26,Aoki,
249820,JP,37,Sumiyoshi,
249821,JP,36,Kawamoto,
249822,JP,41,Tajiri,
249823,JP,29,Itakura,
249824,JP,6,Aikawa,
249825,JP,45,Shinchi,
249826,JP,12,Motomachi,
249827,JP,14,Shari,
249828,JP,5,Kuma,
249829,JP,6,Togo,
249830,JP,24,Onagawa,
249831,JP,1,Odo,
249832,JP,26,Daimon,
249833,JP,25,Katagami,
249834,JP,1,Hirabari,
249835,JP,2,Kisakata,
249836,JP,7,Hakozaki,
249837,JP,23,Iwatacho,
249838,JP,13,Izushi,
249839,JP,19,Kitakata,
249840,JP,23,Hutami,
249841,JP,20,Kaminokae,
249842,JP,44,Ichinoseki,
249843,JP,4,Nagasaki,
249844,JP,30,Maebaru,
249845,JP,34,Takahagi,
249846,JP,21,Tsunagi,
249847,JP,9,Ako,
249848,JP,25,Takasaki,
249849,JP,14,Iida,
249850,JP,12,Yoshino,
249851,JP,13,Kariya,
249852,JP,12,Otsu,
249853,JP,35,Hachiman,
249854,JP,29,Morimachi,
249855,JP,42,Komaki,
249856,JP,20,Yamada,
249857,JP,5,Sakurai,
249858,JP,12,Naie,
249859,JP,11,Uwajima,
249860,JP,36,Fukuyama,
249861,JP,29,Teradomari,
249862,JP,13,Befu,
249863,JP,22,Saga,
249864,JP,27,Kobe,
249865,JP,40,Ina,
249866,JP,12,Iwanai,
249867,JP,4,Kioroshi,
249868,JP,34,Aso,
249869,JP,43,Hagi,
249870,JP,19,Yawata,
249871,JP,21,Ozu,
249872,JP,11,Nagata,
249873,JP,40,Sarugaku,
249874,JP,47,Misato,
249875,JP,5,Wakayama,
249876,JP,19,Ichinomiya,
249877,JP,19,Seki,
249878,JP,13,Ota,
249879,JP,35,Seta,
249880,JP,19,Mutsuura,
249881,JP,3,Shichinohe,
249882,JP,12,Hachimancho,
249883,JP,26,Kasuga,
249884,JP,33,Kokubu,
249885,JP,42,Omi,
249886,JP,43,Arita,
249887,JP,13,Fukuzumi,
249888,JP,4,Sakata,
249889,JP,8,Yamaguchi,
249890,JP,46,Shinjuku,
249891,JP,12,Misawa,
249892,JP,34,Harigaya,
249893,JP,13,Takaoka,
249894,JP,18,Sakai,
249895,JP,22,Monobe,
249896,JP,1,Ono-cho,
249897,JP,36,Daito,
249898,JP,43,Izumo,
249899,JP,37,Kawai,
249900,JP,31,Nishi,
249901,JP,30,Kunizaki,
249902,JP,7,Tachiarai,
249903,JP,26,Fukushima,
249904,JP,14,Otsu,
249905,JP,47,Hamagawa,
249906,JP,4,Sanrizuka,
249907,JP,27,Noda,
249908,JP,13,Kushiro,
249909,JP,1,Ebi,
249910,JP,9,Ofunato,
249911,JP,29,Osaki,
249912,JP,12,Nopporo,
249913,JP,40,Tamagawacho,
249914,JP,4,Kokubu,
249915,JP,18,Yoron,
249916,JP,16,Fukuoka,
249917,JP,47,Mae,
249918,JP,44,Oyama,
249919,JP,14,Hiraisomachi,
249920,JP,29,Seki,
249921,JP,20,Ino,
249922,JP,40,Hakozakicho,
249923,JP,39,Kofu,
249924,JP,40,Matsuyama,
249925,JP,40,Higashi,
249926,JP,9,Kawasaki,
249927,JP,29,Yuzawa,
249928,JP,2,Kanazawa,
249929,JP,12,Fukushima,
249930,JP,47,Yoza,
249931,JP,19,Asahi,
249932,JP,47,Mizugama,
249933,JP,34,Osawa,
249934,JP,47,Kochi,
249935,JP,7,Nara,
249936,JP,26,Obuse,
249937,JP,4,Namekawa,
249938,JP,37,Mitsuke,
249939,JP,13,Tsushi,
249940,JP,9,Sekigahara-cho,
249941,JP,32,Nagano,
249942,JP,1,Morowa,
249943,JP,47,Shuri,
249944,JP,47,Unna,
249945,JP,40,Azusawa,
249946,JP,8,Toyama,
249947,JP,19,Denenchofu,
249948,JP,10,Kusatsu,
249949,JP,32,Sakuragawacho,
249950,JP,14,Yamata,
249951,JP,40,Kokuryo,
249952,JP,34,Kawasaki,
249953,JP,11,Yokohama,
249954,JP,12,Sioya,
249955,JP,14,Tairamachi,
249956,JP,42,Ota,
249957,JP,32,Handa,
249958,JP,7,Shingu,
249959,JP,9,Kanzaki,
249960,JP,19,Kanazawacho,
249961,JP,23,Sakaemachi,
249962,JP,13,Ichijima,
249963,JP,39,Ichinomiya,
249964,JP,40,Wakamatsu,
249965,JP,26,Ikeda,
249966,JP,10,Haramachi,
249967,JP,26,Akashi,
249968,JP,42,Sakai,
249969,JP,10,Oshima,
249970,JP,12,Takashima,
249971,JP,40,Mitsune,
249972,JP,9,Hirose,
249973,JP,7,Ashiya,
249974,JP,37,Ikeda,
249975,JP,26,Oguchi,
249976,JP,37,Oyama,
249977,JP,44,Koriyama,
249978,JP,9,Seki,
249979,JP,6,Asahi,
249980,JP,28,Iwasaki,
249981,JP,15,Saita,
249982,JP,18,Matsuyama,
249983,JP,43,Heki,
249984,JP,19,Yanagicho,
249985,JP,24,Kamimachi,
249986,JP,10,Minowa,
249987,JP,7,Chikujo,
249988,JP,22,Oguracho,
249989,JP,12,Memuro,
249990,JP,29,Ueno,
249991,JP,16,Kuji,
249992,JP,5,Takayama,
249993,JP,19,Kotsubo,
249994,JP,29,Takasaki,
249995,JP,19,Uenohara,
249996,JP,7,Yahata,
249997,JP,40,Ichigaya,
249998,JP,26,Sakata,
249999,JP,24,Iwaki,
250000,JP,28,Kashiwara,
250001,JP,13,Kawasakicho,
250002,JP,47,Shimajiri,
250003,JP,7,Fukushima,
250004,JP,44,Tagawa,
250005,JP,5,Miyoshi,
250006,JP,28,Daito,
250007,JP,47,A,
250008,JP,28,Kasuga,
250009,JP,30,Yokkaichi,
250010,JP,44,Tateyama,
250011,JP,21,Maebaru,
250012,JP,40,Kojiya,
250013,JP,47,Toyama,
250014,JP,29,Futami,
250015,JP,34,Hirakata,
250016,JP,4,Minato-machi,
250017,JP,40,Toyota,
250018,JP,1,Nishiura,
250019,JP,22,Iwakura,
250020,JP,27,Azuchi,
250021,JP,15,Takamatsu,
250022,JP,26,Hara,
250023,JP,23,Aritaki,
250024,JP,12,Nakagawa,
250025,JP,6,Aso,
250026,JP,11,Nishihara,
250027,JP,43,Katsuura,
250028,JP,45,Kiba,
250029,JP,43,Marusu,
250030,JP,2,Kawa,
250031,JP,27,Nama,
250032,JP,47,Esu,
250033,JP,36,Mizu,
250034,JP,37,Kona,
250035,JP,47,Shui,
250036,JP,47,Uni,
250037,JP,47,Ara,
250038,JP,18,Yui,
250039,JP,24,Terama,
250040,JP,7,Haruda,
250041,JP,10,Kochi,
250042,JP,22,Tanabe,
250043,JP,1,Yokosuka,
250044,JP,1,Izumi,
250045,JP,26,Hotaka,
250046,JP,22,Saiki,
250047,JP,9,Kitakata,
250048,JP,30,Kamegawa,
250049,JP,12,Biratori,
250050,JP,3,Hiranai-machi,
250051,JP,40,Takaracho,
250052,JP,5,Nomura,
250053,JP,20,Maehama,
250054,JP,44,Komatsu,
250055,JP,32,Yamada,
250056,JP,35,Iba,
250057,JP,23,Sanagu,
250058,JP,47,Miyagi,
250059,JP,40,Nishi-nippori,
250060,JP,10,Mihara,
250061,JP,8,Bange,
250062,JP,45,Oshima,
250063,JP,7,Yamaga,
250064,JP,37,Mishimacho,
250065,JP,34,Igusa,
250066,JP,44,Kaishi,
250067,JP,40,Nibancho,
250068,JP,35,Egashira,
250069,JP,47,Oyama,
250070,JP,47,Ise,
250071,JP,13,Kanzaki,
250072,JP,20,Kiragawa,
250073,JP,16,Maesawa,
250074,JP,16,Ota,
250075,JP,23,Hirata,
250076,JP,22,Daigocho,
250077,JP,44,Oishida,
250078,JP,25,Takamatsu,
250079,JP,31,Katta,
250080,JP,19,Shiomidai,
250081,JP,32,Tagawa,
250082,JP,32,Kawaramachi,
250083,JP,47,Izena,
250084,JP,47,Ogimi,
250085,JP,39,Donari,
250086,JP,38,Maeta,
250087,JP,32,Kyuhoji,
250088,JP,11,Yoshiura,
250089,JP,19,Hiranuma,
250090,JP,14,Sugaya,
250091,JP,31,Kanagawa,
250092,JP,21,Mikawamachi,
250093,JP,44,Ogunimachi,
250094,JP,40,Minami-shinagawa,
250095,JP,47,Sunabe,
250096,JP,29,Yahata,
250097,JP,18,Otsu,
250098,JP,18,Uemachi,
250099,JP,21,Sugimi,
250100,JP,28,Shinjo,
250101,JP,17,Hamada,
250102,JP,20,Kure,
250103,JP,4,Goi,
250104,JP,1,Sobue,
250105,JP,40,Nishi-shinagawa,
250106,JP,27,Yunoki,
250107,JP,41,Mochigase,
250108,JP,12,Teshio,
250109,JP,40,Shibanaka,
250110,JP,36,Honjo,
250111,JP,10,Komatsu,
250112,JP,19,Chogo,
250113,JP,10,Ichinomiya,
250114,JP,47,Ota,
250115,JP,36,Kitsuki,
250116,JP,26,Watauchi,
250117,JP,40,Kayabacho,
250118,JP,18,Shimizu,
250119,JP,27,Ura,
250120,JP,4,Maibara,
250121,JP,12,Tahara,
250122,JP,23,Ageki,
250123,JP,13,Kunikane,
250124,JP,27,Kashiwa,
250125,JP,40,Nippara,
250126,JP,29,Yasuzuka,
250127,JP,24,Hama,
250128,JP,32,Haute,
250129,JP,23,Yamajo,
250130,JP,7,Meihama,
250131,JP,16,Nishiwadai,
250132,JP,19,Kurokura,
250133,JP,28,Hashio,
250134,JP,34,Hinoda,
250135,JP,46,Shimoiwa,
250136,JP,19,Hokizawa,
250137,JP,19,Yose,
250138,JP,46,Omurozasu,
250139,JP,46,Sasaguma,
250140,JP,46,Imaru,
250141,JP,38,Shizu,
250142,JP,34,Kajiyabashi,
250143,JP,46,Tomihama,
250144,JP,7,Fukumaru,
250145,JP,31,Oura,
250146,JP,40,Nishi,
250147,JP,12,Kunitomi,
250148,JP,18,Tateyama,
250149,JP,22,Oji,
250150,JP,11,Hashirijima,
250151,JP,46,Yodake,
250152,JP,34,Oniishi,
250153,JP,16,Koriyama,
250154,JP,23,Iwata,
250155,JP,33,Dachiku,
250156,JP,7,Mii,
250157,JP,19,Shimbashicho,
250158,JP,34,Tarasawa,
250159,JP,40,Hakosakicho,
250160,JP,32,Mikaichi,
250161,JP,34,Nihongi,
250162,JP,40,Atagoshita,
250163,JP,40,Mikawashima,
250164,JP,19,Ozuku,
250165,JP,23,Shinodachi,
250166,JP,40,Akashicho,
250167,JP,40,Honshiocho,
250168,JP,32,Kema,
250169,JP,40,Itabashimachi,
250170,JP,12,Toyohira,
250171,JP,23,Kasamatsu,
250172,JP,19,Hino,
250173,JP,36,Shobara,
250174,JP,11,Kamiichi,
250175,JP,12,Shibecha,
250176,JP,32,Tomijimacho,
250177,JP,46,Terashito,
250178,JP,9,Tokuyama,
250179,JP,13,Narimatsu,
250180,JP,15,Birugawamachi,
250181,JP,23,Kochi,
250182,JP,40,Sogayato,
250183,JP,38,Yatagai,
250184,JP,5,Shuu,
250185,JP,22,Onyu,
250186,JP,29,Chugonji,
250187,JP,40,Ochikawa,
250188,JP,19,Nishiboricho,
250189,JP,13,Ikuha,
250190,JP,40,Jigoli,
250191,JP,40,Kamedocho,
250192,JP,22,Sagano,
250193,JP,13,Ogomachi,
250194,JP,1,Kusagi,
250195,JP,37,Jidogata,
250196,JP,19,Doji,
250197,JP,5,Horinouchicho,
250198,JP,47,Makiminato,
250199,JP,40,Omorimachi,
250200,JP,5,Iwaki,
250201,JP,44,Masukata,
250202,JP,37,Ukishima,
250203,JP,47,Kishaba,
250204,JP,12,Kamikawa,
250205,JP,23,Shimagahara,
250206,JP,33,Torisu,
250207,JP,21,Shimo-tajiri,
250208,JP,44,Kanayama,
250209,JP,44,Iwanezawa,
250210,JP,12,Nakagoya,
250211,JP,40,Minami-senjumachi,
250212,JP,26,Kyu-karuisawa,
250213,JP,19,Totsukacho,
250214,JP,12,Momonai,
250215,JP,7,Otani,
250216,JP,1,Higashionuma,
250217,JP,14,Iijima,
250218,JP,23,Yunoyama,
250219,JP,33,Nishinohara,
250220,JP,15,Mukai-awagasaki,
250221,JP,13,Furuichi,
250222,JP,30,Notsuhara,
250223,JP,17,Oda,
250224,JP,1,Nagasawa,
250225,JP,40,Ogumachi,
250226,JP,19,Shin-yoshidacho,
250227,JP,40,Senjucho,
250228,JP,19,Sakurakabu,
250229,JP,4,Funao,
250230,JP,19,Tashiro,
250231,JP,40,Kami-meguro,
250232,JP,14,Koibuchi,
250233,JP,35,Yamakami,
250234,JP,40,Itabashicho,
250235,JP,14,Kakioka,
250236,JP,12,Kawabatagoryo,
250237,JP,4,Yokota,
250238,JP,9,Ofunado,
250239,JP,45,Heda,
250240,JP,45,Shimo-kubari,
250241,JP,10,Komagata,
250242,JP,40,Egoda,
250243,JP,19,Minami Rinknan Yamato,
250244,JP,45,Aioura,
250245,JP,12,Zenibakochoo,
250246,JP,24,Baba,
250247,JP,7,Hamao,
250248,JP,26,Bessho,
250249,JP,26,Nada,
250250,JP,29,Kokujo,
250251,JP,40,Yoyogi-sanyacho,
250252,JP,1,Denjiyama,
250253,JP,19,Hinocho,
250254,JP,24,Ubagafutokoro,
250255,JP,4,Uruido,
250256,JP,14,Hojo,
250257,JP,24,Shizugawa,
250258,JP,23,Satode,
250259,JP,44,Koiwazawa,
250260,JP,45,Nagaho,
250261,JP,45,Isa,
250262,JP,8,Jogo,
250263,JP,14,Kamioshima,
250264,JP,13,Shimo-tanigami,
250265,JP,28,Nishihata,
250266,JP,19,Shimo-kodanaka,
250267,JP,38,Bamba,
250268,JP,26,Ikenoshiri,
250269,JP,26,Muraimachi,
250270,JP,6,Asozu,
250271,JP,9,Iwamura-cho,
250272,JP,34,Harigayacho,
250273,JP,13,Azumi,
250274,JP,31,Nazukawa,
250275,JP,31,Koyamaichi,
250276,JP,10,Kazawa,
250277,JP,47,Ige,
250278,JP,33,Ogimachi,
250279,JP,40,Tennosucho,
250280,JP,2,Masaka,
250281,JP,25,Akadani,
250282,JP,16,Kochi,
250283,JP,5,Kamiura,
250284,JP,28,Yagyucho,
250285,JP,22,Kasagi,
250286,JP,40,Magomecho,
250287,JP,11,Hon-tada,
250288,JP,40,Mishukucho,
250289,JP,30,Wada,
250290,JP,30,Banbanchi,
250291,JP,20,Takayabu,
250292,JP,5,Ikasaki,
250293,JP,1,Yahata,
250294,JP,12,Sangaidaki,
250295,JP,28,Koriyama-cho,
250296,JP,17,Nagao,
250297,JP,2,Narabuchi,
250298,JP,34,Fukizua,
250299,JP,4,Tako,
250300,JP,42,Awasu,
250301,JP,24,Sawabe,
250302,JP,37,Ishibu,
250303,JP,23,Higashi-kurobe,
250304,JP,37,Mijuku,
250305,JP,32,Kuraji,
250306,JP,27,Kihide,
250307,JP,19,Sengokuhara,
250308,JP,37,Fujiokacho,
250309,JP,1,Arimatsu,
250310,JP,14,Obari,
250311,JP,22,Ubara,
250312,JP,40,Kakoicho,
250313,JP,29,Hayakawa,
250314,JP,2,Yokosawa,
250315,JP,14,Ogawa,
250316,JP,27,Mizunoura,
250317,JP,11,Karodo,
250318,JP,25,Sakuramachi,
250319,JP,3,Itavanagi,
250320,JP,16,Hizume,
250321,JP,2,Arase,
250322,JP,8,Kami-misaka,
250323,JP,30,Takada,
250324,JP,40,Motojuku,
250325,JP,3,Chibiki,
250326,JP,24,Takakiyomizu,
250327,JP,4,Iioka,
250328,JP,37,Ohito,
250329,JP,40,Nihon'enoki,
250330,JP,47,Ishimine,
250331,JP,27,Mitsugoe,
250332,JP,47,Adaniya,
250333,JP,47,Miyazato,
250334,JP,36,Uyagawa,
250335,JP,19,Suehirocho,
250336,JP,32,Sekimecho,
250337,JP,24,Kogota,
250338,JP,42,Ao,
250339,JP,13,Eigashima,
250340,JP,11,Uzuto,
250341,JP,36,Toyota,
250342,JP,12,Suttsu,
250343,JP,33,Hidetsu,
250344,JP,29,Kuzutsuka,
250345,JP,34,Minano,
250346,JP,30,Naka-hetsugi,
250347,JP,14,Shimo-tsuma,
250348,JP,47,Kobesako,
250349,JP,26,Omi,
250350,JP,25,Kobutoko,
250351,JP,40,Sasadaira,
250352,JP,26,Midogaito,
250353,JP,12,Nakanosawa,
250354,JP,11,Ninoshimacho,
250355,JP,32,Osaki,
250356,JP,45,Mitanigawa,
250357,JP,25,Tsuno,
250358,JP,10,Ogushiiozan,
250359,JP,3,Higashitazawa,
250360,JP,10,Higashi-kunisada,
250361,JP,4,Ichiba,
250362,JP,27,Motogoe,
250363,JP,25,Ko-uchiumi,
250364,JP,46,Kakiibo,
250365,JP,13,Kamikage,
250366,JP,45,Fukugawa,
250367,JP,12,Shikifu,
250368,JP,37,Kami-ochiai,
250369,JP,22,Ono,
250370,JP,12,Shinoro,
250371,JP,34,Bansho,
250372,JP,24,Rikuzentomiyama,
250373,JP,6,Tateishi,
250374,JP,40,Hikago,
250375,JP,30,Takedatsu,
250376,JP,37,Komagoe,
250377,JP,28,Yagyu-shimocho,
250378,JP,5,Kami-nada,
250379,JP,20,Odo,
250380,JP,22,Sasari,
250381,JP,34,Kami-kuzu,
250382,JP,37,Mikkabi,
250383,JP,40,Kami-takada,
250384,JP,42,De,
250385,JP,15,Oshima,
250386,JP,19,Kamaseya,
250387,JP,10,Tashiro,
250388,JP,26,Kashiwabara,
250389,JP,16,Otomomachi,
250390,JP,2,Koya,
250391,JP,30,Imazu,
250392,JP,12,Oku-muri,
250393,JP,45,Naguwa,
250394,JP,3,Yokohama,
250395,JP,24,Miyazaki,
250396,JP,5,Ikata,
250397,JP,24,Nagamachi,
250398,JP,43,Miwasaki,
250399,JP,37,Fujioka,
250400,JP,44,Oguni,
250401,JP,8,Koori,
250402,JP,16,Hirata,
250403,JP,25,Hinokage,
250404,JP,11,Shimo-goryo,
250405,JP,3,Fukaura,
250406,JP,16,Iwaizumi,
250407,JP,12,Futaba,
250408,JP,42,Anrakuji,
250409,JP,23,Shirokocho,
250410,JP,21,Matoishi,
250411,JP,14,Ogachi,
250412,JP,7,Sendo,
250413,JP,16,Kanauchi,
250414,JP,9,Takada,
250415,JP,24,Aono,
250416,JP,40,Minamimachi,
250417,JP,11,Saijo-cho,
250418,JP,13,Hase,
250419,JP,47,Atsutabaru,
250420,JP,13,Oshio,
250421,JP,33,Tara,
250422,JP,33,Enosumi,
250423,JP,13,Noino,
250424,JP,10,Zama,
250425,JP,35,Minami-komatsu,
250426,JP,13,Takawa,
250427,JP,13,Hojo,
250428,JP,37,Senzu,
250429,JP,1,Shiodomecho,
250430,JP,9,Ishinden,
250431,JP,32,Umemachi,
250432,JP,31,Baba,
250433,JP,43,Ena,
250434,JP,23,Ema,
250435,JP,11,Ichigaachi,
250436,JP,44,Nakano,
250437,JP,4,Owada,
250438,JP,13,Ikuta,
250439,JP,30,Saihoji,
250440,JP,37,Magori,
250441,JP,29,Kajikatani,
250442,JP,34,Tetsugaya,
250443,JP,20,Tsuga,
250444,JP,40,Azukisawa,
250445,JP,22,Shimmachidori,
250446,JP,18,Higashi,
250447,JP,35,Oe,
250448,JP,21,Shimoda,
250449,JP,7,Futsukaichi,
250450,JP,34,Niizo,
250451,JP,1,Okehazama,
250452,JP,38,Tomida,
250453,JP,40,Ojicho,
250454,JP,12,Tsukigata-shigai,
250455,JP,24,Kamamaki,
250456,JP,15,Mugigaura,
250457,JP,7,Jojima,
250458,JP,7,Hikosan,
250459,JP,26,Kakevu,
250460,JP,46,Okubo,
250461,JP,26,Higashi-jo,
250462,JP,12,Yobangawa,
250463,JP,24,Shirasawa,
250464,JP,12,Otanegawa,
250465,JP,45,Nakanoseki,
250466,JP,40,Aodocho,
250467,JP,37,Hara,
250468,JP,27,Aino,
250469,JP,46,Narada,
250470,JP,13,Nishiyama,
250471,JP,26,Ono,
250472,JP,32,Noma-guchi,
250473,JP,45,Katayama,
250474,JP,34,Okurayama,
250475,JP,6,Kugushi,
250476,JP,31,Jito,
250477,JP,11,Uchinashi,
250478,JP,17,Ibuki,
250479,JP,31,Hikosaki,
250480,JP,24,Aone,
250481,JP,5,Higashi-komi,
250482,JP,5,Shibukusa,
250483,JP,6,Oguroi,
250484,JP,38,Akama,
250485,JP,8,Niida,
250486,JP,42,Osakai,
250487,JP,38,Fujioka,
250488,JP,47,Aguni,
250489,JP,45,Tokonami,
250490,JP,4,Anegasaki,
250491,JP,2,Nagano,
250492,JP,19,Bamba,
250493,JP,45,Hirose,
250494,JP,23,Kita-nagano,
250495,JP,24,Sanuma,
250496,JP,33,Sarushi,
250497,JP,45,Ihota,
250498,JP,10,Honjuku,
250499,JP,8,Funatsu,
250500,JP,14,Nagakura,
250501,JP,23,Toyoda,
250502,JP,3,Sambongi,
250503,JP,13,Futami,
250504,JP,19,Okawara,
250505,JP,15,Yamanaka,
250506,JP,8,Tsukidate,
250507,JP,40,Shimo-jujocho,
250508,JP,11,Saijo,
250509,JP,4,Ryogoku,
250510,JP,2,Daigo,
250511,JP,38,Shiriuchi,
250512,JP,2,Kawai,
250513,JP,26,Komagome,
250514,JP,21,Shimo-tsukigi,
250515,JP,8,Shimo-tsushima,
250516,JP,30,Tabuka,
250517,JP,23,Hiramatsu,
250518,JP,19,Abika,
250519,JP,47,Hiyagon,
250520,JP,23,Nagashima,
250521,JP,12,Yoshinocho,
250522,JP,10,Sannokura,
250523,JP,47,Maebaru,
250524,JP,38,Chikasono,
250525,JP,9,Togane,
250526,JP,18,Kamo,
250527,JP,27,Shiroishi,
250528,JP,30,Noya,
250529,JP,45,Go,
250530,JP,13,Okuhata-mura,
250531,JP,3,Onizawa,
250532,JP,44,Takasaka,
250533,JP,29,Wakinomachi,
250534,JP,3,Yakeyama,
250535,JP,24,Masuda,
250536,JP,1,Ebima,
250537,JP,12,Kami-sattsuru,
250538,JP,19,Kami-aone,
250539,JP,13,Akasaka,
250540,JP,24,Hakkowara,
250541,JP,31,Shimotsui,
250542,JP,19,Uzumo,
250543,JP,12,Tomitsukanojo,
250544,JP,14,Machiya,
250545,JP,29,No,
250546,JP,36,Hurumi,
250547,JP,12,Akita,
250548,JP,26,Kazawa,
250549,JP,21,Tateyama,
250550,JP,29,Nihonmatsu,
250551,JP,13,Mikagecho,
250552,JP,35,Ueno,
250553,JP,15,Hodatsu,
250554,JP,16,Shimonozaike,
250555,JP,33,Tokusue,
250556,JP,32,Tannowa,
250557,JP,5,Moriyama,
250558,JP,25,Haseba,
250559,JP,8,Kammata,
250560,JP,2,Osawagoshuku,
250561,JP,16,Kawaguchi,
250562,JP,18,Mobiki,
250563,JP,19,Naka-wada,
250564,JP,13,Yanase,
250565,JP,24,Ichinasaka,
250566,JP,6,Urasoko,
250567,JP,33,Furuyu,
250568,JP,35,Maki,
250569,JP,19,Yuwazaka,
250570,JP,10,Yujuku,
250571,JP,39,Ishigawa,
250572,JP,11,Kakei,
250573,JP,31,Yada,
250574,JP,16,Washiaimori,
250575,JP,12,Izari,
250576,JP,38,Shiosawa,
250577,JP,23,Kuchi-sada,
250578,JP,17,Tanokuchi,
250579,JP,19,Fudakake,
250580,JP,13,Noda,
250581,JP,13,Hommachi,
250582,JP,5,Okegoya,
250583,JP,27,Oe,
250584,JP,8,Omogawa,
250585,JP,40,Kachijimacho,
250586,JP,34,Kogano,
250587,JP,8,Kido,
250588,JP,12,Kenufuchi,
250589,JP,4,Tatsutori,
250590,JP,35,Ishibe,
250591,JP,36,Sano,
250592,JP,7,Yawata,
250593,JP,37,Ogi,
250594,JP,40,Imado,
250595,JP,21,Kurokawa,
250596,JP,24,Imachi,
250597,JP,36,Hama,
250598,JP,12,Nibangawa,
250599,JP,7,Shimo-shiromizu,
250600,JP,46,Kuromori,
250601,JP,26,Chikaraishi,
250602,JP,25,Tashirogahae,
250603,JP,16,Kotsunagi,
250604,JP,10,Miyosawa,
250605,JP,38,Ashio,
250606,JP,10,Tokura,
250607,JP,11,Yoshida,
250608,JP,26,Hirasawa,
250609,JP,31,Hachibama,
250610,JP,37,Heda,
250611,JP,45,Naganobori,
250612,JP,19,Mikuruba,
250613,JP,16,Ohara,
250614,JP,13,Amafune,
250615,JP,6,Ogawa,
250616,JP,10,Otomo,
250617,JP,14,Oguri,
250618,JP,11,Toyohama,
250619,JP,47,Minami,
250620,JP,29,Urasa,
250621,JP,7,Sumiyoshi-cho,
250622,JP,41,Mikuriya,
250623,JP,24,Masaka,
250624,JP,30,Minami-ura,
250625,JP,32,Uchinohata,
250626,JP,4,Fusadai,
250627,JP,9,Kirihora,
250628,JP,39,Kawai,
250629,JP,30,Kami-tsutsura,
250630,JP,19,Kurihama,
250631,JP,27,Keya,
250632,JP,7,Shutara,
250633,JP,1,Shimo-kurokawa,
250634,JP,47,Awa,
250635,JP,44,Tozawa,
250636,JP,21,Yunomae,
250637,JP,14,Takasai,
250638,JP,47,Sobe,
250639,JP,36,Kamishima,
250640,JP,42,Husiki,
250641,JP,2,Jinguji,
250642,JP,13,Kita-wada,
250643,JP,9,Kimbara,
250644,JP,45,Edo,
250645,JP,12,Hachigo-shigaichi,
250646,JP,40,Hommura,
250647,JP,7,Arase,
250648,JP,37,Hatsushima,
250649,JP,30,Morosuji,
250650,JP,45,Shimaji,
250651,JP,10,Godo,
250652,JP,15,Hon Koda,
250653,JP,4,Ichijuku,
250654,JP,11,Hosoibara,
250655,JP,26,Otaki,
250656,JP,6,Otani,
250657,JP,23,Hase,
250658,JP,17,Hijiki,
250659,JP,9,Tarumi,
250660,JP,44,Kanonji,
250661,JP,10,Kita-karuisawa,
250662,JP,12,Sawara,
250663,JP,32,Furukawabashi,
250664,JP,38,Horigome,
250665,JP,47,Yamazato,
250666,JP,15,Kitsu,
250667,JP,30,Mie-machi,
250668,JP,41,Yurashuku,
250669,JP,47,Takeshi,
250670,JP,1,Sasado,
250671,JP,41,Yodoe,
250672,JP,11,Kurisu,
250673,JP,40,Hakonegasaki,
250674,JP,13,Ihosaki,
250675,JP,47,Uebaru,
250676,JP,15,Ichinomiya,
250677,JP,35,Echigawa-cho,
250678,JP,5,Hataki,
250679,JP,6,Shihi,
250680,JP,44,Nagaoka,
250681,JP,47,Higashi,
250682,JP,5,Kikuma,
250683,JP,14,Furujiku,
250684,JP,13,Numashima,
250685,JP,8,Maeda,
250686,JP,4,Yoshida,
250687,JP,12,Beppu,
250688,JP,4,Kamo,
250689,JP,10,Nakano,
250690,JP,13,Sembon,
250691,JP,40,Golanda,
250692,JP,37,Miho,
250693,JP,36,Yamaguchi,
250694,JP,37,Uriuno,
250695,JP,20,Tanono,
250696,JP,22,Hashitsume,
250697,JP,3,Takko,
250698,JP,19,Kikuna,
250699,JP,12,Horobetsukozan,
250700,JP,6,Seto,
250701,JP,1,Hoshizakicho,
250702,JP,47,Takahara,
250703,JP,43,Kusimoto,
250704,JP,32,Yamaguchi,
250705,JP,14,Koya,
250706,JP,47,Tabaru,
250707,JP,8,Hanawa,
250708,JP,13,Monzen,
250709,JP,8,Naka-moniwa,
250710,JP,46,Iwa-kubo,
250711,JP,13,Hirone,
250712,JP,21,Kawajiri,
250713,JP,11,Mibu,
250714,JP,31,Kawamo,
250715,JP,23,Obama,
250716,JP,40,Kiwazasu,
250717,JP,12,Miginosawa,
250718,JP,3,Kareezawa,
250719,JP,1,Sakashita-cho,
250720,JP,44,Nakayama,
250721,JP,18,Minato,
250722,JP,7,Kitayabe,
250723,JP,13,Tsunogame,
250724,JP,44,Kawashima,
250725,JP,35,Shimo-toyoura,
250726,JP,32,Fujisaka,
250727,JP,18,Kawaguchi,
250728,JP,12,Yamagata,
250729,JP,17,Shichika,
250730,JP,47,Uchidomari,
250731,JP,13,Kokuryo,
250732,JP,34,Nittachi,
250733,JP,37,Doi,
250734,JP,31,Ikura,
250735,JP,47,Shirahama,
250736,JP,34,Haraichi,
250737,JP,12,Kuriyamacho,
250738,JP,13,Futatsugi,
250739,JP,8,Shirasaka,
250740,JP,19,Guzo,
250741,JP,8,Adami,
250742,JP,7,Aohama,
250743,JP,38,Koteyama,
250744,JP,30,Toyooka,
250745,JP,18,Ushiku,
250746,JP,1,Toyohama,
250747,JP,8,Kaneyama,
250748,JP,20,Ryoseki,
250749,JP,18,Ishigaki,
250750,JP,23,Kudarimachi,
250751,JP,36,Iya,
250752,JP,40,Hamamatsucho,
250753,JP,18,Iizuka,
250754,JP,36,Yunotsu,
250755,JP,12,Akkesi,
250756,JP,19,Ebisu-machi,
250757,JP,42,Mikkaichi,
250758,JP,29,Ura,
250759,JP,18,Koramuki,
250760,JP,31,Hakura,
250761,JP,38,Kanasaki,
250762,JP,12,Okombushibe,
250763,JP,43,Kasada,
250764,JP,13,Watase,
250765,JP,28,Shimonosho,
250766,JP,38,Osawa,
250767,JP,18,Kagebai,
250768,JP,38,Kidogasawa,
250769,JP,20,Takaoka,
250770,JP,45,Sasanami-ichi,
250771,JP,44,Doshoda,
250772,JP,21,Nagasu,
250773,JP,47,Tsukazan,
250774,JP,34,Takasagocho,
250775,JP,19,Onomachi,
250776,JP,40,Hatchobori,
250777,JP,42,Toide,
250778,JP,12,Kimobetsu,
250779,JP,36,Daiku,
250780,JP,34,Shimogo,
250781,JP,7,Shiobaru,
250782,JP,14,Oarai-machi,
250783,JP,37,Misakubo,
250784,JP,9,Imawatari,
250785,JP,6,Kowa-shimizu,
250786,JP,12,Kamii,
250787,JP,11,Nomi,
250788,JP,45,Yasuokacho,
250789,JP,12,Fukuyama,
250790,JP,7,Kasuga,
250791,JP,5,Matsuyama-shi,
250792,JP,42,Toyama-shi,
250793,JP,40,Tama,
250794,JP,7,Fukuoka-shi,
250795,JP,40,Tokai,
250796,JP,25,Miyazaki-shi,
250797,JP,21,Kumamoto-shi,
250798,JP,42,Fukuoka,
250799,JP,34,Saitama,
250800,JP,19,Yokohama-shi,
250801,JP,39,Tokushima-shi,
250802,JP,1,Nisshin,
250803,JP,36,Matsue-shi,
250804,JP,37,Suzaki,
250805,JP,34,Iruma,
250806,JP,9,Kani,
250807,JP,1,Chita,
250808,JP,25,Fukushima,
250809,JP,19,Nihon'odori,
250810,JP,4,Chiba-shi,
250811,JP,38,Hanawadacho,
250812,JP,32,Ashiharacho,
250813,JP,1,Aoicho,
250814,JP,22,Nishinotoindori,
250815,JP,21,Hanabatacho,
250816,JP,11,Kami-nagaregawacho,
250817,JP,35,Otsu-shi,
250818,JP,28,Nara-shi,
250819,JP,9,Honjocho,
250820,JP,7,Horibata-cho,
250821,JP,23,Tsu-shi,
250822,JP,32,Settsu,
250823,JP,27,Asahicho,
250824,JP,39,Bandai-cho,
250825,JP,3,Hashimoto,
250826,JP,10,Kuruwacho,
250827,JP,37,Takajomachi,
250828,JP,46,Nishikicho,
250829,JP,5,Shinsuga-cho,
250830,JP,31,Kaigandori,
250831,JP,29,Higashi-horidori,
250832,JP,14,Toride,
250833,JP,40,Edogawa,
250834,JP,26,Nishi-ato-machi,
250835,JP,30,Oita-shi,
250836,JP,1,Inuyama,
250837,JP,45,Nakaichi,
250838,JP,17,Nanabancho,
250839,JP,15,Bakurocho,
250840,JP,24,Shimizu-koji,
250841,JP,24,Kammachi,
250842,JP,2,Yabase,
250843,JP,14,Kita-sannomaru,
250844,JP,8,Suginomecho,
250845,JP,44,Kasumicho,
250846,JP,16,Uchimaru-machi,
250847,JP,6,Gohommaru,
250848,JP,18,Yamashitacho,
250849,JP,18,Tando,
250850,JP,43,Kitaminato,
250851,JP,18,Nakasono,
250852,JP,32,Ikeda,
250853,JP,40,Koto,
250854,JP,34,Fujimino,
250855,JP,36,Higashi-asahicho,
250856,JP,18,Takasu,
250857,JP,20,Hommachi,
250858,JP,12,Kitahiroshima,
250859,JP,32,Neyagawa,
250860,JP,35,Omihachiman,
250861,JP,32,Minoh,
250862,JP,22,Kyoto-shi,
250863,JP,47,Nafa,
250864,JP,34,Saitama-shi,
250865,JP,47,Gakuni,
250866,JP,18,Tara,
250867,JP,5,Tokiwa,
250868,JP,17,Takamatu,
250869,JP,23,Tu,
250870,JP,11,Hirabara,
250871,JP,5,Matuyama,
250872,JP,32,Osaka-shi,
250873,JP,12,Sapporo-shi,
250874,JP,11,Nagasaki,
250875,JP,18,Komenotsu,
250876,JP,2,Senboku,
250877,JP,18,Yoshitoshi,
250878,JP,18,Nakabai,
250879,JP,18,Suwa,
250880,JP,8,Hukusima,
250881,JP,43,Kinokawa,
250882,JP,41,Tottori-shi,
250883,JP,4,Kamagaya,
250884,JP,34,Kitamoto,
250885,JP,47,Ojana,
250886,JP,42,Kurobe,
250887,JP,32,Osakasayama,
250888,JP,19,Tsujido,
250889,JP,4,Yachiyo,
250890,JP,42,Imizu,
250891,JP,47,Fuensan,
250892,JP,11,Higashi-hiroshima,
250893,JP,24,Sendai-shi,
250894,JP,15,Kanazawa-shi,
250895,JP,39,Hon-cho,
250896,JP,5,Shitama,
250897,JP,37,Izunokuni,
250898,JP,14,Tsuchiura,
250899,JP,32,Habikino,
250900,JP,35,Otu,
250901,JP,47,Furugan,
250902,JP,47,Naha-shi,
250903,JP,16,Morioka-shi,
250904,JP,10,Maebashi-shi,
250905,JP,1,Owariasahi,
250906,JP,34,Niiza,
250907,JP,8,Fukushima-shi,
250908,JP,14,Chikusei,
250909,JP,44,Yamagata-shi,
250910,JP,9,Hashima,
250911,JP,31,Okayama-shi,
250912,JP,2,Nikaho,
250913,JP,7,Hukuoka,
250914,JP,32,Shijonawate,
250915,JP,38,Shimotsuke,
250916,JP,19,Ebina,
250917,JP,9,Gihu,
250918,JP,1,Toyoake,
250919,JP,32,Hannan,
250920,JP,47,Uruma,
250921,JP,14,Tsukubamirai,
250922,JP,40,Inagi,
250923,JP,3,Tsugaru,
250924,JP,14,Joso,
250925,JP,9,Motosu,
250926,JP,12,Eniwa,
250927,JP,18,Tobimatsu,
250928,JP,26,Chikuma,
250929,JP,34,Tsurugashima,
250930,JP,24,Tagajo,
250931,JP,26,Komagane,
250932,JP,16,Hachimantai,
250933,JP,23,Iga,
250934,JP,26,Azumino,
250935,JP,29,Joetsu,
250936,JP,40,Kaigandori,
250937,JP,18,Kagoshima-shi,
250938,JP,4,Hanamigawa,
250939,JP,47,Urasoe,
250940,JP,17,Takamatsu-shi,
250941,JP,14,Kamisu,
250942,JP,32,Katano,
250943,JP,11,Hiroshima-shi,
250944,JP,44,Murayama,
250945,JP,9,Kagami,
250946,JP,4,Nagareyama,
250947,JP,26,Nagano-shi,
250948,JP,12,Sakushi,
250949,JP,9,Minokamo,
250950,JP,40,Akishima,
250951,JP,35,Higashiomi,
250952,JP,15,Kaga,
250953,JP,6,Fukui-shi,
250954,JP,14,Bando,
250955,JP,40,Higashi-shinaga,
250956,JP,28,Yamato-koriyama,
250957,JP,8,Watari,
250958,JP,14,Kasumigaura,
250959,JP,47,Kunigami,
250960,JP,46,Kofu-shi,
250961,JP,38,Utsunomiya-shi,
250962,JP,34,Fujimi,
250963,JP,4,Sodegaura,
250964,JP,4,Inage,
250965,JP,34,Misato,
250966,JP,38,Nasushiobara,
250967,JP,14,Mito-shi,
250968,JP,18,Okawa,
250969,JP,32,Fujiidera,
250970,JP,1,Aisai,
250971,JP,37,Susono,
250972,JP,37,Shizuoka-shi,
250973,JP,18,Anjo,
250974,JP,40,Higashi-kawagishidori,
250975,JP,2,Akita-shi,
250976,JP,37,Omaezaki,
250977,JP,4,Sanmu,
250978,JP,9,Gifu-shi,
250979,JP,1,Kitanagoya,
250980,JP,40,Hamura,
250981,JP,16,Oshu,
250982,JP,20,Kochi-shi,
250983,JP,40,Harumi,
250984,JP,1,Goyu,
250985,JP,18,Koyamada,
250986,JP,2,Katuura,
250987,JP,40,Higashiyamato,
250988,JP,18,Fuke,
250989,JP,3,Hirakawa,
250990,JP,47,Yomitan,
250991,JP,47,Yuza,
250992,JP,43,Wakayama-shi,
250993,JP,18,Hajinomine,
250994,JP,32,Sakurajimacho,
250995,JP,19,Hodogayacho,
250996,JP,4,Urayasu,
250997,JP,34,Higashi-matsuyama,
250998,JP,32,Sugiyamacho,
250999,JP,4,Kawasaki-cho,
251000,JP,19,Hommokucho,
251001,JP,7,Imajiku,
251002,JP,24,Natori,
251003,JP,41,Noigura,
251004,JP,22,Momoyama-cho,
251005,JP,5,Higashimura,
251006,JP,14,Omitama,
251007,JP,19,Toyoura,
251008,JP,12,Masike,
251009,JP,37,Minato,
251010,JP,32,Sennan,
251011,JP,24,Enami,
251012,JP,40,Kachidoki,
251013,JP,34,Hidaka,
251014,JP,19,Ayase,
251015,JP,11,Hirosima,
251016,JP,28,Kashiba,
251017,JP,14,Sakuragawa,
251018,JP,47,Yaese,
251019,JP,2,Daisen,
251020,JP,35,Koka,
251021,JP,4,Inzai,
251022,JP,35,Ritto,
251023,JP,7,Onojo,
251024,JP,40,Yashio,
251025,JP,42,Nanto,
251026,JP,1,Haguro,
251027,JP,23,Inabe,
251028,JP,8,Shirakawa,
251029,JP,24,Idohama,
251030,JP,1,Kofu,
251031,JP,19,Minamiashigara,
251032,JP,24,Kurihara,
251033,JP,4,Tomisato,
251034,JP,8,Soma,
251035,JP,3,Towada,
251036,JP,3,Aomori-shi,
251037,JP,40,Higashi-kurume,
251038,JP,40,Akiruno,
251039,JP,37,Kikugawa,
251040,JP,45,Yamaguchi-shi,
251041,JP,8,Aizu-wakamatsu,
251042,JP,29,Myoko,
251043,JP,27,Saikai,
251044,JP,42,Tonami,
251045,JP,40,Musashimurayama,
251046,JP,12,Hokuto,
251047,JP,37,Kosai,
251048,JP,27,Nagasaki-shi,
251049,JP,4,Isumi,
251050,JP,14,Inashiki,
251051,JP,2,Yurihonjo,
251052,JP,16,Ninohe,
251053,JP,42,Oyabe,
251054,JP,14,Hitachiomiya,
251055,JP,15,Nomi,
251056,JP,14,Namegata,
251057,JP,40,Shinonome,
251058,JP,12,Furano,
251059,JP,9,Gujo,
251060,JP,28,Katsuragi,
251061,JP,6,Yokohama,
251062,JP,47,Nakagusuku,
251063,JP,8,Minami-soma,
251064,JP,24,Osaki,
251065,JP,4,Sosa,
251066,JP,29,Uonuma,
251067,JP,29,Tainai,
251068,JP,29,Minamiuonuma,
251069,JP,26,Tomi,
251070,JP,8,Tamura,
251071,JP,7,Koyanose,
251072,JP,28,Uda,
251073,JP,10,Midori,
251074,JP,22,Kioto,
251075,JP,23,Shima,
251076,JP,5,Yawatahama-shi,
251077,JP,14,Hitachi-naka,
251078,JP,29,Sado,
251079,JP,2,Katagami,
251080,JP,4,Chuo,
251081,JP,47,Nanjo,
251082,JP,29,Agano,
251083,JP,38,Nasukarasuyama,
251084,JP,12,Naganuma,
251085,JP,9,Ena,
251086,JP,35,Takashima,
251087,JP,44,Nagano,
251088,JP,9,Kaizu,
251089,JP,36,Matue,
251090,JP,2,Tenno,
251091,JP,4,Irifune,
251092,JP,37,Izu,
251093,JP,40,Tatsumi,
251094,JP,17,Izuka,
251095,JP,27,Matsuura,
251096,JP,36,Kamo,
251097,JP,12,Furubira,
251098,JP,12,Shiranuka,
251099,JP,19,Mizue,
251100,JP,26,Shinonoi,
251101,JP,2,Oga,
251102,JP,32,Babacho,
251103,JP,22,Shimo-dachiyuuridori,
251104,JP,28,Tatsutacho,
251105,JP,24,Kita-ichibancho,
251106,JP,45,Kewari,
251107,JP,23,Tokusue,
251108,JP,9,Kitagata,
251109,JP,38,Ubagai,
251110,JP,40,Edagawacho,
251111,JP,47,Miyakojima,
251112,JP,15,Suzu,
251113,JP,32,Chishimacho,
251114,JP,32,Dempocho-kita,
251115,JP,19,Isogo,
251116,JP,40,Edagawa,
251117,JP,35,Shimo-sakamoto,
251118,JP,40,Maihama,
251119,JP,1,Mizuguruma-cho,
251120,JP,5,Ikata-cho,
251121,JP,19,Chidori-cho,
251122,JP,46,Kohu,
251123,JP,40,Ariake,
251124,JP,12,Kamui-kotan,
251125,JP,4,Nakajima,
251126,JP,42,Iwase,
251127,JP,27,Kuroshio,
251128,JP,32,Nakanoshima,
251129,JP,47,Shimabuku,
251130,JP,40,Wakasu,
251131,JP,34,Umemoto,
251132,JP,4,Wada,
251133,JP,20,Tanezaki,
251134,JP,40,Jonanjima,
251135,JP,12,Isobunnai,
251136,JP,9,Tsukasamachi,
251137,JP,7,Unoshima,
251138,JP,42,Sanga,
251139,JP,40,Higashi-osaki,
251140,JP,42,Takidani,
251141,JP,19,Nagamochi,
251142,JP,12,Horomui,
251143,JP,32,Bamba-cho,
251144,JP,32,Kawachi-nagano,
251145,JP,23,Saiku,
251146,JP,24,Higashi-matsushima,
251147,JP,19,Negishicho,
251148,JP,47,Yahuso,
251149,JP,7,Imajuku,
251150,JP,4,Mihama,
251151,JP,46,Yamanashi,
251152,JP,19,Mizuho,
251153,JP,46,Hokuto,
251154,JP,24,Arai,
251155,JP,4,Kawasaki,
251156,JP,24,Asahi,
251157,JP,12,Toyokawa,
251158,JP,27,Shikamachi,
251159,JP,9,Hachiman,
251160,JP,23,Kumano,
251161,JP,24,Sakura,
251162,JP,12,Toyota,
251163,JP,15,Kahoku,
251164,JP,12,Mikasa,
251165,JP,18,Oshima,
251166,JP,45,Otsu,
251167,JP,10,Ichiba,
251168,JP,47,Ogimi-son,
251169,JP,7,Sone,
251170,JP,14,Isohama,
251171,JP,47,Ura,
251172,JP,37,Yawata,
251173,JP,36,Ikeda,
251174,JP,10,Ojima,
251175,JP,24,Nakaku,
251176,JP,24,Nakazone,
251177,JP,47,Oki,
251178,JP,12,Rankoshi,
251179,JP,47,Kumejima,
251180,JP,7,Fukae,
251181,JP,37,Oyama-cho,
251182,JP,12,Higashiura,
251183,JP,9,Yamagata,
251184,JP,11,Saizyo,
251185,JP,47,Yaka,
251186,JP,15,Shiroo,
251187,JP,12,Syari,
251188,JP,47,Tsuhuwa,
251189,JP,7,Meihamamachi,
251190,JP,11,Osu,
251191,JP,12,Kawakami,
251192,JP,11,Tamariichi,
251193,JP,10,Ogo,
251194,JP,31,Kurasiki,
251195,JP,6,Echizen,
251196,JP,37,Numadu,
251197,JP,32,Kisiwada,
251198,JP,37,Yaidu,
251199,JP,40,Edo,
251200,JP,9,Kagamihara,
251201,JP,13,Akasi,
251202,JP,37,Hamamatu,
251203,JP,32,Mikunicho,
251204,JP,4,Kisaradu,
251205,JP,1,Fukue,
251206,JP,4,Takasu,
251207,JP,9,Shiratori,
251208,JP,46,Fuefuki,
251209,JP,12,Monbetsu,
251210,JP,19,Hiratuka,
251211,JP,44,Turuoka,
251212,JP,11,Onomiti,
251213,JP,35,Kusatu,
251214,JP,7,Minato,
251215,JP,12,Shinchi,
251216,JP,6,Turuga,
251217,JP,45,Nakayama,
251218,JP,5,Izumi,
251219,JP,3,Hatinohe,
251220,JP,12,Hurano,
251221,JP,4,Shisuimachi,
251222,JP,1,Nawa,
251223,JP,1,Toyohasi,
251224,JP,30,Nagasu,
251225,JP,22,Maiduru,
251226,JP,19,Kawasaki Si,
251227,JP,11,Hukuyama,
251228,JP,19,Oiso-machi,
251229,JP,24,Isinomaki,
251230,JP,24,Kasuga,
251231,JP,20,Isa,
251232,JP,4,Hunabasi,
251233,JP,1,Oe,
251234,JP,38,Totigi,
251235,JP,23,Yokkaiti,
251236,JP,32,Kashihara,
251237,JP,17,Yoshino,
251238,JP,13,Bessho,
251239,JP,9,Kagamigahara,
251240,JP,9,Mitake-cho,
251241,JP,4,Otaki,
251242,JP,39,Komatusima,
251243,JP,32,Sano,
251244,JP,12,Kusiro,
251245,JP,21,Yatusiro,
251246,JP,39,Bandaimachi,
251247,JP,40,Tatikawa,
251248,JP,34,Titibu,
251249,JP,7,Nakatu,
251250,JP,39,Machi,
251251,JP,1,Itinomiya,
251252,JP,23,Oura,
251253,JP,8,Kawaguchi,
251254,JP,26,Kamisuwa,
251255,JP,23,Hiratacho,
251256,JP,4,Furabeshi,
251257,JP,19,Higashino,
251258,JP,5,Seto,
251259,JP,38,Funyu,
251260,JP,45,Waki,
251261,JP,42,Oozu,
251262,JP,10,Isezaki,
251263,JP,38,Itaga,
251264,JP,22,Kanzaki,
251265,JP,31,Seto,
251266,JP,31,Kuwakami,
251267,JP,38,Asikaga,
251268,JP,36,Kisuki,
251269,JP,9,Hida,
251270,JP,7,Wakamatsu,
251271,JP,11,Kinoe,
251272,JP,36,Yokota,
251273,JP,31,Tuyama,
251274,JP,14,Isioka,
251275,JP,24,Siroisi,
251276,JP,1,Taketoyocho,
251277,JP,47,Isa,
251278,JP,1,Tomioka,
251279,JP,11,Hatukaiti,
251280,JP,9,Tazimi,
251281,JP,16,Toda,
251282,JP,37,Subashiri,
251283,JP,39,Kagasuno,
251284,JP,44,Naka-gumi,
251285,JP,24,Matsugashima,
251286,JP,31,Kori,
251287,JP,25,Kawaguchi,
251288,JP,6,Otta,
251289,JP,13,Kurubiki,
251290,JP,10,Hara,
251291,JP,47,Kanekadan,
251292,JP,2,Kita-akita,
251293,JP,44,Kurokawa,
251294,JP,5,Hommachi,
251295,JP,35,Yokkaichi,
251296,JP,15,Kashima,
251297,JP,27,Takenokoba,
251298,JP,44,Nishizato,
251299,JP,47,Oshima,
251300,JP,13,Himezi,
251301,JP,1,Toyoda,
251302,JP,6,Gamo,
251303,JP,19,Asahimachi,
251304,JP,15,Koda,
251305,JP,37,Ukihashi,
251306,JP,21,Eta,
251307,JP,5,Unomachi,
251308,JP,29,Yahiko,
251309,JP,14,Takabe,
251310,JP,13,Koya,
251311,JP,7,Singu,
251312,JP,15,Moro,
251313,JP,17,Kokubu,
251314,JP,40,Heiwajima,
251315,JP,37,Uryuno,
251316,JP,47,Chibana,
251317,JP,20,Nahari,
251318,JP,18,Kamimyo,
251319,JP,23,Matsuzaka,
251320,JP,24,Miyatoko,
251321,JP,6,Takahama,
251322,JP,4,Kemigawa,
251323,JP,1,Anjomachi,
251324,JP,24,Takadera,
251325,JP,27,Kami-hasami,
251326,JP,47,Tancha,
251327,JP,36,Oyamacho,
251328,JP,32,Kujo,
251329,JP,47,Kita-nakagusuku,
251330,JP,9,Ueda,
251331,JP,8,Omika,
251332,JP,4,Nago,
251333,JP,9,Ibi,
251334,JP,16,Kozenji,
251335,JP,30,Nitta,
251336,JP,3,Odate,
251337,JP,47,Maeda,
251338,JP,26,Nishijo,
251339,JP,5,Kitaura,
251340,JP,41,Sakai,
251341,JP,19,Atsuki,
251342,JP,4,Kobunaki,
251343,JP,36,Misumi,
251344,JP,42,Taniya,
251345,JP,1,Hashira,
251346,JP,12,Barato,
251347,JP,14,Tabuse,
251348,JP,20,None,
251349,JP,8,Iizaka,
251350,JP,1,Kou,
251351,JP,47,Gusukuma,
251352,JP,16,Shibutami,
251353,JP,21,Kikudomi,
251354,JP,1,Ogawa,
251355,JP,5,Tsushima,
251356,JP,16,Numakunai,
251357,JP,7,Kitano,
251358,JP,47,China,
251359,JP,44,Miyauchi,
251360,JP,38,Hoshakuji,
251361,JP,24,Godai,
251362,JP,14,Kitaibaragi,
251363,JP,8,Kanda,
251364,JP,8,Asakawa,
251365,JP,3,Sai,
251366,JP,31,Oki,
251367,JP,29,Ogoto,
251368,JP,41,Koge,
251369,JP,11,Chikawa,
251370,JP,4,Tokawa,
251371,JP,12,Tottori,
