locId,country,region,city,postcode
258635,MU,,,
258636,MU,15,Reduit,
258637,MU,18,Port Louis,
258638,MU,17,Curepipe,
258639,MU,17,Malherbes,
258640,MU,17,Ebène,
258641,MU,19,Goodlands,
258642,MU,16,Terre Rouge,
258643,MU,16,Triolet,
258644,MU,17,Beau Bassin,
258645,MU,19,Pereybèré,
258646,MU,15,Pailles,
258647,MU,17,Vacoas,
258648,MU,19,Piton,
258649,MU,12,Albion,
258650,MU,13,Flacq,
258651,MU,17,Rose Hill,
258652,MU,16,Baie Du Tombeau,
258653,MU,12,Pointe Aux Sables,
258654,MU,15,Dagotière,
258655,MU,17,Phoenix,
258656,MU,15,Moka,
258657,MU,17,Quatre Bornes,
258658,MU,16,Calebasses,
258659,MU,16,Long Mountain,
258660,MU,15,Melrose,
258661,MU,16,Arsenal,
258662,MU,15,Dubreuil,
258663,MU,16,Notre Dame,
258664,MU,15,Ripailles,
258665,MU,14,Mahébourg,
258666,MU,16,Congomah,
258667,MU,12,Bambous,
258668,MU,19,Mapou,
258669,MU,15,Providence,
258670,MU,15,Quartier Militaire,
258671,MU,15,Saint Pierre,
258672,MU,15,Verdun,
258673,MU,19,Grand Baie,
258674,MU,12,Gros Cailloux,
258675,MU,15,Camp Thorel,
258676,MU,15,Espérance,
258677,MU,12,Petite Rivière,
258678,MU,14,New Grove,
258679,MU,16,Pamplemousses,
258680,MU,14,Plaine Magnien,
258681,MU,16,Crève Coeur,
258682,MU,17,Floréal,
258683,MU,14,Rose Belle,
258684,MU,23,Port Mathurin,
258685,MU,12,Tamarin,
258686,MU,17,La Marie,
258687,MU,12,Cascavelle,
258688,MU,13,Lalmatie,
258689,MU,14,Nouvelle France,
258690,MU,17,Midlands,
258691,MU,15,Montagne Blanche,
258692,MU,20,Surinam,
258693,MU,13,Poste De Flacq,
258694,MU,13,Camp De Masque,
258695,MU,16,Le Hochet,
258696,MU,17,La Caverne,
258697,MU,13,Centre De Flacq,
258698,MU,13,Bon Accueil,
258699,MU,19,Petit Raffray,
258700,MU,19,Belle Vue Maurel,
258701,MU,15,Espérance,
258702,MU,17,Plaisance,
258703,MU,13,Sebastopol,
258704,MU,14,Old Grand Port,
258705,MU,12,Grande Rivière Noire,
258706,MU,19,Rivière Du Rempart,
258707,MU,17,Barkly,
258708,MU,20,Chemin Grenier,
258709,MU,17,Palma,
258710,MU,17,Roches Brunes,
258711,MU,20,Souillac,
258712,MU,12,Flic En Flac,
258713,MU,19,Grand Gaube,
258714,MU,18,Cité La Cure,
258715,MU,17,Réunion,
258716,MU,14,Beau Vallon,
258717,MU,13,Saint Julien,
258718,MU,13,Ecroignard,
258719,MU,17,Saint Paul,
258720,MU,19,Cap Malheureux,
258721,MU,16,Choisy,
258722,MU,19,Espérance,
258723,MU,13,Bel Air,
258724,MU,14,Vieux Grand Port,
258725,MU,13,Brisée Verdière,
258726,MU,13,Clémencia,
258727,MU,16,Fond Du Sac,
258728,MU,17,Belle Étoile,
258729,MU,19,Roches Noires,
258730,MU,16,Mont Choisy,
258731,MU,20,Rivière Des Anguilles,
258732,MU,20,Grand Bois,
258733,MU,12,Petit Verger,
258734,MU,13,Union Flacq,
258735,MU,20,Camp Diable,
258736,MU,14,Saint Hubert,
258737,MU,13,Mare La Chaux,
258738,MU,23,Oyster Bay,
258739,MU,12,Chamarel,
258740,MU,19,Cottage,
258741,MU,14,Mare Tabac,
258742,MU,13,Belle Rose,
258743,MU,20,Bel Ombre,
258744,MU,17,Engrais Martial,
258745,MU,17,Stanley,
258746,MU,17,Glen Park,
258747,MU,14,Pointe D'esny,
258748,MU,16,Plaines Des Papayes,
258749,MU,14,Trois Boutiques,
258750,MU,17,Mesnil,
258751,MU,17,Forest Side,
258752,MU,13,Belle Mare,
258753,MU,16,Trou Aux Biches,
258754,MU,17,Trianon,
258755,MU,19,Poudre D'or Hamlet,
258756,MU,20,Chamouny,
258757,MU,18,Cassis,
258758,MU,15,Vuillemin,
258759,MU,19,Saint Antoine,
258760,MU,17,Camp Fouquereaux,
258761,MU,20,La Flora,
258762,MU,19,The Vale,
258763,MU,13,Médine,
258764,MU,20,Bois Chéri,
258765,MU,20,Tyack,
258766,MU,12,Petite Rivière Noire,
258767,MU,16,Pointe Aux Canonniers,
258768,MU,17,Candos,
258769,MU,19,Saint François,
258770,MU,15,Les Guibies,
258771,MU,23,Coromandel,
258772,MU,18,Vallée Des Prêtres,
258773,MU,13,Quatre Soeurs,
258774,MU,17,Holyrood,
258775,MU,13,Trou D'eau Douce,
258776,MU,13,Mont Ida,
258777,MU,14,Union Park,
258778,MU,17,Saint Jean,
258779,MU,20,Riambel,
258780,MU,17,Camp Caval,
258781,MU,12,Beaux Songes,
258782,MU,19,Amitié,
258783,MU,12,La Gaulette,
258784,MU,17,Solférino,
258785,MU,13,Belvédère,
258786,MU,16,D'epinay,
258787,MU,20,Bénarès,
258788,MU,14,Escalier,
258789,MU,16,Belvédère,
258790,MU,17,Valentina,
258791,MU,20,Batimarais,
258792,MU,19,Espérance Trébuchet,
258793,MU,20,Rivière Du Poste,
258794,MU,19,Roche Terre,
258795,MU,13,Argy,
258796,MU,23,Citronelle,
258797,MU,16,Belle-vue,
258798,MU,18,Sainte Croix,
258799,MU,16,Morcellemont Saint André,
258800,MU,14,L'escalier,
258801,MU,17,Chébel,
258802,MU,17,Vacoa,
258803,MU,12,La Mivoie,
258804,MU,18,Plaine Verte,
258805,MU,13,Unité,
258806,MU,14,Mare D'albert,
258807,MU,16,Bois Pignolet,
258808,MU,16,Pointe Aux Cannoniers,
258809,MU,15,L'escalier,
258810,MU,16,Pont Praslin,
258811,MU,13,Pont Blanc,
258812,MU,17,Henrietta,
258813,MU,14,Bananes,
258814,MU,14,Cluny,
258815,MU,23,Trèfles,
258816,MU,12,Barachois,
258817,MU,14,Grand Bel Air,
258818,MU,15,Montebello,
258819,MU,20,Mont Blanc,
258820,MU,20,Baie Du Cap,
258821,MU,18,Bell Village,
258822,MU,14,Pont Colville,
258823,MU,18,Vallée Pitot,
258824,MU,14,Bois Des Amourettes,
258825,MU,13,Laventure,
258826,MU,16,Mount,
258827,MU,16,Pamplemousses Village,
258828,MU,20,Saint Félix,
258829,MU,13,Quatre Cocos,
258830,MU,16,Petite Julie,
258831,MU,14,Union Vale,
258832,MU,13,Camp De Masque Pave,
258833,MU,19,Labourdonnais,
258834,MU,15,Alma,
258835,MU,17,River Side,
258836,MU,20,River Du Poste Station,
258837,MU,14,Pointe Aux Roches,
258838,MU,16,Roche Bois,
258839,MU,19,Barlow,
258840,MU,19,L'amitie,
258841,MU,19,Amaury,
258842,MU,19,Poudre D'or Village,
258843,MU,23,Mont Lubin,
258844,MU,15,Camp Auguste,
258845,MU,13,Olivia,
258846,MU,15,Telfair,
258847,MU,17,La Source,
258848,MU,16,Plaine Des Papayes,
258849,MU,17,Highlands,
258850,MU,19,L'espérance,
258851,MU,20,Savannah,
258852,MU,13,Etoile,
258853,MU,13,Queen Victoria,
258854,MU,17,Bonne Terre,
258855,MU,17,Petit Camp,
258856,MU,12,Black River,
258857,MU,12,Rivière Noire,
258858,MU,17,Quinze Cantons,
258859,MU,13,Beau Champ,
258860,MU,13,Rivière Sèche,
258861,MU,16,Beau Plan,
258862,MU,13,Bramsthan,
258863,MU,15,Valetta,
258864,MU,15,Circonstance,
