locId,country,region,city,postcode
258897,MX,,,
258898,MX,9,Mexico,
258899,MX,2,Tijuana,
258900,MX,2,Ensenada,
258901,MX,19,Monterrey,
258902,MX,27,Colonia,
258903,MX,15,Juarez,
258904,MX,27,Jalisco,
258905,MX,21,Tlanepantla,
258906,MX,22,Querétaro,
258907,MX,31,Mérida,
258908,MX,30,Veracruz,
258909,MX,7,Piedras Negras,
258910,MX,23,Cancún,
258911,MX,11,Victoria,
258912,MX,22,San Nicolás,
258913,MX,6,Chihuahua,
258914,MX,14,Guadalajara,
258915,MX,21,Las Lomas,
258916,MX,19,Garza García,
258917,MX,32,San Miguel,
258918,MX,14,Ocotlán,
258919,MX,6,Cuauhtémoc,
258920,MX,5,Baja California,
258921,MX,28,Nuevo Laredo,
258922,MX,28,Coahuila,
258923,MX,2,Distrito Federal,
258924,MX,29,Colonia Del Valle,
258925,MX,21,Tepetlacalco,
258926,MX,7,San Pedro,
258927,MX,14,Magdalena,
258928,MX,7,Saltillo,
258929,MX,21,Xochimilco,
258930,MX,9,Iztacalco,
258931,MX,32,Madero,
258932,MX,9,Iztapalapa,
258933,MX,9,Tlalpan,
258934,MX,9,Milpa Alta,
258935,MX,20,Oaxaca,
258936,MX,21,Puebla,
258937,MX,5,Baja,
258938,MX,10,Durango,
258939,MX,27,Sonora,
258940,MX,4,Campeche,
258941,MX,16,Hidalgo,
258942,MX,27,Michoacán,
258943,MX,28,Guerrero,
258944,MX,29,Tlaxcala,
258945,MX,24,San Luis Potosí,
258946,MX,8,Colima,
258947,MX,32,Morelos,
258948,MX,11,León,
258949,MX,26,Coyoacan,
258950,MX,19,Mina,
258951,MX,5,Chiapas,
258952,MX,7,Monclova,
258953,MX,14,Mascota,
258954,MX,1,Aguascalientes,
258955,MX,32,Zacatecas,
258956,MX,18,Nayarit,
258957,MX,27,Miguel,
258958,MX,5,Venustiano Carranza,
258959,MX,9,Azcapotzalco,
258960,MX,12,San Jerónimo,
258961,MX,32,Tabasco,
258962,MX,25,Tamaulipas,
258963,MX,28,Laredo,
258964,MX,15,Cuautitlán Izcalli,
258965,MX,15,Naucalpan,
258966,MX,15,Chapultepec,
258967,MX,27,Quintana Roo,
258968,MX,14,Zapopan,
258969,MX,15,Tlalnepantla,
258970,MX,32,Santa Fe,
258971,MX,21,Texmelucan,
258972,MX,25,Lomas,
258973,MX,11,Guanajuato,
258974,MX,27,Cuajimalpa,
258975,MX,30,Roma,
258976,MX,10,Jardines,
258977,MX,3,Valle,
258978,MX,16,Olivos,
258979,MX,30,Tuxtla,
258980,MX,20,Teotitlan,
258981,MX,5,Ocosingo,
258982,MX,7,Yucatán,
258983,MX,25,Sinaloa,
258984,MX,7,La Partida,
258985,MX,28,Manuel,
258986,MX,30,Pueblo,
258987,MX,19,Allende,
258988,MX,20,Xoxocotlan,
258989,MX,20,Tuxtepec,
258990,MX,16,Morelia,
258991,MX,26,Bácum,
258992,MX,30,Córdoba,
258993,MX,23,Cozumel,
258994,MX,28,Graciano Sánchez,
258995,MX,14,Tlaquepaque,
258996,MX,19,Anáhuac,
258997,MX,11,San Ángel,
258998,MX,15,Huixquilucan,
258999,MX,26,Hermosillo,
259000,MX,3,San José Del Cabo,
259001,MX,28,Reynosa,
259002,MX,26,Providencia,
259003,MX,24,Verdes,
259004,MX,12,Acapulco,
259005,MX,21,Cholula,
259006,MX,11,Salamanca,
259007,MX,15,Toluca,
259008,MX,5,Tuxtla Gutiérrez,
259009,MX,27,Villahermosa,
259010,MX,20,Jalapa,
259011,MX,30,Coatzacoalcos,
259012,MX,17,Cuernavaca,
259013,MX,7,Torreón,
259014,MX,28,Matamoros,
259015,MX,3,La Paz,
259016,MX,11,Celaya,
259017,MX,25,Mazatlán,
259018,MX,25,Culiacán,
259019,MX,2,Mexicali,
259020,MX,5,Motozintla,
259021,MX,17,Jiutepec,
259022,MX,28,Tampico,
259023,MX,25,Topolobampo,
259024,MX,14,Tuxpan,
259025,MX,21,Rafael Lara Grajales,
259026,MX,19,Guadalupe,
259027,MX,14,Puerto Vallarta,
259028,MX,19,Potosi,
259029,MX,18,Tepic,
259030,MX,27,Jalpa,
259031,MX,19,Santiago,
259032,MX,19,Apodaca,
259033,MX,14,Poncitlán,
259034,MX,13,Zimapán,
259035,MX,7,Ramos Arizpe,
259036,MX,14,Chapala,
259037,MX,14,Tepatitlan,
259038,MX,14,Atotonilco El Alto,
259039,MX,30,Orizaba,
259040,MX,13,Pachuca,
259041,MX,11,Irapuato,
259042,MX,15,Cuautitlán,
259043,MX,14,Jocotepec,
259044,MX,15,Huehuetoca,
259045,MX,16,Zamora,
259046,MX,14,Ameca,
259047,MX,15,Atizapán,
259048,MX,30,Boca Del Río,
259049,MX,21,Tehuacán,
259050,MX,15,Metepec,
259051,MX,15,Ecatepec,
259052,MX,26,Obregon,
259053,MX,15,Chalco,
259054,MX,19,Santa Catarina,
259055,MX,10,Lerdo,
259056,MX,11,Bernardo,
259057,MX,16,Uruapan,
259058,MX,32,Campos,
259059,MX,17,Puente De Ixtla,
259060,MX,15,Zumpango,
259061,MX,21,Teziutlán,
259062,MX,11,Granjas,
259063,MX,14,Tlajomulco,
259064,MX,30,Naranjos,
259065,MX,11,Salvatierra,
259066,MX,15,Tultitlán,
259067,MX,25,Jacobo,
259068,MX,14,Arandas,
259069,MX,5,Gutierrez,
259070,MX,17,Zacatepec,
259071,MX,28,Tula,
259072,MX,4,Carmen,
259073,MX,19,Montemorelos,
259074,MX,26,Santa Ana,
259075,MX,15,Nezahualcóyotl,
259076,MX,15,Texcoco,
259077,MX,20,Chapingo,
259078,MX,21,Alfonso,
259079,MX,23,Insurgentes,
259080,MX,26,Álamos,
259081,MX,4,Reforma,
259082,MX,15,Ocoyoacac,
259083,MX,17,Cuautla,
259084,MX,2,San Luis,
259085,MX,11,San Cristóbal,
259086,MX,5,Tapachula,
259087,MX,23,Chetumal,
259088,MX,25,Los Mochis,
259089,MX,26,Nogales,
259090,MX,7,Sabinas,
259091,MX,11,Moroleón,
259092,MX,13,Huichapan,
259093,MX,30,Poza Rica,
259094,MX,30,Catemaco,
259095,MX,14,Ciudad Guzmán,
259096,MX,17,Jojutla,
259097,MX,12,Zihuatanejo,
259098,MX,31,Valladolid,
259099,MX,16,Zitácuaro,
259100,MX,27,Santa Apolonia,
259101,MX,2,Tecate,
259102,MX,28,Mier,
259103,MX,25,Las Americas,
259104,MX,13,Tulancingo,
259105,MX,18,Puente,
259106,MX,21,Tepeaca,
259107,MX,22,Colón,
259108,MX,30,Calzada,
259109,MX,32,Pabellón,
259110,MX,11,Pedregal,
259111,MX,11,San Felipe,
259112,MX,26,Gaona,
259113,MX,29,Apizaco,
259114,MX,6,Delicias,
259115,MX,20,Nacional,
259116,MX,7,Escobedo,
259117,MX,11,Valle De Santiago,
259118,MX,21,Atlixco,
259119,MX,15,Coacalco,
259120,MX,28,Altamira,
259121,MX,14,El Salto,
259122,MX,29,Satélite,
259123,MX,28,González,
259124,MX,5,Urbina,
259125,MX,32,Manuel Ávila Camacho,
259126,MX,14,Lagos De Moreno,
259127,MX,27,Cárdenas,
259128,MX,15,Balderas,
259129,MX,31,Progreso,
259130,MX,7,Portales,
259131,MX,26,Moctezuma,
259132,MX,14,Gracia,
259133,MX,28,Ciudad Mante,
259134,MX,7,Acuña,
259135,MX,26,La Costeña,
259136,MX,29,Xalostoc,
259137,MX,25,Verde,
259138,MX,24,Fernández,
259139,MX,27,Pedro,
259140,MX,22,San Juan Del Río,
259141,MX,30,Cosoleacaque,
259142,MX,10,Urrea,
259143,MX,14,Tequila,
259144,MX,7,Montevideo,
259145,MX,14,Zapote,
259146,MX,9,Mexico,
259147,MX,9,Ciudad Universitaria,
259148,MX,23,Playa Del Carmen,
259149,MX,15,Ozumba,
259150,MX,19,San Nicolás De Los Garza,
259151,MX,5,Las Maravillas,
259152,MX,17,Tres Marías,
259153,MX,13,Zapotlán,
259154,MX,15,Ixtapaluca,
259155,MX,21,Xochitlán,
259156,MX,14,La Venta Del Astillero,
259157,MX,32,Tepechitlán,
259158,MX,16,Vista Hermosa,
259159,MX,14,Tototlán,
259160,MX,15,Temascalapa,
259161,MX,15,Tecamac,
259162,MX,18,Santa María Del Oro,
259163,MX,15,Melchor Ocampo,
259164,MX,30,Cuichapa,
259165,MX,14,Teocaltiche,
259166,MX,8,Villa De Alvarez,
259167,MX,8,Comala,
259168,MX,8,Tecomán,
259169,MX,8,Manzanillo,
259170,MX,8,Madrid,
259171,MX,11,Marfil,
259172,MX,11,Romita,
259173,MX,11,Santa Teresa,
259174,MX,11,Cuerámaro,
259175,MX,15,Lerma,
259176,MX,15,Atarasquillo,
259177,MX,15,Cahuacán,
259178,MX,11,Maravatío,
259179,MX,16,Acuitzio,
259180,MX,32,Fresnillo,
259181,MX,32,Victor Rosales,
259182,MX,17,Xochitepec,
259183,MX,17,Emiliano Zapata,
259184,MX,21,Izúcar De Matamoros,
259185,MX,7,Frontera,
259186,MX,7,General Cepeda,
259187,MX,7,Esperanzas,
259188,MX,19,Sabinas Hidalgo,
259189,MX,6,Meoqui,
259190,MX,6,Alamito,
259191,MX,6,Ignacio Zaragoza,
259192,MX,6,Camargo,
259193,MX,29,Contla,
259194,MX,19,Juárez,
259195,MX,29,Sanctórum,
259196,MX,5,New York,
259197,MX,17,Temixco,
259198,MX,13,Tezontepec,
259199,MX,15,Los Reyes,
259200,MX,7,Concordia,
259201,MX,10,Gómez Palacio,
259202,MX,15,Tequixquiac,
259203,MX,15,Santa Gertrudis,
259204,MX,16,Huetamo,
259205,MX,15,Xico,
259206,MX,12,Chilpancingo,
259207,MX,30,Ozuluama,
259208,MX,11,San Francisco Del Rincón,
259209,MX,6,Casas Grandes,
259210,MX,30,Xalapa,
259211,MX,15,Jaltepec,
259212,MX,30,Antón Lizardo,
259213,MX,15,Río Frío,
259214,MX,32,Pinos,
259215,MX,24,Ahualulco,
259216,MX,30,Rinconada,
259217,MX,30,Actopan,
259218,MX,30,Huatusco,
259219,MX,30,Boca Del Monte,
259220,MX,30,Paso De Ovejas,
259221,MX,25,Guasave,
259222,MX,21,Atzompa,
259223,MX,29,Zacatelco,
259224,MX,6,Colonía Guadalupe,
259225,MX,20,Pinotepa Nacional,
259226,MX,20,Juquila,
259227,MX,12,Iguala,
259228,MX,13,Huautla,
259229,MX,25,San Blas,
259230,MX,3,Cabo San Lucas,
259231,MX,25,Pericos,
259232,MX,11,Andocutín,
259233,MX,11,Silao,
259234,MX,4,Seybaplaya,
259235,MX,21,Teotlalcingo,
259236,MX,21,Tlahuapan,
259237,MX,6,Santa Bárbara,
259238,MX,28,Río Bravo,
259239,MX,19,Hualahuises,
259240,MX,32,Pozo De Gamboa,
259241,MX,22,El Colorado,
259242,MX,11,El Memorillo,
259243,MX,27,Macuspana,
259244,MX,15,Jocotitlán,
259245,MX,15,Chimalhuacán,
259246,MX,20,San Isidro El Potrero,
259247,MX,20,Cahuacua,
259248,MX,27,Cunduacán,
259249,MX,17,Tlalnepantla,
259250,MX,29,Nanacamilpa,
259251,MX,17,Yautepec,
259252,MX,17,Totolapan,
259253,MX,17,Tlayacapan,
259254,MX,15,Ayotzingo,
259255,MX,15,Tlalmanalco,
259256,MX,17,Ayala,
259257,MX,17,Oaxtepec,
259258,MX,32,Ojo Caliente,
259259,MX,29,Tlaltelulco,
259260,MX,29,Teolocholco,
259261,MX,14,Ajijic,
259262,MX,15,Xalatlaco,
259263,MX,16,Tarímbaro,
259264,MX,15,Nicolás Romero,
259265,MX,7,Arteaga,
259266,MX,27,San Carlos,
259267,MX,15,Jilotepec,
259268,MX,14,La Barca,
259269,MX,7,Los Garza,
259270,MX,14,San Juan De Abajo,
259271,MX,13,Tula De Allende,
259272,MX,15,Teoloyucan,
259273,MX,21,Xalmimilulco,
259274,MX,21,Cuanala,
259275,MX,21,Sanctórum,
259276,MX,30,Cerro Azul,
259277,MX,21,Ocotlán,
259278,MX,21,Calpan,
259279,MX,30,Tepetzintla,
259280,MX,29,Terrenate,
259281,MX,30,Chicontepec,
259282,MX,21,Domingo Arenas,
259283,MX,29,Tepetitla,
259284,MX,30,Tantoyuca,
259285,MX,29,Nativitas,
259286,MX,21,Metlaltoyuca,
259287,MX,30,Tihuatlán,
259288,MX,30,Castillo De Teayo,
259289,MX,30,Papantla,
259290,MX,30,Platón Sánchez,
259291,MX,21,La Ceiba,
259292,MX,30,Álamo,
259293,MX,30,Cazones,
259294,MX,30,Benito Juárez,
259295,MX,21,Atoyatempan,
259296,MX,21,Oriental,
259297,MX,21,Tecamachalco,
259298,MX,29,Benito Juárez,
259299,MX,21,Xochiltenango,
259300,MX,21,Tlacoyalco,
259301,MX,21,Hueyotlipan,
259302,MX,21,Acuexcomac,
259303,MX,21,Tecali,
259304,MX,21,Acajete,
259305,MX,29,Zitlaltepec,
259306,MX,21,Tepeojuma,
259307,MX,21,Tochtepec,
259308,MX,21,Ixtiyucan,
259309,MX,20,San Pedro Cholula,
259310,MX,15,Acuautla,
259311,MX,21,Tlaltenango,
259312,MX,30,Ixcatepec,
259313,MX,21,Chiautzingo,
259314,MX,21,Xoxtla,
259315,MX,21,Tlaxcalancingo,
259316,MX,29,Ixtenco,
259317,MX,13,Huejutla,
259318,MX,13,Jaltocán,
259319,MX,21,Tepexi,
259320,MX,21,Acatzingo,
259321,MX,21,Libres,
259322,MX,21,Alseseca,
259323,MX,21,Chiapa,
259324,MX,16,Cotija,
259325,MX,21,Coatepec,
259326,MX,21,Tenango,
259327,MX,30,Las Vigas,
259328,MX,30,La Antigua,
259329,MX,30,Perote,
259330,MX,30,Altotonga,
259331,MX,30,Vega De Alatorre,
259332,MX,30,Naolinco,
259333,MX,21,Tlatlauquitepec,
259334,MX,21,Guadalupe Victoria,
259335,MX,30,Alto Lucero,
259336,MX,30,Tlapacoyan,
259337,MX,21,Chignautla,
259338,MX,30,Banderilla,
259339,MX,30,Zempoala,
259340,MX,21,Cuetzalan,
259341,MX,21,Tenextatiloyan,
259342,MX,30,Hueytamalco,
259343,MX,30,Ursulo Galván,
259344,MX,30,Alvarado,
259345,MX,30,Mundo Nuevo,
259346,MX,15,Ameyalco,
259347,MX,30,Altamirano,
259348,MX,20,Tierra Blanca,
259349,MX,20,Miahuatlán,
259350,MX,20,Huixtepec,
259351,MX,20,Zapotitlán Del Río,
259352,MX,20,Huajuapan,
259353,MX,20,Asunción Ocotlán,
259354,MX,20,Zacatepec,
259355,MX,20,Yaitepec,
259356,MX,20,Yucucondo,
259357,MX,20,Panixtlahuaca,
259358,MX,20,Tlaxiaco,
259359,MX,20,San Sebastián Yutanino,
259360,MX,20,Telixtlahuaca,
259361,MX,20,Cacahuatepec,
259362,MX,20,Asunción Nochixtlán,
259363,MX,20,Ejutla De Crespo,
259364,MX,21,Acatlán,
259365,MX,20,Jamiltepec,
259366,MX,20,Zaachila,
259367,MX,20,Ayoquezco,
259368,MX,20,Suchilquitongo,
259369,MX,20,Cuilápam,
259370,MX,20,Magdalena Tequisistlán,
259371,MX,20,San Agustin De Las Juntas,
259372,MX,20,Mixtepec,
259373,MX,20,Amatlan,
259374,MX,20,La Golondrina,
259375,MX,20,Yutandachi,
259376,MX,20,Chichicapam,
259377,MX,20,Zimatlán,
259378,MX,20,Tlacolula,
259379,MX,20,San Juan Teposcolula,
259380,MX,20,Juchitan,
259381,MX,10,Mixtepec,
259382,MX,20,Huatulco,
259383,MX,20,Cosolapa,
259384,MX,30,Piedras Negras,
259385,MX,20,Tezonapa,
259386,MX,30,Omealca,
259387,MX,30,Isla,
259388,MX,30,Paso Del Macho,
259389,MX,30,Monte Blanco,
259390,MX,30,Atzacán,
259391,MX,30,Cuitláhuac,
259392,MX,30,Ixhuatlancillo,
259393,MX,30,Motzorongo,
259394,MX,20,Salina Cruz,
259395,MX,30,Cuautlapan,
259396,MX,20,Comitancillo,
259397,MX,20,Ixtepec,
259398,MX,20,Asunción Ixtaltepec,
259399,MX,20,Huitzo,
259400,MX,20,Nazareno Etla,
259401,MX,32,San Martín,
259402,MX,20,Matías Romero,
259403,MX,30,Yanga,
259404,MX,21,Zacatepec,
259405,MX,20,Acatlan,
259406,MX,30,Totolapa,
259407,MX,29,Apetatitlán,
259408,MX,29,Teacalco,
259409,MX,29,Tlaxco,
259410,MX,21,Zacatlán,
259411,MX,29,Tetlanohcan,
259412,MX,29,Chiautempan,
259413,MX,29,Ayometla,
259414,MX,20,Huautla,
259415,MX,5,Chiapilla,
259416,MX,21,Tetzoyocan,
259417,MX,21,Tlalancaleca,
259418,MX,21,Almecatla,
259419,MX,21,Raboso,
259420,MX,29,Papalotla,
259421,MX,21,Tianguismanalco,
259422,MX,13,Apan,
259423,MX,21,Chignahuapan,
259424,MX,13,Tepeapulco,
259425,MX,21,Huauchinango,
259426,MX,13,Los Reyes,
259427,MX,21,Caltenco,
259428,MX,13,Emiliano Zapata,
259429,MX,29,Xicohtzinco,
259430,MX,13,Ixmiquilpan,
259431,MX,29,Tetla,
259432,MX,29,Hueyotlipan,
259433,MX,21,Ocotitlán,
259434,MX,13,Singuilucan,
259435,MX,21,Actipan,
259436,MX,13,Sahagún,
259437,MX,13,Tlanalapa,
259438,MX,21,Ajalpan,
259439,MX,29,Calpulalpan,
259440,MX,29,Huamantla,
259441,MX,29,Atexcatzingo,
259442,MX,5,Ocozocoautla,
259443,MX,5,Acala,
259444,MX,5,Oxchuc,
259445,MX,5,Ixtapa,
259446,MX,5,Zinacantán,
259447,MX,5,Cintalapa,
259448,MX,5,Palenque,
259449,MX,5,Chilón,
259450,MX,5,Huehuetán,
259451,MX,5,Huixtla,
259452,MX,5,El Bosque,
259453,MX,5,Teopisca,
259454,MX,5,Chanal,
259455,MX,5,Guadalupe,
259456,MX,5,Comitan,
259457,MX,5,San Lucas,
259458,MX,5,Yajalón,
259459,MX,5,Las Rosas,
259460,MX,5,Pantelhó,
259461,MX,5,Bochil,
259462,MX,5,Totolapa,
259463,MX,5,Frontera Comalapa,
259464,MX,5,Comalapa,
259465,MX,27,Pemex,
259466,MX,27,Comalcalco,
259467,MX,5,Juárez,
259468,MX,27,Balancan,
259469,MX,5,Catazajá,
259470,MX,27,Nacajuca,
259471,MX,27,Macultepec,
259472,MX,27,Huimanguillo,
259473,MX,27,Tenosique,
259474,MX,27,Jonuta,
259475,MX,4,Palizada,
259476,MX,27,Frontera,
259477,MX,27,Jalapa,
259478,MX,27,Parrilla,
259479,MX,27,Paraíso,
259480,MX,27,Luis Gil Pérez,
259481,MX,30,Minatitlán,
259482,MX,30,Nanchital,
259483,MX,30,Las Choapas,
259484,MX,27,Buena Vista Segunda Sección,
259485,MX,30,Soconusco,
259486,MX,30,Oluta,
259487,MX,30,Soteapan,
259488,MX,5,Chiapa,
259489,MX,5,Suchiapa,
259490,MX,5,Amatenango Del Valle,
259491,MX,5,Salto De Agua,
259492,MX,30,Jáltipan,
259493,MX,30,Chinameca,
259494,MX,27,Buenavista,
259495,MX,27,Aquiles Serdán,
259496,MX,27,Tacotalpa,
259497,MX,27,Teapa,
259498,MX,5,Soyaló,
259499,MX,5,Jaltenango,
259500,MX,27,Tecolutilla,
259501,MX,5,Berriozábal,
259502,MX,5,Nicolás Ruiz,
259503,MX,5,Copoya,
259504,MX,15,López Mateos,
259505,MX,15,Zumpahuacán,
259506,MX,15,Chimalpa,
259507,MX,28,Atizapán De Zaragoza,
259508,MX,15,Malinalco,
259509,MX,15,Huilango,
259510,MX,15,Santo Domingo De Guzmán,
259511,MX,9,Tlahuac,
259512,MX,15,Tepetlaoxtoc,
259513,MX,12,Huitzuco,
259514,MX,17,Tilzapotla,
259515,MX,12,Tierra Colorada,
259516,MX,14,Amacuzac,
259517,MX,17,Xoxocotla,
259518,MX,17,Santa Catarina,
259519,MX,17,Alpuyeca,
259520,MX,12,Taxco,
259521,MX,17,Miacatlán,
259522,MX,17,Tetecala,
259523,MX,17,Tepoztlán,
259524,MX,17,Jonacatepec,
259525,MX,12,Copalillo,
259526,MX,12,Tlapa,
259527,MX,15,Amecameca,
259528,MX,17,Tepalcingo,
259529,MX,17,Higuerón,
259530,MX,17,Atlatlahucan,
259531,MX,17,Tlaltizapán,
259532,MX,21,Jolalpan,
259533,MX,12,Zitlala,
259534,MX,15,Jesús Del Monte,
259535,MX,15,San Juan Tilapa,
259536,MX,15,Acahualco,
259537,MX,15,Natívitas,
259538,MX,15,Xonacatlán,
259539,MX,15,Ixtapan Del Oro,
259540,MX,15,Salitrillo,
259541,MX,15,Acazulco,
259542,MX,15,Zaragoza,
259543,MX,15,Zolotepec,
259544,MX,15,Calimaya,
259545,MX,15,Tianguistenco,
259546,MX,15,San Felipe Del Progreso,
259547,MX,15,Enthavi,
259548,MX,15,Jilotzingo,
259549,MX,15,Atlacomulco,
259550,MX,17,La Joya,
259551,MX,12,Tepecoacuilco,
259552,MX,12,Teloloapan,
259553,MX,12,Chilapa,
259554,MX,15,Chicoloapan,
259555,MX,12,Apango,
259556,MX,5,Esmeralda,
259557,MX,15,Cholula,
259558,MX,13,Tolcayuca,
259559,MX,15,Soyaniquilpan,
259560,MX,13,Atitalaquia,
259561,MX,13,Ajacuba,
259562,MX,13,Tepeji,
259563,MX,13,Tepatepec,
259564,MX,13,Acayuca,
259565,MX,13,Tlaxcoapan,
259566,MX,13,Atengo,
259567,MX,15,Ajoloapan,
259568,MX,13,San Juan Tepa,
259569,MX,15,Xalpa,
259570,MX,13,Tetepango,
259571,MX,13,Tizayuca,
259572,MX,13,Actopan,
259573,MX,13,Tlaxiaca,
259574,MX,13,Progreso,
259575,MX,15,Axapusco,
259576,MX,13,Tlahuelilpan,
259577,MX,15,Apaxco,
259578,MX,15,Pueblo Nuevo,
259579,MX,15,Zacacalco,
259580,MX,15,Otumba,
259581,MX,15,Nopaltepec,
259582,MX,15,Acolman,
259583,MX,15,San José El Vidrio,
259584,MX,15,Tultepec,
259585,MX,15,Tepotzotlán,
259586,MX,15,Chiconcuac,
259587,MX,15,Montecillo,
259588,MX,12,El Ocotito,
259589,MX,12,Coyuca,
259590,MX,12,Tecpan,
259591,MX,12,Xaltianguis,
259592,MX,12,Petatlán,
259593,MX,12,Cuautepec,
259594,MX,12,Cruz Grande,
259595,MX,12,Coacoyul,
259596,MX,12,Zacualpan,
259597,MX,12,Atoyac,
259598,MX,12,San Marcos,
259599,MX,12,Ometepec,
259600,MX,12,Xalpatlahuac,
259601,MX,31,Timucuy,
259602,MX,31,Muna,
259603,MX,31,Motul,
259604,MX,4,Dzitbalché,
259605,MX,31,Tunkás,
259606,MX,31,Tekanto,
259607,MX,31,Tixkokob,
259608,MX,31,Tixpehual,
259609,MX,31,Opichén,
259610,MX,31,Caucel,
259611,MX,23,Puerto Morelos,
259612,MX,23,Tulum,
259613,MX,23,Aventuras,
259614,MX,23,Yaaxche,
259615,MX,23,El Crucero,
259616,MX,23,Kantunilkin,
259617,MX,31,Maxcanú,
259618,MX,4,Calkiní,
259619,MX,31,Kantunil,
259620,MX,31,Seyé,
259621,MX,4,Tenabó,
259622,MX,4,Nunkiní,
259623,MX,31,Tahmek,
259624,MX,4,Becal,
259625,MX,4,Champotón,
259626,MX,31,Chocholá,
259627,MX,31,Cacalchén,
259628,MX,7,San Buenaventura,
259629,MX,19,General Escobedo,
259630,MX,7,Minas De Barroterán,
259631,MX,19,Linares,
259632,MX,7,Nueva Rosita,
259633,MX,11,Abasolo,
259634,MX,22,Pedro Escobedo,
259635,MX,7,Los Lirios,
259636,MX,7,San Juan De Los Dolores,
259637,MX,19,Hidalgo,
259638,MX,28,Gómez Farías,
259639,MX,6,Potrero De Mapula,
259640,MX,6,Hidalgo Del Parral,
259641,MX,6,Parral,
259642,MX,6,Naica,
259643,MX,6,Saucillo,
259644,MX,6,Jiménez,
259645,MX,7,La Escondida,
259646,MX,7,Parras,
259647,MX,7,Refugio José De La Joya,
259648,MX,10,Canatlán,
259649,MX,10,Papasquiaro,
259650,MX,10,Panuco,
259651,MX,7,Muzquiz,
259652,MX,7,El Coyote,
259653,MX,10,Nazareno,
259654,MX,30,Tampico,
259655,MX,28,El Madroño,
259656,MX,28,Palmillitas,
259657,MX,11,Dolores Hidalgo,
259658,MX,28,Cuauhtémoc,
259659,MX,30,Pánuco,
259660,MX,28,Valle Hermoso,
259661,MX,28,San Fernando,
259662,MX,28,Hidalgo,
259663,MX,28,Camargo,
259664,MX,30,Ébano,
259665,MX,19,Ciénaga De Flores,
259666,MX,19,General Zuazua,
259667,MX,19,Garcia,
259668,MX,12,San Luis De La Paz,
259669,MX,14,El Refugio,
259670,MX,14,Amatitán,
259671,MX,14,Cocula,
259672,MX,14,Tala,
259673,MX,14,El Grullo,
259674,MX,14,Tonaya,
259675,MX,14,Tecolotlán,
259676,MX,14,Sayula,
259677,MX,14,San Martín De Hidalgo,
259678,MX,14,Santa Cruz Del Valle,
259679,MX,14,Antonio Escobedo,
259680,MX,14,Casimiro Castillo,
259681,MX,14,Ixtlahuacán Del Río,
259682,MX,14,Teocuitatlán De Corona,
259683,MX,14,Zapotlanejo,
259684,MX,14,Mezcala,
259685,MX,14,Tonila,
259686,MX,14,El Arenal,
259687,MX,8,Quesería,
259688,MX,14,Villa Corona,
259689,MX,14,Teuchitlán,
259690,MX,14,Zapotiltic,
259691,MX,14,Totomosco,
259692,MX,8,Minatitlán,
259693,MX,14,Chiquilistlán,
259694,MX,14,Tapalpa,
259695,MX,14,Tenamaxtlán,
259696,MX,14,Etzatlán,
259697,MX,14,Autlán,
259698,MX,14,Bellavista,
259699,MX,14,Santa Cruz De Las Flores,
259700,MX,14,La Huerta,
259701,MX,18,Jesús María,
259702,MX,14,Lo Arado,
259703,MX,14,Tizapán El Alto,
259704,MX,14,San Patricio,
259705,MX,14,Tonalá,
259706,MX,14,Juanacatlán,
259707,MX,14,Mazamitla,
259708,MX,8,Coquimatlán,
259709,MX,14,San Sebastián El Grande,
259710,MX,14,San José Del Castillo,
259711,MX,14,Puente Grande,
259712,MX,14,Atequiza,
259713,MX,14,Cihuatlán,
259714,MX,16,Cojumatlán,
259715,MX,14,Cajititlán,
259716,MX,14,El Quince,
259717,MX,14,Cuyutlán,
259718,MX,14,Atoyac,
259719,MX,14,Usmajac,
259720,MX,11,Octopan,
259721,MX,11,Apaseo El Grande,
259722,MX,11,Cortazar,
259723,MX,11,Acámbaro,
259724,MX,11,San José Iturbide,
259725,MX,11,Santiago De Cuenda,
259726,MX,11,San Miguel De Allende,
259727,MX,13,Jacala,
259728,MX,11,Apaseo El Alto,
259729,MX,11,Aldama,
259730,MX,22,Tolimán,
259731,MX,11,Comonfort,
259732,MX,22,Cadereyta,
259733,MX,13,Tasquillo,
259734,MX,11,San Juan De La Vega,
259735,MX,11,Jaral Del Progreso,
259736,MX,11,Villagrán,
259737,MX,11,La Moncada,
259738,MX,11,Cañada De La Virgen,
259739,MX,11,Manuel Doblado,
259740,MX,11,Juventino Rosas,
259741,MX,22,La Lira,
259742,MX,22,El Sauz,
259743,MX,22,Ajuchitlán,
259744,MX,22,El Pueblito,
259745,MX,22,Tlacote El Bajo,
259746,MX,11,Alcocer,
259747,MX,11,Jerécuaro,
259748,MX,16,Apatzingan,
259749,MX,16,Aguililla,
259750,MX,16,La Huacana,
259751,MX,16,La Mira,
259752,MX,16,Tepalcatepec,
259753,MX,18,Compostela,
259754,MX,18,San Blas,
259755,MX,18,Yago,
259756,MX,18,Las Varas,
259757,MX,18,Jalcocotán,
259758,MX,18,Lagunillas,
259759,MX,18,Ruiz,
259760,MX,18,Valle De Banderas,
259761,MX,16,Coahuayana,
259762,MX,16,Pátzcuaro,
259763,MX,16,Nueva Italia De Ruiz,
259764,MX,16,Tingambato,
259765,MX,16,Tancítaro,
259766,MX,16,Ario,
259767,MX,16,Taretán,
259768,MX,16,Buenos Aires,
259769,MX,16,Capácuaro,
259770,MX,16,Arteaga,
259771,MX,16,Lázaro Cárdenas,
259772,MX,16,Las Guacamayas,
259773,MX,16,Tacambaro,
259774,MX,16,Lombardía,
259775,MX,14,Jamay,
259776,MX,14,Santa Anita,
259777,MX,14,Valle De Guadalupe,
259778,MX,14,Concepción De Buenos Aires,
259779,MX,14,San Gabriel,
259780,MX,14,Capilla De Guadalupe,
259781,MX,14,Acatic,
259782,MX,14,San José De Gracia,
259783,MX,16,Numarán,
259784,MX,14,San Miguel El Alto,
259785,MX,14,Degollado,
259786,MX,14,Jalostotitlán,
259787,MX,14,Zacoalco,
259788,MX,14,San Juan De Los Lagos,
259789,MX,14,La Tijera,
259790,MX,1,Calvillo,
259791,MX,1,Margaritas,
259792,MX,1,Rincón De Romos,
259793,MX,11,Duarte,
259794,MX,11,La Aldea,
259795,MX,32,Jerez,
259796,MX,32,Valparaíso,
259797,MX,32,Villanueva,
259798,MX,32,Chalchihuites,
259799,MX,32,Sombrerete,
259800,MX,1,San José De Gracia,
259801,MX,32,Nieves,
259802,MX,32,Carnicero,
259803,MX,32,Plateros,
259804,MX,32,Toribio,
259805,MX,7,Valles,
259806,MX,24,Tancanhuitz,
259807,MX,24,Tanquian,
259808,MX,24,La Pila,
259809,MX,24,Tamazunchale,
259810,MX,24,Cerritos,
259811,MX,22,Piedra Parada,
259812,MX,24,Zaragoza,
259813,MX,30,El Higo,
259814,MX,24,Ciudad Valles,
259815,MX,24,Huichihuayán,
259816,MX,24,Santa María Del Río,
259817,MX,24,Tierranueva,
259818,MX,24,Moctezuma,
259819,MX,24,Axtla,
259820,MX,22,Jalpan,
259821,MX,24,Matehuala,
259822,MX,11,Río Verde,
259823,MX,24,Villa De Reyes,
259824,MX,19,La Reforma,
259825,MX,24,Escalerillas,
259826,MX,19,Santa Rita,
259827,MX,22,Joya Chiquita De San Antonio,
259828,MX,13,Orizatlán,
259829,MX,24,Troje Cabras,
259830,MX,24,Cedral,
259831,MX,11,San Diego De La Unión,
259832,MX,16,Tangamandapio,
259833,MX,16,Zinapécuaro,
259834,MX,16,Nocupétaro,
259835,MX,16,Villachuato,
259836,MX,16,Queréndaro,
259837,MX,16,Cuitareo,
259838,MX,16,Quiroga,
259839,MX,16,La Piedad,
259840,MX,16,Jacona,
259841,MX,16,Churintzio,
259842,MX,16,Ixtlán,
259843,MX,16,Jiquilpan,
259844,MX,16,Tarecuato,
259845,MX,16,Ecuandureo,
259846,MX,16,Tangancicuaro,
259847,MX,16,Chavinda,
259848,MX,16,Sahuayo,
259849,MX,16,Tinguindín,
259850,MX,16,Cuanajo,
259851,MX,16,Maravatío,
259852,MX,16,Charo,
259853,MX,16,Indaparapeo,
259854,MX,16,Panindicuaro,
259855,MX,16,Tanhuato,
259856,MX,16,Penjamillo,
259857,MX,11,Tarimoro,
259858,MX,26,Pillor,
259859,MX,26,Ures,
259860,MX,26,Caborca,
259861,MX,26,Puerto Peñasco,
259862,MX,25,La Majada De Arriba,
259863,MX,26,Cananea,
259864,MX,26,Agua Prieta,
259865,MX,26,Imuris,
259866,MX,26,El Tápiro,
259867,MX,26,Guaymas,
259868,MX,26,Empalme,
259869,MX,26,Carricito,
259870,MX,6,Nuevo Casas Grandes,
259871,MX,26,Huatabampo,
259872,MX,26,Vícam,
259873,MX,3,Navojoa,
259874,MX,26,Agua Blanca,
259875,MX,26,Bamocha,
259876,MX,25,Bacorahuis,
259877,MX,26,Etchojoa,
259878,MX,26,Civiral,
259879,MX,26,Campo Sesenta,
259880,MX,3,Todos Santos,
259881,MX,3,El Bedito,
259882,MX,7,Cabos,
259883,MX,3,Caduaño,
259884,MX,3,Boca De La Sierra,
259885,MX,25,La Cruz,
259886,MX,25,Angostura,
259887,MX,25,Culiacancito,
259888,MX,25,Navolato,
259889,MX,25,La Reforma,
259890,MX,25,Guamúchil,
259891,MX,25,Compuertas,
259892,MX,25,Mocorito,
259893,MX,25,Adolfo Ruíz Cortínes,
259894,MX,25,Gabriel Leyva Solano,
259895,MX,25,La Trinidad,
259896,MX,25,Chihuahuita,
259897,MX,25,Agua Verde,
259898,MX,26,El Ojito,
259899,MX,26,Rancho Pedregón,
259900,MX,26,Rancho Las Chivas,
259901,MX,26,Naco,
259902,MX,26,Colonia Jecopaco,
259903,MX,26,El Gito Baleado,
259904,MX,11,Yuriria,
259905,MX,11,Uriangato,
259906,MX,12,Tlalchapa,
259907,MX,12,Apaxtla,
259908,MX,12,Olinalá,
259909,MX,12,Huitziltepec,
259910,MX,15,Pilcaya,
259911,MX,12,Arcelia,
259912,MX,12,Pungarabato,
259913,MX,15,Coatepec,
259914,MX,9,Coyoacán,
259915,MX,21,Ayotla,
259916,MX,27,Villa El Triunfo,
259917,MX,18,Rosamorada,
259918,MX,18,San Vicente,
259919,MX,10,Tlahualilo,
259920,MX,7,Matamoros,
259921,MX,32,Jalpa,
259922,MX,14,Encarnacion,
259923,MX,21,Cuayucatepec,
259924,MX,30,Ixtaczoquitlán,
259925,MX,30,Cosolapa,
259926,MX,30,Fortín,
259927,MX,30,Loma Bonita,
259928,MX,20,San Antonio De La Cal,
259929,MX,20,Yolotepec De La Paz,
259930,MX,30,Zongolica,
259931,MX,30,Cosautlán,
259932,MX,21,Yaonáhuac,
259933,MX,21,Atempan,
259934,MX,30,Santiago Tuxtla,
259935,MX,15,San Pablo De Las Salinas,
259936,MX,21,Quecholac,
259937,MX,14,Ojuelos De Jalisco,
259938,MX,29,Tenancingo,
259939,MX,5,El Sabino,
259940,MX,2,La Joya,
259941,MX,2,Primo Tapia,
259942,MX,2,Rosarito,
259943,MX,16,Pajacuarán,
259944,MX,2,Los Chorritos,
259945,MX,31,Halachó,
259946,MX,16,Periban,
259947,MX,3,Santa Rosalía,
259948,MX,32,Malpaso,
259949,MX,32,Ordóñez,
259950,MX,11,Pénjamo,
259951,MX,25,Escuinapa,
259952,MX,25,Eldorado,
259953,MX,25,Costa Rica,
259954,MX,14,Tomatlán,
259955,MX,26,Pillorito,
259956,MX,26,Bahía Kino,
259957,MX,26,Rancho Monte Carlo,
259958,MX,26,Janos,
259959,MX,16,Puruándiro,
259960,MX,30,Playa Vicente,
259961,MX,27,Belén,
259962,MX,20,Ixhuatán,
259963,MX,30,La Perla,
259964,MX,5,Tuxtla Chico,
259965,MX,12,Cutzamala,
259966,MX,31,Chemax,
259967,MX,15,Tejupilco,
259968,MX,20,Huamelulpam,
259969,MX,30,Martínez De La Torre,
259970,MX,21,Cuacnopalan,
259971,MX,30,Maltrata,
259972,MX,30,Mecayapan,
259973,MX,15,El Oro,
259974,MX,25,El Burrión,
259975,MX,26,Hacienda La Poza,
259976,MX,11,Cerro Gordo,
259977,MX,20,Ocotlan,
259978,MX,26,San Luis Río Colorado,
259979,MX,2,Belen,
259980,MX,11,Irámuco,
259981,MX,30,Coatepec,
259982,MX,23,Isla Mujeres,
259983,MX,26,Salazar,
259984,MX,28,Guzmán,
259985,MX,21,Ocoyucan,
259986,MX,31,Salvador Alvarado,
259987,MX,11,Guerrero,
259988,MX,19,Cadereyta,
259989,MX,15,Tepexpan,
259990,MX,32,Guanaceví,
259991,MX,26,Esqueda,
259992,MX,14,El Verde,
259993,MX,11,Rincón De Tamayo,
259994,MX,24,Guadalcázar,
259995,MX,3,Constitución,
259996,MX,16,Jungapeo,
259997,MX,31,Itzincab,
259998,MX,31,Dzan,
259999,MX,31,Dzilam González,
260000,MX,31,Izamal,
260001,MX,15,Atlatongo,
260002,MX,15,Tenancingo,
260003,MX,27,Ayapa,
260004,MX,3,Las Parritas,
260005,MX,15,Coyotepec,
260006,MX,15,Ecatzingo,
260007,MX,28,Soto La Marina,
260008,MX,18,Bucerías,
260009,MX,10,San Pedro De Los Naranjos,
260010,MX,16,Cuitzeo,
260011,MX,5,Ixtacomitán,
260012,MX,21,Atzitzintla,
260013,MX,13,Mixquiahuala,
260014,MX,22,La Estancia,
260015,MX,18,Jaltemba,
260016,MX,2,Matamoros,
260017,MX,26,Pilar,
260018,MX,16,Tzintzuntzán,
260019,MX,3,La Ribera,
260020,MX,3,Cositas,
260021,MX,13,Mineral Del Monte,
260022,MX,32,Piedra Gorda,
260023,MX,15,Los Reyes Acozac,
260024,MX,28,Nueva Ciudad Guerrero,
260025,MX,16,Angangueo,
260026,MX,15,San Martín De Las Pirámides,
260027,MX,16,Zacapú,
260028,MX,30,Álvaro,
260029,MX,16,Yurécuaro,
260030,MX,15,Tenango Del Aire,
260031,MX,27,Chicozapote,
260032,MX,4,Hecelchakán,
260033,MX,29,Altzayanca,
260034,MX,11,Ocampo,
260035,MX,2,Ejido Hermosillo,
260036,MX,2,Puebla,
260037,MX,1,Palo Alto,
260038,MX,24,El Naranjo,
260039,MX,24,San Ciro De Acosta,
260040,MX,30,Paraje Nuevo,
260041,MX,15,Totocuitlapilco,
260042,MX,5,Altamirano,
260043,MX,24,Las Ardillas,
260044,MX,1,Asientos,
260045,MX,25,Badiraguato,
260046,MX,30,Tempoal,
260047,MX,15,Valle De Bravo,
260048,MX,15,Tlalcilalcalpan,
260049,MX,5,San Cristóbal De Las Casas,
260050,MX,14,San Julián,
260051,MX,6,Polanco,
260052,MX,22,Carranza,
260053,MX,7,El Sauz,
260054,MX,29,Tepeyanco,
260055,MX,12,Tlapehuala,
260056,MX,25,Mochicahui,
260057,MX,15,San Bartolo,
260058,MX,6,Estancia,
260059,MX,15,Almaya,
260060,MX,11,Yerbabuena,
260061,MX,5,Arriaga,
260062,MX,7,Aguajito,
260063,MX,19,Las Vigas,
260064,MX,21,Huejotzingo,
260065,MX,30,Coatzintla,
260066,MX,21,Ixcaquixtla,
260067,MX,21,Amozoc,
260068,MX,21,San Andrés Cholula,
260069,MX,21,Esperanza,
260070,MX,21,Santa María La Alta,
260071,MX,21,San Sebastián Villanueva,
260072,MX,21,Yehualtepec,
260073,MX,30,Potrero Del Llano,
260074,MX,30,Hidalgo,
260075,MX,30,Jalacingo,
260076,MX,21,Zaragoza,
260077,MX,21,Xiutetelco,
260078,MX,5,Pijijiapan,
260079,MX,20,Jicayan,
260080,MX,21,Totoltepec De Guerrero,
260081,MX,20,Putla,
260082,MX,20,Santa Maria Yalotepec,
260083,MX,20,Unión Hidalgo,
260084,MX,20,San Isidro Trementina,
260085,MX,20,Magdalena Teitipac,
260086,MX,20,Santa María Del Tule,
260087,MX,5,Copainalá,
260088,MX,20,Xitla,
260089,MX,20,Tlalixtac,
260090,MX,20,Tehuantepec,
260091,MX,20,Niltepec,
260092,MX,20,Xochiltepec,
260093,MX,20,Cañada De Galicia,
260094,MX,30,Tlacotalpan,
260095,MX,20,Soyaltepec,
260096,MX,5,Mapastepec,
260097,MX,20,Cacaotepec,
260098,MX,13,El Arenal,
260099,MX,15,Teotihuacán,
260100,MX,29,Mazatecochco,
260101,MX,13,Almoloya,
260102,MX,21,Zongozotla,
260103,MX,21,Malacatepec,
260104,MX,13,Cuautepec,
260105,MX,13,Atotonilco El Grande,
260106,MX,29,Amaxac,
260107,MX,5,Tenango,
260108,MX,5,Cancuc,
260109,MX,5,Socoltenango,
260110,MX,30,Agua Dulce,
260111,MX,30,Oteapan,
260112,MX,5,Tzimol,
260113,MX,5,Las Cruces De Penangos,
260114,MX,5,Pichucalco,
260115,MX,15,San Nicolás Guadalupe,
260116,MX,12,Huamuxtitlán,
260117,MX,17,Yecapixtla,
260118,MX,15,San Lorenzo Cuauhtenco,
260119,MX,15,Rayón,
260120,MX,15,Tenango De Arista,
260121,MX,15,San Pedro Abajo,
260122,MX,15,Mexicaltzingo,
260123,MX,15,Almoloya Del Río,
260124,MX,15,Autopan,
260125,MX,15,Capulhuac,
260126,MX,15,Zinacantepec,
260127,MX,15,Sultepec,
260128,MX,15,Tonatico,
260129,MX,12,Cocula,
260130,MX,15,Vista Hermosa,
260131,MX,13,Zempoala,
260132,MX,15,Bocanegra,
260133,MX,13,Tezontepec De Aldama,
260134,MX,15,Hueypoxtla,
260135,MX,15,Juchitepec,
260136,MX,9,Meyahualco,
260137,MX,32,San Antonio,
260138,MX,12,San Antonio De Las Tejas,
260139,MX,31,Tecoh,
260140,MX,31,Ticul,
260141,MX,31,Kinchil,
260142,MX,23,Ranas,
260143,MX,27,El Encanto,
260144,MX,23,Bacalar,
260145,MX,27,Felipe Carrillo,
260146,MX,31,Hoctún,
260147,MX,4,Escárcega,
260148,MX,7,Castaños,
260149,MX,7,Tunal,
260150,MX,6,El Encino,
260151,MX,6,Clorcasitas,
260152,MX,7,El Rincón De Los Pastores,
260153,MX,28,Las Vigas,
260154,MX,28,El Cajete,
260155,MX,28,Ampliación La Loma,
260156,MX,28,Gustavo Díaz Ordaz,
260157,MX,14,San Marcos,
260158,MX,18,Ixtlán Del Río,
260159,MX,14,Ahualulco,
260160,MX,14,Tecalitlán,
260161,MX,8,El Colomo,
260162,MX,14,Juchitlán,
260163,MX,11,La Palmilla,
260164,MX,11,San José Temascatío,
260165,MX,21,Vallarta,
260166,MX,18,Zacualpan,
260167,MX,16,Opopeo,
260168,MX,32,Nochistlán,
260169,MX,14,Yahualica,
260170,MX,14,Unión De San Antonio,
260171,MX,32,Villa González Ortega,
260172,MX,14,Huejúcar,
260173,MX,32,Saín Alto,
260174,MX,1,Tepezalá,
260175,MX,1,Pabellón De Arteaga,
260176,MX,32,Loreto,
260177,MX,32,El Roble,
260178,MX,32,Guadalupe De Trujillo,
260179,MX,16,Huandacareo,
260180,MX,16,Coeneo,
260181,MX,16,Purépero,
260182,MX,14,Itzican,
260183,MX,16,Villamar,
260184,MX,25,Batiquitas,
260185,MX,26,Altar,
260186,MX,27,Canutillo,
260187,MX,26,Naopatía,
260188,MX,25,Villa Unión,
260189,MX,26,Palomitas,
260190,MX,26,Potam,
260191,MX,11,La Calera,
260192,MX,22,La Llave,
260193,MX,21,Tochimilco,
260194,MX,15,Luvianos,
260195,MX,15,Joquicingo,
260196,MX,1,Villa Juárez,
260197,MX,30,Acultzingo,
260198,MX,30,Cosamaloapan,
260199,MX,30,Chacaltianguis,
260200,MX,30,Tequila,
260201,MX,30,Rafael Delgado,
260202,MX,20,Juan Reyes,
260203,MX,30,Comoapan,
260204,MX,15,Nextlalpan,
260205,MX,16,Nahuatzén,
260206,MX,26,Nacozari,
260207,MX,16,Buenavista,
260208,MX,14,Pérula,
260209,MX,1,Cosío,
260210,MX,20,Chiltepec,
260211,MX,20,Usila,
260212,MX,20,Pinotepa De Don Luis,
260213,MX,21,Palmar De Bravo,
260214,MX,20,Santa Cruz Huatulco,
260215,MX,12,Ajuchitlan,
260216,MX,31,Tizimín,
260217,MX,30,Arroyo De Piedra,
260218,MX,16,Álvaro Obregón,
260219,MX,32,Centro,
260220,MX,23,Leona Vicario,
260221,MX,11,La Vivienda,
260222,MX,11,Juan Gonzales,
260223,MX,26,E Kilowatt,
260224,MX,13,Chilcuautla,
260225,MX,32,San José,
260226,MX,24,El Charquillo,
260227,MX,26,Esperança,
260228,MX,26,Pintada,
260229,MX,27,Estado De México,
260230,MX,2,Delta,
260231,MX,22,Tequisquiapan,
260232,MX,24,Tamuín,
260233,MX,24,San José Del Tinto,
260234,MX,10,Vicente Guerrero,
260235,MX,21,Huitzilac,
260236,MX,21,Tlachichuca,
260237,MX,21,Aljojuca,
260238,MX,7,Rancho Viejo,
260239,MX,7,Los Copetonas,
260240,MX,29,Vicente Guerrero,
260241,MX,30,Tuxpan De Rodríguez Cano,
260242,MX,29,Xaltocan,
260243,MX,30,La Condesa,
260244,MX,29,Tequixquitla,
260245,MX,30,San Rafael,
260246,MX,30,Cardel,
260247,MX,20,Etla,
260248,MX,20,San Pedro Teozacoalco,
260249,MX,20,Puerto Escondido,
260250,MX,20,Tapanatepec,
260251,MX,20,Colorados,
260252,MX,20,Coatlan,
260253,MX,20,Tamazulapam,
260254,MX,30,Coscomatepec,
260255,MX,5,Villa Corzo,
260256,MX,21,Chautla,
260257,MX,30,Zozocolco,
260258,MX,20,San Gabriel Casa Blanca,
260259,MX,29,Panotla,
260260,MX,16,Tlalpujahua,
260261,MX,15,San Antonio Buenavista,
260262,MX,15,Temoaya,
260263,MX,15,Mextepec,
260264,MX,15,Santa María Del Monte,
260265,MX,15,Techuchulco,
260266,MX,28,Gustavo A. Madero,
260267,MX,13,El Llano,
260268,MX,15,Xometla,
260269,MX,15,Papalotla,
260270,MX,4,Pom,
260271,MX,23,Flamingos,
260272,MX,15,Tepetitlán,
260273,MX,19,Marín,
260274,MX,10,Boquilla De Nogales,
260275,MX,7,El Clavel,
260276,MX,7,Estasción Melchor,
260277,MX,7,El Ojito De Los Nuncio,
260278,MX,7,La Palma,
260279,MX,7,Palau,
260280,MX,10,Nuevo Ideal,
260281,MX,28,Riachuelo,
260282,MX,28,Brownsville,
260283,MX,8,Cofradía,
260284,MX,11,Parácuaro,
260285,MX,11,Sarabia,
260286,MX,16,Antúnez,
260287,MX,16,Comachuén,
260288,MX,14,Mexticacán,
260289,MX,32,Miguel Auza,
260290,MX,32,Río Grande,
260291,MX,26,Kino,
260292,MX,26,Pitiquito,
260293,MX,26,Rancho La Palma,
260294,MX,7,Zaragoza,
260295,MX,5,Cristóbal Obregón,
260296,MX,22,Amealco,
260297,MX,12,Tixtla,
260298,MX,15,Zacualpan,
260299,MX,15,Tezoyuca,
260300,MX,20,Mechoacan,
260301,MX,20,Cuanana,
260302,MX,26,Cúmpas,
260303,MX,26,El Cumaral,
260304,MX,14,El Limón,
260305,MX,18,Tecuala,
260306,MX,28,Xicoténcatl,
260307,MX,15,Atenco,
260308,MX,15,Texcalyacac,
260309,MX,5,Amatán,
260310,MX,29,Tocatlán,
260311,MX,11,Cinco Señores,
260312,MX,11,San Miguel Allende,
260313,MX,30,Tuzamapan,
260314,MX,30,Aquila,
260315,MX,13,Tecozautla,
260316,MX,7,Alejandria,
260317,MX,22,Ezequiel Montes,
260318,MX,24,Venado,
260319,MX,10,Banderas,
260320,MX,5,Simojovel,
260321,MX,15,Oyamel,
260322,MX,2,Potrero Warne,
260323,MX,2,San Quintín,
260324,MX,4,Candelaria,
260325,MX,13,Chapulhuacán,
260326,MX,30,Acayucan,
260327,MX,15,Temamatla,
260328,MX,2,Rancho Agua Escondida,
260329,MX,2,Querétaro,
260330,MX,2,Presa Rodriguez,
260331,MX,30,Piedras Negras,
260332,MX,7,Matamoros,
260333,MX,11,Totolapan,
260334,MX,23,Akumal,
260335,MX,32,Dolores,
260336,MX,5,Azteca,
260337,MX,28,Aldama,
260338,MX,24,Poza,
260339,MX,21,Tlaxco,
260340,MX,21,Chilchotla,
260341,MX,30,Zaragoza,
260342,MX,30,Zontecomatlán,
260343,MX,13,Tlanchinol,
260344,MX,21,Cuautlancingo,
260345,MX,30,Misantla,
260346,MX,30,Saltabarranca,
260347,MX,20,Pochutla,
260348,MX,20,Villa De Etla,
260349,MX,20,Puerto Ángel,
260350,MX,5,Guadalupe,
260351,MX,5,Chicomuselo,
260352,MX,5,Las Margaritas,
260353,MX,9,Xochimilco,
260354,MX,17,Tetela,
260355,MX,17,Tlaquiltenango,
260356,MX,15,Coatepec Harinas,
260357,MX,15,Villa Guerrero,
260358,MX,15,Ciudad Satélite,
260359,MX,9,Constitución De La República,
260360,MX,15,Jaltenco,
260361,MX,12,Boca De Mitla,
260362,MX,31,Hunucmá,
260363,MX,19,Escobedo,
260364,MX,10,Santa María Del Oro,
260365,MX,6,Creel,
260366,MX,7,Nadadores,
260367,MX,11,Catarina,
260368,MX,6,San Pedro De Las Colonias,
260369,MX,28,El Mante,
260370,MX,30,Tampico,
260371,MX,30,Moralillo,
260372,MX,28,Ciudad Madero,
260373,MX,30,Tamalín,
260374,MX,14,Unión De Tula,
260375,MX,14,San Agustín,
260376,MX,14,Valle De Juárez,
260377,MX,14,Ixtlahuacán De Los Membrillos,
260378,MX,14,Ayutla,
260379,MX,16,Coalcomán,
260380,MX,14,Gómez Farías,
260381,MX,24,Salinas,
260382,MX,14,Colotlán,
260383,MX,32,Apozol,
260384,MX,24,Xilitla,
260385,MX,24,Río Verde,
260386,MX,24,Huehuetlán,
260387,MX,32,Soledad,
260388,MX,1,Tres Valles,
260389,MX,11,Santa Ana Pacueco,
260390,MX,16,Chilchota,
260391,MX,6,San Buenaventura,
260392,MX,26,Baychicove,
260393,MX,25,El Carrizo,
260394,MX,26,Magdalena De Kino,
260395,MX,26,Navojoa,
260396,MX,11,Huanímaro,
260397,MX,12,Tianquizolco,
260398,MX,18,Acaponeta,
260399,MX,20,Zanatepec,
260400,MX,20,San Francisco,
260401,MX,1,San José De Gracia,
260402,MX,31,Umán,
260403,MX,18,Punta De Mita,
260404,MX,31,Sacalum,
260405,MX,11,Maravatío,
260406,MX,14,La Vega,
260407,MX,32,Tlaltenango,
260408,MX,14,Tamazula,
260409,MX,14,San Andrés Cohamiata,
260410,MX,30,Plan De Arroyos,
260411,MX,29,Ixtacuixtla,
260412,MX,15,Popo Park,
260413,MX,5,Escuintla,
260414,MX,15,San Simón De Guerrero,
260415,MX,20,Yolomécatl,
260416,MX,12,Tetipac,
260417,MX,12,Marquelia,
260418,MX,16,Santa Fe De La Laguna,
260419,MX,24,Soledad,
260420,MX,13,Progreso,
260421,MX,17,Quebrantadero,
260422,MX,25,El Fuerte,
260423,MX,16,Paracho,
260424,MX,32,Huanusco,
260425,MX,26,Satel,
260426,MX,12,Coyuquilla,
260427,MX,29,Sanctórum,
260428,MX,21,Tepatlaxco,
260429,MX,21,Nealticán,
260430,MX,21,Ahuatempan,
260431,MX,17,Hueyapan,
260432,MX,30,Villa Aldama,
260433,MX,30,Huiloapan,
260434,MX,21,Tetela De Ocampo,
260435,MX,20,Tutla,
260436,MX,29,Totolac,
260437,MX,5,Ixtapa,
260438,MX,5,Cacahoatán,
260439,MX,5,La Trinitaria,
260440,MX,27,Frontera,
260441,MX,27,Jalapa,
260442,MX,9,Seguro Social,
260443,MX,9,Gustavo A. Madero,
260444,MX,17,San Rafael Zaragoza,
260445,MX,17,Cocoyoc,
260446,MX,17,Huitzilac,
260447,MX,15,Almoloya De Juárez,
260448,MX,12,Pie De La Cuesta,
260449,MX,23,Felipe Carrillo Puerto,
260450,MX,31,Santa Elena,
260451,MX,7,Nava,
260452,MX,28,Jaumave,
260453,MX,19,Bustamante,
260454,MX,14,Quitupan,
260455,MX,11,Pueblo Nuevo,
260456,MX,8,Armería,
260457,MX,14,San Ignacio Cerro Gordo,
260458,MX,14,Acatlán De Juárez,
260459,MX,14,Loma,
260460,MX,14,Villa Hidalgo,
260461,MX,19,Doctor Arroyo,
260462,MX,26,Pueblo Yaqui,
260463,MX,3,San José,
260464,MX,6,Puerto Palomas,
260465,MX,32,Juchipila,
260466,MX,32,Villa Hidalgo,
260467,MX,20,San José Del Progreso,
260468,MX,20,Ocotlán De Morelos,
260469,MX,18,Ixtapa De La Concepción,
260470,MX,25,Concordia,
260471,MX,15,Acambay,
260472,MX,12,Pololcingo,
260473,MX,15,Polotitlan,
260474,MX,11,Coroneo,
260475,MX,17,Acatlipa,
260476,MX,24,Cárdenas,
260477,MX,6,Chuvichic,
260478,MX,6,Nonoava,
260479,MX,17,Tlalnepantla,
260480,MX,29,Hueyotlipan,
260481,MX,30,Hueytamalco,
260482,MX,9,Reynosa Tamaulipas,
260483,MX,21,Teteles,
260484,MX,30,Chiconquiaco,
260485,MX,20,Amatlán,
260486,MX,20,Santa Lucía,
260487,MX,30,Huayacocotla,
260488,MX,27,Emiliano Zapata,
260489,MX,30,Las Choapas,
260490,MX,5,Amatenango,
260491,MX,17,Tejalpa,
260492,MX,12,Tlanipatlán,
260493,MX,12,Pedregoso,
260494,MX,12,Copala,
260495,MX,31,Tekax,
260496,MX,31,Oxkutzcab,
260497,MX,19,Galeana,
260498,MX,19,Andres,
260499,MX,14,Atoyac,
260500,MX,14,Atotonilco,
260501,MX,11,Rancho Nuevo De La Cruz,
260502,MX,16,Tlazazalca,
260503,MX,26,Puerto Libertad,
260504,MX,12,Tlamacazapa,
260505,MX,9,Díaz Mirón,
260506,MX,21,Zacapoaxtla,
260507,MX,21,Epatlan,
260508,MX,21,Coatepec,
260509,MX,5,Ocotepec,
260510,MX,5,Cortés,
260511,MX,22,La Cañada,
260512,MX,2,Río Colorado,
260513,MX,26,Sonoita,
260514,MX,17,Mazatepec,
260515,MX,17,Cuautitla,
260516,MX,15,El Paso,
260517,MX,24,Arista,
260518,MX,31,Cansahcab,
260519,MX,13,Zacualtipán,
260520,MX,15,Tecalco,
260521,MX,21,Atencingo,
260522,MX,30,Tamiahua,
260523,MX,30,Poza Rica De Hidalgo,
260524,MX,21,Chiautla,
260525,MX,30,Tenango De Río Blanco,
260526,MX,27,Las Choapas,
260527,MX,9,Cuajimalpa,
260528,MX,9,San Andrés Totoltepec,
260529,MX,15,Acutzilapan,
260530,MX,13,Doxey,
260531,MX,15,Santiago Tolmán,
260532,MX,10,Tijera,
260533,MX,28,Ciudad Victoria,
260534,MX,19,Cadereyta Jiménez,
260535,MX,6,Ascensión,
260536,MX,26,Tesopaco,
260537,MX,18,Santiago Ixcuintla,
260538,MX,30,Teocelo,
260539,MX,13,Acaxochitlán,
260540,MX,21,Cuexpala,
260541,MX,30,Pajapan,
260542,MX,21,Huaquechula,
260543,MX,13,Tepepa,
260544,MX,10,Nazas,
260545,MX,24,Charcas,
260546,MX,24,Aquismón,
260547,MX,31,Chichimilá,
260548,MX,19,General Terán,
260549,MX,6,Samachique,
260550,MX,9,Tepepan,
260551,MX,30,Tecolutla,
260552,MX,20,Lagunas,
260553,MX,20,Juxtlahuaca,
260554,MX,30,Ixhuatlán,
260555,MX,20,Santa María Yalina,
260556,MX,4,Santa María,
260557,MX,12,Atliaca,
260558,MX,9,San Juan De Aragón,
260559,MX,31,Tzucacab,
260560,MX,19,Aramberri,
260561,MX,16,Irimbo,
260562,MX,25,Ahome,
260563,MX,25,El Rosario,
260564,MX,25,San Ignacio,
260565,MX,10,Francisco I Madero,
260566,MX,18,San José Del Valle,
260567,MX,1,San Francisco,
260568,MX,32,Teul,
260569,MX,18,Monteón,
260570,MX,30,Ixmatlahuacán,
260571,MX,30,Tomatlán,
260572,MX,13,Atlaco,
260573,MX,17,Amayuca,
260574,MX,14,La Quemada,
260575,MX,13,San Juan Solís,
260576,MX,10,Ejido Lajas,
260577,MX,24,Tamasopo,
260578,MX,25,Pámpano,
260579,MX,19,China,
260580,MX,30,Temapache,
260581,MX,30,Chintepec,
260582,MX,5,Villa Las Rosas,
260583,MX,5,Acapetahua,
260584,MX,15,Santiago Yancuitlalpan,
260585,MX,12,Atlamajalcingo Del Monte,
260586,MX,15,Ixtlahuaca De Rayón,
260587,MX,32,Luis Moya,
260588,MX,14,Tamazula De Gordiano,
260589,MX,22,Santa Rosa Jáuregui,
260590,MX,32,San Francisco,
260591,MX,27,Nuevo León,
260592,MX,30,Mendoza,
260593,MX,13,Molango,
260594,MX,5,La Concordia,
260595,MX,22,Huimilpan,
260596,MX,31,Teabo,
260597,MX,14,Salitre,
260598,MX,27,Arroyo,
260599,MX,21,Hueytamalco,
260600,MX,5,Tecpatán,
260601,MX,30,Tecamalucan,
260602,MX,26,Cócorit,
260603,MX,7,Cuatrociénegas,
260604,MX,14,Crucero,
260605,MX,18,Uzeta,
260606,MX,30,Gutiérrez Zamora,
260607,MX,21,Tecomatlán,
260608,MX,30,Tlachichilco,
260609,MX,30,Soledad De Doblado,
260610,MX,20,Coyotepec,
260611,MX,5,Tuzantán,
260612,MX,20,Cuicatlan,
260613,MX,21,Tetela,
260614,MX,29,Texcalac,
260615,MX,5,Villa Comaltitlán,
260616,MX,5,Villa Flores,
260617,MX,5,San Cristóbal Las Casas,
260618,MX,9,Granjas México,
260619,MX,13,Cardonal,
260620,MX,15,Villa Del Carbón,
260621,MX,12,Ayutla,
260622,MX,31,Kanasín,
260623,MX,6,El Terrero,
260624,MX,18,Ahuacatlán,
260625,MX,18,San Francisco,
260626,MX,14,Barra De Navidad,
260627,MX,14,San Luis Soyatlán,
260628,MX,22,Juriquilla,
260629,MX,14,Ixtapa,
260630,MX,32,San Juan,
260631,MX,16,Zinaparo,
260632,MX,26,Peñasco,
260633,MX,12,Balsas,
260634,MX,20,Chahuites,
260635,MX,14,El Rodeo,
260636,MX,15,Chiluca,
260637,MX,14,San Diego De Alejandría,
260638,MX,30,Emilio Carranza,
260639,MX,5,Larrainzar,
260640,MX,16,Villa Jiménez,
260641,MX,3,Bosque,
260642,MX,21,Huehuetlán El Chico,
260643,MX,16,Tafetán,
260644,MX,9,Atzcapotzalco,
260645,MX,9,Santa Fe,
260646,MX,15,Jardines De San Mateo,
260647,MX,9,Educación,
260648,MX,30,Coxquihui,
260649,MX,11,Purísima Del Rincón,
260650,MX,30,Nautla,
260651,MX,20,Vicente,
260652,MX,17,Axochiapan,
260653,MX,17,Pantitlán,
260654,MX,27,El Dorado,
260655,MX,13,Mineral De La Reforma,
260656,MX,19,Villaldama,
260657,MX,11,Empalme Escobedo,
260658,MX,14,El Nogalito,
260659,MX,18,Sentispac,
260660,MX,11,San Roque,
260661,MX,14,Cuitzeo,
260662,MX,15,San Ángel Inn,
260663,MX,25,Constancia,
260664,MX,15,San Jerónimo Xonacahuacán,
260665,MX,15,Atlautla,
260666,MX,21,Chalchicomula,
260667,MX,20,San Sebastián Tutla,
260668,MX,20,El Espinal,
260669,MX,29,Xochitecatitla,
260670,MX,12,Mochitlán,
260671,MX,12,Petaquillas,
260672,MX,17,Tetela Del Volcán,
260673,MX,15,Ixtapan De La Sal,
260674,MX,9,San Andrés Tetepilco,
260675,MX,32,Noria,
260676,MX,28,Bosques,
260677,MX,11,San Luis Acatlán,
260678,MX,31,Conkal,
260679,MX,30,Playa,
260680,MX,6,Del Oro,
260681,MX,14,Pegueros,
260682,MX,18,Sayulita,
260683,MX,18,Santa Fe,
260684,MX,25,Rosario,
260685,MX,22,Jurica,
260686,MX,2,Mulegé,
260687,MX,14,Estipac,
260688,MX,32,Ojo De Agua,
260689,MX,10,Bermejillo,
260690,MX,17,Ocuituco,
260691,MX,24,Villa Hidalgo,
260692,MX,28,López,
260693,MX,30,Coyutla,
260694,MX,30,Sayula,
260695,MX,27,Miguel Hidalgo,
260696,MX,11,Puente Del Carmen,
260697,MX,11,Rosas,
260698,MX,31,Yucatán,
260699,MX,20,Santa Rosa De Lima,
260700,MX,21,San Martín,
260701,MX,21,Jalcomulco,
260702,MX,5,Tila,
260703,MX,30,Hueyapan,
260704,MX,15,Palmar Chico,
260705,MX,13,Nápoles,
260706,MX,13,Santiago Tulantepec,
260707,MX,21,Tlacotepec,
260708,MX,23,Calderitas,
260709,MX,10,Santa Catarina De Tepehuanes,
260710,MX,32,Mazapil,
260711,MX,24,Los Zacatones,
260712,MX,30,Tampico Alto,
260713,MX,14,San Antonio,
260714,MX,14,Atemajac De Brizuela,
260715,MX,25,Bacobampo,
260716,MX,26,Río Muerto,
260717,MX,24,Alvares,
260718,MX,9,San Bartolo Atepehuacán,
260719,MX,30,Otatitlán,
260720,MX,30,Plan De Las Hayas,
260721,MX,20,San Agustín Chayuco,
260722,MX,15,Tlatlaya,
260723,MX,16,Comanja,
260724,MX,16,Parícuaro,
260725,MX,27,Villa La Venta,
260726,MX,21,Chilac,
260727,MX,19,Pesquería,
260728,MX,14,Unión De Guadalupe,
260729,MX,30,La Poza,
260730,MX,30,Yecuatla,
260731,MX,14,Huescalapa,
260732,MX,31,Sinanché,
260733,MX,21,San Andrés,
260734,MX,14,Atotonilquillo,
260735,MX,30,Jamapa,
260736,MX,30,Ángel R. Cabada,
260737,MX,30,José Cardel,
260738,MX,22,Río Blanco,
260739,MX,20,Ixtlán De Juárez,
260740,MX,27,Puerto Ceiba,
260741,MX,13,Metztitlán,
260742,MX,12,San Luis De La Loma,
260743,MX,31,Peto,
260744,MX,6,Madera,
260745,MX,16,Ziracuaretiro,
260746,MX,26,Benjamín Hill,
260747,MX,12,Quechultenango,
260748,MX,20,Huaxpaltepec,
260749,MX,20,Itundujia,
260750,MX,12,Petacalco,
260751,MX,14,Santa María De Los Ángeles,
260752,MX,5,Tapilula,
260753,MX,21,Ahuazotepec,
260754,MX,30,Playa De Chachalacas,
260755,MX,20,Tezoatlán,
260756,MX,30,Ciudad Mendoza,
260757,MX,30,Tlacojalpan,
260758,MX,21,Tenejapan,
260759,MX,7,Las Colonias,
260760,MX,12,Cuajinicuilapa,
260761,MX,32,Concepción Del Oro,
260762,MX,15,Chapa De Mota,
260763,MX,8,Cerro De Ortega,
260764,MX,30,Tehuipango,
260765,MX,7,Arispe,
260766,MX,31,Pisté,
260767,MX,21,Chietla,
260768,MX,21,Coxcatlán,
260769,MX,5,Siltepec,
260770,MX,21,Amecac,
260771,MX,17,Tehuixtla,
260772,MX,15,San Mateo Atenco,
260773,MX,15,Zacazonapan,
260774,MX,14,Cuquío,
260775,MX,26,Rosario,
260776,MX,31,Vista,
260777,MX,12,Atenango Del Río,
260778,MX,20,La Soledad,
260779,MX,9,Agrícola Oriental,
260780,MX,6,Ciudad Delicias,
260781,MX,21,Molcaxac,
260782,MX,20,San Jacinto Amilpas,
260783,MX,17,Achichipico,
260784,MX,18,Calexico,
260785,MX,15,San Juan La Isla,
260786,MX,25,Viejo,
260787,MX,20,San Agustín Etla,
260788,MX,13,San Pedro Huaquilpan,
260789,MX,9,Gabriel Hernández,
260790,MX,1,El Cortijo,
260791,MX,12,Las Mesas,
260792,MX,30,Puente Moreno,
260793,MX,20,Escondido,
260794,MX,31,Tahdziú,
260795,MX,14,San Juan,
260796,MX,8,La Manzanilla,
260797,MX,25,El Paso,
260798,MX,25,Choix,
260799,MX,22,Bernal,
260800,MX,2,Ciudad Morelos,
260801,MX,15,Temascaltepec,
260802,MX,10,Ciudad,
260803,MX,19,Madero,
260804,MX,9,Olivar De Los Padres,
260805,MX,6,Juárez,
260806,MX,13,Atlapexco,
260807,MX,12,Tuxpan,
260808,MX,13,Naranjos,
260809,MX,30,Tierra Blanca,
260810,MX,20,Tonalá,
260811,MX,20,Río Grande,
260812,MX,20,Valle Nacional,
260813,MX,20,Palomares,
260814,MX,29,Tzompantepec,
260815,MX,21,Cerro Azul,
260816,MX,30,Tuxpan,
260817,MX,5,Acacoyagua,
260818,MX,30,Villa Juanita,
260819,MX,5,Soyatitán,
260820,MX,19,Del Carmen,
260821,MX,9,San Jerónimo Lídice,
260822,MX,9,Benito Juarez,
260823,MX,17,Chinameca,
260824,MX,12,Zumpango,
260825,MX,29,Metepec,
260826,MX,21,Xicotepec De Juárez,
260827,MX,15,San Pedro Atzompa,
260828,MX,12,Ixtapa,
260829,MX,12,Guerrero,
260830,MX,31,Telchac,
260831,MX,19,Sabinas,
260832,MX,10,Pueblo Nuevo,
260833,MX,7,Morelos,
260834,MX,19,Lampazos De Naranjo,
260835,MX,14,El Rosario,
260836,MX,14,Buenavista,
260837,MX,14,San Juan Cosalá,
260838,MX,11,Tarandacuao,
260839,MX,14,Jesús María,
260840,MX,14,Capilla De Milpillas,
260841,MX,32,Guadalupe,
260842,MX,16,Los Reyes,
260843,MX,16,Contepec,
260844,MX,16,Los Reyes De Salgado,
260845,MX,26,Banámichi,
260846,MX,26,Esperanza,
260847,MX,25,Campo Gobierno,
260848,MX,26,Villa Juárez,
260849,MX,21,Cuapiaxtla,
260850,MX,9,Alvaro Obregón,
260851,MX,9,Culiacán,
260852,MX,30,Amatlán,
260853,MX,21,Necaxa,
260854,MX,27,La Torre,
260855,MX,9,San Lorenzo Tezonco,
260856,MX,21,Tlanalapan,
260857,MX,21,Acaxtlahuacán De Albino Zertuche,
260858,MX,16,Parácuaro,
260859,MX,14,Cuautla,
260860,MX,28,Miquihuana,
260861,MX,20,Loma Bonita,
260862,MX,21,San Gregorio,
260863,MX,1,San Antonio,
260864,MX,26,Benito Juárez,
260865,MX,13,Hidalgo,
260866,MX,22,Alfajayucan,
260867,MX,29,Yauhquemehcan,
260868,MX,28,Piedras Negras,
260869,MX,28,Piedras,
260870,MX,14,San Andrés Ixtlán,
260871,MX,9,Miguel Hidalgo,
260872,MX,5,San Cristobal,
260873,MX,24,San Martin,
260874,MX,24,Ciudad Del Maíz,
260875,MX,24,Rayón,
260876,MX,30,Nogales,
260877,MX,19,San Nicolás,
260878,MX,20,San Juan Bautista,
260879,MX,13,Epazoyucan,
260880,MX,16,Briseñas,
260881,MX,21,Chapulco,
260882,MX,7,Colonia,
260883,MX,18,Jalisco,
260884,MX,11,San Miguel,
260885,MX,2,Sonora,
260886,MX,4,Santa Fe,
260887,MX,9,Polanco,
260888,MX,8,Campos,
260889,MX,15,Chapingo,
260890,MX,17,Xalostoc,
260891,MX,28,Pedro,
260892,MX,6,Namiquipa,
260893,MX,13,Huazalingo,
260894,MX,21,Zautla,
260895,MX,27,Reforma,
260896,MX,13,Tepetitlán,
260897,MX,4,Hopelchén,
260898,MX,10,Suchil,
260899,MX,24,Ébano,
260900,MX,18,San Pedro Lagunillas,
260901,MX,16,Venustiano Carranza,
260902,MX,3,Loreto,
260903,MX,26,Magdalena,
260904,MX,15,Altamirano,
260905,MX,20,Reyes Etla,
260906,MX,30,Lerdo De Tejada,
260907,MX,21,Tetla,
260908,MX,21,Pahuatlan,
260909,MX,1,La Represa,
260910,MX,21,Calmeca,
260911,MX,15,Ciudad Labor,
260912,MX,14,Cabos,
260913,MX,23,Benito Juárez,
260914,MX,9,Magdalena,
260915,MX,20,Santiago Llano Grande,
260916,MX,14,San Isidro Mazatepec,
260917,MX,11,Pastor Ortíz,
260918,MX,8,Alcaraces,
260919,MX,20,Santiago Laollaga,
260920,MX,13,Metzquititlán,
260921,MX,7,Allende,
260922,MX,15,Tuxtepec,
260923,MX,6,Guerrero,
260924,MX,7,Benito Juárez,
260925,MX,6,Alfredo V. Bonfil,
260926,MX,6,Campestre Juárez,
260927,MX,15,La Quebrada,
260928,MX,29,Alvarado,
260929,MX,25,Loma,
260930,MX,20,Miahuatlán De Porfirio Díaz,
260931,MX,26,Yaqui,
260932,MX,23,Holbox,
260933,MX,21,Matamoros,
260934,MX,21,San Miguel Zacaola,
260935,MX,30,Juchique De Ferrer,
260936,MX,30,Juan Rodríguez Clara,
260937,MX,30,Villa Azueta,
260938,MX,29,Huiloac,
260939,MX,5,Chamula,
260940,MX,27,Juárez,
260941,MX,27,Carmen,
260942,MX,15,Atlatlahuca,
260943,MX,13,Acatlán,
260944,MX,19,Salinas Victoria,
260945,MX,30,Miguel Alemán,
260946,MX,8,El Trapiche,
260947,MX,32,Villa De Cos,
260948,MX,14,El Tuito,
260949,MX,18,Villa Hidalgo,
260950,MX,25,La Labor,
260951,MX,30,Camarón,
260952,MX,14,Comitán,
260953,MX,29,Atotonilco,
260954,MX,13,Alfajayucan,
260955,MX,30,Atzalan,
260956,MX,14,Jilotlán De Los Dolores,
260957,MX,30,Comalteco,
260958,MX,5,El Porvenir,
260959,MX,12,Tepozonalquillo,
260960,MX,9,Villahermosa,
260961,MX,17,Jaloxtoc,
260962,MX,30,Zozocolco De Hidalgo,
260963,MX,12,Cualac,
260964,MX,21,Caxhuacán,
260965,MX,21,Chachapa,
260966,MX,29,Ixtulco,
260967,MX,18,Tuxpan,
260968,MX,16,Churumuco,
260969,MX,12,Tlacotepec,
260970,MX,25,El Espinal,
260971,MX,30,La Venta,
260972,MX,18,El Rosario,
260973,MX,13,Omitlán De Juárez,
260974,MX,18,Pimientillo,
260975,MX,10,Cuencamé,
260976,MX,32,Santa María,
260977,MX,30,Escobal,
260978,MX,21,Villa Lázaro Cárdenas,
260979,MX,21,San Salvador El Seco,
260980,MX,14,San Antonio Tlayacapan,
260981,MX,26,Arizona,
260982,MX,6,Janos,
260983,MX,5,Pueblo Nuevo Solistahuacán,
260984,MX,15,Cuautlalpan,
260985,MX,10,Guadalupe Victoria,
260986,MX,9,San Francisco Culhuacán,
260987,MX,2,San Felipe,
260988,MX,26,San Luis,
260989,MX,21,Zacaola,
260990,MX,16,Serdan,
260991,MX,30,Xico,
260992,MX,20,San José,
260993,MX,21,Venustiano Carranza,
260994,MX,30,Esperanza,
260995,MX,20,Suchilapan,
260996,MX,13,Santiago,
260997,MX,13,Huasca,
260998,MX,30,Xicoténcatl,
260999,MX,14,Hostotipaquillo,
261000,MX,14,El Chante,
261001,MX,16,Cherán,
261002,MX,11,San Francisco,
261003,MX,16,Villa Madero,
261004,MX,21,Cañada,
261005,MX,32,Escobedo,
261006,MX,30,Carlos A. Carrillo,
261007,MX,13,Chapantongo,
261008,MX,30,El Tejar,
261009,MX,25,Elota,
261010,MX,32,Cañitas,
261011,MX,15,Morelos,
261012,MX,13,Mineral Del Chico,
261013,MX,9,Venustiano Carranza,
261014,MX,14,El Amarillo,
261015,MX,12,Palo Blanco,
261016,MX,26,La Unión,
261017,MX,12,Papanoa,
261018,MX,29,Popocatla,
261019,MX,30,Coacoatzintla,
261020,MX,9,Tulyehualco,
261021,MX,21,Aquixtla,
261022,MX,31,Dzemul,
261023,MX,16,Tocumbo,
261024,MX,15,Lomas De Tecamachalco,
261025,MX,32,Rosales,
261026,MX,30,Chocamán,
261027,MX,9,Río Blanco,
261028,MX,13,Nopala,
261029,MX,9,Nueva Santa María,
261030,MX,12,Coyuca De Catalán,
261031,MX,9,Colonia Reforma Social,
261032,MX,16,Huaniqueo,
261033,MX,26,San Carlos,
261034,MX,15,Arroyo,
261035,MX,19,Victoria,
261036,MX,19,San Pedro,
261037,MX,19,Chihuahua,
261038,MX,23,Quintana,
261039,MX,20,Lucas,
261040,MX,14,Apatzingán,
261041,MX,30,Puntilla Aldama,
261042,MX,20,Hidalgo,
261043,MX,20,Cacaloxtepec,
261044,MX,5,Mazatán,
261045,MX,17,Temoac,
261046,MX,28,Burgos,
261047,MX,32,Trancoso,
261048,MX,14,Vista Hermosa,
261049,MX,7,Villa Union,
261050,MX,28,Acuña,
261051,MX,18,Jala,
261052,MX,18,San Juan,
261053,MX,21,Santiago Miahuatlán,
261054,MX,5,Jiquipilas,
261055,MX,28,Nuevo Progreso,
261056,MX,24,Coxcatlán,
261057,MX,14,San Sebastián,
261058,MX,18,Aticama,
261059,MX,14,Piedra Pesada,
261060,MX,32,Santa María De La Paz,
261061,MX,14,Jiquilpan,
261062,MX,16,Isaac Arriaga,
261063,MX,3,Guerrero Negro,
261064,MX,21,Apizaco,
261065,MX,30,Pisaflores,
261066,MX,1,Jesús María,
261067,MX,21,Mexcaltepec,
261068,MX,8,Colomos,
261069,MX,21,Palmarito,
261070,MX,21,Huehuetla,
261071,MX,30,Medellín De Bravo,
261072,MX,21,San Francisco Totimehuacan,
261073,MX,20,Huajolotitlan,
261074,MX,30,Texistepec,
261075,MX,15,San Antonio La Isla,
261076,MX,15,Jiquipilco,
261077,MX,6,Presidio,
261078,MX,14,Zapotitlán De Vadillo,
261079,MX,14,Ojuelos,
261080,MX,16,Tuxpan,
261081,MX,26,Basconcobe,
261082,MX,15,Huixquilucan De Degollado,
261083,MX,31,Telchac Puerto,
261084,MX,13,San Juan,
261085,MX,12,Cuetzala Del Progreso,
261086,MX,17,Coatlán Del Río,
261087,MX,30,Moloacán,
261088,MX,9,Tlalpam,
261089,MX,22,Peñamiller,
261090,MX,18,Estancia De Los López,
261091,MX,14,Pihuamo,
261092,MX,13,Tlahuelompa,
261093,MX,30,Tancoco,
261094,MX,15,San Vicente,
261095,MX,24,Cruz,
261096,MX,31,Chuburna,
261097,MX,9,Olivar Del Conde,
261098,MX,17,Moyotepec,
261099,MX,21,Huixcolotla,
261100,MX,30,Medellín,
261101,MX,20,Trujano,
261102,MX,13,Texcaltitlan,
261103,MX,16,Carácuaro,
261104,MX,30,Tlilapán,
261105,MX,30,Camerino Z. Mendoza,
261106,MX,11,Ibarrilla,
261107,MX,14,Pitillal,
261108,MX,20,Juárez,
261109,MX,30,Maromilla,
261110,MX,5,Ixhuatan,
261111,MX,4,Pomuch,
261112,MX,18,Rincon De Guayabitos,
261113,MX,15,Tecamachalco,
261114,MX,16,Quiringuícharo,
261115,MX,20,San Juan Jicayán,
261116,MX,16,Angamacutiro,
261117,MX,16,Erongarícuaro,
261118,MX,5,Chapultenango,
261119,MX,25,Gato,
261120,MX,2,Punta Banda,
261121,MX,7,Granada,
261122,MX,24,Arriaga,
261123,MX,13,El Borbollón,
261124,MX,21,Ixtacamaxtitlán,
261125,MX,17,Atotonilco,
261126,MX,15,San Juan Jiquipilco,
261127,MX,13,Tenango De Doria,
261128,MX,13,Huasca De Ocampo,
261129,MX,31,Dzilam De Bravo,
261130,MX,19,Hacienda Los Morales,
261131,MX,10,Nombre De Dios,
261132,MX,28,Anáhuac,
261133,MX,32,Monte Escobedo,
261134,MX,20,Santiago Lachiguiri,
261135,MX,16,Puruarán,
261136,MX,14,Totatiche,
261137,MX,30,La Nueva Victoria,
261138,MX,11,Atarjea,
261139,MX,24,Catorce,
261140,MX,15,Almoloya De Alquisiras,
261141,MX,20,Cruz,
261142,MX,14,Ciudad Granja,
261143,MX,11,Cerano,
261144,MX,14,Emiliano Zapata,
261145,MX,21,Ayotoxco,
261146,MX,21,San José Acateno,
261147,MX,20,Teposcolula,
261148,MX,15,Cuauhtenco,
261149,MX,9,Cuauhtémoc,
261150,MX,15,San Nicolás Peralta,
261151,MX,18,Mezcales,
261152,MX,14,San José,
261153,MX,25,Gustavo Diaz Ordáz,
261154,MX,6,Juan José,
261155,MX,12,Apipilulco,
261156,MX,14,Cabo Corrientes,
261157,MX,18,Peñita De Jaltemba,
261158,MX,15,La Piedad,
261159,MX,13,San Bartolo Tutotepec,
261160,MX,32,Angeles,
261161,MX,6,Anáhuac,
261162,MX,16,Turicato,
261163,MX,13,Tianguistengo,
261164,MX,16,Cacalomacán,
261165,MX,20,Soledad,
261166,MX,14,La Ciénega,
261167,MX,20,Santa Rosa,
261168,MX,24,El Refugio,
261169,MX,13,Lolotla,
261170,MX,14,San Miguel,
261171,MX,14,Zapotlán Del Rey,
261172,MX,21,Santa Mónica,
261173,MX,15,Santo Tomás,
261174,MX,12,Las Colonias,
261175,MX,12,La Unión,
261176,MX,14,San Juan Tecomatlán,
261177,MX,16,El Jarrero,
261178,MX,18,Puga,
261179,MX,26,El Paso,
261180,MX,12,Ixcateopan De Cuauhtémoc,
261181,MX,6,Aldama,
261182,MX,13,Coacuilco,
261183,MX,14,Mezquitic,
261184,MX,14,Cuautitlán,
261185,MX,27,Ixtacomitán,
261186,MX,19,El Carmen,
261187,MX,10,Guanaceví,
261188,MX,14,Zapotitán De Hidalgo,
261189,MX,29,Ameca,
261190,MX,9,Portales,
261191,MX,18,Santiago,
261192,MX,5,Unión Juárez,
261193,MX,2,Guadalupe Victoria,
261194,MX,32,Leones,
261195,MX,21,Huixtla,
261196,MX,21,Ciudad Serdán,
261197,MX,21,Huehuetlan,
261198,MX,21,Nopalucan,
261199,MX,30,Jalcomulco,
261200,MX,15,Ocuilan,
261201,MX,31,Maní,
261202,MX,18,San Felipe Aztatán,
261203,MX,14,Santa Rita,
261204,MX,13,San Miguel Vindho,
261205,MX,24,Pueblo Viejo,
261206,MX,6,Santa Cruz De Rosales,
261207,MX,31,Acú,
261208,MX,23,Paamul,
261209,MX,21,Altepexi,
261210,MX,6,San Diego,
261211,MX,16,Chula,
261212,MX,16,El Alvareño,
261213,MX,8,Cuyutlán,
261214,MX,4,Sabancuy,
261215,MX,13,San Bartolo,
261216,MX,6,Ojinaga,
261217,MX,18,Lo De Marcos,
261218,MX,17,Amatlán,
261219,MX,32,Enrique Estrada,
261220,MX,30,Monterrey,
261221,MX,21,Acapulco,
261222,MX,5,Sabanilla,
261223,MX,13,Veracruz,
261224,MX,31,Dzidzantún,
261225,MX,28,Antiguo Morelos,
261226,MX,14,San Nicolás De Ibarra,
261227,MX,3,Los Barriles,
261228,MX,15,Cocotitlán,
261229,MX,16,Apo,
261230,MX,9,Agrícola,
261231,MX,5,Panamá,
261232,MX,10,Mapimí,
261233,MX,16,Felipe Carrillo Puerto,
261234,MX,8,Salagua,
261235,MX,30,Gabino Barreda,
261236,MX,9,Coapa,
261237,MX,15,Timilpan,
261238,MX,12,San Luis Acatlán,
261239,MX,31,Ixil,
261240,MX,31,Cantamayec,
261241,MX,19,Higueras,
261242,MX,14,Santa Cruz Del Astillero,
261243,MX,11,San Nicolás,
261244,MX,14,Huentitan,
261245,MX,18,Chacala,
261246,MX,11,Aragón,
261247,MX,20,Chicapa,
261248,MX,6,Mineral,
261249,MX,30,Rafael Lucio,
261250,MX,27,Tamulté,
261251,MX,15,Ayotla,
261252,MX,14,San Juan De Ocotán,
261253,MX,25,Bamoa,
261254,MX,9,Tlatilco,
261255,MX,17,Galeana,
261256,MX,14,La Manzanilla,
261257,MX,24,Tambaca,
261258,MX,27,El Roble,
261259,MX,30,Mariano Escobedo,
261260,MX,24,Tampacán,
261261,MX,14,La Calera,
261262,MX,13,Atotonilco,
261263,MX,15,Hacienda Ojo De Agua,
261264,MX,9,Aragón,
261265,MX,6,San Juanito,
261266,MX,18,El Corte,
261267,MX,25,Cosalá,
261268,MX,30,Tlaltetela,
261269,MX,7,San Luis,
261270,MX,19,Texas,
261271,MX,26,Sacramento,
261272,MX,14,Josefino De Allende,
261273,MX,24,Tanlajás,
261274,MX,7,Juárez,
261275,MX,20,Chilchotla,
261276,MX,17,Tezoyuca,
261277,MX,24,Ignacio Zaragoza,
261278,MX,16,Acalpican,
261279,MX,5,Ostuacán,
261280,MX,12,Atengo Del Río,
261281,MX,15,Xocotlán,
261282,MX,30,Tamos,
261283,MX,6,Ahumada,
261284,MX,9,Piedad,
261285,MX,28,Gonzáles,
261286,MX,20,San Juan,
261287,MX,16,Aquila,
261288,MX,14,Los Belenes,
261289,MX,21,Tlacuilotepec,
261290,MX,17,Ticumán,
261291,MX,7,Rancho La Reforma,
261292,MX,16,Zipoco,
261293,MX,24,Coro,
261294,MX,30,Totutla,
261295,MX,13,Vito,
261296,MX,15,Maboro,
261297,MX,28,Padilla,
261298,MX,19,Los Aldamas,
261299,MX,14,Matatlán,
261300,MX,19,Los Ramones,
261301,MX,21,Momoxpan,
261302,MX,19,Abasolo,
261303,MX,18,El Porvenir,
261304,MX,9,Magdalena Mixhuca,
261305,MX,22,Santa Rosa De Jáuregui,
261306,MX,20,Santo Domingo Teojomulco,
261307,MX,21,Moyotzingo,
261308,MX,24,Alvarez,
261309,MX,7,Nuevo León,
261310,MX,21,Atzala,
261311,MX,9,Mexicalcingo,
261312,MX,7,Cloete,
261313,MX,14,El Corcovado,
261314,MX,14,Santiago,
261315,MX,14,La Garita,
261316,MX,32,Coyoque,
261317,MX,16,Pedernales,
261318,MX,26,Loma Linda,
261319,MX,27,California,
261320,MX,29,San Lorenzo Soltepec,
261321,MX,15,San Andrés Del Pedregal,
261322,MX,9,Reinosa Tamaulipas,
261323,MX,17,Jumiltepec,
261324,MX,15,Santa Isabel Del Monte,
261325,MX,14,San Felipe De Híjar,
261326,MX,30,Tlalnelhuayocan,
261327,MX,12,Casas Quemadas,
261328,MX,15,Los Padres,
261329,MX,13,Huapalcalco,
261330,MX,4,Estado De México,
261331,MX,14,Toluquilla,
261332,MX,6,Juárez Y Reforma,
261333,MX,25,Higuera De Zaragoza,
261334,MX,13,Siempreviva,
261335,MX,15,Mexicapa,
261336,MX,2,Redondo,
261337,MX,21,Mecapalapa,
261338,MX,15,Tepopula,
261339,MX,15,Alculco,
261340,MX,9,El Guarda,
261341,MX,15,San Pedro Xalostoc,
261342,MX,14,El Crespo,
261343,MX,9,Colonia Santa Rosa,
261344,MX,27,Cumuapa Primera Sección,
261345,MX,11,Baños De Aguacaliente,
261346,MX,14,Las Cuchillas,
261347,MX,14,Cuxpala,
261348,MX,19,Rancho La Bola,
261349,MX,3,El Tule,
261350,MX,7,Huisache,
261351,MX,14,Las Fuentes,
261352,MX,11,La Palmita,
261353,MX,11,Ameche,
261354,MX,2,Compuertas Carejey,
261355,MX,2,Solano,
261356,MX,9,Colonia Santa Maria,
261357,MX,14,Taciroc,
261358,MX,14,Garabato,
261359,MX,14,Platos,
261360,MX,18,El Chino,
261361,MX,15,Huixouilucan De Degollado,
261362,MX,22,Bravo,
261363,MX,23,Chiquila,
261364,MX,14,Colotitlán,
261365,MX,21,Naupan,
261366,MX,30,Salmoral,
261367,MX,12,San Luis,
261368,MX,28,Barretal,
261369,MX,16,Tecario,
261370,MX,26,Singapur,
261371,MX,2,San Vicente,
261372,MX,29,Cuapiaxtla,
261373,MX,15,Temascalcingo,
261374,MX,22,La Griega,
261375,MX,14,San Miguel De La Sierra,
261376,MX,10,Villa Unión,
261377,MX,15,Chiconautla,
261378,MX,2,Ejido Xochimilco,
261379,MX,9,Cuautepec,
261380,MX,27,Tequila Primera Sección,
261381,MX,14,Cerro Santa Fe,
261382,MX,18,Bella Unión,
261383,MX,14,La Llave,
261384,MX,16,Las Ordeñitas,
261385,MX,28,Concepción,
261386,MX,5,Tonalá,
261387,MX,14,San Juan De Amula,
261388,MX,21,Huejonapan De Aquiles Serdán,
261389,MX,20,San Felipe Del Agua,
261390,MX,18,Chapalilla,
261391,MX,20,San Pablo Etla,
261392,MX,13,Benito Juárez,
261393,MX,9,Zacatenco,
261394,MX,15,Calacoaya,
261395,MX,16,Tiquicheo,
261396,MX,14,Ahuacapán,
261397,MX,26,Yuma,
261398,MX,26,Rancho Cajón,
261399,MX,16,San Silvestre,
261400,MX,22,San Rafael,
261401,MX,14,El Pescado,
261402,MX,11,Valencia De Cerro Gordo,
261403,MX,2,Rancho San Isidro Ajolojol,
261404,MX,13,Dañú,
261405,MX,19,Colonia Valle,
261406,MX,15,Tulpetlac,
261407,MX,13,San Marcos,
261408,MX,30,Arroyo Azul,
261409,MX,6,A Gez,
261410,MX,20,Xadani,
261411,MX,32,Genaro Codina,
261412,MX,11,Victoria De Cortazar,
261413,MX,16,Abadiano,
261414,MX,30,Jesús Carranza,
261415,MX,5,París,
261416,MX,25,Quila,
261417,MX,14,Tesistán,
261418,MX,19,Nuevo,
261419,MX,14,La Manzanilla De La Paz,
261420,MX,19,Palmitas,
261421,MX,23,Aduana,
261422,MX,2,Rancho La Gloria,
261423,MX,7,San José De Los Nuncios,
261424,MX,11,Agua Zarca,
261425,MX,13,Tepeyahualco,
261426,MX,31,San Crisanto,
261427,MX,27,Oxiacaque,
261428,MX,26,García,
261429,MX,1,Saltillo,
261430,MX,9,Gertrudis Sánchez,
261431,MX,32,Pánuco,
261432,MX,18,Tetitlán,
261433,MX,11,Chamácuaro,
261434,MX,14,Guachinango,
261435,MX,14,Purificación,
261436,MX,27,Corregidora Ortiz Segunda Sección,
261437,MX,27,Medellín Y Piqua,
261438,MX,14,Atequizatlán,
261439,MX,14,Casablanca,
261440,MX,24,La Paz,
261441,MX,32,Bañuelos,
261442,MX,8,Cuauhtémoc,
261443,MX,20,Huayapam,
261444,MX,9,Mexicaltzinco,
261445,MX,12,Pantla,
261446,MX,18,Acaponetilla,
261447,MX,25,Bomba De Los Mochis,
261448,MX,25,General Juan José Ríos,
261449,MX,18,Los Ayala,
261450,MX,27,Naranjos Primera Sección,
261451,MX,21,San Salvador Huixcolotla,
261452,MX,12,Chacalapa Acapulco,
261453,MX,20,El Paraíso,
261454,MX,28,Llera De Canales,
261455,MX,26,Nogaito,
261456,MX,7,San Juan De Sabinas,
261457,MX,31,Cholul,
261458,MX,15,San Sebastián,
261459,MX,21,Matamoros De Izúcar,
261460,MX,5,Santa Teresa Llano Grande,
261461,MX,15,Aculco,
261462,MX,13,San Agustin,
261463,MX,15,Zacamulpa,
261464,MX,9,San Lorenzo Tlacoyucan,
261465,MX,19,Barranca,
261466,MX,14,Lomas De Santa Gertrudis,
261467,MX,14,Mazatepec,
261468,MX,30,Mata De Gallo,
261469,MX,30,La Bomba,
261470,MX,22,San José El Alto,
261471,MX,15,Santa Cecilia Acatitlán,
261472,MX,11,El Mezquite,
261473,MX,24,Jardín,
261474,MX,13,Bomintzhá,
261475,MX,14,Puerto,
261476,MX,12,La Palma,
261477,MX,26,Sobía,
261478,MX,25,San Miguel,
261479,MX,9,Estado De Hidalgo,
261480,MX,12,San José Poliutla,
261481,MX,13,La Reforma,
261482,MX,16,San Juan,
261483,MX,20,Bajos De Chila,
261484,MX,13,Chalingo,
261485,MX,15,Alameda,
261486,MX,9,San Francisco Tlalneplanta,
261487,MX,9,Tlacoquemecatl,
261488,MX,26,Cabullona,
261489,MX,11,Soria,
261490,MX,30,Casitas,
261491,MX,30,Ignacio De La Llave,
261492,MX,5,Jitotol,
261493,MX,5,Reforma,
261494,MX,23,Xcaret,
261495,MX,28,Miramar,
261496,MX,30,El Chico,
261497,MX,1,Santa Elena,
261498,MX,7,Saltillito,
261499,MX,5,Cuxuljá,
261500,MX,15,Amatepec,
261501,MX,15,Santa Clara Coatitla,
261502,MX,21,Las Flores,
261503,MX,23,Xelhá,
261504,MX,25,Alhuey,
261505,MX,30,Chapo,
261506,MX,30,Comales,
261507,MX,30,Represa,
261508,MX,11,Boca De Cañada,
261509,MX,9,San Francisco,
261510,MX,15,San Luis Tecuautitlán,
261511,MX,30,Tejería,
261512,MX,5,Tapachulita,
261513,MX,20,Mitla,
261514,MX,15,San Mateo Chipiltepec,
261515,MX,2,Camalú,
261516,MX,28,Valadeces,
261517,MX,32,Francisco I. Madero,
261518,MX,30,Cerrillos De Díaz,
261519,MX,21,Miahuatlán,
261520,MX,16,La Orilla,
261521,MX,16,Playa Azul,
261522,MX,18,Mazatán,
261523,MX,9,San Nicolás Totolapan,
261524,MX,30,Las Camelias,
261525,MX,30,Guillermo Prieto,
261526,MX,30,Pilhuatepec,
261527,MX,11,Las Trojes,
261528,MX,11,La Fresa,
261529,MX,15,Coyoltepec,
261530,MX,14,Bernalejo,
261531,MX,20,Santiago,
261532,MX,15,Lago De Guadalupe,
261533,MX,9,Culhuacán,
261534,MX,11,Joya De Cortés,
261535,MX,22,Yerbabuena,
261536,MX,21,Juárez,
261537,MX,9,San Angel,
261538,MX,2,El Florido,
261539,MX,9,San Salvador Cuauhtenco,
261540,MX,2,Michoacán De Ocampo,
261541,MX,15,San Pedro Xalpa,
261542,MX,28,Lala,
261543,MX,15,San Pedro Cholula,
261544,MX,30,Chontla,
261545,MX,14,Villa Guerrero,
261546,MX,30,Alamo Tortuga,
261547,MX,12,Cuyuxtlahuac,
261548,MX,30,Tinajitas,
261549,MX,1,San Andrés De Lagunita,
261550,MX,7,Ejido Infante,
261551,MX,11,Manzanillo,
261552,MX,27,Guatemala,
261553,MX,16,Tuzantla,
261554,MX,15,Mavoro,
261555,MX,21,Zapotitlán Salinas,
261556,MX,9,Ixtapalapa,
261557,MX,5,San Fernando,
261558,MX,30,Las Pampas,
261559,MX,12,El Playón,
261560,MX,15,Ladera,
261561,MX,1,Agostaderito,
261562,MX,1,Mirasoles,
261563,MX,26,La Agüita,
261564,MX,21,Villa Ávila Camacho,
261565,MX,19,Mineral El Ranchero,
261566,MX,15,Mexico,
261567,MX,5,Chihuahua,
261568,MX,32,Hidalgo,
261569,MX,21,Xoyatla,
261570,MX,7,Rancho La Luz,
261571,MX,5,Francisco León,
261572,MX,11,Dolores,
261573,MX,15,Citlaltepetl,
261574,MX,30,Licenciado Gustavo Díaz Ordáz,
261575,MX,11,El Guajolote,
261576,MX,13,Reforma,
261577,MX,12,Buenavista,
261578,MX,12,Copanatoyac,
261579,MX,16,Puácuaro,
261580,MX,32,Verde,
261581,MX,14,Maguey,
261582,MX,14,Santa María Del Valle,
261583,MX,20,San Blas Atempa,
261584,MX,6,Las Vegas,
261585,MX,9,Ixtacalco,
261586,MX,6,San Francisco Del Oro,
261587,MX,9,Pantitlán,
261588,MX,13,Los Olmos,
261589,MX,23,Playa Aventura,
261590,MX,9,Nueva Atzacoalco,
261591,MX,13,San José,
261592,MX,11,San Diego De Los Dolores,
261593,MX,9,Churubusco,
261594,MX,19,General Treviño,
261595,MX,11,Yustis,
261596,MX,26,Sahuaripa,
261597,MX,11,Comedero,
261598,MX,9,Campestre Churubusco,
261599,MX,20,Acatlima,
261600,MX,12,El Pericón,
261601,MX,20,Aguas Calientes,
261602,MX,30,Paso Ancho,
261603,MX,12,El Aguaje,
261604,MX,30,Tuxtilla,
261605,MX,25,La Vibora,
261606,MX,25,Los Laureles,
261607,MX,30,Chinampa,
261608,MX,9,Guadalupe,
261609,MX,12,Las Vigas,
261610,MX,20,San Pedro Huilotepec,
261611,MX,15,San Mateo Huitzilzingo,
261612,MX,16,Holanda,
261613,MX,25,La Villa Guadalupe,
261614,MX,30,Cotaxtla,
261615,MX,15,Venta De Carpio,
261616,MX,7,Garza,
261617,MX,9,San Lorenzo Acopilco,
261618,MX,10,Olimpo,
261619,MX,31,Acancéh,
261620,MX,14,San Antonio De Los Vázquez,
261621,MX,32,Juan Aldama,
261622,MX,13,San Agustín Zapotlán,
261623,MX,14,Trejos,
261624,MX,30,Laredo,
261625,MX,3,San José Viejo,
261626,MX,15,San Antonio Del Rosario,
261627,MX,22,Naranjos,
261628,MX,20,Silacayoapam,
261629,MX,2,Maneadero,
261630,MX,31,Ucú,
261631,MX,19,Doctor González,
261632,MX,21,Santo Domingo,
261633,MX,8,Santiago,
261634,MX,21,San Pablo Tepetzingo,
261635,MX,19,Hediondas,
261636,MX,3,El Sargento,
261637,MX,20,San Martín Peras,
261638,MX,15,Jajalpa,
261639,MX,13,Calnalí,
261640,MX,13,Ciudad Cooperativa Cruz Azul,
261641,MX,27,Florida,
261642,MX,17,Tequesquitengo,
261643,MX,32,Milpillas,
261644,MX,16,Santa Ana Maya,
261645,MX,28,Lomas Del Real,
261646,MX,30,Atoyac,
261647,MX,14,San Miguel Zapotitlán,
261648,MX,21,San Gregorio Atzompa,
261649,MX,20,San Pedro Y San Pablo Teposcolula,
261650,MX,24,Garcia,
261651,MX,17,Coatetelco,
261652,MX,16,Epitacio Huerta,
261653,MX,15,San Mateo Ixtacalco,
261654,MX,14,San Cristóbal,
261655,MX,28,Monterrey,
261656,MX,15,Chiautla,
261657,MX,17,Tlayecac,
261658,MX,15,San Lorenzo Chimalpa,
261659,MX,9,Colonia Prado Churubusco,
261660,MX,16,Huiramba,
261661,MX,24,Cerro De San Pedro,
261662,MX,21,Mazacoatlán,
261663,MX,21,Tenampulco,
261664,MX,15,Acolman De Netzahualcóyotl,
261665,MX,31,Uxmal,
261666,MX,19,Catarina,
261667,MX,14,San José Casas Caídas,
261668,MX,14,La Luz,
261669,MX,3,Santiago,
261670,MX,11,Presa Blanca,
261671,MX,18,El Botadero,
261672,MX,17,Cuautlixco,
261673,MX,13,Presas,
261674,MX,15,San Lorenzo Tepaltitlán,
261675,MX,14,Soyatlán,
261676,MX,7,La Cruz,
261677,MX,7,Barrio Tres,
261678,MX,11,Concepción,
261679,MX,1,San Nicolás,
261680,MX,6,Hidalgo,
261681,MX,11,Sotelo,
261682,MX,5,San Pedro Buenavista,
261683,MX,10,El Refugio,
261684,MX,16,Chinicuila,
261685,MX,17,Santa Rosa,
261686,MX,30,Cuauhtémoc,
261687,MX,3,San Carlos,
261688,MX,18,Huajicori,
261689,MX,12,Sabana Grande,
261690,MX,6,Balleza,
261691,MX,15,Almoloya,
261692,MX,16,Santa Clara,
261693,MX,27,Felipe Galván,
261694,MX,27,Paloma,
261695,MX,27,Netzahualcóyotl,
261696,MX,22,El Marques,
261697,MX,11,La Hacienda,
261698,MX,28,Francisco,
261699,MX,27,Pomoca,
261700,MX,15,San Pedro Totoltepec,
261701,MX,23,Achiote,
261702,MX,9,Valle,
261703,MX,13,Tepa,
261704,MX,5,Suchiate,
261705,MX,31,Sotuta,
261706,MX,19,San Bernabé,
261707,MX,9,San Miguel Xicalco,
261708,MX,9,Mixquic,
261709,MX,32,San Salvador,
261710,MX,27,Los Pajaros,
261711,MX,5,Pueblo Nuevo,
261712,MX,9,Barrio Norte,
261713,MX,19,Agualeguas,
261714,MX,16,Tejaro,
261715,MX,25,Corerepe,
261716,MX,20,Carrillo,
261717,MX,21,Los Reyes,
261718,MX,31,Chicxulub,
261719,MX,30,Tlalixcoyan,
261720,MX,14,Tololotlán,
261721,MX,28,Llera,
261722,MX,21,Ocotepec,
261723,MX,20,Santa María Tonameca,
261724,MX,3,Nopoló,
261725,MX,28,López Rayón,
261726,MX,14,Amacueca,
261727,MX,3,Comondú,
261728,MX,27,El Triunfo,
261729,MX,15,Acozac,
261730,MX,15,Otzoloapan,
261731,MX,16,Zacán,
261732,MX,31,Akil,
261733,MX,25,La Brecha,
261734,MX,30,San Juan Evangelista,
261735,MX,13,Teltipan De Juárez,
261736,MX,15,San José Del Rincón,
261737,MX,24,Real De Catorce,
261738,MX,12,Aguas Blancas,
261739,MX,30,Cerrillos,
261740,MX,13,El Mejé,
261741,MX,25,Lázaro Cárdenas,
261742,MX,20,Mantecón,
261743,MX,15,Jilotepec De Abasolo,
261744,MX,15,Tepetlixpac,
261745,MX,31,Temozón,
261746,MX,12,Santa Teresa,
261747,MX,16,Charapán,
261748,MX,18,Chilapa,
261749,MX,31,Temax,
261750,MX,30,Acula,
261751,MX,30,Hidalgotitlán,
261752,MX,26,Quiriego,
261753,MX,23,Punta Maroma,
261754,MX,13,Santórum,
261755,MX,14,San Martin,
261756,MX,9,San Miguel Ajusco,
261757,MX,17,Anenecuilco,
261758,MX,11,Maravatío Del Encinal,
261759,MX,19,Estados Unidos,
261760,MX,12,San Jeronimito,
261761,MX,20,Teotitlán Del Valle,
261762,MX,5,Ciudad Las Casas,
261763,MX,15,San Cristóbal Huichochitlán,
261764,MX,11,Casacuarán,
261765,MX,32,Villa García,
261766,MX,13,San Pedro Tlachichilco,
261767,MX,30,Colipa,
261768,MX,11,Los Jacales,
261769,MX,1,El Llano,
261770,MX,6,Aquiles Serdán,
261771,MX,16,Tiríndaro,
261772,MX,9,Santa María,
261773,MX,26,Chihuahua,
261774,MX,26,Álamo,
261775,MX,7,Agujita,
261776,MX,15,San Luis Huexotla,
261777,MX,15,Las Lomas,
261778,MX,9,Ciudad De México,
261779,MX,15,Ciudad Juárez,
261780,MX,30,Allende,
261781,MX,5,Tuxtla,
261782,MX,14,Tlajomulco De Zúñiga,
261783,MX,9,México Distrito Federal,
261784,MX,26,Ciudad Obregón,
261785,MX,32,El Salto,
261786,MX,7,Parras De La Fuente,
261787,MX,11,Esta,
261788,MX,19,Ciénega De Flores,
261789,MX,15,Ecatepec De Morelos,
261790,MX,15,Atizapán De Zaragoza,
261791,MX,15,Naucalpan De Juárez,
261792,MX,29,Amaxac De Guerrero,
261793,MX,24,Victoria,
261794,MX,30,Ciudad Madero,
261795,MX,11,Torreón,
261796,MX,13,Pachuca De Soto,
261797,MX,7,Reynosa,
261798,MX,5,Saltillo,
261799,MX,4,Ciudad Del Carmen,
261800,MX,8,Juárez,
261801,MX,32,Casas Grandes,
261802,MX,20,Santo Domingo Tehuantepec,
261803,MX,20,Oaxaca De Juárez,
261804,MX,20,Juchitán De Zaragoza,
261805,MX,29,San Luis Teolocholco,
261806,MX,29,Santa Ana Chiautempan,
261807,MX,20,Santiago Pinotepa Nacional,
261808,MX,32,Tonalá,
261809,MX,30,Río Blanco,
261810,MX,29,San Juan Totolac,
261811,MX,11,Los Reyes,
261812,MX,25,Tapachula,
261813,MX,30,Montemorelos,
261814,MX,21,Puebla De Zaragoza,
261815,MX,21,San Matías Tlalancaleca,
261816,MX,20,Tlacolula De Matamoros,
261817,MX,30,Manlio Fabio Altamirano,
261818,MX,24,Valles,
261819,MX,28,El Naranjo,
261820,MX,24,San Luis,
261821,MX,10,Mexico,
261822,MX,27,Morelos,
261823,MX,20,Sabinas,
261824,MX,11,Monclova,
261825,MX,14,San Juanito,
261826,MX,14,Pacana,
261827,MX,1,Ciudad De Aguascalientes,
261828,MX,22,Corregidora,
261829,MX,14,Zacoalco De Torres,
261830,MX,14,Autlán De Navarro,
261831,MX,6,Manzanillo,
261832,MX,11,Tecoman,
261833,MX,18,Zapotlán,
261834,MX,5,Mexico,
261835,MX,1,Fresnillo,
261836,MX,32,Jerez De García Salinas,
261837,MX,32,Calera,
261838,MX,32,Calera Víctor Rosales,
261839,MX,10,Morelos,
261840,MX,22,San Francisco,
261841,MX,6,San Cristóbal,
261842,MX,19,San Cristóbal,
261843,MX,21,Tuxtla,
261844,MX,5,Tuxtla Gutierres,
261845,MX,7,Arriaga,
261846,MX,30,Jáltipan De Morelos,
261847,MX,30,Rodríguez,
261848,MX,5,Comitán De Domínguez,
261849,MX,10,Reforma,
261850,MX,7,Hidalgo,
261851,MX,1,Ojocalientillo,
261852,MX,19,Habana,
261853,MX,22,Ciudad Queretaro,
261854,MX,22,Cadereyta De Montes,
261855,MX,6,Colima,
261856,MX,14,Comala,
261857,MX,6,Mexico,
261858,MX,18,Sauta,
261859,MX,20,Alemania,
261860,MX,25,Mochis,
261861,MX,10,Guadalajara,
261862,MX,25,Sinaloa De Leyva,
261863,MX,12,Acapulco De Juárez,
261864,MX,12,Coyuca De Benítez,
261865,MX,12,Tecpan De Galeana,
261866,MX,15,San Pablo Autopan,
261867,MX,12,Chilapa De Alvarez,
261868,MX,12,Tlapa De Comonfort,
261869,MX,4,Isla,
261870,MX,15,Villa Nicolás Romero,
261871,MX,14,Teocuitatlan,
261872,MX,14,Encarnación De Díaz,
261873,MX,4,Monterrey,
261874,MX,19,San Nicolás De Los Garzas,
261875,MX,5,Chiapa De Corzo,
261876,MX,26,Cajeme,
261877,MX,13,Tula,
261878,MX,13,San Agustín Tlaxiaca,
261879,MX,13,Cuautepec De Hinojosa,
261880,MX,15,Cuautepec,
261881,MX,13,Progreso De Obregón,
261882,MX,13,Tepeji Del Río,
261883,MX,19,Altamira,
261884,MX,5,Sinaloa,
261885,MX,24,León,
261886,MX,28,Reinosa,
261887,MX,28,Santa Catarina,
261888,MX,30,Cosamaloapan De Carpio,
261889,MX,20,Pinotepa,
261890,MX,30,Huatusco De Chicuellar,
261891,MX,27,Monterrey,
261892,MX,30,Amatlán De Los Reyes,
261893,MX,20,San Pedro Pochutla,
261894,MX,18,El Divisadero,
261895,MX,5,Cintalapa De Figueroa,
261896,MX,2,Chiapas,
261897,MX,14,Ahualulco De Mercado,
261898,MX,1,Pabellón,
261899,MX,8,Aquiles Serdán,
261900,MX,2,San Antonio Del Mar,
261901,MX,11,Delicias,
261902,MX,31,Ciudad De Mérida,
261903,MX,14,Tepatitlán De Morelos,
261904,MX,16,Ciudad Hidalgo,
261905,MX,16,Peribán De Ramos,
261906,MX,15,Toluca De Lerdo,
261907,MX,15,Tenancingo De Degollado,
261908,MX,1,San Miguel,
261909,MX,11,Santiago Maravatío,
261910,MX,16,Nueva Italia,
261911,MX,15,Ciudad Nezahualcóyotl,
261912,MX,28,Heroica Matamoros,
261913,MX,12,Miguel Alemán,
261914,MX,28,Santander,
261915,MX,14,Matamoros,
261916,MX,16,San Jerónimo,
261917,MX,12,Atoyac De Alvarez,
261918,MX,12,San Jerónimo De Juárez,
261919,MX,12,Ayutla De Los Libres,
261920,MX,12,Tixtla De Guerrero,
261921,MX,12,Zumpango Del Río,
261922,MX,12,Huitzuco De Los Figueroa,
261923,MX,12,Cutzamalá De Pinzón,
261924,MX,15,Texcoco De Mora,
261925,MX,12,Guacamayas,
261926,MX,15,San Juan Teotihuacán,
261927,MX,30,San Andrés Tuxtla,
261928,MX,10,Durango City,
261929,MX,3,Tijuana,
261930,MX,21,Tzicatlán,
261931,MX,21,Puebla De Los Angeles,
261932,MX,30,Palo Gacho,
261933,MX,30,Jalapa Enríquez,
261934,MX,20,Santiago Juxtlahuaca,
261935,MX,20,Huajuapan De León,
261936,MX,30,Fortín De Las Flores,
261937,MX,21,Acatlán De Osorio,
261938,MX,29,Santo Domingo,
261939,MX,29,San Pablo Del Monte,
261940,MX,29,San Pablo,
261941,MX,7,Venustiano Carranza,
261942,MX,27,Chilón,
261943,MX,28,Altamirano,
261944,MX,27,Jalpa De Méndez,
261945,MX,30,Hueyapan De Ocampo,
261946,MX,6,Pueblo Nuevo,
261947,MX,13,Juárez,
261948,MX,15,Cuautitlán De Romero Rubio,
261949,MX,12,Chilpancingo De Los Bravos,
261950,MX,17,Cuautla Morelos,
261951,MX,15,Ixtlahuaca,
261952,MX,15,Tenango Del Valle,
261953,MX,15,Lerma De Villada,
261954,MX,15,Tejupilco De Hidalgo,
261955,MX,15,Coacalco De Berriozábal,
261956,MX,15,San Cristóbal Ecatepec,
261957,MX,19,Zuazua,
261958,MX,8,El Terrero,
261959,MX,32,Ciudad Cuauhtémoc,
261960,MX,16,Matamoros,
261961,MX,7,Melchor Múzquiz,
261962,MX,4,Nueva Rosita,
261963,MX,10,Santiago Papasquiaro,
261964,MX,30,Coahuila,
261965,MX,5,Piedras Negras,
261966,MX,5,San Pedro,
261967,MX,10,Monterrey,
261968,MX,10,Tepehuanes,
261969,MX,1,Ciénegas,
261970,MX,19,San Fernando,
261971,MX,28,Villagrán,
261972,MX,28,Zacatecas,
261973,MX,11,Ciudad De Dolores Hidalgo,
261974,MX,11,Ciudad Salamanca,
261975,MX,22,San José,
261976,MX,18,Pericos,
261977,MX,16,Ario De Rosales,
261978,MX,16,Uruapan Del Progreso,
261979,MX,1,Loreto,
261980,MX,11,Rincon,
261981,MX,16,Zamora De Hidalgo,
261982,MX,16,La Piedad Cavadas,
261983,MX,3,Ciudad Constitución,
261984,MX,26,Mexico,
261985,MX,25,Cuilacan,
261986,MX,25,Ciudad Mazatlán,
261987,MX,10,Ciudad De Durango,
261988,MX,6,Durango,
261989,MX,5,Matamoros,
261990,MX,26,Heroica Nogales,
261991,MX,19,Ascensión,
261992,MX,3,San Lucas,
261993,MX,11,Doctor Mora,
261994,MX,10,Victoria De Durango,
261995,MX,27,Matamoros,
261996,MX,7,Villa Frontera,
261997,MX,21,San Buenaventura,
261998,MX,5,Zaragoza,
261999,MX,20,Ayoquezco De Aldama,
262000,MX,20,Santa María Huatulco,
262001,MX,29,San Pablo Apetatitlán,
262002,MX,20,San Juan Bautista Tuxtepec,
262003,MX,15,Ecatepec Morelos,
262004,MX,14,Talpa De Allende,
262005,MX,11,León De Los Aldamas,
262006,MX,18,Sinaloa,
262007,MX,32,Fresnillo De González Echeverría,
262008,MX,15,Amanalco De Becerra,
262009,MX,18,Rosales,
262010,MX,2,Mexico,
262011,MX,12,Taxco De Alarcón,
262012,MX,12,Iguala De La Independencia,
262013,MX,12,Apaxtla De Castrejón,
262014,MX,15,Chalco De Díaz Covarrubias,
262015,MX,15,Santiago Cuautlalpan,
262016,MX,6,Cuahtemoc,
262017,MX,20,Santiago Jamiltepec,
262018,MX,30,Cazones De Herrera,
262019,MX,16,Pichardo,
262020,MX,11,Jiménez,
262021,MX,11,Camargo,
262022,MX,14,Saucillo,
262023,MX,14,Santa Bárbara,
262024,MX,8,Guerrero,
262025,MX,24,Ciudad Fernández,
262026,MX,7,Laguna Del Rey,
262027,MX,27,Ciudad Pemex,
262028,MX,28,Progreso,
262029,MX,29,San Andrés,
262030,MX,21,San José Chiapa,
262031,MX,6,Bocoyna,
262032,MX,15,Santa María Rayón,
262033,MX,28,América,
262034,MX,29,Cuauhtémoc,
262035,MX,27,Jiménez,
262036,MX,30,Veracruz Llave,
262037,MX,3,El Médano,
262038,MX,13,Metepec,
262039,MX,32,Momax,
262040,MX,3,Achemes,
262041,MX,6,Bentón,
262042,MX,15,Apaxco De Ocampo,
262043,MX,12,El Naranjo,
262044,MX,24,Villa Juarez,
262045,MX,13,Ciudad Sahagún,
262046,MX,3,San Ignacio,
262047,MX,30,Villa Unión,
262048,MX,10,Juárez,
262049,MX,11,Jesús María,
262050,MX,14,Lazaro Cárdenas,
262051,MX,11,Cárdenas,
262052,MX,2,Morelos,
262053,MX,28,Reynosa De Díaz,
262054,MX,20,Guerrero,
262055,MX,14,San Gregorio,
262056,MX,16,Sahuayo De Morelos,
262057,MX,30,Tlacolulan,
262058,MX,20,Santa Cruz Xoxocotlán,
262059,MX,26,Guadalajara,
262060,MX,8,Las Lomas,
262061,MX,7,Montecarlo,
262062,MX,12,Bajos Del Ejido,
262063,MX,18,El Tacote,
262064,MX,16,Acuitzio Del Canje,
262065,MX,5,Mazapa,
262066,MX,28,Abasolo,
262067,MX,12,Igualapa,
262068,MX,29,Atlangatepec,
262069,MX,11,San José De Abajo,
262070,MX,21,Tezonteopan De Bonilla,
262071,MX,26,Baviácora,
262072,MX,9,University City,
262073,MX,12,San Vicente,
262074,MX,27,Manzanero,
262075,MX,15,Netzahualcóyotl,
262076,MX,26,Heroica Caborca,
262077,MX,14,Ixtlahuacán,
262078,MX,14,Tuxcueca,
262079,MX,4,San Francisco,
262080,MX,26,Sinaloa,
262081,MX,21,Santa Ana Coapan,
262082,MX,30,Cristobal Hidalgo,
262083,MX,29,Santa María Acuitlapilco,
262084,MX,19,Iturbide,
262085,MX,18,Otates,
262086,MX,29,San Mateo Ayecac,
262087,MX,30,Francisco I. Madero,
262088,MX,15,Ciudad López Mateos,
262089,MX,18,Guamúchil,
262090,MX,3,Adolfo López Mateos,
262091,MX,5,San Caralampio,
262092,MX,13,San Sebastián,
262093,MX,20,Huanacaxtle,
262094,MX,16,Cojumatlán De Régules,
262095,MX,21,San Andrés Calpan,
262096,MX,13,Huejutla De Reyes,
262097,MX,24,Allende,
262098,MX,14,San Martín Hidalgo,
262099,MX,28,Mora,
262100,MX,22,Santa Cruz,
262101,MX,15,San Juan Tuxtepec,
262102,MX,12,Mezcala,
262103,MX,7,Rancho Nuevo,
262104,MX,12,Anáhuac,
262105,MX,6,Rosario,
262106,MX,20,Guevea De Húmboldt,
262107,MX,14,La Noría,
262108,MX,15,San Buenaventura,
262109,MX,31,Toya,
262110,MX,8,San Gabriel,
262111,MX,12,Mazatlán,
262112,MX,15,San Sebastián Chimalpa,
262113,MX,30,Heroica Veracruz,
262114,MX,20,San Pablo Huitzo,
262115,MX,5,Simojovel De Allende,
262116,MX,20,Tequisistlán,
262117,MX,30,Acajete,
262118,MX,15,San Andrés Chiautla,
262119,MX,14,La Junta,
262120,MX,27,El Socorro,
262121,MX,16,Cuitzeo Del Porvenir,
262122,MX,24,Mexquitic,
262123,MX,7,Las Margaritas,
262124,MX,8,Los Reyes,
262125,MX,29,Acuitlapilco,
262126,MX,21,Cuautinchán,
262127,MX,29,Tlacotepec,
262128,MX,20,Nochixtlan,
262129,MX,14,Santa Fe,
262130,MX,16,Lagunillas,
262131,MX,32,Buenaventura,
262132,MX,18,Bayona,
262133,MX,25,Ruiz Cortines,
262134,MX,16,Obregón,
262135,MX,2,Guadalajara,
262136,MX,17,Zaragoza,
262137,MX,27,Chicago,
262138,MX,30,Sayula De Alemán,
262139,MX,24,Tampico,
262140,MX,10,Ciudad Lerdo,
262141,MX,21,Alchichica,
262142,MX,16,Corupo,
262143,MX,18,Ixtlán,
262144,MX,16,San Felipe,
262145,MX,9,Merced Gómez,
262146,MX,11,El Resplandor,
262147,MX,29,Ocotlán,
262148,MX,21,Santa Rita Tlahuapan,
262149,MX,2,Gutiérrez,
262150,MX,28,Santander Jiménez,
262151,MX,28,Ejido Benito Juárez,
262152,MX,20,Santo Domingo Zanatepec,
262153,MX,20,Acatlán De Pérez Figueroa,
262154,MX,21,Saltillo,
262155,MX,13,Tenango,
262156,MX,11,Tampico,
262157,MX,26,Mazatlán,
262158,MX,18,Aguamilpa,
262159,MX,29,San Martín,
262160,MX,12,Benito Juárez,
262161,MX,18,El Sauz,
262162,MX,21,Tecali De Herrera,
262163,MX,30,Dos Ríos,
262164,MX,20,Martínez De La Torre,
262165,MX,20,Putla De Guerrero,
262166,MX,13,Zapotlán De Juárez,
262167,MX,10,Rodeo,
262168,MX,14,El Salvador,
262169,MX,17,Atlatlahuacan,
262170,MX,2,El Sauzal,
262171,MX,20,San Juan Tabaá,
262172,MX,15,San Jerónimo Chicahualco,
262173,MX,15,San Miguel Tenochtitlán,
262174,MX,5,Ocozocoautla De Espinosa,
262175,MX,30,Tortuga,
262176,MX,14,Zoquipan,
262177,MX,25,Villa Juárez,
262178,MX,30,Medias Aguas,
262179,MX,21,Otzolotepec,
262180,MX,15,Rosa,
262181,MX,14,Tecualtitán,
262182,MX,26,Maytorena,
262183,MX,11,Ciudad De León,
262184,MX,25,Chiapa,
262185,MX,26,Sonoyta,
262186,MX,7,Ciudad Acuña,
262187,MX,32,Mezquital Del Oro,
262188,MX,14,La Capilla,
262189,MX,16,Angahuán,
262190,MX,6,Lugo,
262191,MX,21,La Magdalena,
262192,MX,31,Tixmeuac,
262193,MX,23,Nicolás Bravo,
262194,MX,11,Iraputa,
262195,MX,11,Valtierra,
262196,MX,30,Entabladero,
262197,MX,16,Ucácuaro,
262198,MX,29,San Pablo Zitlaltepec,
262199,MX,21,San Juan Ixcaquixtla,
262200,MX,30,Plan De Libres,
262201,MX,20,San Pedro Mixtepec,
262202,MX,21,San Juan Cuautlancingo,
262203,MX,11,Palenque,
262204,MX,20,Zimatlán De Álvarez,
262205,MX,28,Madera,
262206,MX,18,La Cruz,
262207,MX,8,Galeana,
262208,MX,15,Bonyó,
262209,MX,14,Atengo,
262210,MX,10,Pánuco De Coronado,
262211,MX,31,Chelem,
262212,MX,31,Mococha,
262213,MX,5,Monterrey,
262214,MX,21,Alquizapan,
262215,MX,20,Texas,
262216,MX,5,Colima,
262217,MX,27,Rosita,
262218,MX,18,Santa Isabel,
262219,MX,15,San Andrés Jaltenco,
262220,MX,19,Ciudad Mitras,
262221,MX,14,Tepehuaje,
262222,MX,11,Apaseo,
262223,MX,22,San Miguel,
262224,MX,12,Tecalpulco,
262225,MX,20,San Pablo Huixtepec,
262226,MX,29,San Cosme Mazatecochco,
262227,MX,9,San Mateo Tlaltenango,
262228,MX,27,Juan,
262229,MX,1,La Huerta,
262230,MX,31,Motul De Carrillo Puerto,
262231,MX,11,Atotonilco,
262232,MX,18,Loma,
262233,MX,21,Santo Tomás Hueyotlipan,
262234,MX,20,Tlalixtac De Cabrera,
262235,MX,15,Zumpango De Ocampo,
262236,MX,13,Venustiano Carranza,
262237,MX,25,Potrerillos,
262238,MX,6,Nogales,
262239,MX,29,Morelos,
262240,MX,29,Panzacola,
262241,MX,31,Samahil,
262242,MX,15,Amecameca De Juárez,
262243,MX,20,San Bartolo Coyotepec,
262244,MX,19,Garza,
262245,MX,21,San Baltazar,
262246,MX,21,Cuesta Blanca,
262247,MX,29,Santa María Atlihuetzián,
262248,MX,9,Lomas De Chapultepec,
262249,MX,15,San Andrés Ocotlán,
262250,MX,10,Cuba,
262251,MX,29,San Pedro,
262252,MX,30,Papantla De Olarte,
262253,MX,30,Poza Rica Chacas,
262254,MX,20,San Juan Guelavía,
262255,MX,19,Ebanos,
262256,MX,1,Guadalupe,
262257,MX,11,Santa Ana,
262258,MX,26,Arizpe,
262259,MX,19,Villa De García,
262260,MX,13,Francisco I. Madero,
262261,MX,16,Jacona De Plancarte,
262262,MX,5,Huitiupan,
262263,MX,13,Ixcuinquitlapilco,
262264,MX,5,Sacramento,
262265,MX,28,Villa Verde,
262266,MX,6,La Chacona,
262267,MX,30,Tarcasalapa,
262268,MX,23,Santo Domingo,
262269,MX,5,Santa Cruz,
262270,MX,30,Jalapilla,
262271,MX,7,Alamo,
262272,MX,25,Cañada,
262273,MX,5,Ciudad De Las Casas,
262274,MX,27,El Pantano,
262275,MX,26,Concordia,
262276,MX,30,Escolín De Olarte,
262277,MX,28,Francisco I. Madero,
262278,MX,30,El Sacrificio,
262279,MX,19,Rancho Hedionda,
262280,MX,12,Campuzano,
262281,MX,11,Valtierrilla,
262282,MX,11,San Antonio De Chico,
262283,MX,14,Mendocina,
262284,MX,13,Cerrito,
262285,MX,25,Tabayal,
262286,MX,32,General Enrique Estrada,
262287,MX,16,Huancito,
262288,MX,11,Calvillo,
262289,MX,18,Mazatlan,
262290,MX,13,Pachuquilla,
262291,MX,6,Benito Juárez,
262292,MX,17,Jantetelco,
262293,MX,14,Piedras Negras,
262294,MX,5,Nueva York,
262295,MX,15,Yautepec,
262296,MX,14,Rincón De Ocotes,
262297,MX,30,Corralillos,
262298,MX,16,Icataro,
262299,MX,15,Calixtlahuaca,
262300,MX,30,Santa Cruz Zapotal,
262301,MX,30,Acatempa,
262302,MX,9,Colonia Seguro Social,
262303,MX,14,Palenque,
262304,MX,16,Cumuatillo,
262305,MX,22,Los Olvera,
262306,MX,14,Atotonilco El Bajo,
262307,MX,24,Reforma,
262308,MX,15,San Pedro El Chico,
262309,MX,12,Ajuchitlán Del Progreso,
262310,MX,21,Acatzingo De Hidalgo,
262311,MX,21,Tatlauquitepec,
262312,MX,26,Nacozari De García,
262313,MX,15,Tepozotlan,
262314,MX,13,Orizabita,
262315,MX,13,Huehuetla,
262316,MX,17,Tenango,
262317,MX,30,Chote,
262318,MX,7,Puebla,
262319,MX,18,Lima,
262320,MX,14,Betania,
262321,MX,13,Cardenas,
262322,MX,30,Tula,
262323,MX,15,Ozumba De Alzate,
262324,MX,29,La Magdalena Tlaltelulco,
262325,MX,21,Coatzingo,
262326,MX,30,María De La Torre,
262327,MX,5,Guanajuato,
262328,MX,30,Rodríguez Clara,
262329,MX,15,Chicoloapan De Juárez,
262330,MX,12,Buenavista De Cuéllar,
262331,MX,15,Cerro Del Campo,
262332,MX,9,Peralvillo,
262333,MX,5,San Luis Potosí,
262334,MX,29,Guadalupe,
262335,MX,27,Lagartero,
262336,MX,16,Senguio,
262337,MX,32,Tacoaleche,
262338,MX,11,Ozumbilla,
262339,MX,6,Cuahutemoc,
262340,MX,14,El Salitre,
262341,MX,10,Punta,
262342,MX,7,Jaco,
262343,MX,26,Huepac,
262344,MX,18,San Sebastián,
262345,MX,10,Francisco I. Madero,
262346,MX,15,Nexquipayac,
262347,MX,31,Dzununcán,
262348,MX,12,Zirándaro,
262349,MX,8,Peña Blanca,
262350,MX,28,Veracruz,
262351,MX,16,Huecorio,
262352,MX,17,Oacalco,
262353,MX,24,El Jaral,
262354,MX,9,Santa Lucía,
262355,MX,19,Escobas,
262356,MX,30,Ixlalahuía,
262357,MX,15,Santa María Guadalupe,
262358,MX,24,Flor De María,
262359,MX,14,Buenos Aires,
262360,MX,12,Ocotito,
262361,MX,15,Santa María Tulpetlac,
262362,MX,15,San Juan De Las Huertas,
262363,MX,14,Guadalupe,
262364,MX,30,Boca,
262365,MX,20,Reyes,
262366,MX,16,La Piedad De Cabadas,
262367,MX,12,Figueroa,
262368,MX,28,Ocampo,
262369,MX,14,El Jaral,
262370,MX,27,Nopalapan,
262371,MX,30,Orilla Del Monte,
262372,MX,13,Zacualoya,
262373,MX,14,Chimaltitán,
262374,MX,21,Zacapala,
262375,MX,11,Xichu,
262376,MX,9,Progreso Nacional,
262377,MX,19,Colombia,
262378,MX,15,Tianguistenco De Galeana,
262379,MX,18,Agua Caliente,
262380,MX,11,La Laja,
262381,MX,13,Mangas,
262382,MX,18,Higuera Blanca,
262383,MX,29,Santa Úrsula Zimatepec,
262384,MX,11,Rivera,
262385,MX,2,Alvarado,
262386,MX,7,Guanajuato,
262387,MX,11,San Antonio De Morales,
262388,MX,20,Salazar,
262389,MX,6,Jaco,
262390,MX,5,Veracruz,
262391,MX,21,Santa Maria,
262392,MX,15,El Oro De Hidalgo,
262393,MX,15,Santa Cruz Tepexpan,
262394,MX,14,El Molino,
262395,MX,15,Mazatla,
262396,MX,30,Jalapa,
262397,MX,11,Lázaro Cárdenas,
262398,MX,2,Estación Coahuila,
262399,MX,16,San Miguel,
262400,MX,3,Querétaro,
