locId,country,region,city,postcode
263528,NG,,,
263529,NG,5,Lagos,
263530,NG,11,Abuja,
263531,NG,32,Saka,
263532,NG,26,Makurdi,
263533,NG,53,Ghana,
263534,NG,32,Ondo,
263535,NG,32,Kogi,
263536,NG,28,Owerri,
263537,NG,50,Port Harcourt,
263538,NG,23,Kaduna,
263539,NG,51,Tara,
263540,NG,5,Ikeja,
263541,NG,32,Ikoyi,
263542,NG,32,Adeogun,
263543,NG,10,Odua,
263544,NG,32,Base,
263545,NG,32,Ibadan,
263546,NG,47,Enugu,
263547,NG,30,Ilorin,
263548,NG,29,Kano,
263549,NG,18,Ogbomosho,
263550,NG,37,Bénin,
263551,NG,16,Abeokuta,
263552,NG,42,Oshogbo,
263553,NG,17,Iseoluwa,
263554,NG,32,Apapa,
263555,NG,47,Agbani,
263556,NG,48,Akure,
263557,NG,36,Asaba,
263558,NG,25,Awka,
263559,NG,46,Bauchi,
263560,NG,50,Bonny,
263561,NG,22,Calabar,
263562,NG,10,Effurun,
263563,NG,10,Eket,
263564,NG,32,Gbagi,
263565,NG,55,Gombe,
263566,NG,57,Gusau,
263567,NG,53,Ikom,
263568,NG,21,Ikot Abasi,
263569,NG,24,Katsina,
263570,NG,41,Lokoja,
263571,NG,27,Maiduguri,
263572,NG,31,Minna,
263573,NG,35,Mubi,
263574,NG,25,Nnewi,
263575,NG,36,Onitsha,
263576,NG,10,Amadi,
263577,NG,37,Sapele,
263578,NG,51,Sokoto,
263579,NG,37,Ugbowo,
263580,NG,45,Umuahia,
263581,NG,10,Warri,
263582,NG,35,Yola,
263583,NG,23,Zaria,
263584,NG,5,Lekki,
263585,NG,10,London,
263586,NG,10,Ikot Ekpene,
263587,NG,32,Offa,
263588,NG,5,Tinubu,
263589,NG,5,Ikorodu,
263590,NG,32,Babatunde,
263591,NG,32,Eruwa,
263592,NG,16,Ogere,
263593,NG,56,Anambra,
263594,NG,16,Ikenne,
263595,NG,32,Isoko,
263596,NG,5,Agun,
263597,NG,42,Osogbo,
263598,NG,11,Baba,
263599,NG,53,Abia,
263600,NG,56,Keffi,
263601,NG,37,Ikpoba,
263602,NG,39,Kwara,
263603,NG,5,Okokomaiko,
263604,NG,53,Abakaliki,
263605,NG,32,Idiroko,
263606,NG,10,Agbor,
263607,NG,25,Akwa,
263608,NG,32,Idi Iroko,
263609,NG,18,Fate,
263610,NG,57,Balewa,
263611,NG,32,Abija,
263612,NG,32,Raji,
263613,NG,5,Ifako,
263614,NG,51,Kanta,
263615,NG,23,Alhaji,
263616,NG,25,Onitsha,
263617,NG,16,Ifo,
263618,NG,37,Benin-city,
263619,NG,42,Iwo,
263620,NG,36,Warri,
263621,NG,32,Ido,
263622,NG,49,Jos,
263623,NG,5,Maryland,
263624,NG,32,Ogun,
263625,NG,5,Ebute-metta,
263626,NG,21,Uyo,
263627,NG,5,Onigbongbo,
263628,NG,16,Shagamu,
263629,NG,32,Ijebu Igbo,
263630,NG,10,Aba,
263631,NG,5,Mushin,
263632,NG,32,Ota,
263633,NG,32,Iwo,
263634,NG,32,Ikire,
263635,NG,32,Oyo,
263636,NG,18,Ogbomoso,
263637,NG,56,Ankpa,
263638,NG,47,Nsukka,
263639,NG,52,Yenagoa,
263640,NG,49,Miango,
263641,NG,27,Yalé,
263642,NG,30,Illorin,
263643,NG,56,Benue,
263644,NG,35,Borno,
263645,NG,35,Jigawa,
263646,NG,51,Kebbi,
263647,NG,35,Nassarawa,
263648,NG,32,Osun,
263649,NG,10,Onne,
263650,NG,43,Jalingo,
263651,NG,32,Bansa,
263652,NG,39,Dokoro,
263653,NG,5,Oshodi,
263654,NG,32,Adeniji,
263655,NG,5,Badore,
263656,NG,10,Okija,
263657,NG,32,Maro,
263658,NG,29,Bisi,
263659,NG,11,Wuse,
263660,NG,32,Isolo,
263661,NG,32,Ife,
263662,NG,31,Bida,
263663,NG,10,North,
263664,NG,5,Agege,
263665,NG,5,Oworonsoki,
263666,NG,5,Isolo,
263667,NG,5,Ipaja,
263668,NG,11,Maitama,
263669,NG,11,Mararaba,
263670,NG,11,Garki,
263671,NG,5,Shomolu,
263672,NG,11,Asokoro,
263673,NG,5,Ganme,
263674,NG,23,Ungwan Patachi,
263675,NG,5,Ketu,
263676,NG,5,Ikoyi,
263677,NG,32,Ajuwon,
263678,NG,5,Epe,
263679,NG,10,Abraka,
263680,NG,17,Owo,
263681,NG,5,Idimu,
263682,NG,36,Obosi,
263683,NG,26,Karshi,
263684,NG,44,Tayo,
263685,NG,12,Dori,
263686,NG,5,Obanikoro,
263687,NG,5,Ojota,
263688,NG,16,Magodo,
263689,NG,32,Ogba,
263690,NG,56,Awena,
263691,NG,31,Galma,
263692,NG,5,Ijanikin,
263693,NG,25,Oji River,
263694,NG,44,Damaturu,
263695,NG,32,Opebi,
263696,NG,42,Ikirun,
263697,NG,10,Ihiala,
263698,NG,54,Ado-ekiti,
263699,NG,18,Ilesa,
263700,NG,16,Oke Odan,
263701,NG,16,Oke-aro,
263702,NG,5,Ijaiye,
263703,NG,5,Ikotun,
263704,NG,10,Omoku,
263705,NG,5,Ojo,
263706,NG,5,Somolu,
263707,NG,5,Oregun,
263708,NG,32,Egbeda,
263709,NG,5,Ogudu,
263710,NG,5,Badagry,
263711,NG,5,Yaba,
263712,NG,32,Ejigbo,
263713,NG,5,Meran,
263714,NG,32,Sango,
263715,NG,32,Akiode,
263716,NG,5,Bariga,
263717,NG,5,Ishaga,
263718,NG,5,Ijegun,
263719,NG,5,Egan,
263720,NG,5,Akowonjo,
263721,NG,16,Ijebu,
263722,NG,16,Isheri,
263723,NG,5,Orile,
263724,NG,16,Ibafo,
263725,NG,11,Gwarinpa,
263726,NG,32,Ketu,
263727,NG,48,Ikota,
263728,NG,5,Alimoso,
263729,NG,5,Iju,
263730,NG,5,Otta,
263731,NG,23,Kaduna South,
263732,NG,16,Abule Egba,
263733,NG,32,Edidi,
263734,NG,32,Ijebu Ode,
263735,NG,10,Agbarho,
263736,NG,17,Kabba,
263737,NG,56,Lafia,
263738,NG,32,Ijaiye,
263739,NG,32,Akute,
263740,NG,5,Ayobo,
263741,NG,32,Sabo,
263742,NG,5,Ikosi,
263743,NG,5,Isheri-olofin,
263744,NG,5,Falomo,
263745,NG,32,Ikotun,
263746,NG,5,Amuwo,
263747,NG,42,Ede,
263748,NG,10,Owerrinta,
263749,NG,11,Gwagwalada,
263750,NG,31,Mando,
263751,NG,32,Inisa,
263752,NG,45,Ihitte,
263753,NG,10,Offot,
263754,NG,32,Alagbado,
263755,NG,26,Karu,
263756,NG,5,Oke Ira,
263757,NG,32,Ila,
263758,NG,5,Suru Lere,
263759,NG,56,Nassarawa,
263760,NG,47,Mgbidi,
263761,NG,32,Idowu,
263762,NG,5,Ikare,
263763,NG,32,Ekun,
263764,NG,56,Otukpo,
263765,NG,36,Nkpor,
263766,NG,5,Alimosho,
263767,NG,10,Ahoada,
263768,NG,40,Bena,
263769,NG,56,Agenebode,
263770,NG,32,Ile-ife,
263771,NG,26,Gboko,
263772,NG,32,Ado,
263773,NG,17,Auchi,
263774,NG,56,Akwanga,
263775,NG,32,Imo,
263776,NG,5,Ejigbo,
263777,NG,5,Isashi,
263778,NG,56,Sabon Gari,
263779,NG,11,Ewan,
263780,NG,5,Igando,
263781,NG,10,Etinan,
263782,NG,25,Igbo Ukwu,
263783,NG,11,Suleja,
263784,NG,5,Apapa,
263785,NG,40,Birnin-kebbi,
263786,NG,5,Mosan,
263787,NG,5,Agbara,
263788,NG,5,Obalende,
263789,NG,49,Kuru,
263790,NG,5,Ajegunle,
263791,NG,5,Iganmu,
263792,NG,16,Lambe,
263793,NG,5,Jibowu,
263794,NG,16,Imusin,
263795,NG,47,Ngwo,
263796,NG,21,Ekpene,
263797,NG,17,Okitipupa,
263798,NG,42,Ilobu,
263799,NG,18,Iperindo,
263800,NG,32,Olorunda,
263801,NG,32,Apomu,
263802,NG,25,Owere,
263803,NG,53,Igbere,
263804,NG,11,Bamburu,
263805,NG,27,Kuda,
263806,NG,11,Kwamba,
263807,NG,18,Ilesha,
263808,NG,10,Oguta,
263809,NG,23,Samaru,
263810,NG,5,Kirikiri,
263811,NG,46,Bori,
263812,NG,45,Uzuakoli,
263813,NG,35,Bengo,
263814,NG,10,Ughelli,
263815,NG,10,Olodi,
263816,NG,10,Orlu,
263817,NG,5,Itire,
263818,NG,32,Egbe,
263819,NG,5,Aguda,
263820,NG,5,Egbe,
263821,NG,37,Ekpoma,
263822,NG,24,Dutsin-ma,
263823,NG,39,Dutse,
263824,NG,10,Afikpo,
263825,NG,5,Oworonshoki,
263826,NG,32,Ajao,
263827,NG,36,Ogwashi Uku,
263828,NG,29,Minjibir,
263829,NG,29,Beta,
263830,NG,56,Uromi,
263831,NG,5,Egba,
263832,NG,56,Agbado,
263833,NG,5,Okunola,
263834,NG,32,Egan,
263835,NG,32,Egba,
263836,NG,16,Iwoye,
263837,NG,42,Ojo,
263838,NG,5,Apa,
263839,NG,56,Kadun,
263840,NG,31,Jebba,
263841,NG,32,Onipanu,
263842,NG,40,Aliero,
263843,NG,5,Igbobi,
263844,NG,32,Adejumo,
263845,NG,32,Toyin,
263846,NG,44,Ahmadu,
263847,NG,56,Ohio,
263848,NG,10,Okpuala,
263849,NG,39,Kazaure,
263850,NG,31,Kudu,
263851,NG,11,Zuba,
263852,NG,10,Obiaruku,
263853,NG,40,Jega,
263854,NG,16,Kuto,
263855,NG,25,Ekwulobia,
263856,NG,23,Kafanchan,
263857,NG,32,Ilawe,
263858,NG,11,Yaba,
263859,NG,32,Ekan,
263860,NG,5,Onike,
263861,NG,37,Kwale,
263862,NG,16,Mowe,
263863,NG,32,Imushin,
263864,NG,40,Laga,
263865,NG,5,Labada,
263866,NG,5,Labada Ebute,
263867,NG,12,Wukari,
263868,NG,35,Jimeta,
263869,NG,5,Egun,
263870,NG,50,Bonny Town,
263871,NG,44,Adamawa,
263872,NG,37,Warrigi,
263873,NG,5,Shogunle,
263874,NG,32,Odofin,
263875,NG,40,Gwanda,
263876,NG,56,Po,
263877,NG,5,Addo,
263878,NG,23,Kargo,
263879,NG,42,Aro,
263880,NG,32,Bello,
263881,NG,56,Ayangba,
263882,NG,57,Ware,
263883,NG,29,Roni,
263884,NG,29,Funtua,
263885,NG,39,Nahuche,
263886,NG,42,Iragbiji,
263887,NG,22,Okuko,
263888,NG,32,Orolu,
263889,NG,32,Oke Ila,
263890,NG,32,Gbongan,
263891,NG,32,Ipetumodu,
263892,NG,32,Modakeke,
263893,NG,36,Kwale,
263894,NG,25,Anambra,
263895,NG,36,Abraka,
263896,NG,22,Obudu,
263897,NG,42,Ile-ife,
263898,NG,36,Burutu,
263899,NG,5,Agboyi,
263900,NG,32,Oru,
263901,NG,16,Isaga,
263902,NG,32,Balogun,
263903,NG,5,Iwerekun,
263904,NG,5,Itele,
263905,NG,32,Lagbada,
263906,NG,17,Igbokoda,
263907,NG,23,Kabala,
263908,NG,46,Pankshin,
263909,NG,32,Iseyin,
263910,NG,32,Isara,
263911,NG,16,Shimawa,
263912,NG,5,Agboju,
263913,NG,36,Bear Town,
263914,NG,34,Imo River,
263915,NG,36,Lodu Imenyi,
263916,NG,45,Umudike,
263917,NG,27,Konduga,
263918,NG,27,Bama,
263919,NG,31,Pategi,
263920,NG,16,Sango Otta,
263921,NG,5,Ebute Ikorodu,
263922,NG,54,Ikere,
263923,NG,46,Lago,
263924,NG,28,Okuku,
263925,NG,5,New Lagos,
263926,NG,5,Coker,
263927,NG,32,Owode,
263928,NG,54,Ijero,
263929,NG,16,Ilate,
263930,NG,32,Ifetedo,
263931,NG,24,Bode,
263932,NG,56,Idah,
263933,NG,35,Nasarawa,
263934,NG,32,Isan,
263935,NG,49,Ndin,
263936,NG,5,Oluke,
263937,NG,37,Ile,
263938,NG,51,Goronyo,
263939,NG,40,Ganza,
263940,NG,56,Elele,
263941,NG,5,Baruwa,
263942,NG,32,Oko,
263943,NG,21,Abak,
263944,NG,16,Igbogbo,
263945,NG,35,Numan,
263946,NG,36,Ishiagu,
263947,NG,10,Abua,
263948,NG,25,Ifite,
263949,NG,11,Kuje,
263950,NG,16,Ilaro,
263951,NG,22,Oron,
263952,NG,5,Ibereko,
263953,NG,48,Owena,
263954,NG,10,Arochukwu,
263955,NG,42,Oke Ibode,
263956,NG,57,Anka,
263957,NG,25,Agukwu Nri,
263958,NG,5,Agidingbi,
263959,NG,10,Owerri Nta,
263960,NG,21,Ikot Ekpene,
263961,NG,32,Ago,
263962,NG,56,Aba,
263963,NG,41,Ajaokuta,
263964,NG,11,Bwari,
263965,NG,26,Makurdi North,
263966,NG,27,Biu,
263967,NG,36,Nsugbe,
263968,NG,10,Mbiama,
263969,NG,16,Ilishan,
263970,NG,10,Azumini,
263971,NG,42,Ibokun,
263972,NG,36,Ibusa,
263973,NG,10,Ndoni,
263974,NG,25,Enugu Ukwu,
263975,NG,11,Kado,
263976,NG,5,Ibadan,
263977,NG,53,Ogoja,
263978,NG,11,Jabi,
263979,NG,5,Ibeju,
263980,NG,31,Mokwa,
263981,NG,11,Shenagu,
263982,NG,32,Araromi Okeodo,
263983,NG,10,Ichi,
263984,NG,31,Abuja,
263985,NG,22,Ghana,
263986,NG,48,Ondo,
263987,NG,11,Kogi,
263988,NG,36,John Holt,
263989,NG,50,Odua,
263990,NG,37,Benin City,
263991,NG,40,Birnin Kebbi,
263992,NG,16,Asehan,
263993,NG,16,Ogunrun-ori,
263994,NG,16,Ketu,
263995,NG,16,Ago,
263996,NG,36,Ighwreku,
263997,NG,42,Ilesa,
263998,NG,45,Aba,
263999,NG,23,Wusasa,
264000,NG,22,Ikom,
264001,NG,26,Walmayo,
264002,NG,50,Eyamba Town,
264003,NG,32,Ogbomosho,
264004,NG,36,Sapele,
264005,NG,22,Ogoja,
264006,NG,36,Effurun,
264007,NG,36,Obiaruku,
264008,NG,54,Ota,
264009,NG,25,Enugu-ukwu,
264010,NG,21,Atabong,
264011,NG,16,Ijebu-ode,
264012,NG,16,Sango-otta,
264013,NG,54,Offa,
264014,NG,21,Etinan,
264015,NG,48,Iseoluwa,
264016,NG,51,Maradi,
264017,NG,24,Juba,
264018,NG,45,Abia,
264019,NG,41,Anambra,
264020,NG,26,Benue,
264021,NG,25,Okija,
264022,NG,55,Maro,
264023,NG,56,Karshi,
264024,NG,43,Dori,
264025,NG,26,Awena,
264026,NG,37,Ogun,
264027,NG,48,Okitipupa,
264028,NG,31,Kwamba,
264029,NG,28,Oguta,
264030,NG,28,Ogba,
264031,NG,36,Ughelli,
264032,NG,39,Roni,
264033,NG,32,Ogbomoso,
264034,NG,50,Omoku,
264035,NG,48,Ikare,
264036,NG,22,Egbe,
264037,NG,24,Funtua,
264038,NG,37,Otta,
264039,NG,48,Ifetedo,
264040,NG,25,Igbo,
264041,NG,54,Iragbiji,
264042,NG,28,Umudike,
264043,NG,21,North,
264044,NG,21,Okuko,
264045,NG,54,Oke Ila,
264046,NG,39,Birnin Kudu,
264047,NG,31,Sofia,
264048,NG,50,Elele,
264049,NG,50,Abua,
264050,NG,36,Ogwashi-uku,
264051,NG,21,Oron,
264052,NG,50,Onne,
264053,NG,21,Eket,
264054,NG,37,Ota,
264055,NG,25,Enugwu-ukwu,
264056,NG,54,Ilupeju,
264057,NG,50,Akinima,
264058,NG,5,Isasi,
264059,NG,36,Umutu,
264060,NG,36,Ekpan,
264061,NG,36,Agbor,
264062,NG,31,New-bussa,
264063,NG,39,Jahun,
264064,NG,50,Egbeda,
264065,NG,25,Ihiala,
264066,NG,54,Pategi,
264067,NG,37,Igieduma,
264068,NG,26,Ugobo,
264069,NG,56,Toto,
264070,NG,27,Wakama,
264071,NG,35,Mada,
264072,NG,41,Iyara,
264073,NG,41,Kabba,
264074,NG,25,Amobia,
264075,NG,5,Magodo,
264076,NG,25,Adazi,
264077,NG,28,Ogwa,
264078,NG,36,Ubulu-uku,
264079,NG,29,Sabon Gari,
264080,NG,5,Mushin Halt,
264081,NG,5,Ijesa-tedo,
264082,NG,41,Egume,
264083,NG,32,Gbede,
264084,NG,41,Akpanya,
264085,NG,26,Kwande,
264086,NG,57,Dikko,
264087,NG,29,Gulu,
264088,NG,11,Karumo,
264089,NG,42,Erin,
264090,NG,22,Otukpo,
264091,NG,5,Hausa,
264092,NG,48,Idanre,
264093,NG,54,Omupo,
264094,NG,41,Imane,
264095,NG,16,Ogijo,
264096,NG,31,Zungeru,
264097,NG,47,Enuga,
264098,NG,31,New Bussa,
264099,NG,31,Kontagora,
264100,NG,37,Auchi,
264101,NG,50,Okirika,
264102,NG,37,Uromi,
264103,NG,32,Apete,
264104,NG,52,Brass,
264105,NG,5,Poka,
