locId,country,region,city,postcode
268915,NO,,,
268916,NO,20,Horten,
268917,NO,1,Lysaker,
268918,NO,12,Oslo,
268919,NO,1,Lillestrøm,
268920,NO,7,Bergen,
268921,NO,1,Asker,
268922,NO,1,Drøbak,
268923,NO,13,Moss,
268924,NO,17,Rjukan,
268925,NO,20,Tjøme,
268926,NO,13,Fredrikstad,
268927,NO,13,Gressvik,
268928,NO,13,Halden,
268929,NO,14,Stavanger,
268930,NO,16,Trondheim,
268931,NO,19,Mandal,
268932,NO,18,Tromsø,
268933,NO,16,Skaun,
268934,NO,1,Stabekk,
268935,NO,18,Sandvika,
268936,NO,15,Florø,
268937,NO,1,Skedsmokorset,
268938,NO,10,Steinkjer,
268939,NO,16,Orkanger,
268940,NO,7,Odda,
268941,NO,16,Tiller,
268942,NO,10,Namsos,
268943,NO,10,Levanger,
268944,NO,16,Melhus,
268945,NO,19,Kristiansand,
268946,NO,9,Fjelldal,
268947,NO,9,Bodø,
268948,NO,14,Håland,
268949,NO,2,Grimstad,
268950,NO,7,Lier,
268951,NO,7,Heldal,
268952,NO,2,Arendal,
268953,NO,1,Fornebu,
268954,NO,14,Hommersåk,
268955,NO,19,Kvinesdal,
268956,NO,8,Molde,
268957,NO,6,Kongsvinger,
268958,NO,6,Hamar,
268959,NO,13,Borregaard,
268960,NO,1,Kolbotn,
268961,NO,20,Sandefjord,
268962,NO,8,Ørsta,
268963,NO,11,Haug,
268964,NO,1,Årnes,
268965,NO,1,Skytta,
268966,NO,20,Tønsberg,
268967,NO,4,Nersnes,
268968,NO,4,Kongsberg,
268969,NO,1,Strømmen,
268970,NO,9,Skog,
268971,NO,4,Drammen,
268972,NO,9,Sandnes,
268973,NO,11,Gjøvik,
268974,NO,1,Hemnes,
268975,NO,17,Porsgrunn,
268976,NO,17,Notodden,
268977,NO,14,Forus,
268978,NO,9,Melbu,
268979,NO,7,Mongstad,
268980,NO,1,Hvalstad,
268981,NO,1,Skaarer,
268982,NO,9,Nordnes,
268983,NO,20,Larvik,
268984,NO,5,Hammerfest,
268985,NO,5,Alta,
268986,NO,1,Langhus,
268987,NO,8,Ikornnes,
268988,NO,7,Isdalstø,
268989,NO,8,Ålesund,
268990,NO,8,Stranda,
268991,NO,8,Hjellnes,
268992,NO,8,Kristiansund,
268993,NO,7,Tyssedal,
268994,NO,8,Aalesund,
268995,NO,9,Narvik,
268996,NO,14,Tysvær,
268997,NO,17,Drangedal,
268998,NO,16,Klepp,
268999,NO,14,Tananger,
269000,NO,11,Fagernes,
269001,NO,14,Egersund,
269002,NO,7,Førde,
269003,NO,14,Sola,
269004,NO,14,Haugesund,
269005,NO,14,Sauda,
269006,NO,15,Selje,
269007,NO,7,Sagvåg,
269008,NO,9,Brønnøysund,
269009,NO,11,Bakken,
269010,NO,8,Løvik,
269011,NO,17,Bamble,
269012,NO,1,Høvik,
269013,NO,4,Hokksund,
269014,NO,14,Figgjo,
269015,NO,9,Fauske,
269016,NO,7,Fitjar,
269017,NO,4,Mjøndalen,
269018,NO,1,Skårer,
269019,NO,11,Gran,
269020,NO,11,Leira,
269021,NO,11,Lena,
269022,NO,4,Tofte,
269023,NO,4,Hønefoss,
269024,NO,15,Hermansverk,
269025,NO,1,Heggedal,
269026,NO,13,Sarpsborg,
269027,NO,5,Kirkenes,
269028,NO,17,Grini,
269029,NO,18,Finnsnes,
269030,NO,9,Sandnessjøen,
269031,NO,11,Lillehammer,
269032,NO,1,Gardermoen,
269033,NO,17,Bø I Telemark,
269034,NO,18,Harstad,
269035,NO,5,Vadsø,
269036,NO,8,Tingvoll,
269037,NO,5,Kautokeino,
269038,NO,20,Stavern,
269039,NO,13,Mørkved,
269040,NO,9,Sortland,
269041,NO,8,Åndalsnes,
269042,NO,14,Fosen,
269043,NO,9,Sandåker,
269044,NO,1,Nesbru,
269045,NO,7,Nygaard,
269046,NO,1,Oppegaard,
269047,NO,8,Farstad,
269048,NO,7,Laksevåg,
269049,NO,17,Rollag,
269050,NO,11,Holmen,
269051,NO,18,Tromsdalen,
269052,NO,9,Åker,
269053,NO,15,Lefdal,
269054,NO,13,Bergstrøm,
269055,NO,19,Lyngdal,
269056,NO,7,Gjerde,
269057,NO,12,Økern,
269058,NO,2,Lillesand,
269059,NO,13,Rygge,
269060,NO,7,Straumsgrend,
269061,NO,16,Ström,
269062,NO,12,Nydalen,
269063,NO,20,Sande,
269064,NO,4,Nærsnes,
269065,NO,4,Vikersund,
269066,NO,4,Prestfoss,
269067,NO,14,Gard,
269068,NO,7,Nesttun,
269069,NO,6,Nören,
269070,NO,7,Haukeland,
269071,NO,7,Ervik,
269072,NO,7,Minde,
269073,NO,20,Stokke,
269074,NO,17,Stathelle,
269075,NO,10,Meråker,
269076,NO,16,Brekstad,
269077,NO,7,Lerøy,
269078,NO,1,Hakadal,
269079,NO,8,Brattvåg,
269080,NO,10,Lyng,
269081,NO,6,Grønland,
269082,NO,19,Hunsfos,
269083,NO,17,Skien,
269084,NO,14,Obrestad,
269085,NO,8,Bjerke,
269086,NO,13,Askim,
269087,NO,7,Bønes,
269088,NO,15,Gulen,
269089,NO,15,Hærland,
269090,NO,18,Dåfjord,
269091,NO,18,Holm,
269092,NO,20,Halle,
269093,NO,4,Nesbyen,
269094,NO,7,Askøy,
269095,NO,10,Namsskogan,
269096,NO,8,Ulsteinvik,
269097,NO,11,Eina,
269098,NO,11,Bryn,
269099,NO,6,Skarnes,
269100,NO,18,Skibotn,
269101,NO,6,Våler,
269102,NO,9,Nyborg,
269103,NO,5,Loppa,
269104,NO,9,Mo I Rana,
269105,NO,6,Moelv,
269106,NO,15,Laerdal,
269107,NO,16,Hågån,
269108,NO,15,Stryn,
269109,NO,9,Berg,
269110,NO,7,Dale,
269111,NO,16,Gaustad,
269112,NO,17,Meldal,
269113,NO,2,Fevik,
269114,NO,2,Tvedestrand,
269115,NO,2,Brattekleiv,
269116,NO,7,Ølen,
269117,NO,4,Geilo,
269118,NO,8,Sollia,
269119,NO,18,Solbakken,
269120,NO,11,Kleven,
269121,NO,6,Gaupen,
269122,NO,1,Kjeller,
269123,NO,2,Eikeland,
269124,NO,10,Oppland,
269125,NO,9,Nordland,
269126,NO,19,Åseral,
269127,NO,8,Skipnes,
269128,NO,7,Haga,
269129,NO,7,Knarrevik,
269130,NO,14,Leidland,
269131,NO,8,Fosnavåg,
269132,NO,2,Hövaag,
269133,NO,1,Ryen,
269134,NO,6,Elverum,
269135,NO,17,Langesund,
269136,NO,1,Jessheim,
269137,NO,14,Randaberg,
269138,NO,17,Siljan,
269139,NO,7,Skeie,
269140,NO,17,Våle,
269141,NO,1,Aurskog,
269142,NO,11,Sogn,
269143,NO,20,Tanum,
269144,NO,9,Råna,
269145,NO,4,Land,
269146,NO,7,Ulvik,
269147,NO,11,Jevnaker,
269148,NO,7,Vika,
269149,NO,19,Vigeland,
269150,NO,9,Strand,
269151,NO,7,Blom,
269152,NO,6,Brumunddal,
269153,NO,6,Sand,
269154,NO,10,Kolvereid,
269155,NO,17,Haugen,
269156,NO,9,Nesna,
269157,NO,7,Leirvik,
269158,NO,12,Kristiania,
269159,NO,20,Holmestrand,
269160,NO,18,Kroken,
269161,NO,6,Rena,
269162,NO,9,Myre,
269163,NO,8,Skodje,
269164,NO,16,Oppdal,
269165,NO,9,Liland,
269166,NO,20,From,
269167,NO,1,Vestby,
269168,NO,19,Herad,
269169,NO,4,Nedre Eiker,
269170,NO,16,Malvik,
269171,NO,1,Frogner,
269172,NO,4,Aamot,
269173,NO,17,Åmot,
269174,NO,4,Hemsedal,
269175,NO,1,Lund,
269176,NO,7,Erstad,
269177,NO,16,Fossum,
269178,NO,8,Ödegaard,
269179,NO,8,Volda,
269180,NO,5,Storelva,
269181,NO,16,Hitra,
269182,NO,10,Stiklestad,
269183,NO,7,Vinje,
269184,NO,8,Eidsvåg,
269185,NO,19,Vennesla,
269186,NO,15,Lardal,
269187,NO,9,Bjørn,
269188,NO,17,Berge,
269189,NO,6,Ringsaker,
269190,NO,18,Fredheim,
269191,NO,9,Mølle,
269192,NO,13,Spydeberg,
269193,NO,16,Rennebu,
269194,NO,6,Sønsterud,
269195,NO,8,Holberg,
269196,NO,18,Vang,
269197,NO,7,Klyve,
269198,NO,7,Seim,
269199,NO,1,Oppegård,
269200,NO,15,Kvammen,
269201,NO,9,Lødingen,
269202,NO,16,Malnes,
269203,NO,14,Bryne,
269204,NO,14,Reime,
269205,NO,14,Time,
269206,NO,11,Jaren,
269207,NO,7,Solvang,
269208,NO,16,Berget,
269209,NO,19,Kjevik,
269210,NO,17,Kragerø,
269211,NO,19,Sirdal,
269212,NO,16,Løkken Verk,
269213,NO,7,Garden,
269214,NO,14,Kopervik,
269215,NO,18,Kåfjord,
269216,NO,1,Solberg,
269217,NO,10,Aarstad,
269218,NO,6,Skotterud,
269219,NO,6,Ringnes,
269220,NO,16,Kjerringvaag,
269221,NO,16,Heimdal,
269222,NO,20,Holtung,
269223,NO,8,Frei,
269224,NO,18,Viken,
269225,NO,9,Straume,
269226,NO,4,Veggli,
269227,NO,7,Kolbeinsvik,
269228,NO,7,Leknes,
269229,NO,19,Høye,
269230,NO,1,Sandvik,
269231,NO,7,Søvik,
269232,NO,15,Ringstad,
269233,NO,10,Rørvik,
269234,NO,15,Fonn,
269235,NO,5,Nesseby,
269236,NO,9,Lekang,
269237,NO,1,Nesoddtangen,
269238,NO,17,Eidanger,
269239,NO,9,Svolvær,
269240,NO,14,Apeland,
269241,NO,5,Klubben,
269242,NO,7,Vaage,
269243,NO,14,Vaaland,
269244,NO,16,Monstad,
269245,NO,1,Klofta,
269246,NO,13,Dilling,
269247,NO,11,Lunde,
269248,NO,7,Masfjorden,
269249,NO,20,Galleberg,
269250,NO,5,Båtsfjord,
269251,NO,15,Øvre Årdal,
269252,NO,9,Andenes,
269253,NO,11,Dokka,
269254,NO,6,Skaaret,
269255,NO,6,Tynset,
269256,NO,7,Bjørge,
269257,NO,17,Fyresdal,
269258,NO,9,Furnes,
269259,NO,19,Nodeland,
269260,NO,13,Sellebakk,
269261,NO,8,Sunndalsøra,
269262,NO,7,Innbjoa,
269263,NO,9,Moskenes,
269264,NO,18,Tomasjord,
269265,NO,12,Christiania,
269266,NO,2,Risør,
269267,NO,14,Bjerkreim,
269268,NO,16,Hagen,
269269,NO,5,Mefjorden,
269270,NO,6,Siggerud,
269271,NO,16,Øvre,
269272,NO,5,Lakselv,
269273,NO,6,Stange,
269274,NO,9,Dyrøy,
269275,NO,14,Hanasand,
269276,NO,15,Balestrand,
269277,NO,18,Skogen,
269278,NO,11,Randsfjord,
269279,NO,11,Vinstra,
269280,NO,10,Berre,
269281,NO,10,Östnes,
269282,NO,11,Hunndalen,
269283,NO,19,Øvrebø,
269284,NO,14,Eike,
269285,NO,14,Hagland,
269286,NO,6,Løten,
269287,NO,13,Borge,
269288,NO,8,Solem,
269289,NO,14,Bilstad,
269290,NO,16,Lines,
269291,NO,1,Aarnes,
269292,NO,16,Hommelvik,
269293,NO,16,Fremstad,
269294,NO,16,Moholt,
269295,NO,17,Setre,
269296,NO,10,Henning,
269297,NO,19,Strømme,
269298,NO,9,Sommernes,
269299,NO,13,Lervik,
269300,NO,10,Velde,
269301,NO,18,Bankenes,
269302,NO,16,Bjerkan,
269303,NO,4,Slemmestad,
269304,NO,14,Lyse,
269305,NO,4,Buskerud,
269306,NO,6,Jordet,
269307,NO,6,Skramstad,
269308,NO,11,Haugan,
269309,NO,7,Aase,
269310,NO,8,Haram,
269311,NO,9,Terråk,
269312,NO,7,Haukås,
269313,NO,4,Røyken,
269314,NO,18,Nordstrand,
269315,NO,18,Gamvik,
269316,NO,13,Mysen,
269317,NO,11,Knutstad,
269318,NO,18,Grønli,
269319,NO,7,Meland,
269320,NO,19,Aukland,
269321,NO,12,Lambertseter,
269322,NO,16,Holden,
269323,NO,17,Moland,
269324,NO,1,Feiring,
269325,NO,7,Skår,
269326,NO,7,Nordbø,
269327,NO,9,Hunstad,
269328,NO,1,Hammerstad,
269329,NO,16,Dyrvik,
269330,NO,15,Myklebust,
269331,NO,8,Valderhaug,
269332,NO,7,Tveito,
269333,NO,7,Kleppe,
269334,NO,17,Sannidal,
269335,NO,7,Nygård,
269336,NO,9,Engen,
269337,NO,1,Vaaler,
269338,NO,7,Økland,
269339,NO,8,Ødegård,
269340,NO,2,Birkeland,
269341,NO,7,Nøttveit,
269342,NO,18,Solli,
269343,NO,9,Hald,
269344,NO,7,Eidsvik,
269345,NO,18,Öystein,
269346,NO,15,Onstad,
269347,NO,15,Aardal,
269348,NO,7,Hovland,
269349,NO,16,Selvaag,
269350,NO,5,Losvik,
269351,NO,16,Saga,
269352,NO,7,Aasheim,
269353,NO,7,Tysnes,
269354,NO,11,Otta,
269355,NO,4,Vestfossen,
269356,NO,14,Ålgård,
269357,NO,10,Flak,
269358,NO,20,Aamli,
269359,NO,20,Torød,
269360,NO,8,Rimstad,
269361,NO,7,Skansen,
269362,NO,1,Eidsvoll,
269363,NO,5,Sagen,
269364,NO,17,Valler,
269365,NO,16,Kyrksæterøra,
269366,NO,14,Haugaland,
269367,NO,18,Bjorvik,
269368,NO,18,Storli,
269369,NO,18,Storvik,
269370,NO,18,Ramberg,
269371,NO,8,Glåmen,
269372,NO,4,Hoff,
269373,NO,18,Moen,
269374,NO,2,Kolbjørnsvik,
269375,NO,10,Håmstad,
269376,NO,5,Brenne,
269377,NO,17,Holte,
269378,NO,6,Råstad,
269379,NO,2,Odden,
269380,NO,15,Yndestad,
269381,NO,9,Røst,
269382,NO,8,Stein,
269383,NO,1,Huseby,
269384,NO,1,Hvitstein,
269385,NO,9,Haukenes,
269386,NO,15,Deknepollen,
269387,NO,6,Svarstad,
269388,NO,11,England,
269389,NO,8,Bjørkedal,
269390,NO,15,Bolstad,
269391,NO,7,Solheim,
269392,NO,19,Foss,
269393,NO,15,Fure,
269394,NO,14,Hauge,
269395,NO,14,Svånes,
269396,NO,9,Mosjøen,
269397,NO,15,Farnes,
269398,NO,11,Enger,
269399,NO,16,Myren,
269400,NO,18,Berglund,
269401,NO,7,Grindheim,
269402,NO,11,Bjørgo,
269403,NO,4,Skretteberg,
269404,NO,7,Kvamme,
269405,NO,14,Hillevåg,
269406,NO,2,Vestöl,
269407,NO,11,Fossheim,
269408,NO,7,Leivestad,
269409,NO,8,Midbø,
269410,NO,10,Höstland,
269411,NO,7,Hope,
269412,NO,1,Bjørkelangen,
269413,NO,1,Sørumsand,
269414,NO,10,Vardøy,
269415,NO,9,Valberg,
269416,NO,20,Melsomvik,
269417,NO,9,Tjøtta,
269418,NO,4,Lobben,
269419,NO,14,Narbø,
269420,NO,14,Tjelta,
269421,NO,10,Five,
269422,NO,1,Løken,
269423,NO,8,Storeide,
269424,NO,7,Kvalvaag,
269425,NO,7,Godvik,
269426,NO,5,Indre Billefjord,
269427,NO,7,Forland,
269428,NO,9,Søberg,
269429,NO,11,Melby,
269430,NO,11,Hove,
269431,NO,4,Slåtto,
269432,NO,8,Sevik,
269433,NO,7,Skurtveit,
269434,NO,14,Høle,
269435,NO,8,Finnøy,
269436,NO,7,Helland,
269437,NO,11,Lien,
269438,NO,6,Neby,
269439,NO,1,Brustad,
269440,NO,15,Tjønneland,
269441,NO,15,Lerheim,
269442,NO,7,Alvheim,
269443,NO,6,Trøan,
269444,NO,14,Nærbø,
269445,NO,7,Bakke,
269446,NO,8,Sylte,
269447,NO,16,Flatnes,
269448,NO,18,Nordby,
269449,NO,18,Gunnestad,
269450,NO,7,Eknes,
269451,NO,19,Frøysland,
269452,NO,7,Åsane,
269453,NO,16,Sörgaard,
269454,NO,10,Klæbu,
269455,NO,10,Hjelle,
269456,NO,8,Dyrkorn,
269457,NO,7,Nesheim,
269458,NO,17,Kviteseid,
269459,NO,4,Tranby,
269460,NO,7,Hjelmaas,
269461,NO,7,Ulven,
269462,NO,10,Nustad,
269463,NO,8,Aune,
269464,NO,6,Alvdal,
269465,NO,15,Nistad,
269466,NO,10,Stordal,
269467,NO,8,Brunstad,
269468,NO,8,Hundeidvik,
269469,NO,14,Kolnes,
269470,NO,9,Valvik,
269471,NO,8,Tomra,
269472,NO,4,Krokstadelva,
269473,NO,20,Nøtterøy,
269474,NO,19,Netland,
269475,NO,8,Voll,
269476,NO,18,Lenvik,
269477,NO,12,Bygdö,
269478,NO,15,Årdal,
269479,NO,10,Elnan,
269480,NO,7,Haugland,
269481,NO,8,Husby,
269482,NO,5,Karasjok,
269483,NO,15,Gloppen,
269484,NO,11,Rosten,
269485,NO,16,Bekken,
269486,NO,13,Langli,
269487,NO,7,Knarvik,
269488,NO,13,Heer,
269489,NO,8,Steinshamn,
269490,NO,18,Rustad,
269491,NO,16,Kvaal,
269492,NO,10,Skorstad,
269493,NO,7,Sunde,
269494,NO,16,Røstad,
269495,NO,18,Elvemo,
269496,NO,4,Saastad,
269497,NO,11,Olstad,
269498,NO,14,Østerhus,
269499,NO,7,Raknes,
269500,NO,18,Vågen,
269501,NO,9,Leitet,
269502,NO,7,Rosendal,
269503,NO,8,Torset,
269504,NO,12,Venner,
269505,NO,8,Heggdal,
269506,NO,9,Torget,
269507,NO,12,Klemetsrud,
269508,NO,13,Torp,
269509,NO,18,Grov,
269510,NO,8,Fiksdal,
269511,NO,8,Nerås,
269512,NO,8,Rekdal,
269513,NO,8,Vikebukt,
269514,NO,8,Vestnes,
269515,NO,7,Veland,
269516,NO,18,Sandöy,
269517,NO,7,Dyrdal,
269518,NO,1,Hølen,
269519,NO,18,Soløy,
269520,NO,7,Bremnes,
269521,NO,10,Laugen,
269522,NO,11,Bjørnstad,
269523,NO,7,Huse,
269524,NO,7,Vestbøstad,
269525,NO,1,Lystad,
269526,NO,7,Aasen,
269527,NO,7,Odland,
269528,NO,15,Tønjum,
269529,NO,16,Grostad,
269530,NO,12,Holmenkollen,
269531,NO,8,Vatne,
269532,NO,11,Ringebu,
269533,NO,8,Vågsøy,
269534,NO,7,Aadland,
269535,NO,9,Høydal,
269536,NO,16,Røros,
269537,NO,8,Roald,
269538,NO,11,Fossen,
269539,NO,8,Volden,
269540,NO,5,Eide,
269541,NO,17,Øverland,
269542,NO,7,Matre,
269543,NO,7,Mjøs,
269544,NO,7,Framnes,
269545,NO,9,Selstad,
269546,NO,6,Gulli,
269547,NO,15,Oppedal,
269548,NO,11,Odlo,
269549,NO,7,Gjervik,
269550,NO,7,Loddefjord,
269551,NO,8,Hjørungavåg,
269552,NO,2,Kleveland,
269553,NO,5,Trollfjord,
269554,NO,14,Rettedal,
269555,NO,8,Korshavn,
269556,NO,1,Breidvik,
269557,NO,14,Soma,
269558,NO,10,Romstad,
269559,NO,8,Gjendem,
269560,NO,7,Totland,
269561,NO,7,Lonevåg,
269562,NO,4,Hvål,
269563,NO,7,Storheim,
269564,NO,15,Berle,
269565,NO,7,Haukaas,
269566,NO,6,Trysil,
269567,NO,1,Blakstad,
269568,NO,8,Hustad,
269569,NO,8,Ulstein,
269570,NO,14,Stangeland,
269571,NO,4,Opheim,
269572,NO,7,Skutle,
269573,NO,14,Falkeid,
269574,NO,20,Rolvsøy,
269575,NO,7,Lunden,
269576,NO,17,Løberg,
269577,NO,7,Bruvik,
269578,NO,20,Berger,
269579,NO,17,Rørholt,
269580,NO,19,Helleren,
269581,NO,6,Digernes,
269582,NO,7,Øvstebø,
269583,NO,7,Mjelstad,
269584,NO,6,Moan,
269585,NO,14,Kolstø,
269586,NO,8,Lesund,
269587,NO,10,Jørstad,
269588,NO,16,Eggen,
269589,NO,7,Florvåg,
269590,NO,7,Sandvoll,
269591,NO,7,Husa,
269592,NO,13,Brekke,
269593,NO,18,Nymoen,
269594,NO,18,Breivik,
269595,NO,19,Tveit,
269596,NO,9,Støver,
269597,NO,7,Gjøvåg,
269598,NO,7,Årvik,
269599,NO,7,Landro,
269600,NO,10,Fikse,
269601,NO,16,Lade,
269602,NO,7,Espeland,
269603,NO,16,Evjen,
269604,NO,15,Loen,
269605,NO,7,Hamre,
269606,NO,20,Styrvoll,
269607,NO,20,Tufte,
269608,NO,8,Hol,
269609,NO,13,Tomter,
269610,NO,16,Opdal,
269611,NO,7,Frøland,
269612,NO,6,Höie,
269613,NO,7,Digranes,
269614,NO,15,Kyrkjebø,
269615,NO,7,Øystese,
269616,NO,8,Mittet,
269617,NO,7,Ågotnes,
269618,NO,6,Ottestad,
269619,NO,8,Sletten,
269620,NO,4,Kjølstad,
269621,NO,9,Remmen,
269622,NO,7,Mellingen,
269623,NO,19,Søyland,
269624,NO,14,Austrheim,
269625,NO,7,Bernes,
269626,NO,14,Mjølhus,
269627,NO,9,Liljedal,
269628,NO,7,Tunes,
269629,NO,8,Bolgen,
269630,NO,7,Storebö,
269631,NO,7,Kvingedal,
269632,NO,10,Mona,
269633,NO,19,Lone,
269634,NO,11,Oppsal,
269635,NO,10,Rønningen,
269636,NO,11,Kvam,
269637,NO,8,Settem,
269638,NO,14,Tveita,
269639,NO,9,Nøss,
269640,NO,12,Slemdal,
269641,NO,1,Sørum,
269642,NO,8,Kvalvåg,
269643,NO,19,Søgne,
269644,NO,7,Aarland,
269645,NO,6,Tangen,
269646,NO,4,Geithus,
269647,NO,7,Holme,
269648,NO,11,Kolo,
269649,NO,16,Nidaros,
269650,NO,15,Åsmul,
269651,NO,17,Solum,
269652,NO,1,Sundby,
269653,NO,15,Flekke,
269654,NO,7,Fauskanger,
269655,NO,9,Hellevik,
269656,NO,17,Brevik,
269657,NO,9,Hanö,
269658,NO,11,Hovde,
269659,NO,1,Borgen,
269660,NO,19,Sør-audnedal,
269661,NO,7,Urdal,
269662,NO,18,Vågan,
269663,NO,12,Ekeberg,
269664,NO,7,Vaagen,
269665,NO,14,Haaland,
269666,NO,16,Skau,
269667,NO,8,Rör,
269668,NO,19,Aasland,
269669,NO,7,Våge,
269670,NO,15,Bygstad,
269671,NO,8,Leikanger,
269672,NO,14,Fröiland,
269673,NO,20,Kvelde,
269674,NO,8,Kvande,
269675,NO,14,Varhaug,
269676,NO,14,Jøssang,
269677,NO,6,Bjørnåsen,
269678,NO,19,Flekkefjord,
269679,NO,6,Aasnes,
269680,NO,18,Skagen,
269681,NO,20,Nordal,
269682,NO,9,Kabelvaag,
269683,NO,1,Gjerdrum,
269684,NO,1,Haver,
269685,NO,10,Okkenhaug,
269686,NO,4,Holmsbu,
269687,NO,9,Rognan,
269688,NO,7,Lavik,
269689,NO,11,Mork,
269690,NO,9,Ramnes,
269691,NO,13,Skjeberg,
269692,NO,16,Teigen,
269693,NO,20,Barkåker,
269694,NO,19,Strai,
269695,NO,14,Stapnes,
269696,NO,15,Vangsnes,
269697,NO,5,Fagerhaug,
269698,NO,9,Öien,
269699,NO,6,Storsveen,
269700,NO,10,Ofstad,
269701,NO,7,Håheim,
269702,NO,1,Stensby,
269703,NO,16,Hovin,
269704,NO,16,Resell,
269705,NO,15,Måløy,
269706,NO,7,Hopland,
269707,NO,14,Helgeland,
269708,NO,9,Bolle,
269709,NO,6,Fåberg,
269710,NO,15,Marifjora,
269711,NO,17,Bolkesjø,
269712,NO,7,Bjelland,
269713,NO,7,Steine,
269714,NO,11,Dovre,
269715,NO,14,Storhaug,
269716,NO,7,Sandviken,
269717,NO,18,Heggen,
269718,NO,7,Misje,
269719,NO,13,Greåker,
269720,NO,7,Hjelmeland,
269721,NO,11,Strande,
269722,NO,9,Torsvik,
269723,NO,11,Dalby,
269724,NO,9,Ørnes,
269725,NO,7,Drange,
269726,NO,18,Lilleng,
269727,NO,18,Sandtorv,
269728,NO,16,Lian,
269729,NO,8,Norddal,
269730,NO,20,Nykirke,
269731,NO,7,Neset,
269732,NO,8,Fjertoft,
269733,NO,1,Fjell,
269734,NO,17,Bjåland,
269735,NO,13,Rød,
269736,NO,9,Baustad,
269737,NO,20,Åsgårdstrand,
269738,NO,1,Asak,
269739,NO,7,Helle,
269740,NO,8,Aure,
269741,NO,7,Njåstad,
269742,NO,6,Rognstad,
269743,NO,7,Vaksdal,
269744,NO,15,Sørbø,
269745,NO,7,Bjørsvik,
269746,NO,16,Gjønnes,
269747,NO,2,Gjerstad,
269748,NO,16,Hernes,
269749,NO,14,Aalgaard,
269750,NO,18,Haugli,
269751,NO,1,Langerud,
269752,NO,10,Vikdal,
269753,NO,10,Hammer,
269754,NO,18,Finnjord,
269755,NO,16,Kyrkseterøra,
269756,NO,9,Stokmarknes,
269757,NO,7,Norheimsund,
269758,NO,16,Nordtømme,
269759,NO,19,Vaardal,
269760,NO,7,Manger,
269761,NO,7,Smørås,
269762,NO,8,Fjer,
269763,NO,10,Borgund,
269764,NO,7,Spjeld,
269765,NO,4,Svensrud,
269766,NO,20,Svelvik,
269767,NO,15,Hestad,
269768,NO,8,Lovold,
269769,NO,17,Stavdal,
269770,NO,18,Nergaard,
269771,NO,15,Nordfjordeid,
269772,NO,19,Mosby,
269773,NO,14,Skudeneshavn,
269774,NO,18,Övergaard,
269775,NO,17,Seljord,
269776,NO,2,Bygland,
269777,NO,19,Byremo,
269778,NO,7,Follese,
269779,NO,7,Mele,
269780,NO,7,Askeland,
269781,NO,13,Tistedal,
269782,NO,7,Hetlevik,
269783,NO,6,Sagbakken,
269784,NO,7,Indre Arna,
269785,NO,7,Åsheim,
269786,NO,8,Stokkan,
269787,NO,9,Skaga,
269788,NO,9,Bjerkvik,
269789,NO,1,Finstad,
269790,NO,18,Mjelde,
269791,NO,7,Arna,
269792,NO,9,Stokka,
269793,NO,9,Skeid,
269794,NO,7,Elde,
269795,NO,4,Stavn,
269796,NO,17,Asdal,
269797,NO,7,Brakstad,
269798,NO,18,Holt,
269799,NO,18,Setermo,
269800,NO,8,Rören,
269801,NO,11,Brandbu,
269802,NO,15,Skjolden,
269803,NO,15,Midtbö,
269804,NO,10,Elden,
269805,NO,16,Sistranda,
269806,NO,7,Solsvik,
269807,NO,10,Hammeren,
269808,NO,11,Garder,
269809,NO,6,Nord-odal,
269810,NO,7,Tysse,
269811,NO,19,Farsund,
269812,NO,2,Taule,
269813,NO,16,Sund,
269814,NO,7,Hjelvik,
269815,NO,14,Sporaland,
269816,NO,6,Bekkelaget,
269817,NO,10,Holvik,
269818,NO,8,Orvik,
269819,NO,13,Kambo,
269820,NO,2,Bykle,
269821,NO,10,Snåsa,
269822,NO,14,Jørpeland,
269823,NO,17,Heistad,
269824,NO,6,Sander,
269825,NO,7,Dåvøy,
269826,NO,16,Ranheim,
269827,NO,14,Kvassheim,
269828,NO,8,Aalmo,
269829,NO,16,Hellandsjö,
269830,NO,17,Setane,
269831,NO,18,Bjørnøy,
269832,NO,13,Utgaard,
269833,NO,2,Opstad,
269834,NO,18,Haugnes,
269835,NO,15,Kråkenes,
269836,NO,8,Øygarden,
269837,NO,7,Alsåker,
269838,NO,10,Klev,
269839,NO,7,Strusshamn,
269840,NO,9,Godøynes,
269841,NO,6,Magnor,
269842,NO,2,Evje,
269843,NO,5,Valle,
269844,NO,19,Iveland,
269845,NO,11,Nord-fron,
269846,NO,11,Sør-fron,
269847,NO,9,Kabelvåg,
269848,NO,19,Kvåle,
269849,NO,9,Haugvik,
269850,NO,18,Øverli,
269851,NO,14,Hognestad,
269852,NO,7,Stend,
269853,NO,2,Hovden,
269854,NO,9,Grytting,
269855,NO,8,Grip,
269856,NO,1,Hakedal,
269857,NO,7,Hjartåker,
269858,NO,16,Hegset,
269859,NO,13,Lundeby,
269860,NO,7,Landås,
269861,NO,4,Steinberg,
269862,NO,7,Utne,
269863,NO,18,Tverdal,
269864,NO,17,Forberg,
269865,NO,7,Løyning,
269866,NO,15,Fosse,
269867,NO,7,Davanger,
269868,NO,6,Stai,
269869,NO,7,Hundvin,
269870,NO,19,Kile,
269871,NO,10,Bratland,
269872,NO,9,Horvik,
269873,NO,7,Molland,
269874,NO,11,Dombås,
269875,NO,7,Meling,
269876,NO,7,Klokkarvik,
269877,NO,15,Tero,
269878,NO,1,Vollebekk,
269879,NO,13,Ørje,
269880,NO,14,Klepp Stasjon,
269881,NO,9,Korsvik,
269882,NO,18,Greipstad,
269883,NO,18,Haukebø,
269884,NO,16,Bjørgen,
269885,NO,7,Rødland,
269886,NO,16,Flaa,
269887,NO,7,Eikelandsosen,
269888,NO,9,Terraak,
269889,NO,9,Bogen,
269890,NO,15,Barmen,
269891,NO,7,Austevoll,
269892,NO,19,Konsmo,
269893,NO,4,Modalen,
269894,NO,20,Brunlanes,
269895,NO,18,Innset,
269896,NO,6,Mora,
269897,NO,15,Leknessund,
269898,NO,7,Rosland,
269899,NO,1,Sandum,
269900,NO,1,Fetsund,
269901,NO,16,Almås,
269902,NO,4,Svenkerud,
269903,NO,1,Hasle,
269904,NO,10,Støa,
269905,NO,16,Grande,
269906,NO,9,Skille,
269907,NO,17,Etland,
269908,NO,2,Askland,
269909,NO,6,Ilseng,
269910,NO,7,Sandven,
269911,NO,1,Haslum,
269912,NO,7,Sundnes,
269913,NO,9,Strømsnes,
269914,NO,7,Stamnes,
269915,NO,18,Nordfjord,
269916,NO,15,Holmöy,
269917,NO,15,Hoddevik,
269918,NO,15,Sandane,
269919,NO,4,Grefsrud,
269920,NO,15,Raudeberg,
269921,NO,15,Bryggja,
269922,NO,6,Tingstad,
269923,NO,9,Strömnes,
269924,NO,7,Fonnes,
269925,NO,1,Åneby,
269926,NO,7,Hjelmås,
269927,NO,10,Kopperaa,
269928,NO,8,Meisingset,
269929,NO,8,Vegsund,
269930,NO,7,Eidfjord,
269931,NO,7,Garnes,
269932,NO,8,Røvik,
269933,NO,15,Gjelsvik,
269934,NO,14,Sokndal,
269935,NO,19,Röyland,
269936,NO,7,Aastveit,
269937,NO,7,Svenheim,
269938,NO,17,Sannes,
269939,NO,19,Valand,
269940,NO,7,Rondestveit,
269941,NO,14,Espevik,
269942,NO,8,Larsnes,
269943,NO,8,Aarö,
269944,NO,16,Muruvik,
269945,NO,9,Lövdal,
269946,NO,7,Kollstad,
269947,NO,7,Viki,
269948,NO,7,Gjuvsland,
269949,NO,4,Hovet,
269950,NO,16,Trondhjem,
269951,NO,4,Engene,
269952,NO,7,Tjeldstø,
269953,NO,2,Trydal,
269954,NO,19,Kvåvik,
269955,NO,4,Slaatto,
269956,NO,9,Rødøy,
269957,NO,16,Garberg,
269958,NO,9,Meløy,
269959,NO,11,Skogstad,
269960,NO,9,Tranøy,
269961,NO,14,Fjetland,
269962,NO,18,Skjervik,
269963,NO,19,Hille,
269964,NO,18,Mols,
269965,NO,20,Ådne,
269966,NO,9,Sletteng,
269967,NO,1,Stubberud,
269968,NO,1,Leirsund,
269969,NO,16,Haarberg,
269970,NO,10,Falstad,
269971,NO,10,Follafoss,
269972,NO,7,Lonevaag,
269973,NO,9,Arnøy,
269974,NO,8,Brusdal,
269975,NO,17,Tveitan,
269976,NO,19,Dalane,
269977,NO,8,Hellesylt,
269978,NO,14,Byrkjedal,
269979,NO,8,Øverås,
269980,NO,15,Stårheim,
269981,NO,1,Hvam,
269982,NO,8,Nesje,
269983,NO,20,Melsom,
269984,NO,14,Heskestad,
269985,NO,10,Børstad,
269986,NO,17,Dalen,
269987,NO,17,Kjeldal,
269988,NO,8,Skibnes,
269989,NO,18,Steinsvik,
269990,NO,7,Rambjør,
269991,NO,1,Fjeld,
269992,NO,11,Gaarder,
269993,NO,7,Skei,
269994,NO,9,Glomfjord,
269995,NO,16,Stavne,
269996,NO,17,Gransherad,
269997,NO,6,Jølstad,
269998,NO,15,Dalsøyra,
269999,NO,5,Rödmyr,
270000,NO,10,Åsen,
270001,NO,1,Fjellsrud,
270002,NO,4,Sætre,
270003,NO,14,Hebnes,
270004,NO,8,Ørstavik,
270005,NO,16,Gjelbakken,
270006,NO,6,Breen,
270007,NO,20,Jarlsberg,
270008,NO,15,Høyanger,
270009,NO,14,Nesflaten,
270010,NO,19,Ljosland,
270011,NO,8,Sollien,
270012,NO,16,Sørgard,
270013,NO,10,Tronstad,
270014,NO,16,Hestvik,
270015,NO,7,Kleppestø,
270016,NO,16,Hofstad,
270017,NO,14,Sogndal,
270018,NO,8,Slyngstad,
270019,NO,7,Tertnes,
270020,NO,11,Torpa,
270021,NO,16,Opphaug,
270022,NO,1,Haneborg,
270023,NO,8,Kvalsvik,
270024,NO,6,Hanestad,
270025,NO,19,Laudal,
270026,NO,19,Stave,
270027,NO,7,Natås,
270028,NO,14,Sundfør,
270029,NO,11,Veum,
270030,NO,7,Sundal,
270031,NO,17,Ulefoss,
270032,NO,18,Grasmyr,
270033,NO,14,Madla,
270034,NO,10,Øyen,
270035,NO,8,Vold,
270036,NO,11,Raufoss,
270037,NO,14,Soland,
270038,NO,6,Braskereidfoss,
270039,NO,8,Ramstad,
270040,NO,1,Råholt,
270041,NO,19,Handeland,
270042,NO,18,Sørli,
270043,NO,5,Kjøllefjord,
270044,NO,9,Öines,
270045,NO,10,Fjukstad,
270046,NO,16,Eidem,
270047,NO,2,Bråten,
270048,NO,18,Vaagan,
270049,NO,7,Nordvik,
270050,NO,15,Hyllestad,
270051,NO,17,Felle,
270052,NO,7,Bømlo,
270053,NO,12,Bygdøy,
270054,NO,7,Herdla,
270055,NO,8,Korsnes,
270056,NO,7,Knappskog,
270057,NO,7,Kaland,
270058,NO,18,Skjervøy,
270059,NO,7,Foldnes,
270060,NO,7,Lyngbø,
270061,NO,7,Hordvik,
270062,NO,18,Fagerli,
270063,NO,18,Sommarøy,
270064,NO,9,Reine,
270065,NO,8,Kvernes,
270066,NO,11,Bagn,
270067,NO,8,Gjengstö,
270068,NO,18,Røsnes,
270069,NO,15,Natvik,
270070,NO,20,Barkaaker,
270071,NO,18,Movik,
270072,NO,7,Juvik,
270073,NO,9,Frydenlund,
270074,NO,6,Braaten,
270075,NO,1,Lindeberg,
270076,NO,14,Hinna,
270077,NO,7,Ongeltveit,
270078,NO,19,Lista,
270079,NO,18,Sørkjosen,
270080,NO,15,Espedal,
270081,NO,7,Holmefjord,
270082,NO,7,Herdlevær,
270083,NO,18,Botn,
270084,NO,10,Røyrvik,
270085,NO,10,Skogn,
270086,NO,19,Ramsland,
270087,NO,2,Vatnestraum,
270088,NO,19,Brennåsen,
270089,NO,7,Kjerland,
270090,NO,11,Ulvestad,
270091,NO,7,Skoge,
270092,NO,7,Helldal,
270093,NO,19,Fiskå,
270094,NO,16,Marienborg,
270095,NO,2,Åmli,
270096,NO,6,Romedal,
270097,NO,18,Refsnes,
270098,NO,19,Loland,
270099,NO,14,Skjold,
270100,NO,7,Kronstad,
270101,NO,7,Alvøen,
270102,NO,15,Ringereide,
270103,NO,18,Furuflaten,
270104,NO,7,Husebø,
270105,NO,7,Haugsdal,
270106,NO,7,Hanevik,
270107,NO,7,Steinsland,
270108,NO,16,Utro,
270109,NO,7,Nattland,
270110,NO,4,Bårnås,
270111,NO,7,Eidsvaag,
270112,NO,13,Raade,
270113,NO,7,Lindås,
270114,NO,7,Marikoven,
270115,NO,1,Elstad,
270116,NO,10,Dybvad,
270117,NO,10,Øksnes,
270118,NO,7,Salhus,
270119,NO,6,Lina,
270120,NO,18,Sjøvegan,
270121,NO,8,Veblungsnes,
270122,NO,7,Herland,
270123,NO,7,Kyte,
270124,NO,7,Valen,
270125,NO,9,Gravdal,
270126,NO,7,Isdal,
270127,NO,7,Hagavik,
270128,NO,7,Hylkje,
270129,NO,18,Gratangen,
270130,NO,12,Kongshavn,
270131,NO,15,Øvre Aardal,
270132,NO,4,Bragernes,
270133,NO,11,Fjellhaug,
270134,NO,15,Holmedal,
270135,NO,9,Oscarsborg,
270136,NO,14,Skretting,
270137,NO,5,Sortvik,
270138,NO,1,Kjos,
270139,NO,6,Moseng,
270140,NO,15,Kjøde,
270141,NO,16,Straum,
270142,NO,4,Hamremoen,
270143,NO,1,Storbråten,
270144,NO,9,Stavnes,
270145,NO,10,Skogmo,
270146,NO,7,Bergsvik,
270147,NO,7,Kallestad,
270148,NO,14,Åkrehamn,
270149,NO,15,Maurstad,
270150,NO,15,Fresvik,
270151,NO,9,Støtt,
270152,NO,15,Haugsbø,
270153,NO,7,Skare,
270154,NO,6,Nordhagen,
270155,NO,7,Almenningen,
270156,NO,7,Nordheimsund,
270157,NO,7,Erdal,
270158,NO,7,Osøyri,
270159,NO,7,Evanger,
270160,NO,7,Aasane,
270161,NO,7,Frekhaug,
270162,NO,7,Romarheim,
270163,NO,18,Fredriksberg,
270164,NO,19,Aaseral,
270165,NO,15,Rutledal,
270166,NO,10,Malm,
270167,NO,10,Utvik,
270168,NO,5,Bunes,
270169,NO,14,Refsland,
270170,NO,8,Stranden,
270171,NO,19,Vanse,
270172,NO,10,Lerå,
270173,NO,8,Velle,
270174,NO,16,Belle,
270175,NO,13,Vaterland,
270176,NO,12,Grorud,
270177,NO,7,Hornes,
270178,NO,6,Horne,
270179,NO,8,Henden,
270180,NO,17,Rauland,
270181,NO,11,Lunner,
270182,NO,7,Kulleseid,
270183,NO,17,Gautefall,
270184,NO,7,Aakre,
270185,NO,16,Gimle,
270186,NO,7,Hammersland,
270187,NO,14,Bjørheimsbygd,
270188,NO,14,Åmsosen,
270189,NO,16,Sporild,
270190,NO,19,Eiken,
270191,NO,2,Syrtveit,
270192,NO,14,Hageland,
270193,NO,6,Midtskogen,
270194,NO,6,Faaberg,
270195,NO,14,Vigrestad,
270196,NO,7,Kålstad,
270197,NO,13,Krossnes,
270198,NO,19,Vigmostad,
270199,NO,2,Herefoss,
270200,NO,7,Mathopen,
270201,NO,15,Bryggen,
270202,NO,4,Hallingby,
270203,NO,9,Rystad,
270204,NO,6,Dobloug,
270205,NO,5,Svarholt,
270206,NO,16,Lensvik,
270207,NO,15,Frøya,
270208,NO,17,Fagerheim,
270209,NO,9,Hanøy,
270210,NO,10,Stene,
270211,NO,11,Hegge,
270212,NO,7,Eidslandet,
270213,NO,7,Damsgaard,
270214,NO,7,Ytre Arna,
270215,NO,7,Kjøkkelvik,
270216,NO,4,Åros,
270217,NO,7,Risa,
270218,NO,2,Grefstad,
270219,NO,15,Bjordal,
270220,NO,15,Gjengedal,
270221,NO,8,Nerland,
270222,NO,16,Løkken,
270223,NO,18,Stornes,
270224,NO,15,Naustdal,
270225,NO,20,Löve,
270226,NO,14,Hesnes,
270227,NO,7,Nese,
270228,NO,15,Aalfoten,
270229,NO,15,Innvik,
270230,NO,1,Kolsås,
270231,NO,1,Vormsund,
270232,NO,4,Høva,
270233,NO,5,Bossekop,
270234,NO,17,Brekken,
270235,NO,16,Langlo,
270236,NO,13,Kråkerøy,
270237,NO,18,Nordstrom,
270238,NO,20,Gjennestad,
270239,NO,15,Måren,
270240,NO,13,Gjulem,
270241,NO,13,Rakkestad,
270242,NO,6,Houm,
270243,NO,10,Trones,
270244,NO,8,Aasgaard,
270245,NO,7,Milde,
270246,NO,10,Bruvoll,
270247,NO,13,Heiaas,
270248,NO,7,Tellnes,
270249,NO,7,Haavik,
270250,NO,17,Herøya,
270251,NO,6,Koppang,
270252,NO,8,Nordheim,
270253,NO,4,Skarsgård,
270254,NO,10,Jule,
270255,NO,10,Østborg,
270256,NO,10,Mebygda,
270257,NO,16,Barman,
270258,NO,7,Dala,
270259,NO,14,Hesby,
270260,NO,15,Atterås,
270261,NO,6,Andrå,
270262,NO,14,Årsland,
270263,NO,18,Hamran,
270264,NO,18,Rekvik,
270265,NO,13,Tune,
270266,NO,7,Nordaas,
270267,NO,5,Bergby,
270268,NO,15,Byrknes,
270269,NO,5,Øksfjord,
270270,NO,5,Hasvik,
270271,NO,19,Sira,
270272,NO,19,Bjørnestad,
270273,NO,4,Sørsdal,
270274,NO,18,Storslett,
270275,NO,5,Havøysund,
270276,NO,5,Masi,
270277,NO,5,Rafsbotn,
270278,NO,5,Hönningsvaag,
270279,NO,18,Gaare,
270280,NO,19,Tonstad,
270281,NO,16,Fevåg,
270282,NO,5,Talvik,
270283,NO,18,Buvik,
270284,NO,5,Mehamn,
270285,NO,5,Sørvær,
270286,NO,17,Rudi,
270287,NO,10,Fosnes,
270288,NO,9,Bjørkvik,
270289,NO,4,Solbergelva,
270290,NO,6,Löiten,
270291,NO,4,Kamben,
270292,NO,8,Hjellset,
270293,NO,18,Karlstad,
270294,NO,15,Karstad,
270295,NO,10,Fjerdingen,
270296,NO,10,Salsnes,
270297,NO,10,Borgan,
270298,NO,19,Åmland,
270299,NO,1,Eidsvold,
270300,NO,16,Åfjord,
270301,NO,10,Gansmo,
270302,NO,19,Tredal,
270303,NO,2,Skottevik,
270304,NO,16,Lysøysund,
270305,NO,13,Fredrikshald,
270306,NO,16,Bjørgan,
270307,NO,7,Lepsøy,
270308,NO,2,Søndeled,
270309,NO,18,Balsfjord,
270310,NO,18,Karlsøy,
270311,NO,18,Lavangen,
270312,NO,9,Storfjord,
270313,NO,18,Torsken,
270314,NO,17,Kvåla,
270315,NO,19,Høyland,
270316,NO,7,Algrøy,
270317,NO,14,Undheim,
270318,NO,9,Eggum,
270319,NO,18,Seter,
270320,NO,7,Vågå,
270321,NO,1,Løren,
270322,NO,9,Holmstad,
270323,NO,19,Tufteland,
270324,NO,18,Evenskjer,
270325,NO,11,Aurdal,
270326,NO,14,Lura,
270327,NO,8,Rakvåg,
270328,NO,16,Grut,
270329,NO,18,Kvannli,
270330,NO,10,Foldereid,
270331,NO,10,Holand,
270332,NO,10,Ottersøy,
270333,NO,7,Stordalen,
270334,NO,10,Gutvik,
270335,NO,10,Buvarp,
270336,NO,10,Kopperå,
270337,NO,2,Laget,
270338,NO,7,Morvik,
270339,NO,7,Halland,
270340,NO,9,Alstahaug,
270341,NO,18,Nordkjosbotn,
270342,NO,13,Lilleby,
270343,NO,10,Hell,
270344,NO,19,Fardal,
270345,NO,9,Dagsvik,
270346,NO,19,Lastad,
270347,NO,2,Fröysaa,
270348,NO,16,Røine,
270349,NO,19,Kvarstein,
270350,NO,14,Skjæveland,
270351,NO,17,Fossli,
270352,NO,10,Skjelbred,
270353,NO,8,Korsvoll,
270354,NO,7,Lerø,
270355,NO,8,Standal,
270356,NO,11,Tretten,
270357,NO,8,Myklebost,
270358,NO,1,Fagerstrand,
270359,NO,13,Karlshus,
270360,NO,19,Øyslebø,
270361,NO,17,Bö,
270362,NO,14,Vikevåg,
270363,NO,18,Gibostad,
270364,NO,11,Skreia,
270365,NO,13,Heiås,
270366,NO,19,Kvaale,
270367,NO,9,Hemnesberget,
270368,NO,9,Korgen,
270369,NO,9,Bjerka,
270370,NO,9,Ytteren,
270371,NO,9,Leland,
270372,NO,9,Engavågen,
270373,NO,9,Kjøpsvik,
270374,NO,9,Leirfjord,
270375,NO,20,Selvik,
270376,NO,4,Hyggen,
270377,NO,1,Minnesund,
270378,NO,7,Valvatna,
270379,NO,7,Stanghelle,
270380,NO,15,Kalvåg,
270381,NO,18,Skøelv,
270382,NO,18,Burfjord,
270383,NO,18,Olderdalen,
270384,NO,18,Setermoen,
270385,NO,18,Gryllefjord,
270386,NO,18,Storsteinnes,
270387,NO,18,Andselv,
270388,NO,18,Oteren,
270389,NO,18,Vangsvik,
270390,NO,18,Mølnevika,
270391,NO,18,Kirkevik,
270392,NO,18,Tennevoll,
270393,NO,18,Birtavarre,
270394,NO,18,Aursfjordgård,
270395,NO,5,Rypefjord,
270396,NO,1,Fjellstrand,
270397,NO,17,Langangen,
270398,NO,15,Hornnes,
270399,NO,1,Ask,
270400,NO,1,Ås,
270401,NO,8,Hals,
270402,NO,13,Sperrebotn,
270403,NO,8,Hareid,
270404,NO,4,Hillestad,
270405,NO,11,Grua,
270406,NO,7,Sveio,
270407,NO,7,Mosterhamn,
270408,NO,15,Svelgen,
270409,NO,7,Krokeidet,
270410,NO,14,Vikedal,
270411,NO,7,Lofthus,
270412,NO,20,Sem,
270413,NO,13,Hamnås,
270414,NO,13,Ise,
270415,NO,13,Eidsberg,
270416,NO,13,Selbak,
270417,NO,1,Maura,
270418,NO,6,Kylstad,
270419,NO,6,Heradsbygd,
270420,NO,6,Sollimoen,
270421,NO,18,Nordstraum,
270422,NO,9,Sigerfjord,
270423,NO,9,Alsvåg,
270424,NO,1,Jar,
270425,NO,14,Sviland,
270426,NO,7,Flesland,
270427,NO,4,Sundvollen,
270428,NO,4,Sylling,
270429,NO,19,Gjusvik,
270430,NO,11,Follebu,
270431,NO,1,Flateby,
270432,NO,14,Visnes,
270433,NO,16,Gjølme,
270434,NO,7,Li,
270435,NO,20,Gullhaug,
270436,NO,4,Hvittingfoss,
270437,NO,1,Smestad,
270438,NO,1,Ski,
270439,NO,14,Nedstrand,
270440,NO,7,Søreidgrend,
270441,NO,6,Os,
270442,NO,7,Mjølkeråen,
270443,NO,8,Rausand,
270444,NO,1,Bærums Verk,
270445,NO,17,Herre,
270446,NO,11,Hov,
270447,NO,7,Skånevik,
270448,NO,14,Sandeid,
270449,NO,13,Fuglevik,
270450,NO,8,Brandal,
270451,NO,5,Goavkejåkka,
270452,NO,5,Honningsvåg,
270453,NO,5,Merunjavve,
270454,NO,5,Lökstrand,
270455,NO,18,Ersfjordbotn,
270456,NO,18,Olderbakken,
270457,NO,18,Bilta,
270458,NO,15,Vassenden,
270459,NO,15,Sande,
270460,NO,8,Batnfjordsøra,
270461,NO,9,Storforshei,
270462,NO,11,Reinsvoll,
270463,NO,18,Kjækan,
270464,NO,18,Lyngseidet,
270465,NO,18,Haukønes,
270466,NO,10,Bangsund,
270467,NO,10,Sparbu,
270468,NO,11,Harpefoss,
270469,NO,11,Lalm,
270470,NO,11,Hundorp,
270471,NO,11,Lia,
270472,NO,2,Mørland,
270473,NO,18,Tovik,
270474,NO,9,Stamsund,
270475,NO,9,Ballangen,
270476,NO,10,Skage,
270477,NO,2,Eydehavn,
270478,NO,6,Risberget,
270479,NO,1,Lørenfallet,
270480,NO,18,Ibestad,
270481,NO,9,Sorvær,
270482,NO,9,Ramsund,
270483,NO,18,Evenskjær,
270484,NO,1,Nordkisa,
270485,NO,6,Tolga,
270486,NO,15,Otnes,
270487,NO,2,Kråkvåg,
270488,NO,16,Kvål,
270489,NO,14,Vikeså,
270490,NO,2,Lyngør,
270491,NO,2,Rysstad,
270492,NO,2,Byglandsfjord,
270493,NO,2,Vegårshei,
270494,NO,2,Tveide,
270495,NO,19,Roland,
270496,NO,1,Rotnes,
270497,NO,14,Mo,
270498,NO,9,Inndyr,
270499,NO,7,Langevåg,
270500,NO,7,Etne,
270501,NO,7,Rubbestadneset,
270502,NO,14,Sandve,
270503,NO,14,Pollestad,
270504,NO,7,Foldrøyhamn,
270505,NO,14,Åna-sira,
270506,NO,14,Hellvik,
270507,NO,20,Skoppum,
270508,NO,11,Roa,
270509,NO,7,Håvik,
270510,NO,7,Uggdal,
270511,NO,7,Reistad,
270512,NO,13,Larkollen,
270513,NO,13,Skjærhollen,
270514,NO,14,Asseim,
270515,NO,9,Steigen,
270516,NO,14,Gilja,
270517,NO,20,Årøysund,
270518,NO,13,Slevik,
270519,NO,16,Selbekken,
270520,NO,2,Homdrom,
270521,NO,17,Folkestad,
270522,NO,17,Gvarv,
270523,NO,17,Straumen,
270524,NO,17,Fjeld,
270525,NO,17,Miland,
270526,NO,17,Vråliosen,
270527,NO,7,Sævareid,
270528,NO,15,Hardbakke,
270529,NO,7,Herøysund,
270530,NO,17,Yli,
270531,NO,4,Tyristrand,
270532,NO,4,Noresund,
270533,NO,11,Frisvoll,
270534,NO,9,Løding,
270535,NO,9,Engan,
270536,NO,9,Røsvik,
270537,NO,16,Korsvegen,
270538,NO,16,Eggkleiva,
270539,NO,16,Storås,
270540,NO,16,Botngard,
270541,NO,16,Å,
270542,NO,16,Hestvika,
270543,NO,2,Longom,
270544,NO,18,Hansnes,
270545,NO,15,Dale,
270546,NO,14,Oltedal,
270547,NO,19,Moi,
270548,NO,11,Robøle,
270549,NO,6,Ådalsbruk,
270550,NO,13,Vister,
270551,NO,9,Sørvågen,
270552,NO,5,Sauhamn,
270553,NO,10,Småland,
270554,NO,7,Sæbøvik,
270555,NO,7,Vikane,
270556,NO,7,Hatlestrand,
270557,NO,7,Skarvatun,
270558,NO,7,Dimmelsvik,
270559,NO,8,Sövik,
270560,NO,8,Hjelset,
270561,NO,8,Midsund,
270562,NO,8,Kleive,
270563,NO,8,Sandshamn,
270564,NO,15,Kvamsøy,
270565,NO,8,Rovde,
270566,NO,8,Holenatle,
270567,NO,8,Tornes,
270568,NO,10,Grong,
270569,NO,10,Hylla,
270570,NO,10,Verdalsøra,
270571,NO,10,Røra,
270572,NO,16,Oksvoll,
270573,NO,20,Aabol,
270574,NO,8,Aukra,
270575,NO,7,Granvin,
270576,NO,7,Ålvik,
270577,NO,7,Jondal,
270578,NO,7,Omastrand,
270579,NO,9,Saupstad,
270580,NO,1,Kjellerholen,
270581,NO,12,Höybraaten,
270582,NO,11,Forset,
270583,NO,14,Tau,
270584,NO,14,Vormedal,
270585,NO,14,Røyneberg,
270586,NO,14,Moi,
270587,NO,9,Risøyhamn,
270588,NO,4,Gol,
270589,NO,8,Nesjestranda,
270590,NO,17,Ørstveit,
270591,NO,4,Krøderen,
270592,NO,8,Sjøholt,
270593,NO,4,Sokna,
270594,NO,2,Evjemoen,
270595,NO,18,Kasfjord,
270596,NO,10,Spillum,
270597,NO,9,Beisfjord,
270598,NO,9,Skutvik,
270599,NO,8,Våg,
270600,NO,9,Løpsmarka,
270601,NO,8,Halsa,
270602,NO,9,Beiarn,
270603,NO,9,Høgforssletta,
270604,NO,9,Misvær,
270605,NO,9,Rönaabak,
270606,NO,1,Auli,
270607,NO,4,Nakkerud,
270608,NO,1,Langset,
270609,NO,18,Borkenes,
270610,NO,14,Judaberg,
270611,NO,16,Lundamo,
270612,NO,11,Vollen,
270613,NO,1,Son,
270614,NO,10,Solbakken,
270615,NO,4,Smørgrav,
270616,NO,4,Berg,
270617,NO,8,Bæverfjord,
270618,NO,8,Kanestraum,
270619,NO,2,Myra,
270620,NO,9,Lovund,
270621,NO,19,Leineland,
270622,NO,17,Kil,
270623,NO,14,Stangaland,
270624,NO,4,Ål,
270625,NO,7,Glesvær,
270626,NO,7,Myrane,
270627,NO,7,Kjerrgarden,
270628,NO,7,Tælavåg,
270629,NO,7,Bekkjarvik,
270630,NO,8,Taknæs,
270631,NO,18,Bredvik,
270632,NO,18,Lenangen,
270633,NO,16,Flå,
270634,NO,8,Austnes,
270635,NO,8,Gjøra,
270636,NO,8,Rindal,
270637,NO,9,Silsand,
270638,NO,10,Hegra,
270639,NO,16,Soknedal,
270640,NO,16,Tanem,
270641,NO,10,Kvithammer,
270642,NO,8,Rensvik,
270643,NO,14,Ualand,
270644,NO,7,Uskedal,
270645,NO,8,Stangvik,
270646,NO,8,Flemma,
270647,NO,8,Lauvik,
270648,NO,8,Aarnes,
270649,NO,18,Tomasbakken,
270650,NO,9,Kvalvik,
270651,NO,2,Salterød,
270652,NO,18,Ramfjordbotn,
270653,NO,5,Skogerø,
270654,NO,18,Jøvik I Ullsfjord,
270655,NO,5,Nyvoll,
270656,NO,16,Uthaug,
270657,NO,16,Ottersbo,
270658,NO,9,Sulitjelma,
270659,NO,10,Straumen,
270660,NO,9,Rokland,
270661,NO,18,Lakselv,
270662,NO,15,Stavang,
270663,NO,7,Fotlandsvåg,
270664,NO,15,Håvågen,
270665,NO,16,Olden,
270666,NO,15,Kaupanger,
270667,NO,8,Haddal,
270668,NO,9,Vestvaagan,
270669,NO,19,Feda,
270670,NO,7,Årland,
270671,NO,11,Hennung,
270672,NO,4,Åmot,
270673,NO,10,Harran,
270674,NO,9,Tengelfjorden,
270675,NO,17,Hjukse,
270676,NO,2,Færvik,
270677,NO,9,Henningsvær,
270678,NO,9,Håkvik,
270679,NO,9,Ankenesstrand,
270680,NO,19,Flottorp,
270681,NO,19,Tingvatn,
270682,NO,19,Høllen,
270683,NO,18,Brokskard,
270684,NO,15,Årdalstangen,
270685,NO,20,Jaaberg,
270686,NO,6,Disenå,
270687,NO,1,Østre Jong,
270688,NO,5,Kiberg,
270689,NO,5,Varangerbotn,
270690,NO,15,Tansøy,
270691,NO,13,Sellebak,
270692,NO,13,Ryggeraet,
270693,NO,4,Svene,
270694,NO,8,Kvanne,
270695,NO,7,Sunndal,
270696,NO,8,Volem,
270697,NO,6,Storhamar,
270698,NO,6,Lauvland,
270699,NO,7,Valestrandsfossen,
270700,NO,8,Svanvik,
270701,NO,18,Vikran,
270702,NO,8,Tjørvåg,
270703,NO,16,Singsås,
270704,NO,14,Klep,
270705,NO,2,Selåsvatn,
270706,NO,15,Brandsøy,
270707,NO,5,Kokelv,
270708,NO,5,Klubbo,
270709,NO,5,Igaldas,
270710,NO,18,Potkaelv,
270711,NO,5,Nordvågen,
270712,NO,8,Valldal,
270713,NO,8,Godøy,
270714,NO,2,Høvåg,
270715,NO,14,Sirevåg,
270716,NO,1,Fosser,
270717,NO,17,Mælum,
270718,NO,16,Snillfjord,
270719,NO,8,Velsvik,
270720,NO,15,Viksøyri,
270721,NO,1,Slattum,
270722,NO,6,Hof,
270723,NO,6,Kirkenær,
270724,NO,4,Austvoll,
270725,NO,18,Øvergard,
270726,NO,4,Gulsvik,
270727,NO,7,Rikstad,
270728,NO,17,Groven,
270729,NO,8,Bolga,
270730,NO,9,Skonseng,
270731,NO,18,Skardmunken,
270732,NO,18,Vannvåg,
270733,NO,18,Elsnes,
270734,NO,18,Stonglandseidet,
270735,NO,18,Mestervik,
270736,NO,19,Snartemo,
270737,NO,8,Fuglåg,
270738,NO,15,Dale I Sunnfjord,
270739,NO,8,Rognskog,
270740,NO,13,Nordby,
270741,NO,11,Vågåmo,
270742,NO,6,Grinder,
270743,NO,14,Åkrahamn,
270744,NO,5,Komagfjord,
270745,NO,18,Sappen,
270746,NO,18,Kvænangsbotn,
270747,NO,16,Trolla,
270748,NO,14,Vela,
270749,NO,14,Suldalsosen,
270750,NO,18,Kristofferjorda,
270751,NO,19,Bjerland,
270752,NO,9,Grötöen,
270753,NO,15,Løvik,
270754,NO,5,Bjørnevatn,
270755,NO,1,Skotbu,
270756,NO,7,Vossestrand,
270757,NO,7,Vossevangen,
270758,NO,16,Berkåk,
270759,NO,16,Fillan,
270760,NO,2,Rykene,
270761,NO,2,Songe,
270762,NO,2,Bråstad,
270763,NO,5,Bergsfjord,
270764,NO,14,Ogna,
270765,NO,14,Brusand,
270766,NO,15,Lærdalsøyri,
270767,NO,9,Moldjord,
270768,NO,18,Njemenaiko,
270769,NO,5,Burstad,
270770,NO,18,Nordbotn,
270771,NO,18,Husingjord,
270772,NO,7,Malkenes,
270773,NO,7,Eidsnes,
270774,NO,6,Slåstad,
270775,NO,7,Nå,
270776,NO,7,Strandebarm,
270777,NO,8,Åfarnes,
270778,NO,5,Vardø,
270779,NO,18,Akkarfjord,
270780,NO,14,Nodland,
270781,NO,9,Leines,
270782,NO,9,Storjorda,
270783,NO,9,Heminghytta,
270784,NO,6,Arneberg,
270785,NO,8,Rodal,
270786,NO,19,Spangereid,
270787,NO,2,Brekka,
270788,NO,7,Rong,
270789,NO,10,Stjørdalshalsen,
270790,NO,16,Kjøsnesvold,
270791,NO,9,Bleik,
270792,NO,16,Ler,
270793,NO,10,Flornes,
270794,NO,10,Salsbruket,
270795,NO,8,Grøa,
270796,NO,9,Reipå,
270797,NO,6,Sjusjøen,
270798,NO,1,Nordby,
270799,NO,1,Svartskog,
270800,NO,17,Fossom,
270801,NO,18,Beinsnes,
270802,NO,7,Eivindvik,
270803,NO,16,Hofset,
270804,NO,13,Sponvika,
270805,NO,2,Nedenes,
270806,NO,17,Tveitsund,
270807,NO,18,Reiervik,
270808,NO,11,Segalstad,
270809,NO,18,Durmålsskardet,
270810,NO,9,Ellstad,
270811,NO,2,Staubø,
270812,NO,9,Å,
270813,NO,11,Dal,
270814,NO,5,Berlevåg,
270815,NO,8,Årset,
270816,NO,8,Skrövsæt,
270817,NO,7,Sæbø,
270818,NO,18,Åkeneset,
270819,NO,18,Bakkevoll,
270820,NO,14,Övre Haaland,
270821,NO,16,Skorild,
270822,NO,15,Vadheim,
270823,NO,19,Saland,
270824,NO,5,Elvebakken,
270825,NO,11,Hage,
270826,NO,7,Landaas,
270827,NO,7,Toft,
270828,NO,9,Marken,
270829,NO,15,Fjaler,
270830,NO,7,Nordstrøno,
270831,NO,11,Andvord,
270832,NO,19,Trysnes,
270833,NO,16,Horg,
270834,NO,17,Sauer,
270835,NO,18,Sandbakken,
270836,NO,15,Heilevong,
270837,NO,18,Samuelsberg,
270838,NO,18,Indre Berg,
270839,NO,18,Nordbyneset,
270840,NO,18,Trollvik,
270841,NO,2,Grossaas,
270842,NO,8,Envåg,
270843,NO,6,Folldal,
270844,NO,14,Bleivik,
270845,NO,14,Hervik,
270846,NO,11,Vöien,
270847,NO,8,Vaagland,
270848,NO,5,Djupelv,
270849,NO,6,Roverud,
270850,NO,14,Heigre,
270851,NO,7,Hogsvær,
270852,NO,14,Høyvik,
270853,NO,7,Vordnes,
270854,NO,19,Aagedal,
270855,NO,17,Morgedal,
270856,NO,5,Brennelv,
270857,NO,7,Bolstadøyri,
270858,NO,18,Buvika,
270859,NO,2,Haugebakke,
270860,NO,5,Lillefjord,
270861,NO,11,Dyrrud,
270862,NO,11,Bleiken,
270863,NO,9,Helligvær,
270864,NO,11,Kolbu,
270865,NO,6,Brandval,
270866,NO,1,Gan,
270867,NO,9,Sømna,
270868,NO,19,Hægeland,
270869,NO,8,Bud,
270870,NO,2,Froland,
270871,NO,19,Naglestad,
270872,NO,7,Ådlandsvik,
270873,NO,18,Straumsbukta,
270874,NO,18,Storbukt,
270875,NO,18,Svensby,
270876,NO,8,Vågland,
270877,NO,10,Brekkan,
270878,NO,13,Kornsjø,
270879,NO,10,Nord-statland,
270880,NO,8,Henna,
270881,NO,8,Surna,
270882,NO,8,Angvik,
270883,NO,14,Østhusvik,
270884,NO,17,Kise,
270885,NO,9,Kjerringøy,
270886,NO,15,Litle Høydal,
270887,NO,18,Sørstraumen,
270888,NO,15,Hope,
270889,NO,14,Aakrehamn,
270890,NO,16,Husby,
270891,NO,1,Enebakkneset,
270892,NO,14,Reke,
270893,NO,16,Bjørnli,
270894,NO,8,Settemsdal,
270895,NO,2,Arnevik,
270896,NO,18,Solstad,
270897,NO,8,Lauvstad,
270898,NO,16,Almaas,
270899,NO,16,Ålen,
270900,NO,18,Laberget,
270901,NO,18,Meiland,
270902,NO,9,Dverberg,
270903,NO,7,Hjellestad,
270904,NO,18,Mandalen,
270905,NO,11,Ballangrud,
270906,NO,9,Grav,
270907,NO,2,Håbbestad,
270908,NO,7,Sedalen,
270909,NO,5,Akkarfjord,
270910,NO,14,Akrehavn,
270911,NO,1,Sandvika,
270912,NO,19,Valle,
270913,NO,16,Råkvåg,
270914,NO,8,Søvik,
270915,NO,6,Vingelen,
270916,NO,9,Strønstad,
270917,NO,19,Öyestranda,
270918,NO,9,Vik,
270919,NO,15,Sande,
270920,NO,9,Fleina,
270921,NO,9,Bratland,
270922,NO,2,Gjeving,
270923,NO,9,Bøstad,
270924,NO,4,Reistad,
270925,NO,1,Holter,
270926,NO,15,Nøtset,
270927,NO,14,Hjelmeland,
270928,NO,17,Vinjesvingen,
270929,NO,7,Vinnes,
270930,NO,11,Steinsetbygdi,
270931,NO,11,Lom,
270932,NO,9,Mørsvikbotn,
270933,NO,16,Viggja,
270934,NO,18,Botnhamn,
270935,NO,9,Sørland,
270936,NO,9,Trofors,
270937,NO,8,Langevaag,
270938,NO,14,Hovland,
270939,NO,7,Grimo,
270940,NO,13,Greaaker,
270941,NO,9,Bø I Vesteralen,
270942,NO,9,Laukslet,
270943,NO,14,Kvalavåg,
270944,NO,5,Jakobselv,
270945,NO,2,Dølemo,
270946,NO,4,Finsland,
270947,NO,7,Aasbö,
270948,NO,4,Flå,
270949,NO,16,Hellandsjøen,
270950,NO,16,Rödberg,
270951,NO,19,Vestbygda,
270952,NO,8,Enge,
270953,NO,8,Kvisvik,
270954,NO,9,Oppeid,
270955,NO,14,Stokka,
270956,NO,14,Klepp,
270957,NO,4,Båtstø,
270958,NO,10,Fosslandsosen,
270959,NO,13,Engelsviken,
270960,NO,5,Bugøynes,
270961,NO,18,Skjold,
270962,NO,10,Skorovatn,
270963,NO,15,Sørbøvåg,
270964,NO,15,Dale,
270965,NO,8,Vevang,
270966,NO,9,Konsvikosen,
270967,NO,7,Brattholmen,
270968,NO,9,Söre Fuglöen,
270969,NO,14,Saudasjøen,
270970,NO,4,Flesberg,
270971,NO,9,Ballstad,
270972,NO,2,Rossedalen,
270973,NO,9,Sørvær,
270974,NO,8,Hjellnæs,
270975,NO,8,Valsøybotn,
270976,NO,6,Nybergsund,
270977,NO,5,Svanvik,
270978,NO,8,Sæbø,
270979,NO,16,Haltdalen,
270980,NO,18,Hamnvik,
270981,NO,1,Rud,
270982,NO,15,Davik,
270983,NO,8,Leite,
270984,NO,8,Hovdebygda,
270985,NO,15,Nes,
270986,NO,14,Utsira,
270987,NO,11,Beitostølen,
270988,NO,16,Solbu,
270989,NO,18,Vannareid,
270990,NO,2,Hornnes,
270991,NO,7,Bøvågen,
270992,NO,6,Hjellum,
270993,NO,14,Helleland,
270994,NO,11,Bjoneroa,
270995,NO,14,Vedavågen,
270996,NO,11,Fall,
270997,NO,18,Øverbygd,
270998,NO,1,Dal,
270999,NO,17,Lunde,
271000,NO,9,Værøy,
271001,NO,9,Skigamslet,
271002,NO,9,Gruben,
271003,NO,13,Hauge,
271004,NO,16,Glåmos,
271005,NO,7,Lote,
271006,NO,18,Ånstad,
271007,NO,20,Helgeroa,
271008,NO,18,Halsebø,
271009,NO,9,Hennes,
271010,NO,14,Brekke,
271011,NO,11,Heggenes,
271012,NO,7,Steinstø,
271013,NO,7,Herand,
271014,NO,9,Austbø,
271015,NO,9,Vandve,
271016,NO,9,Halsa,
271017,NO,9,Vevelstad,
271018,NO,8,Kjörsvikbugen,
271019,NO,8,Valsøyfjord,
271020,NO,15,Blaksæter,
271021,NO,13,Knapstad,
271022,NO,19,Fidjeland,
271023,NO,15,Rognaldsvåg,
271024,NO,5,Gjesvær,
271025,NO,15,Sørland,
271026,NO,7,Osen,
271027,NO,15,Björvika,
271028,NO,13,Riser,
271029,NO,9,Husby,
271030,NO,18,Rotsund,
271031,NO,17,Kjørholt,
271032,NO,14,Dirdal,
271033,NO,7,Onarheim,
271034,NO,14,Håvik,
271035,NO,8,Fjærlien,
271036,NO,18,Vannvaag,
271037,NO,8,Henda,
271038,NO,9,Visthus,
271039,NO,4,Eggedal,
271040,NO,13,Utgård,
271041,NO,4,Trondrud,
271042,NO,5,Kvalsund,
271043,NO,17,Skjelsvik,
271044,NO,8,Skogli,
271045,NO,9,Utskarpen,
271046,NO,8,Korrnes,
271047,NO,11,Rogne,
271048,NO,15,Flåm,
271049,NO,7,Åkra,
271050,NO,7,Aalvik,
271051,NO,4,Filtvet,
271052,NO,9,Jektvik,
271053,NO,5,Sirma,
271054,NO,9,Nordfold,
271055,NO,18,Laksvatn,
271056,NO,8,Eide,
271057,NO,16,Garten,
271058,NO,5,Karlebotn,
271059,NO,9,Skjerstad,
271060,NO,8,Tennfjord,
271061,NO,17,Bergan,
271062,NO,1,Korslund,
271063,NO,17,Borgestad,
271064,NO,18,Elvevold,
271065,NO,19,Tregde,
271066,NO,15,Ålfoten,
271067,NO,19,Øygard,
271068,NO,14,Skjoldastraumen,
271069,NO,7,Vikebygd,
271070,NO,7,Eikangervåg,
271071,NO,7,Breistein,
271072,NO,1,Soon,
271073,NO,2,Brekkestø,
271074,NO,1,Nes,
271075,NO,14,Stol,
271076,NO,14,Saevelandsvik,
271077,NO,14,Fister,
271078,NO,11,Frya,
271079,NO,11,Venabygd,
271080,NO,9,Stø,
271081,NO,1,Eidsvoll Verk,
271082,NO,11,Odnes,
271083,NO,9,Øresvik,
271084,NO,17,Austbygd,
271085,NO,14,Bru,
271086,NO,7,Myking,
271087,NO,7,Rossland,
271088,NO,14,Orre,
271089,NO,7,Hilland,
271090,NO,9,Storvik,
271091,NO,1,Hvitsten,
271092,NO,16,Rognes,
271093,NO,15,Undredal,
271094,NO,19,Sveinall,
271095,NO,7,Morland,
271096,NO,16,Kverva,
271097,NO,16,Titran,
271098,NO,18,Sandtorg,
271099,NO,20,Nevlunghamn,
271100,NO,19,Kvinlog,
271101,NO,9,Drag,
271102,NO,9,Storjord,
271103,NO,9,Bolga,
271104,NO,10,Fossdal,
271105,NO,4,Sollihøgda,
271106,NO,7,Vågseidet,
271107,NO,7,Sæbövagen,
271108,NO,7,Hosteland,
271109,NO,6,Drevsjø,
271110,NO,7,Espa,
271111,NO,9,Digermulen,
271112,NO,9,Kjeldebotn,
271113,NO,14,Erfjord,
271114,NO,14,Åmøy,
271115,NO,18,Årviksand,
271116,NO,9,Napp,
271117,NO,20,Nevlunghavn,
271118,NO,17,Flatdal,
271119,NO,5,Russenes,
271120,NO,20,Husøy,
271121,NO,7,Kaldestad,
271122,NO,8,Lyngstad,
271123,NO,6,Åsnes,
271124,NO,8,Hildre,
271125,NO,9,Hauknes,
271126,NO,6,Mo,
271127,NO,9,Selfors,
271128,NO,14,Gausel,
271129,NO,7,Valevåg,
271130,NO,2,Mjåvatn,
271131,NO,4,Uvdal,
271132,NO,17,Haukeli,
271133,NO,18,Stakkvik,
271134,NO,1,Rånåsfoss,
271135,NO,5,Gamvik,
271136,NO,18,Lundenes,
271137,NO,1,Raanaasfoss,
271138,NO,19,Brennaasen,
271139,NO,9,Musken,
271140,NO,2,Akland,
271141,NO,7,Røldal,
271142,NO,7,Masfjordnes,
271143,NO,7,Matredal,
271144,NO,18,Grøtavær,
271145,NO,8,Barstadvik,
271146,NO,18,Hemmestad,
271147,NO,9,Budalen,
271148,NO,18,Tromvik,
271149,NO,6,Næroset,
271150,NO,11,Fluberg,
271151,NO,11,Skaabu,
271152,NO,6,Tørberget,
271153,NO,6,Austmarka,
271154,NO,15,Mjømna,
271155,NO,15,Stongfjorden,
271156,NO,15,Kolgrov,
271157,NO,15,Grima,
271158,NO,7,Aakra,
271159,NO,8,Kjerstad,
271160,NO,12,Høybråten,
271161,NO,2,Hynnekleiv,
271162,NO,10,Sandvika,
271163,NO,7,Hellesøy,
271164,NO,16,Knarrlagsund,
271165,NO,16,Revsnes,
271166,NO,7,Trengereid,
271167,NO,10,Abelvær,
271168,NO,18,Lanes,
271169,NO,18,Engenes,
271170,NO,9,Kongsvik,
271171,NO,16,Sandstad,
271172,NO,6,Hokkåsen,
271173,NO,4,Lyngdal I Numedal,
271174,NO,8,Eiksund,
271175,NO,8,Eidså,
271176,NO,7,Bygd,
271177,NO,16,Kotsøy,
271178,NO,16,Holtålen,
271179,NO,16,Aalen,
271180,NO,4,Nore,
271181,NO,5,Kviby,
271182,NO,5,Tufjord,
271183,NO,8,Tafjord,
271184,NO,15,Feios,
271185,NO,8,Holten,
271186,NO,11,Skåbu,
271187,NO,2,Skjulestad,
271188,NO,6,Aaklangberget,
271189,NO,15,Hovlandsdalen,
271190,NO,15,Solvorn,
271191,NO,17,Treungen,
271192,NO,4,Hakamken,
271193,NO,20,Asjer,
271194,NO,8,Volum,
271195,NO,1,Laasby,
271196,NO,8,Hopen,
271197,NO,8,Stavik,
271198,NO,11,Østby,
271199,NO,17,Hanto,
271200,NO,19,Bjelland,
271201,NO,6,Jømna,
271202,NO,15,Holsen,
271203,NO,2,Grendi,
271204,NO,6,Hernes,
271205,NO,7,Arnavik,
271206,NO,8,Fjørtoft,
271207,NO,14,Aana-sira,
271208,NO,18,Skarsvåg,
271209,NO,15,Leirvik I Sogn,
271210,NO,9,Tjongsfjord,
271211,NO,15,Ytrøygrend,
271212,NO,9,Tjongsfjorden,
271213,NO,18,Flesnes,
271214,NO,18,Arnøyhamn,
271215,NO,10,Flåt,
271216,NO,15,Svortevik,
271217,NO,9,Tårstad,
271218,NO,16,Leksa,
271219,NO,19,Svenevik,
271220,NO,15,Gudvangen,
271221,NO,18,Olsborg,
271222,NO,15,Hellevik,
271223,NO,9,Indre Kvarøy,
271224,NO,16,Ansnes,
271225,NO,13,Ørebakke,
271226,NO,15,Slinde,
271227,NO,6,Svullrya,
271228,NO,7,Fedje,
271229,NO,7,Hammarsland,
271230,NO,9,Laukvik,
271231,NO,8,Torvikbukt,
271232,NO,18,Solstrand,
271233,NO,20,Hagenes,
271234,NO,2,Skiftenes,
271235,NO,19,Åmdal,
271236,NO,2,Hagestad,
271237,NO,11,Risdal,
271238,NO,19,Mykland,
271239,NO,6,Ebru,
271240,NO,7,Buer,
271241,NO,18,Skaland,
271242,NO,17,Skåtøy,
271243,NO,17,Porsgrund,
271244,NO,9,Bardal,
271245,NO,19,Nordberg,
271246,NO,15,Steinsdalen,
271247,NO,7,Årås,
271248,NO,14,Årdal,
271249,NO,17,Austbø,
271250,NO,18,Kårvik,
271251,NO,18,Kaldfarnes,
271252,NO,19,Gyland,
271253,NO,15,Flaam,
271254,NO,8,Eidsdal,
271255,NO,6,Matrand,
271256,NO,9,Neverdal,
271257,NO,19,Udland,
271258,NO,19,Galdal,
271259,NO,1,Fenstad,
271260,NO,9,Rambø,
271261,NO,8,Reitan,
271262,NO,8,Spjelkavik,
271263,NO,7,Haugstad,
271264,NO,1,Sundet,
271265,NO,6,Ljørdalen,
271266,NO,14,Vanvik,
271267,NO,14,Røvær,
271268,NO,10,Trana,
271269,NO,4,Torpo,
271270,NO,9,Nordarnøy,
271271,NO,15,Lavik,
271272,NO,15,Kråkhella,
271273,NO,16,Hamarvik,
271274,NO,9,Ankenes,
271275,NO,6,Statsbuøyen,
271276,NO,8,Tokle,
271277,NO,9,Kleppstad,
271278,NO,7,Valestrand,
271279,NO,7,Utåker,
271280,NO,9,Elvegård,
271281,NO,8,Longva,
271282,NO,8,Sveggesundet,
271283,NO,18,Rundhaug,
271284,NO,9,Vaag,
271285,NO,7,Søreide,
271286,NO,7,Øye,
271287,NO,8,Veiholmen,
271288,NO,9,Båsmo,
271289,NO,10,Statland,
271290,NO,9,Breivik I Salten,
271291,NO,13,Herføl,
271292,NO,17,Stabbestad,
271293,NO,14,Aarak,
271294,NO,9,Blokken,
271295,NO,19,Agnefest,
271296,NO,19,Lindefjell,
271297,NO,11,Egge,
271298,NO,18,Naustvik,
271299,NO,15,Ånneland,
271300,NO,18,Lauksletta,
271301,NO,6,Lutnes,
271302,NO,4,Nes I Ådal,
271303,NO,14,Ferkingstad,
271304,NO,20,Eidsfoss,
271305,NO,9,Laupstad,
271306,NO,16,Kvenvær,
271307,NO,6,Knapper,
271308,NO,5,Langfjordbotn,
271309,NO,8,Eidsøra,
271310,NO,9,Hall,
271311,NO,19,Fjeldskaar,
271312,NO,20,Otterstad,
271313,NO,16,Rotvollen,
271314,NO,11,Stange,
271315,NO,14,Sandnes,
271316,NO,9,Bø,
271317,NO,7,Straume,
271318,NO,15,Førde,
271319,NO,18,Rossfjord,
271320,NO,4,Aurdal,
271321,NO,8,Otnes,
271322,NO,10,Rosvik,
271323,NO,9,Straumen,
271324,NO,6,Buvika,
271325,NO,11,Aal,
271326,NO,17,Helle,
271327,NO,6,Sandnes,
271328,NO,15,Vågsvåg,
271329,NO,15,Molde,
271330,NO,6,Hole,
271331,NO,2,Froland Verk,
271332,NO,2,Nesgrenda,
271333,NO,10,Leknes,
271334,NO,13,Tøfte,
271335,NO,16,Kråkstad,
271336,NO,19,Birkeland,
271337,NO,11,Øye,
271338,NO,8,Langevåg,
271339,NO,5,Moen,
271340,NO,14,Jelsa,
271341,NO,17,Sandnes,
271342,NO,5,Skarsvåg,
271343,NO,16,Hårstad,
271344,NO,13,Saltnes,
271345,NO,7,Ask,
271346,NO,7,Eidsvåg,
271347,NO,17,Fjell,
271348,NO,4,Flaa,
271349,NO,20,Aaros,
271350,NO,4,Nes,
271351,NO,11,Skammestein,
271352,NO,15,Sunndal,
271353,NO,15,Furnes,
271354,NO,7,Markhus,
271355,NO,16,Re,
271356,NO,11,Ulnes,
271357,NO,6,Sollia,
271358,NO,8,Nörve,
271359,NO,16,Selva,
271360,NO,14,Voll,
271361,NO,6,Slaastad,
271362,NO,6,Austvatn,
271363,NO,8,Sande,
271364,NO,19,Eik,
271365,NO,15,Fardal,
271366,NO,15,Nyborg,
271367,NO,7,Berge,
271368,NO,16,Hol,
271369,NO,20,Holt,
271370,NO,6,Sund,
271371,NO,6,Østby,
271372,NO,2,Risdal,
271373,NO,19,Kylland,
271374,NO,15,Langedal,
271375,NO,7,Os,
271376,NO,18,Liland,
271377,NO,7,Finse,
271378,NO,7,Turøy,
271379,NO,18,Inderby,
271380,NO,16,Glaamos,
271381,NO,5,Ulvsvåg,
271382,NO,1,Våler,
271383,NO,13,Fosby,
271384,NO,14,Våg,
271385,NO,6,Rødberg,
271386,NO,20,Fevang,
271387,NO,16,Singsaas,
271388,NO,18,Sandsøy,
271389,NO,15,Brekke,
271390,NO,8,Aafarnes,
271391,NO,13,Råde,
271392,NO,9,Saura,
271393,NO,1,Sem,
271394,NO,8,Haramsøy,
271395,NO,20,Sand,
271396,NO,1,Vollen,
271397,NO,2,Fjelldal,
271398,NO,9,Sennesvik,
271399,NO,2,Mykland,
271400,NO,14,Sæveland,
271401,NO,15,Fauske,
271402,NO,15,Korssund,
271403,NO,14,Mandal,
271404,NO,19,Borhaug,
271405,NO,7,Bjørndal,
271406,NO,7,Osnes,
271407,NO,10,Byafossen,
271408,NO,7,Kausland,
271409,NO,18,Malangseidet,
271410,NO,8,Urke,
271411,NO,10,Flaten,
271412,NO,10,Tøtdal,
271413,NO,11,Reinli,
271414,NO,18,Vollan,
271415,NO,7,Fjæra,
271416,NO,7,Fet,
271417,NO,16,Bostad,
271418,NO,13,Berg,
271419,NO,18,Grovfjord,
271420,NO,8,Aspa,
271421,NO,14,Raunes,
271422,NO,8,Ferde,
271423,NO,7,Sletta,
271424,NO,9,Nes,
271425,NO,7,Frøyset,
271426,NO,9,Solvik,
271427,NO,20,Falkensten,
271428,NO,15,Låne,
271429,NO,7,Jordalen,
271430,NO,7,Utsikten,
271431,NO,9,Lauksletta,
271432,NO,15,Svanøy,
271433,NO,7,Espevær,
271434,NO,20,Nöttero,
271435,NO,5,Lebesby,
271436,NO,18,Sjursnes,
271437,NO,13,Berger,
271438,NO,15,Maaloey,
271439,NO,18,Grinde,
271440,NO,7,Sekkingstad,
271441,NO,7,Brekka,
271442,NO,2,Dovland,
271443,NO,11,Opsal,
271444,NO,7,Ænes,
271445,NO,8,Alnes,
271446,NO,7,Oma,
271447,NO,7,Allmenningen,
271448,NO,8,Dalsbygda,
271449,NO,8,Folkestad,
271450,NO,6,Almenningen,
271451,NO,18,Vikan,
271452,NO,20,Gjone,
271453,NO,9,Ågskardet,
271454,NO,5,Kistrand,
271455,NO,11,Ål,
271456,NO,12,Tøyen,
271457,NO,9,Bleikvasslia,
271458,NO,10,Vikran,
271459,NO,9,Lyngneset,
271460,NO,18,Krokstad,
271461,NO,18,Kaarvik,
271462,NO,2,Bjelland,
271463,NO,18,Skulsfjord,
271464,NO,5,Børselv,
271465,NO,15,Holmøyane,
271466,NO,18,Storeng,
271467,NO,7,Teigland,
271468,NO,17,Verpe,
271469,NO,9,Sund,
271470,NO,17,Rogn,
271471,NO,7,Vaka,
271472,NO,14,Hamar,
271473,NO,15,Tunsberg,
271474,NO,18,Nordlenangen,
271475,NO,13,Hovin,
271476,NO,5,Neiden,
271477,NO,19,Helle,
271478,NO,7,Bakkasund,
271479,NO,16,Krokstadøra,
271480,NO,15,Fimreite,
271481,NO,7,Olsnes,
271482,NO,7,Mjaanes,
271483,NO,8,Misund,
271484,NO,15,Sölvberg,
271485,NO,6,Kilen,
271486,NO,19,Ospedalen,
271487,NO,7,Hummelsund,
271488,NO,7,Holdhus,
271489,NO,7,Halhjem,
271490,NO,10,Bjørndalen,
271491,NO,19,Hægebostad,
271492,NO,9,Kvitnes,
271493,NO,18,Spildra,
271494,NO,6,Bekken,
271495,NO,12,Sinsen,
271496,NO,6,Berg,
271497,NO,18,Vengsøy,
271498,NO,9,Nygårdsjøen,
271499,NO,10,Meraaker,
271500,NO,16,Melkvik,
271501,NO,10,Mostad,
271502,NO,9,Sørlia,
271503,NO,7,Syfteland,
271504,NO,5,Langfjordhamn,
271505,NO,7,Kleivi,
271506,NO,19,Vårdal,
271507,NO,19,Austad,
271508,NO,10,Sjaastad,
271509,NO,5,Kjoes,
271510,NO,4,Liagardane,
271511,NO,10,Klebu,
271512,NO,9,Loedingen,
271513,NO,1,Fallet,
271514,NO,16,Kvithyll,
271515,NO,18,Mälen,
271516,NO,15,Storesunde,
271517,NO,16,Gaasbakken,
271518,NO,15,Håar,
271519,NO,4,Bromma,
271520,NO,19,Gare,
271521,NO,17,Bostrak,
271522,NO,2,Krossen,
271523,NO,10,Evenstad,
271524,NO,6,Øyeren,
271525,NO,19,Repstad,
271526,NO,5,Havna,
271527,NO,16,Granly,
271528,NO,19,Åsland,
271529,NO,16,Bul,
271530,NO,17,Straume,
271531,NO,18,Oldervik,
271532,NO,15,Bjørke,
271533,NO,10,Lund,
271534,NO,13,Engalsvik,
271535,NO,18,Rebbenes,
271536,NO,8,Eide På Nordmøre,
271537,NO,6,Kjellmyra,
271538,NO,17,Lunde I Telemark,
271539,NO,16,Eid,
271540,NO,18,Finnland,
271541,NO,8,Rise,
271542,NO,8,Forde,
271543,NO,7,Eikanger,
271544,NO,7,Liland,
271545,NO,5,Dyfjord,
271546,NO,9,Kviting,
271547,NO,18,Skrolsvik,
271548,NO,2,Birkenes,
271549,NO,10,Garstad,
271550,NO,18,Burø,
271551,NO,1,Alværn,
271552,NO,5,Ulvsvaag,
271553,NO,17,Romnes,
271554,NO,8,Faksvaag,
271555,NO,19,Flaten,
271556,NO,7,Damsgård,
271557,NO,8,Birkenes,
271558,NO,16,Holla,
271559,NO,10,Hegre,
271560,NO,7,Merkesvik,
271561,NO,9,Saus,
271562,NO,17,Åmdals Verk,
271563,NO,4,Baatstö,
271564,NO,20,Åmli,
271565,NO,8,Daugstad,
271566,NO,14,Tasta,
271567,NO,16,Kraakstad,
271568,NO,10,Stamnes,
271569,NO,18,Medby,
271570,NO,10,Lauvsnes,
271571,NO,9,Presteid,
271572,NO,1,Leangen,
271573,NO,15,Österbö,
271574,NO,7,Austgulen,
271575,NO,9,Kringla,
271576,NO,9,Brønnøy,
271577,NO,8,Nauste,
271578,NO,18,Elvevoll,
271579,NO,7,Flatråker,
271580,NO,14,Skeie,
271581,NO,1,Bøss,
271582,NO,9,Bleikvassli,
271583,NO,18,Hamneidet,
271584,NO,2,Birkedal,
271585,NO,15,Bøyum,
271586,NO,20,Eikenes,
271587,NO,19,Seland,
271588,NO,19,Boen,
271589,NO,18,Manndalen,
271590,NO,4,Viul,
271591,NO,6,Plassen,
271592,NO,7,Koldal,
271593,NO,9,Konsvik,
271594,NO,17,Bamle,
271595,NO,18,Seljelvnes,
271596,NO,9,Grønning,
271597,NO,18,Haakavik,
271598,NO,9,Åse,
271599,NO,19,Korshamn,
271600,NO,16,Mølnbukt,
271601,NO,9,Reines,
271602,NO,4,Storsand,
271603,NO,7,Mæland,
271604,NO,17,Holtan,
271605,NO,17,Hørte,
271606,NO,17,Grova,
271607,NO,11,Viste,
271608,NO,2,Eskedal,
271609,NO,19,Kjelland,
271610,NO,7,Landsvik,
271611,NO,5,Olderfjord,
271612,NO,9,Båsmoen,
271613,NO,7,Storgard,
271614,NO,9,Fygle,
271615,NO,1,Hurdalsverk,
271616,NO,7,Stord Island,
271617,NO,20,Ve,
271618,NO,13,Frederikstad,
271619,NO,5,Nuvsvåg,
271620,NO,17,Svartdal,
271621,NO,13,Aarum,
271622,NO,6,Bakken,
271623,NO,9,Steinland,
271624,NO,15,Grødås,
271625,NO,8,Heggem,
271626,NO,14,Leirvik,
271627,NO,10,Folladalen,
271628,NO,16,Husdalen,
271629,NO,18,Nordeidet,
271630,NO,16,Bessaker,
271631,NO,18,Straumsbukt,
271632,NO,1,Furuset,
271633,NO,7,Eldholm,
271634,NO,2,Grimeland,
271635,NO,17,Bøle,
271636,NO,13,Bjerve,
271637,NO,11,Engelbråtån,
271638,NO,18,Kjærvik,
271639,NO,18,Björkeli,
271640,NO,18,Lakselvbukt,
271641,NO,13,Gautestad,
271642,NO,1,Geitsjø,
271643,NO,20,Vivestad,
271644,NO,20,Mo,
271645,NO,6,Gorum,
271646,NO,1,Neset,
271647,NO,13,Skjelfos,
271648,NO,11,Slangen,
271649,NO,11,Jøstad,
271650,NO,17,Skogen,
271651,NO,2,Nateland,
271652,NO,14,Kviting,
271653,NO,13,Lisleby,
271654,NO,19,Hobbåsland,
271655,NO,19,Kartan,
271656,NO,20,Nau,
271657,NO,14,Lunde,
271658,NO,2,Landsverk,
271659,NO,2,Engesland,
271660,NO,19,Skredå,
271661,NO,2,Skreeros,
271662,NO,5,Sværholt,
271663,NO,17,Homlei,
271664,NO,5,Skoganvarre,
271665,NO,9,Skokkelvik,
271666,NO,9,Bergsdalen,
271667,NO,13,Braate,
271668,NO,13,Spærrebotn,
271669,NO,11,Linstad,
271670,NO,7,Orra,
271671,NO,7,Haaheim,
271672,NO,9,Hoset,
271673,NO,8,Drönen,
271674,NO,9,Slaatnes,
271675,NO,4,Kroksjadelva,
271676,NO,7,Nes,
271677,NO,4,Mehus,
271678,NO,1,Omberg,
271679,NO,12,Hakkloa,
271680,NO,9,Dverset,
271681,NO,2,Gitmark,
271682,NO,18,Skatvik,
271683,NO,15,Skarstein,
271684,NO,17,Kilen,
271685,NO,20,Fossan,
271686,NO,16,Jønland,
271687,NO,7,Risnes,
271688,NO,4,Meskestad,
271689,NO,1,Rustad I Hurdal,
271690,NO,16,Søvassli,
271691,NO,8,Børset,
271692,NO,1,Sjølisæter,
271693,NO,2,Barbu,
271694,NO,19,Holmen,
271695,NO,2,Svaland,
271696,NO,5,Laukeng,
271697,NO,12,Lian,
271698,NO,15,Dyrdal,
271699,NO,7,Skiple,
271700,NO,15,Svoda,
271701,NO,10,Deraas,
271702,NO,4,Flattum,
271703,NO,16,Harbak,
271704,NO,11,Aalset,
271705,NO,12,Nordstrand,
271706,NO,1,Rausjø,
271707,NO,18,Myre,
271708,NO,15,Klakegg,
271709,NO,4,Verp,
271710,NO,19,Grimestad,
271711,NO,11,Balangrud,
271712,NO,11,Benna,
271713,NO,19,Gaulavik,
271714,NO,9,Braemdsund,
271715,NO,9,Alteren,
271716,NO,20,Flisaker,
271717,NO,14,Serikstad,
271718,NO,15,Skarestad,
271719,NO,17,Fjågesund,
271720,NO,17,Kasin,
271721,NO,20,Stua,
271722,NO,4,Hajeren,
271723,NO,11,Flatla,
271724,NO,2,Bakken,
271725,NO,2,Beisland,
271726,NO,10,Hegge,
271727,NO,10,Sundby,
271728,NO,14,Stavenger,
271729,NO,12,Lysebu,
271730,NO,9,Kongsbak,
271731,NO,16,Tyve,
271732,NO,19,Skarpeid,
271733,NO,14,Tysdal,
271734,NO,18,Aarviksand,
271735,NO,1,Kollbotn,
271736,NO,7,Kolltveit,
271737,NO,14,Vig,
271738,NO,7,Oosøren,
271739,NO,14,Imsland,
271740,NO,9,Sør-arnøy,
271741,NO,9,Kvaröy,
271742,NO,18,Taarnelvmo,
271743,NO,15,Bakke,
271744,NO,13,Gjerstad,
271745,NO,4,Skredsvik,
271746,NO,19,Fidja,
271747,NO,17,Haugland,
271748,NO,2,Eieland,
271749,NO,2,Killand,
271750,NO,7,Skjold,
271751,NO,9,Opdöl,
271752,NO,10,Volden,
271753,NO,10,Aarmoen,
271754,NO,4,Fiskum,
271755,NO,20,Berg,
271756,NO,4,Granheim,
271757,NO,2,Askeröen,
271758,NO,14,Are,
271759,NO,14,Hognaland,
271760,NO,14,Vold,
271761,NO,15,Lykkjebø,
271762,NO,5,Snefjord,
271763,NO,9,Tonnes,
271764,NO,14,Holta,
271765,NO,14,Idse,
271766,NO,8,Nelvik,
271767,NO,16,Rømmen,
271768,NO,20,Gogstad,
271769,NO,9,Selvær,
271770,NO,7,Kunes,
271771,NO,2,Oggevatn,
271772,NO,9,Mevik,
271773,NO,5,Måsøy,
271774,NO,2,Nærebö,
271775,NO,1,Bratlien,
271776,NO,18,Aandervaag,
271777,NO,15,Sæter,
271778,NO,4,Rauk,
271779,NO,1,Folvell,
271780,NO,17,Feset,
271781,NO,14,Landal,
271782,NO,2,Mjaavatn,
271783,NO,9,Gjela,
271784,NO,7,Grov,
271785,NO,4,Bæver,
271786,NO,20,Hvaal,
271787,NO,1,Grinder,
271788,NO,4,Kleiv,
271789,NO,4,Aannestad,
271790,NO,16,Kjøra,
271791,NO,7,Sele,
271792,NO,4,Filtvedt,
271793,NO,14,Sevland,
271794,NO,7,Fylingsnes,
271795,NO,9,Skånland,
271796,NO,5,Björnelvdalen,
271797,NO,8,Spilkevik,
271798,NO,18,Åndervåg,
271799,NO,15,Dalsöra,
271800,NO,9,Næverli,
271801,NO,18,Laksvann,
271802,NO,4,Bønsnes,
271803,NO,12,Blankvassbråtan,
271804,NO,1,Holtet,
271805,NO,19,Stupstad,
271806,NO,8,Nordre Vartdal,
271807,NO,9,Bergsnev,
271808,NO,20,Li,
271809,NO,18,Gunnesdal,
271810,NO,19,Fröisland,
271811,NO,15,Borlaug,
271812,NO,10,Flaat,
271813,NO,16,Strauman,
271814,NO,1,Losby,
271815,NO,10,Fornes,
271816,NO,10,Naustbukta,
271817,NO,5,Repparfjord,
271818,NO,18,Hestnes,
271819,NO,15,Sandnes,
271820,NO,7,Klinkholmen,
271821,NO,7,Herheim,
271822,NO,18,Røsneshamn,
271823,NO,17,Lindheim,
271824,NO,15,Hestenes,
271825,NO,14,Buøy,
271826,NO,18,Badderen,
271827,NO,17,Jomfruland,
271828,NO,9,Skjaanes,
271829,NO,10,Sprova,
271830,NO,18,Svendsby,
271831,NO,11,Høvringen,
271832,NO,16,Grindal,
271833,NO,5,Maasöy,
271834,NO,16,Husvika,
271835,NO,18,Aursfjordbotn,
271836,NO,12,Bjornhalt,
271837,NO,19,Öyulfstad,
271838,NO,19,Nomeland,
271839,NO,2,Vegusdal,
271840,NO,17,Fosstveit,
271841,NO,14,Sørbø,
271842,NO,9,Mulstranda,
271843,NO,1,Stabæk,
271844,NO,17,Kleppo,
271845,NO,14,Eia,
271846,NO,2,Flöistad,
271847,NO,12,Blindern,
271848,NO,7,Isdalsstø,
271849,NO,7,Straumsnes,
271850,NO,18,Breivikeidet,
271851,NO,9,Mårnes,
271852,NO,20,Høyjord,
271853,NO,7,Haukanes,
271854,NO,18,Sandstrand,
271855,NO,7,Neshamn,
271856,NO,2,Helldal,
271857,NO,15,Grytöra,
271858,NO,6,Balleshol,
271859,NO,19,Engeland,
271860,NO,2,Kvaastad,
271861,NO,20,Engelstad,
271862,NO,1,Ile,
271863,NO,16,Gåsbakken,
271864,NO,7,Opedal,
271865,NO,11,Etnedalen,
271866,NO,13,Tistedalen,
271867,NO,4,Åslia,
271868,NO,11,Bilitt,
271869,NO,20,Skoger,
271870,NO,9,Myklebostad,
271871,NO,17,Vanebu,
271872,NO,9,Seines,
271873,NO,19,Møl,
271874,NO,7,Koløyhamn,
271875,NO,12,Lambergsæter,
271876,NO,9,Klette,
271877,NO,18,Bergset,
271878,NO,18,Jøvik,
271879,NO,14,Frafjord,
271880,NO,4,Gjeithus,
271881,NO,17,Sætre,
271882,NO,9,Vatsvik,
271883,NO,7,Musland,
271884,NO,10,Ranemsletta,
271885,NO,9,Nordfjordnes,
271886,NO,17,Langlim,
271887,NO,20,Fon,
271888,NO,4,Ura,
271889,NO,14,Tu,
271890,NO,14,Galta,
271891,NO,19,Reiersdal,
271892,NO,20,Kraakemo,
271893,NO,16,Hermstad,
271894,NO,4,Øverby,
271895,NO,16,Hoston,
271896,NO,2,Kilen,
271897,NO,11,Bjödalen,
271898,NO,11,Skirstad,
271899,NO,11,Teiterud,
271900,NO,4,Gardnos,
271901,NO,17,Strand,
271902,NO,9,Gimstad,
271903,NO,14,Ølesund,
271904,NO,9,Steinsvik,
271905,NO,9,Kjørstad,
271906,NO,5,Elvegarden,
271907,NO,10,Røkke,
271908,NO,8,Ona,
271909,NO,6,Helgøy,
271910,NO,10,Saltvikhamn,
271911,NO,18,Gavlen,
271912,NO,15,Midtbøen,
271913,NO,5,Austertana,
271914,NO,4,Breide,
271915,NO,9,Skjånes,
271916,NO,19,Buhølen,
271917,NO,20,Gran,
271918,NO,5,Aisaroaivve,
271919,NO,1,Graarud,
271920,NO,8,Ranvik,
271921,NO,1,Raasjöen,
271922,NO,9,Straumbotn,
271923,NO,8,Myklebostad,
271924,NO,1,Nygard,
271925,NO,2,Koddebåen,
271926,NO,16,Gilset,
271927,NO,16,Budal,
271928,NO,1,Knai,
271929,NO,20,Hvarnes,
271930,NO,8,Bjånes,
271931,NO,14,Jøssingfjord,
271932,NO,7,Askvik,
271933,NO,17,Nos,
271934,NO,2,Svenes,
271935,NO,2,Flaa,
271936,NO,18,Jarsletta,
271937,NO,15,Blakset,
271938,NO,13,Lekum,
271939,NO,7,Vevle,
271940,NO,7,Dolvik,
271941,NO,9,Horn,
271942,NO,10,Ramberg,
271943,NO,1,Bjørke,
271944,NO,2,Valle,
271945,NO,13,Frøhol,
271946,NO,13,Ryen,
271947,NO,18,Rogla,
271948,NO,14,Fløyrli,
271949,NO,4,Landsverk,
271950,NO,1,Aurstad,
271951,NO,1,Ydersbotn,
271952,NO,6,Ranum,
271953,NO,16,Skalmeraas,
271954,NO,7,Sjauset,
271955,NO,6,Ulven,
271956,NO,12,Holmen,
271957,NO,11,Hjerkinn,
271958,NO,2,Ufsvatn,
271959,NO,6,Sagdalen,
271960,NO,20,Gaaserud,
271961,NO,18,Heggeskogan,
271962,NO,4,Strømsø,
271963,NO,6,Moelven,
271964,NO,4,Heen,
271965,NO,4,Drolsum,
271966,NO,20,Rødbøl,
271967,NO,7,Trå,
271968,NO,7,Haukland,
271969,NO,11,Tessand,
271970,NO,17,Krossli,
271971,NO,17,Fjone,
271972,NO,2,Bråden,
271973,NO,20,Oseberg,
271974,NO,18,Bjerknes,
271975,NO,8,Todal,
271976,NO,2,Liane,
271977,NO,5,Langfjordnes,
271978,NO,15,Lånefjord,
271979,NO,8,Viddal,
271980,NO,8,Røyra,
271981,NO,17,Vølstad,
271982,NO,2,Kvaase,
271983,NO,16,Haugen,
271984,NO,14,Ganddal,
271985,NO,1,Helvik,
271986,NO,17,Skjelbreid,
271987,NO,2,Oland,
271988,NO,9,Furulund,
271989,NO,9,Vasvik,
271990,NO,8,Norvik,
271991,NO,19,Kalleberg,
271992,NO,13,Ørmen,
271993,NO,7,Håtopt,
271994,NO,15,Blakseter,
271995,NO,10,Gartland,
271996,NO,18,Årstein,
271997,NO,19,Tryland,
271998,NO,1,Kroer,
271999,NO,8,Årøy,
272000,NO,5,Repvåg,
272001,NO,9,Nordværnes,
272002,NO,9,Andfiskå,
272003,NO,4,Haugen,
272004,NO,6,Smedstuen,
272005,NO,11,Narum,
272006,NO,16,Persaunet,
272007,NO,18,Oksfjordhamn,
272008,NO,15,Berdal,
272009,NO,9,Øbø,
272010,NO,7,Berås,
272011,NO,4,Ustaoset,
272012,NO,14,Fiskå,
272013,NO,17,Reine,
272014,NO,9,Ramberg,
272015,NO,16,Hemnskjel,
272016,NO,7,Moster,
272017,NO,7,Bergo,
272018,NO,4,Tunhovd,
272019,NO,6,Østberg,
272020,NO,1,Rundtom,
272021,NO,5,Jakobsnes,
272022,NO,7,Farestveit,
272023,NO,11,Dale,
272024,NO,7,Haganes,
272025,NO,9,Mørsvik,
272026,NO,19,Sveindal,
272027,NO,16,Hovdan,
272028,NO,18,Tennes,
272029,NO,8,Grytastranda,
272030,NO,17,Gryte,
272031,NO,7,Kleivdal,
272032,NO,16,Sørburøy,
272033,NO,16,Nyheim,
272034,NO,14,Gimra,
272035,NO,2,Vinterstø,
272036,NO,12,Røa,
272037,NO,7,Gjøn,
272038,NO,20,Solberg,
272039,NO,18,Kåfjorddalen,
272040,NO,6,Kjæret,
272041,NO,18,Fosno,
272042,NO,11,Gullor,
272043,NO,6,Rusta,
272044,NO,14,Grinde,
272045,NO,8,Mæraak,
272046,NO,16,Torshus,
272047,NO,17,Hovde,
272048,NO,11,Bottheim,
272049,NO,15,Hildestad,
272050,NO,15,Marheim,
272051,NO,7,Haugsgjerd,
272052,NO,9,Jensvoll,
272053,NO,14,Hillevaag,
272054,NO,17,Hegland,
272055,NO,6,Strandlykkja,
272056,NO,18,Stakkevollan,
272057,NO,19,Vikeland,
272058,NO,10,Sandvikja,
272059,NO,15,Høyvik,
272060,NO,9,Nygaardsjöen,
272061,NO,15,Nyttingnes,
272062,NO,18,Brøstad,
272063,NO,13,Tørnby,
272064,NO,16,Vognill,
272065,NO,15,Fåberg,
272066,NO,10,Hjorten,
272067,NO,8,Grimsmo,
272068,NO,14,Hagen,
272069,NO,11,Vevle,
272070,NO,10,Grande,
272071,NO,9,Bjørnskinn,
272072,NO,19,Kjevic,
272073,NO,7,Drage,
272074,NO,8,Sørvik,
272075,NO,15,Rugsund,
272076,NO,17,Ørvella,
272077,NO,9,Kjerkstad,
272078,NO,16,Hammervik,
272079,NO,1,Aamot,
272080,NO,2,Hope,
272081,NO,2,Hoslemo,
272082,NO,15,Rønset,
272083,NO,16,Eikli,
272084,NO,16,Saksvik,
272085,NO,8,Haavold,
272086,NO,17,Landsverk,
272087,NO,14,Mydland,
272088,NO,7,Herøysundet,
272089,NO,1,Aas,
272090,NO,16,Eide,
272091,NO,5,Guovdageaidnu,
272092,NO,7,Uskedalen,
272093,NO,1,Løken I Høland,
272094,NO,6,Våler I Solør,
272095,NO,9,Bogen I Ofoten,
272096,NO,9,Finnes,
272097,NO,7,Skaanevik,
272098,NO,1,Aaneby,
272099,NO,7,Vassenden,
272100,NO,16,Storaas,
272101,NO,16,Lysøysundet,
272102,NO,1,Sørli,
272103,NO,9,Lund,
272104,NO,7,Tyrvikbygd,
272105,NO,6,Disenaa,
272106,NO,8,Store Standal,
272107,NO,20,Sande I Vestfold,
272108,NO,20,Aasgaardstrand,
272109,NO,8,Raudsand,
272110,NO,6,Os I Østerdalen,
272111,NO,7,Vorland,
272112,NO,11,Vestre Gausdal,
272113,NO,4,Mære,
272114,NO,13,Skjærhalden,
272115,NO,11,Bödalen,
272116,NO,1,Jesseim,
272117,NO,6,Karlstad,
272118,NO,8,Rokstad,
272119,NO,9,Alsvaag,
272120,NO,15,Vik,
272121,NO,14,Hestad,
272122,NO,6,Midtskog,
272123,NO,13,Baaserud,
272124,NO,16,Galaaen,
272125,NO,16,Berkaak,
272126,NO,15,Hyllset,
272127,NO,1,Holstad,
272128,NO,8,Tomren,
272129,NO,16,Fjeldvær,
272130,NO,14,Mariero,
272131,NO,15,Sogndalsfjøra,
272132,NO,7,Aksnes,
272133,NO,15,Randal,
272134,NO,10,Kongsmoen,
272135,NO,10,Skage I Namdalen,
272136,NO,15,Osen,
272137,NO,17,Bøn,
272138,NO,4,Aasberg,
272139,NO,15,Sande I Sunnfjord,
272140,NO,16,By,
272141,NO,10,Oppdal,
272142,NO,17,Nyhus,
272143,NO,7,Litlere,
272144,NO,1,Hjellebøl,
272145,NO,4,Gullaug,
272146,NO,9,Mo,
272147,NO,16,Hovin I Gauldal,
272148,NO,5,Krognes,
272149,NO,4,Flatåker,
272150,NO,14,Sirevaag,
272151,NO,11,Steinsli,
272152,NO,9,Gladstad,
272153,NO,7,Ådland,
272154,NO,8,Bjørke,
272155,NO,6,Myre,
272156,NO,8,Guldset,
272157,NO,5,Berlevaag,
272158,NO,16,Ljøkel,
272159,NO,7,Fotlandsvaag,
272160,NO,2,Brokke,
272161,NO,1,Enebakneset,
272162,NO,7,Pollen,
272163,NO,11,Måno,
272164,NO,14,Fiskaa,
272165,NO,6,Nøra,
272166,NO,15,Slinda,
272167,NO,2,Kjetså,
272168,NO,6,Deset,
272169,NO,9,Vea,
272170,NO,2,Rosseland,
272171,NO,7,Heie,
272172,NO,19,Saanum,
272173,NO,10,Rygg,
272174,NO,2,Helleland,
272175,NO,4,Rotneim,
272176,NO,15,Vikøyri,
272177,NO,9,Holm,
272178,NO,8,Fiskarstranda,
272179,NO,16,Moen,
272180,NO,15,Endal,
272181,NO,10,Aunet,
272182,NO,9,Finneid,
