locId,country,region,city,postcode
273645,PE,,,
273646,PE,15,Lima,
273647,PE,25,San Isidro,
273648,PE,4,Arequipa,
273649,PE,1,La Libertad,
273650,PE,7,Callao,
273651,PE,4,Surco,
273652,PE,10,Inca,
273653,PE,18,Loreto,
273654,PE,12,Junín,
273655,PE,11,San Martín,
273656,PE,2,Chimbote,
273657,PE,20,Sullana,
273658,PE,2,Huaraz,
273659,PE,13,Trujillo,
273660,PE,6,Cajamarca,
273661,PE,20,Piura,
273662,PE,21,Puno,
273663,PE,23,Tacna,
273664,PE,25,Pucallpa,
273665,PE,21,Progreso,
273666,PE,10,Huánuco,
273667,PE,9,Pasco,
273668,PE,16,Iquitos,
273669,PE,22,Cuzco,
273670,PE,5,Ayacucho,
273671,PE,8,Cusco,
273672,PE,20,Calle,
273673,PE,21,Juliaca,
273674,PE,9,Huancavelica,
273675,PE,12,Huancayo,
273676,PE,14,Chiclayo,
273677,PE,4,La Legua,
273678,PE,20,Ayabaca,
273679,PE,1,Bolívar,
273680,PE,15,Huacho,
273681,PE,18,Chincha,
273682,PE,14,Lambayeque,
273683,PE,11,Pisco,
273684,PE,13,Salaverry,
273685,PE,18,Moquegua,
273686,PE,22,Bellavista,
273687,PE,22,Ventanilla,
273688,PE,19,Cerro De Pasco,
273689,PE,22,Rioja,
273690,PE,15,Imperial,
273691,PE,10,Tingo María,
273692,PE,22,Tarapoto,
273693,PE,15,Huaral,
273694,PE,24,Tumbes,
273695,PE,20,Talara,
273696,PE,4,Camaná,
273697,PE,3,Andahuaylas,
273698,PE,22,Moyobamba,
273699,PE,1,Chachapoyas,
273700,PE,11,Marcona,
273701,PE,1,Bagua Chica,
273702,PE,2,Caraz,
273703,PE,12,La Oroya,
273704,PE,15,Agua,
273705,PE,25,Escuela,
273706,PE,10,Ambo,
273707,PE,12,Tarma,
273708,PE,13,Virú,
273709,PE,20,La Huaca,
273710,PE,20,Tamarindo,
273711,PE,2,Carhuaz,
273712,PE,15,Santa Maria,
273713,PE,6,Bellavista,
273714,PE,2,Yungay,
273715,PE,23,Berlín,
273716,PE,22,San José De Sisa,
273717,PE,20,La Brea,
273718,PE,22,Saposoa,
273719,PE,20,Tambo Grande,
273720,PE,12,Satipo,
273721,PE,22,Juanjuí,
273722,PE,2,Santa,
273723,PE,8,Anta,
273724,PE,21,Azángaro,
273725,PE,11,Ica,
273726,PE,15,Ventanilla,
273727,PE,13,Chocope,
273728,PE,12,Orcotuna,
273729,PE,2,Lupahuari Hacienda,
273730,PE,15,Pancha Paula,
273731,PE,10,La Unión,
273732,PE,11,San Jacinto,
273733,PE,15,Chicla,
273734,PE,11,Santa Isabel,
273735,PE,15,Chancay,
273736,PE,19,Huananpachay,
273737,PE,12,San Ramón,
273738,PE,22,Picota,
273739,PE,23,Ilabaya,
273740,PE,12,Jauja,
273741,PE,10,San Miguel De Cauri,
273742,PE,2,Casma,
273743,PE,6,Bambamarca,
273744,PE,6,Celendín,
273745,PE,22,Lamas,
273746,PE,22,Tabalosos,
273747,PE,6,Chota,
273748,PE,19,Oxapampa,
273749,PE,19,Villa Rica,
273750,PE,12,Carhuamayo,
273751,PE,9,Lircay,
273752,PE,11,Hacienda Rio Seco,
273753,PE,8,Sicuani,
273754,PE,6,Cascas,
273755,PE,11,Miraflores,
273756,PE,8,Pibil,
273757,PE,3,Abancay,
273758,PE,18,Ilo,
273759,PE,21,Santa Lucía,
273760,PE,15,Chosica,
273761,PE,15,La Marina,
273762,PE,15,Tambo Inga Hacienda,
273763,PE,15,Piedras Gordas,
273764,PE,13,Otuzco,
273765,PE,15,Santiago De Surco,
273766,PE,17,Puerto Maldonado,
273767,PE,13,Laredo,
273768,PE,15,San Luis,
273769,PE,21,Ocutapampa,
273770,PE,15,Chilca,
273771,PE,15,Arenal,
273772,PE,14,Chongoyape,
273773,PE,9,Poroncancha,
273774,PE,9,Orjopata,
273775,PE,12,Concepción,
273776,PE,2,Huarmey,
273777,PE,14,Oyotún,
273778,PE,15,Leoncio Prado,
273779,PE,9,Pampas,
273780,PE,13,Ascope,
273781,PE,13,Pacasmayo,
273782,PE,20,Chulucanas,
273783,PE,2,Pomabamba,
273784,PE,21,Carmi,
273785,PE,21,Lampa,
273786,PE,11,Palpa,
273787,PE,12,Acolla,
273788,PE,10,Huallanca,
273789,PE,15,Santa Eulalia,
273790,PE,11,Chincha Alta,
273791,PE,15,Supe,
273792,PE,8,Antapallpa,
273793,PE,8,Santo Tomas,
273794,PE,19,Huamac,
273795,PE,12,Huasahuasi,
273796,PE,15,Copacabana,
273797,PE,11,Huarangal,
273798,PE,13,Huamachuco,
273799,PE,18,Jitohualin,
273800,PE,8,Urcos,
273801,PE,23,Pachía,
273802,PE,21,Ilave,
273803,PE,9,Hacienda San Jose,
273804,PE,21,Chucuito,
273805,PE,16,Yurimaguas,
273806,PE,15,Puente Piedra Hacienda,
273807,PE,19,Huariaca,
273808,PE,14,Pimentel,
273809,PE,8,Toquepala,
273810,PE,15,Barranca,
273811,PE,23,Pampa La Julia,
273812,PE,23,Alto De Chapi,
273813,PE,15,Végueta,
273814,PE,23,Cruz,
273815,PE,20,Paita,
273816,PE,5,Huanta,
273817,PE,11,San Clemente,
273818,PE,14,Saña,
273819,PE,4,Lluta,
273820,PE,12,San Pedro De Cajas,
273821,PE,14,Picsi,
273822,PE,12,Morococha,
273823,PE,23,Los Pinos Hacienda,
273824,PE,15,Aylion Bajo,
273825,PE,13,Chepén,
273826,PE,15,La Molina,
273827,PE,11,San Juan,
273828,PE,7,La Perla,
273829,PE,15,Ate,
273830,PE,11,Pariahuana,
273831,PE,15,San Borja,
273832,PE,4,Aplao,
273833,PE,17,Madre De Dios,
273834,PE,14,Eten,
273835,PE,15,Mala,
273836,PE,14,Tumán,
273837,PE,23,Tarata,
273838,PE,15,Surquillo,
273839,PE,19,Quiparacra,
273840,PE,13,Carabamba,
273841,PE,11,La Achirana,
273842,PE,15,Miraflores,
273843,PE,15,Surco,
273844,PE,13,La Libertad,
273845,PE,15,San Martín De Porras,
273846,PE,20,Salitral,
273847,PE,15,San Isidro,
273848,PE,15,Oyón,
273849,PE,11,Zárate,
273850,PE,13,San Pedro De Lloc,
273851,PE,12,Comas,
273852,PE,11,Chunchanga,
273853,PE,16,Requena,
273854,PE,4,Mollendo,
273855,PE,22,Morales,
273856,PE,15,Lurigancho,
273857,PE,5,San Miguel,
273858,PE,4,Chorrillos,
273859,PE,15,El Agustino,
273860,PE,15,Lurín,
273861,PE,2,Breña,
273862,PE,15,Independencia,
273863,PE,15,San Vicente De Cañete,
273864,PE,15,San Juan De Lurigancho,
273865,PE,15,Vitarte,
273866,PE,15,Barranco,
273867,PE,15,Santa Anita,
273868,PE,8,Quillabamba,
273869,PE,17,Tambopata,
273870,PE,15,Matucana,
273871,PE,15,La Victoria,
273872,PE,20,Vichayal,
273873,PE,20,Querecotillo,
273874,PE,12,Chupaca,
273875,PE,15,Huaura,
273876,PE,9,Conchapallana,
273877,PE,15,Comas,
273878,PE,15,Lince,
273879,PE,13,Santiago De Chuco,
273880,PE,2,Huari,
273881,PE,15,Chaclacayo,
273882,PE,13,Guadalupe,
273883,PE,15,Pachacamac,
273884,PE,5,Tambo,
273885,PE,11,Nazca,
273886,PE,15,San Juan,
273887,PE,15,Villa,
273888,PE,15,Pueblo Libre,
273889,PE,15,Chorrillos,
273890,PE,3,Virundo,
273891,PE,11,La Tinguiña,
273892,PE,15,Magdalena Del Mar,
273893,PE,3,Jesús María,
273894,PE,11,Chincha Baja,
273895,PE,12,Iscos,
273896,PE,8,Pisac,
273897,PE,6,Cajabamba,
273898,PE,15,San Martín De Porres,
273899,PE,15,Puente Piedra,
273900,PE,18,Pacocha,
273901,PE,11,Santiago,
273902,PE,15,Magdalena,
273903,PE,11,Chanchamayo,
273904,PE,8,Calca,
273905,PE,4,Majes,
273906,PE,11,San Vicente,
273907,PE,25,Oroya,
273908,PE,7,La Punta,
273909,PE,11,La Victoria,
273910,PE,15,Carabayllo,
273911,PE,15,Punta Hermosa,
273912,PE,15,San Miguel,
273913,PE,23,Las Yaras,
273914,PE,8,Urubamba,
273915,PE,20,Sechura,
273916,PE,13,Cartavio,
273917,PE,11,Parcona,
273918,PE,15,California,
273919,PE,15,Los Olivos,
273920,PE,6,Cutervo,
273921,PE,20,Los Órganos,
273922,PE,20,Marcavelica,
273923,PE,11,La Banda,
273924,PE,21,Molina,
273925,PE,14,Ferreñafe,
273926,PE,13,Moche,
273927,PE,1,Magdalena,
273928,PE,1,Bagua Grande,
273929,PE,15,Salamanca,
273930,PE,24,Zarumilla,
273931,PE,11,Vista Alegre,
273932,PE,15,Cieneguilla,
273933,PE,6,Jaén,
273934,PE,25,Aguaytía,
273935,PE,5,San Juan Bautista,
273936,PE,11,Los Ángeles,
273937,PE,11,Casa Grande,
273938,PE,20,Máncora,
273939,PE,15,La Libertad,
273940,PE,15,Chacarilla,
273941,PE,13,Salamanca,
273942,PE,8,Sulla,
273943,PE,15,Paramonga,
273944,PE,1,Barranco,
273945,PE,2,Coishco,
273946,PE,10,Aucayacu,
273947,PE,4,Cayma,
273948,PE,14,Pomalca,
273949,PE,15,Ciudad De Dios,
273950,PE,10,Chinchao,
273951,PE,15,Monterrico Chico,
273952,PE,4,Sachaca,
273953,PE,15,Chorillos,
273954,PE,15,La Calera,
273955,PE,20,Cerezal Hacienda,
273956,PE,13,Chicama,
273957,PE,14,Pacora,
273958,PE,13,La Calera,
273959,PE,3,Talavera,
273960,PE,11,Sunampe,
273961,PE,25,Pueblo Libre,
273962,PE,6,San Marcos,
273963,PE,14,Cayaltí,
273964,PE,15,Ancón,
273965,PE,1,Leymebamba,
273966,PE,13,Víctor Larco Herrera,
273967,PE,4,Socabaya,
273968,PE,16,Maldonado,
273969,PE,11,San Antonio,
273970,PE,14,Puerto Eten,
273971,PE,13,Túpac Amaru,
273972,PE,13,Huanchaco,
273973,PE,15,Chacra Cerro,
273974,PE,15,San Miguel Characuaycui,
273975,PE,13,Paiján,
273976,PE,15,Monterrico,
273977,PE,15,Agustino,
273978,PE,14,Mochumí,
273979,PE,11,Nasca,
273980,PE,15,Higuereta,
273981,PE,5,Villa Maria,
273982,PE,15,Magdalena Nueva,
273983,PE,11,San Andrés,
273984,PE,15,San Martín,
273985,PE,8,Machupicchu,
273986,PE,7,Bocanegra,
273987,PE,4,Hacienda Perú,
273988,PE,15,Orrantia,
273989,PE,12,San Agustín,
273990,PE,6,Colorado,
273991,PE,15,Huaycan,
273992,PE,16,San Juan De Miraflores,
273993,PE,15,Polvorín,
273994,PE,13,Roma,
273995,PE,14,La Victoria,
273996,PE,22,Tocache,
273997,PE,12,Oroya,
273998,PE,20,Catacaos,
273999,PE,15,Márquez,
274000,PE,21,Ayaviri,
274001,PE,15,Buenos Aires,
274002,PE,11,Humay,
274003,PE,11,Independencia,
274004,PE,21,Acora,
274005,PE,3,Santiago,
274006,PE,4,Paucarpata,
274007,PE,20,Castilla,
274008,PE,4,Lomas,
274009,PE,15,Rímac,
274010,PE,11,Francia,
