locId,country,region,city,postcode
274079,PH,,,
274080,PH,53,Makati,
274081,PH,47,Quezon,
274082,PH,D9,Manila,
274083,PH,53,Mandaluyong,
274084,PH,50,Pasig,
274085,PH,D5,Legaspi,
274086,PH,C9,Iloilo,
274087,PH,53,Las Piñas,
274088,PH,B6,Cavite,
274089,PH,B7,Laguna,
274090,PH,E9,Pasay City,
274091,PH,A1,Angeles,
274092,PH,B7,Cebu,
274093,PH,26,Luzon,
274094,PH,53,Parañaque,
274095,PH,9,Subic,
274096,PH,40,Libis,
274097,PH,66,Del Monte,
274098,PH,33,Binãn,
274099,PH,C8,Iligan,
274100,PH,10,Philippine,
274101,PH,51,Dagupan,
274102,PH,C3,Pampanga,
274103,PH,41,Salcedo,
274104,PH,47,Rizal,
274105,PH,33,College,
274106,PH,24,Pag-asa,
274107,PH,H3,Asia,
274108,PH,7,Mariveles,
274109,PH,20,Kanluran,
274110,PH,28,Monte,
274111,PH,C3,Davao,
274112,PH,G7,Ayala,
274113,PH,39,Interior,
274114,PH,29,Cervantes,
274115,PH,63,Cafe,
274116,PH,D9,Malate,
274117,PH,33,Banco,
274118,PH,A4,Baguio,
274119,PH,21,Union,
274120,PH,21,Lepanto,
274121,PH,21,Centro,
274122,PH,B7,Lahug,
274123,PH,21,General,
274124,PH,16,Lourdes,
274125,PH,53,Muntinlupa City,
274126,PH,67,Allen,
274127,PH,31,Jones,
274128,PH,18,Consolacion,
274129,PH,25,Bulacan,
274130,PH,50,Santo Tomas,
274131,PH,13,Baliuag,
274132,PH,9,Caysasay,
274133,PH,53,Antipolo,
274134,PH,60,Pangasinan,
274135,PH,21,Media,
274136,PH,63,Salle,
274137,PH,B2,Cagayan De Oro,
274138,PH,20,Bacoor,
274139,PH,H3,Vito,
274140,PH,H2,Aurora,
274141,PH,53,Marikina,
274142,PH,1,Toon,
274143,PH,23,Taft,
274144,PH,29,Mission,
274145,PH,14,Santos,
274146,PH,9,Laurel,
274147,PH,25,Central,
274148,PH,9,San Juan,
274149,PH,F3,Roxas,
274150,PH,33,Calamba,
274151,PH,30,Domingo,
274152,PH,31,Santiago,
274153,PH,53,Taguig,
274154,PH,30,San Dionisio,
274155,PH,G7,Zamboanga,
274156,PH,F2,Fort Bonifacio,
274157,PH,13,San Miguel,
274158,PH,A7,Batangas,
274159,PH,53,Taytay,
274160,PH,B8,Cotabato,
274161,PH,D3,Laoag,
274162,PH,46,Pamplona,
274163,PH,20,Dasmariñas,
274164,PH,53,Muntinlupa,
274165,PH,50,Del Pilar,
274166,PH,66,Pinas,
274167,PH,11,Trinidad,
274168,PH,21,Guadalupe,
274169,PH,36,Biday,
274170,PH,D9,Port Area,
274171,PH,60,Intramuros,
274172,PH,42,Bonifacio,
274173,PH,D1,Iriga,
274174,PH,D8,Mandaue,
274175,PH,13,Diliman,
274176,PH,53,Rodriguez,
274177,PH,47,San Antonio,
274178,PH,33,San Pedro,
274179,PH,46,Tambo,
274180,PH,30,Nino,
274181,PH,53,Bicutan,
274182,PH,E3,Olongapo,
274183,PH,50,Zapote,
274184,PH,18,Talon,
274185,PH,F2,Caloocan,
274186,PH,1,West,
274187,PH,C5,Dumaguete,
274188,PH,31,Muñoz,
274189,PH,33,Pulong,
274190,PH,53,Cainta,
274191,PH,53,Alabang,
274192,PH,3,Libertad,
274193,PH,71,Villamor,
274194,PH,64,Princess,
274195,PH,16,Miguel,
274196,PH,63,Vargas,
274197,PH,14,Portugal,
274198,PH,5,Herrera,
274199,PH,4,Aquino,
274200,PH,11,Agustin,
274201,PH,67,Bagong,
274202,PH,F2,Pasong Tamo,
274203,PH,62,Loyola,
274204,PH,51,Urdaneta,
274205,PH,14,Plaza,
274206,PH,20,Boni,
274207,PH,45,Luna,
274208,PH,D4,Lapu-lapu,
274209,PH,27,Gate,
274210,PH,11,Garcia,
274211,PH,47,San Isidro,
274212,PH,G5,Toledo,
274213,PH,64,San Marcelino,
274214,PH,53,Sampaloc,
274215,PH,53,Cardona,
274216,PH,66,Commonwealth,
274217,PH,D5,Legazpi,
274218,PH,F2,Cubao,
274219,PH,33,Kalayaan,
274220,PH,53,Valenzuela,
274221,PH,C3,Lacson,
274222,PH,50,Cruz,
274223,PH,F2,Capitol,
274224,PH,49,Osmeña,
274225,PH,66,Katipunan,
274226,PH,66,Mabuhay,
274227,PH,33,Victoria,
274228,PH,31,Planan,
274229,PH,58,Esteban,
274230,PH,D9,Binondo,
274231,PH,33,Poblacion,
274232,PH,64,San Lorenzo,
274233,PH,14,Mesa,
274234,PH,53,Tejeros,
274235,PH,53,Palanan,
274236,PH,71,Basak,
274237,PH,4,Feliciano,
274238,PH,67,San Roque,
274239,PH,16,Ocampo,
274240,PH,21,Mindanao,
274241,PH,E9,Forbes Park,
274242,PH,33,Santa Rosa,
274243,PH,45,A Bonifacio,
274244,PH,30,Summit,
274245,PH,50,San Fernando,
274246,PH,H3,Ilog,
274247,PH,33,Cabuyao,
274248,PH,70,Panay,
274249,PH,14,Tagao,
274250,PH,F2,Kamuning,
274251,PH,63,Tarlac,
274252,PH,16,Pili,
274253,PH,33,Don Jose,
274254,PH,10,Ambuklao,
274255,PH,47,Mabini,
274256,PH,36,Naguilian,
274257,PH,D7,Lucena,
274258,PH,7,Pilar,
274259,PH,47,San Jose,
274260,PH,63,San Vicente,
274261,PH,7,Balanga,
274262,PH,59,Aguinaldo,
274263,PH,13,Meycauayan,
274264,PH,63,Comillas,
274265,PH,E9,Pasay,
274266,PH,D6,Lipa,
274267,PH,67,Mckinley,
274268,PH,14,Tuguegarao,
274269,PH,9,Balibago,
274270,PH,3,Bataan,
274271,PH,5,Locsin,
274272,PH,47,Burgos,
274273,PH,A2,Bacolod,
274274,PH,F8,Silay,
274275,PH,16,Bato,
274276,PH,F1,Puerto Princesa,
274277,PH,53,Ugong,
274278,PH,31,Ramon,
274279,PH,70,Koronadal,
274280,PH,56,Sultan Kudarat,
274281,PH,21,Palawan,
274282,PH,D4,Pusok,
274283,PH,63,Concepcion,
274284,PH,20,Manggahan,
274285,PH,53,Caniogan,
274286,PH,30,Ermita,
274287,PH,E9,Malibay,
274288,PH,5,Bagumbayan,
274289,PH,H2,Fernando,
274290,PH,13,Pulo,
274291,PH,36,Carlatan,
274292,PH,51,Rosario,
274293,PH,23,Dolores,
274294,PH,13,Malolos,
274295,PH,41,Evangelista,
274296,PH,61,Lakandula,
274297,PH,B4,Tanza,
274298,PH,53,Teresa,
274299,PH,13,Hagonoy,
274300,PH,F7,San Pablo,
274301,PH,33,Los Baños,
274302,PH,21,Clara,
274303,PH,H2,Bagong Silang,
274304,PH,34,Princesa,
274305,PH,F1,Puerto Princesa City,
274306,PH,70,Ilaya,
274307,PH,C7,Mariano,
274308,PH,A9,Cabanatuan,
274309,PH,55,Villareal,
274310,PH,66,Molave,
274311,PH,53,Kapasigan,
274312,PH,53,Navotas,
274313,PH,33,Sampaguita,
274314,PH,67,Villa,
274315,PH,13,Guiguinto,
274316,PH,40,Harrison,
274317,PH,22,Isabela,
274318,PH,33,Calauan,
274319,PH,G2,Tagaytay,
274320,PH,5,San Rafael,
274321,PH,50,Guagua,
274322,PH,29,Tamag,
274323,PH,62,Lucia,
274324,PH,47,San Francisco,
274325,PH,25,Digos,
274326,PH,H3,Lopez Jaena,
274327,PH,43,Villanueva,
274328,PH,B3,Peña,
274329,PH,53,Binangonan,
274330,PH,58,Aguada,
274331,PH,46,Tanjay,
274332,PH,46,Bayawan,
274333,PH,H2,Tagumpay,
274334,PH,12,Malaybalay,
274335,PH,28,Batac,
274336,PH,53,Santolan,
274337,PH,H3,Plaridel,
274338,PH,13,Dalandanan,
274339,PH,39,Malinta,
274340,PH,A8,Butuan,
274341,PH,14,Punta,
274342,PH,H2,Tala,
274343,PH,61,Alegria,
274344,PH,42,Misamis,
274345,PH,28,Marcos,
274346,PH,53,Wack Wack,
274347,PH,30,Leon,
274348,PH,53,Pateros,
274349,PH,C4,Dipolog,
274350,PH,F2,Murphy,
274351,PH,47,Doña Josefa,
274352,PH,6,Malacañang,
274353,PH,2,Magallanes,
274354,PH,41,Gamboa,
274355,PH,31,Quirino,
274356,PH,D9,Quiapo,
274357,PH,47,Estrella,
274358,PH,47,Mangga,
274359,PH,59,Kamagong,
274360,PH,A9,Miller,
274361,PH,25,Jose Abad Santos,
274362,PH,29,Vigan,
274363,PH,15,Mercedes,
274364,PH,33,San Gregorio,
274365,PH,E2,Carolina,
274366,PH,F4,Lopez,
274367,PH,53,Ugong Norte,
274368,PH,60,Bangkal,
274369,PH,51,Lucero,
274370,PH,50,Batasang,
274371,PH,33,Canlubang,
274372,PH,63,Estrada,
274373,PH,47,Soledad,
274374,PH,51,Don Pedro,
274375,PH,38,Silangan,
274376,PH,67,Washington,
274377,PH,21,Lupa,
274378,PH,53,Almanza,
274379,PH,39,Benguet,
274380,PH,47,Maligaya,
274381,PH,43,San Martin,
274382,PH,43,Jasaan,
274383,PH,9,Malvar,
274384,PH,41,Malamig,
274385,PH,24,Saranggani,
274386,PH,20,Bulihan,
274387,PH,51,Diaz,
274388,PH,53,Angono,
274389,PH,66,Sumulong,
274390,PH,34,Cagayan,
274391,PH,24,Paradise,
274392,PH,37,La Paz,
274393,PH,66,Norte,
274394,PH,47,Gabaldon,
274395,PH,B5,Canlaon,
274396,PH,61,Wilson,
274397,PH,53,Pineda,
274398,PH,H3,Kabankalan,
274399,PH,B3,Calbayog,
274400,PH,E6,Ozamiz,
274401,PH,54,Looc,
274402,PH,9,Palanca,
274403,PH,51,Bautista,
274404,PH,50,Remedios,
274405,PH,53,Putatan,
274406,PH,51,Natividad,
274407,PH,60,Andres,
274408,PH,62,Soriano,
274409,PH,70,Cinco,
274410,PH,9,Emmanuel,
274411,PH,29,Santa,
274412,PH,37,Liberty,
274413,PH,13,Bagong Barrio,
274414,PH,F2,Pinaglabanan,
274415,PH,A3,Bago,
274416,PH,30,Alman,
274417,PH,33,Perlas,
274418,PH,C3,Manuel,
274419,PH,46,Villegas,
274420,PH,45,Gomez,
274421,PH,21,Cubacub,
274422,PH,56,Bong,
274423,PH,62,Alba,
274424,PH,E2,Naga,
274425,PH,29,Orense,
274426,PH,6,Martinez,
274427,PH,29,Orence,
274428,PH,51,Paul,
274429,PH,63,Inez,
274430,PH,6,Salazar,
274431,PH,21,Sili,
274432,PH,54,Odiongan,
274433,PH,63,Carbonel,
274434,PH,G1,Tacloban,
274435,PH,40,San Agustin,
274436,PH,E6,Ozamis City,
274437,PH,53,Buting,
274438,PH,B2,Bugo,
274439,PH,50,Sindalan,
274440,PH,13,Pulilan,
274441,PH,33,Tagapo,
274442,PH,24,Florida,
274443,PH,38,Lupac,
274444,PH,H3,Binalbagan,
274445,PH,64,Malabon,
274446,PH,39,Masbate,
274447,PH,36,Pagdalagan Norte,
274448,PH,66,Ipil,
274449,PH,47,Valle,
274450,PH,42,Jimenez,
274451,PH,E6,Ozamis,
274452,PH,21,Pajo,
274453,PH,50,Valdez,
274454,PH,C6,Dadiangas,
274455,PH,50,Quebiauan,
274456,PH,39,Mactan,
274457,PH,41,Gloria,
274458,PH,B7,Talamban,
274459,PH,50,Lanang,
274460,PH,53,Tuktukan,
274461,PH,29,Bantay,
274462,PH,53,Maybuñga,
274463,PH,H2,Addition Hills,
274464,PH,C6,Tambler,
274465,PH,26,La Union,
274466,PH,51,San Carlos,
274467,PH,70,Kalibo,
274468,PH,64,Mindoro,
274469,PH,H3,Sagay,
274470,PH,20,Tabora,
274471,PH,21,Carmen,
274472,PH,56,Parang,
274473,PH,B3,Occidental,
274474,PH,33,San Andres,
274475,PH,33,Forestry,
274476,PH,33,Diezmo,
274477,PH,21,Bohol,
274478,PH,D2,La Carlota,
274479,PH,13,Balagtas,
274480,PH,59,Zamora,
274481,PH,45,Talubangi,
274482,PH,53,Loñgos,
274483,PH,F9,Surigao,
274484,PH,13,Paombong,
274485,PH,59,Ibarra,
274486,PH,C1,Danao,
274487,PH,37,Capiz,
274488,PH,47,Conversion,
274489,PH,67,Polangui,
274490,PH,7,Daan,
274491,PH,C6,General Santos,
274492,PH,51,Sanchez,
274493,PH,B7,Mabolo,
274494,PH,66,Fatima,
274495,PH,15,Daet,
274496,PH,16,Tara,
274497,PH,E4,Ormoc,
274498,PH,H3,Bukidnon,
274499,PH,21,Paknaan,
274500,PH,50,Clark,
274501,PH,33,Santa Cruz,
274502,PH,48,Salinas,
274503,PH,43,Mapua,
274504,PH,39,Roosevelt,
274505,PH,53,Pinagbuhatan,
274506,PH,16,San Lucas,
274507,PH,18,Damayan,
274508,PH,21,Minglanilla,
274509,PH,60,Kalookan,
274510,PH,37,Javier,
274511,PH,28,San Nicolas,
274512,PH,G1,Cutting,
274513,PH,19,Virac,
274514,PH,9,San Diego,
274515,PH,67,Paco,
274516,PH,30,Bayan,
274517,PH,30,Concordia,
274518,PH,33,Kaingin,
274519,PH,63,Guevara,
274520,PH,13,Calumpit,
274521,PH,59,Maria Clara,
274522,PH,61,Victory,
274523,PH,30,Sara,
274524,PH,53,Sucat,
274525,PH,46,Davin,
274526,PH,30,Dionisio,
274527,PH,10,Bayabas,
274528,PH,7,Marilao,
274529,PH,57,Kidapawan,
274530,PH,57,Kabacan,
274531,PH,F2,Lagro,
274532,PH,44,Villarosa,
274533,PH,61,Socorro,
274534,PH,A4,Tuba,
274535,PH,31,Australia,
274536,PH,63,Moncada,
274537,PH,51,Sison,
274538,PH,4,Rivera,
274539,PH,59,Amparo,
274540,PH,49,Coral,
274541,PH,51,Bogtong,
274542,PH,47,Baloy,
274543,PH,63,Ramos,
274544,PH,61,Arellano,
274545,PH,14,Divisoria,
274546,PH,4,Morales,
274547,PH,36,Gonzales,
274548,PH,48,Panao,
274549,PH,11,Faraon,
274550,PH,16,Castillo,
274551,PH,28,Pinili,
274552,PH,42,Villaflor,
274553,PH,30,Pangilinan,
274554,PH,24,Tagum,
274555,PH,30,Ravina,
274556,PH,51,Torres,
274557,PH,21,Hernandez,
274558,PH,14,Marco,
274559,PH,31,Tapay,
274560,PH,47,Gapan,
274561,PH,38,Argao,
274562,PH,2,Aclan,
274563,PH,21,Fuente,
274564,PH,62,Madrid,
274565,PH,18,Milan,
274566,PH,50,Barit,
274567,PH,59,Garrido,
274568,PH,3,Johnson,
274569,PH,H2,Perez,
274570,PH,24,Felix,
274571,PH,36,Castro,
274572,PH,39,Laurente,
274573,PH,21,Alcantara,
274574,PH,51,Aguilar,
274575,PH,33,Pagsanjan,
274576,PH,F4,Rigor,
274577,PH,3,Esperanza,
274578,PH,50,Arenas,
274579,PH,A1,Mining,
274580,PH,51,David,
274581,PH,30,Roma,
274582,PH,30,Jordan,
274583,PH,18,Fernandez,
274584,PH,30,Bacan,
274585,PH,18,Guia,
274586,PH,9,Calatagan,
274587,PH,18,Cristina,
274588,PH,35,Malalis,
274589,PH,60,Bandahala,
274590,PH,37,Tanauan,
274591,PH,54,Cambaya,
274592,PH,41,Chicago,
274593,PH,32,Asset,
274594,PH,51,Tamayo,
274595,PH,25,Tuban,
274596,PH,37,Villalon,
274597,PH,33,Pakil,
274598,PH,69,Maria,
274599,PH,23,Llorente,
274600,PH,48,Solano,
274601,PH,28,Espiritu,
274602,PH,11,Borja,
274603,PH,20,Ramirez,
274604,PH,47,Pinto,
274605,PH,25,Sarangani,
274606,PH,3,Loreto,
274607,PH,3,Pagatpatan,
274608,PH,66,Elisan,
274609,PH,5,Abella,
274610,PH,F7,Buenaventura,
274611,PH,H2,Nieva,
274612,PH,51,Panganiban,
274613,PH,66,Anti,
274614,PH,60,Punay,
274615,PH,36,Bulala,
274616,PH,45,Miranda,
274617,PH,26,Mayo,
274618,PH,16,Ibig,
274619,PH,47,Jaen,
274620,PH,37,America,
274621,PH,51,Eguia,
274622,PH,66,Legarda,
274623,PH,23,Salanga,
274624,PH,30,Ravena,
274625,PH,B3,Navarro,
274626,PH,36,Ortega,
274627,PH,21,Bala,
274628,PH,39,Balatucan,
274629,PH,57,Linao,
274630,PH,31,Magat,
274631,PH,18,Ganzon,
274632,PH,23,Tagalag,
274633,PH,43,Medina,
274634,PH,21,Manatad,
274635,PH,H2,Real,
274636,PH,14,Gonzaga,
274637,PH,21,Poro,
274638,PH,36,Francia,
274639,PH,51,Beltran,
274640,PH,F2,Capital,
274641,PH,6,Salde,
274642,PH,51,Labrador,
274643,PH,29,Ancheta,
274644,PH,55,Gandara,
274645,PH,14,Tallungan,
274646,PH,1,Mateo,
274647,PH,70,Maan,
274648,PH,49,Banda,
274649,PH,37,Coronado,
274650,PH,53,Tuna,
274651,PH,H2,Ibas,
274652,PH,42,Pines,
274653,PH,E4,Valencia,
274654,PH,B4,Flores,
274655,PH,40,Banos,
274656,PH,23,Policarpio,
274657,PH,30,Granada,
274658,PH,37,Naval,
274659,PH,9,Asis,
274660,PH,30,Mina,
274661,PH,20,Pacheco,
274662,PH,63,Bawa,
274663,PH,11,Sevilla,
274664,PH,D6,Malabanan,
274665,PH,B3,Rosales,
274666,PH,30,Molina,
274667,PH,24,La Filipina,
274668,PH,45,Manalad,
274669,PH,20,Mendez,
274670,PH,21,Louis,
274671,PH,7,San Benito,
274672,PH,1,Velasco,
274673,PH,54,Calisay,
274674,PH,47,Mallorca,
274675,PH,63,Bueno,
274676,PH,37,Pilapil,
274677,PH,50,Lara,
274678,PH,66,Imelda,
274679,PH,37,Belen,
274680,PH,63,Villar,
274681,PH,53,San Mateo,
274682,PH,28,Adam,
274683,PH,14,Claveria,
274684,PH,14,Enrile,
274685,PH,28,Lazo,
274686,PH,51,Amistad,
274687,PH,51,Rabago,
274688,PH,16,Bugna,
274689,PH,21,Saavedra,
274690,PH,70,Teresita,
274691,PH,27,Joya,
274692,PH,14,Tamura,
274693,PH,25,Wines,
274694,PH,20,Kawit,
274695,PH,51,Tupa,
274696,PH,61,Bacud,
274697,PH,G8,Mijares,
274698,PH,8,Basco,
274699,PH,H2,Montaño,
274700,PH,37,Zabala,
274701,PH,4,Usman,
274702,PH,55,Quizon,
274703,PH,50,Nepomuceno,
274704,PH,23,Japay,
274705,PH,51,Baluyot,
274706,PH,31,Ilagan,
274707,PH,30,Passi,
274708,PH,21,Ylaya,
274709,PH,59,Mayuga,
274710,PH,46,Polo,
274711,PH,51,Bantog,
274712,PH,64,Bucao,
274713,PH,51,Maningding,
274714,PH,60,Licup,
274715,PH,67,Dale,
274716,PH,40,Tangon,
274717,PH,62,Barcelona,
274718,PH,33,Corazon,
274719,PH,58,Bunag,
274720,PH,40,Mason,
274721,PH,6,Aguila,
274722,PH,64,Aparri,
274723,PH,6,Valderrama,
274724,PH,H2,Tayabas,
274725,PH,45,Paraiso,
274726,PH,17,Alga,
274727,PH,29,Montero,
274728,PH,11,Balao,
274729,PH,51,Abalos,
274730,PH,63,Cariño,
274731,PH,39,Taberna,
274732,PH,30,Tupaz,
274733,PH,70,Zulueta,
274734,PH,1,Agas,
274735,PH,26,Tipdas,
274736,PH,33,San Buenaventura,
274737,PH,1,Arab,
274738,PH,30,California,
274739,PH,24,Salvacion,
274740,PH,5,Saban,
274741,PH,51,Ablang,
274742,PH,3,Gracia,
274743,PH,63,Almendras,
274744,PH,H3,Makiling,
274745,PH,30,Lauigan,
274746,PH,51,Carlos,
274747,PH,B1,Cadiz,
274748,PH,63,Casil,
274749,PH,70,Liwanag,
274750,PH,7,Prado,
274751,PH,H2,Amoguis,
274752,PH,14,Balisi,
274753,PH,29,Magno,
274754,PH,1,Balais,
274755,PH,66,Mangahas,
274756,PH,C3,Ma-a,
274757,PH,30,Advincula,
274758,PH,37,Toyo,
274759,PH,C3,Biao,
274760,PH,5,Cale,
274761,PH,18,Sigma,
274762,PH,4,Batan,
274763,PH,45,Moreno,
274764,PH,35,Bicong,
274765,PH,12,Sampiano,
274766,PH,59,Nava,
274767,PH,H2,Abad,
274768,PH,6,Virginia,
274769,PH,36,Gana,
274770,PH,66,Sagun,
274771,PH,30,Maasin,
274772,PH,30,Bondoc,
274773,PH,25,Baclayon,
274774,PH,51,Austria,
274775,PH,65,Mutia,
274776,PH,42,Quijano,
274777,PH,66,Dalagan,
274778,PH,56,Pasi,
274779,PH,C6,General Santos City,
274780,PH,67,Taylor,
274781,PH,47,Portal,
274782,PH,H2,Monticello,
274783,PH,37,Mag-aso,
274784,PH,13,Pandi,
274785,PH,33,Novaliches,
274786,PH,62,Bajao,
274787,PH,56,Mate,
274788,PH,22,Coco,
274789,PH,28,Pacis,
274790,PH,28,Gabo,
274791,PH,70,Manil,
274792,PH,30,Fuentes,
274793,PH,34,Madaya,
274794,PH,53,Morong,
274795,PH,59,Asuncion,
274796,PH,B4,Kaybiga,
274797,PH,56,Mangay,
274798,PH,22,Mangal,
274799,PH,16,Bagadion,
274800,PH,10,Bunagan,
274801,PH,21,Cerdeña,
274802,PH,34,Salvador,
274803,PH,3,Martires,
274804,PH,33,Magdalena,
274805,PH,28,Veronica,
274806,PH,C9,Alegre,
274807,PH,37,Palo,
274808,PH,21,Caceres,
274809,PH,63,Manaois,
274810,PH,H2,Marquez,
274811,PH,49,Narra,
274812,PH,18,Candelaria,
274813,PH,13,Nabung,
274814,PH,32,Flora,
274815,PH,45,Pacita,
274816,PH,H2,Mascariña,
274817,PH,H3,Lilia,
274818,PH,29,Suyo,
274819,PH,45,Himaya,
274820,PH,36,Barrientos,
274821,PH,C3,Tugbok,
274822,PH,50,Apalit,
274823,PH,21,Consuelo,
274824,PH,21,Maravilla,
274825,PH,63,Tagalog,
274826,PH,71,Malang,
274827,PH,21,Cueva,
274828,PH,29,Kiat,
274829,PH,37,Mercado,
274830,PH,11,Adlawan,
274831,PH,25,Magsaysay,
274832,PH,43,Andales,
274833,PH,56,Ling,
274834,PH,36,Acao,
274835,PH,37,Luneta,
274836,PH,37,Santo,
274837,PH,15,Cagas,
274838,PH,70,Baliton,
274839,PH,63,Luisita,
274840,PH,62,Cortes,
274841,PH,11,Villafuerte,
274842,PH,53,Malaya,
274843,PH,B3,Caballero,
274844,PH,30,Aganan,
274845,PH,B7,Tupas,
274846,PH,5,Gaba,
274847,PH,56,Mata,
274848,PH,5,Bonon,
274849,PH,63,Sembrano,
274850,PH,21,Colon,
274851,PH,B7,Waterfront,
274852,PH,H2,Latay,
274853,PH,11,Tejero,
274854,PH,22,Visaya,
274855,PH,53,Geronimo,
274856,PH,18,Rivero,
274857,PH,59,Omaga,
274858,PH,H2,Roman,
274859,PH,46,Wood,
274860,PH,4,Rosal,
274861,PH,62,Maliksi,
274862,PH,4,Jimeno,
274863,PH,41,Kalinisan,
274864,PH,29,Sinait,
274865,PH,23,Ungay,
274866,PH,39,Rojas,
274867,PH,28,Manarang,
274868,PH,66,Fama,
274869,PH,62,Lanuza,
274870,PH,71,Banaga,
274871,PH,49,Tabon,
274872,PH,54,Espiña,
274873,PH,37,Manok,
274874,PH,47,Mapalad,
274875,PH,57,Lang,
274876,PH,30,Alipato,
274877,PH,21,Bitoon,
274878,PH,63,Celestino,
274879,PH,59,Flordeliz,
274880,PH,30,Damasco,
274881,PH,9,Lian,
274882,PH,71,Dumaguit,
274883,PH,67,Cauayan,
274884,PH,20,Alfonso,
274885,PH,30,Avila,
274886,PH,9,Cuenca,
274887,PH,29,Cerna,
274888,PH,21,Catmon,
274889,PH,13,Barasoain,
274890,PH,60,Campo,
274891,PH,60,Pang,
274892,PH,21,Tuble,
274893,PH,9,Banilad,
274894,PH,26,San Ignacio,
274895,PH,29,Paras,
274896,PH,23,Ando,
274897,PH,14,Pares,
274898,PH,31,Andrade,
274899,PH,35,Raya,
274900,PH,37,Casa,
274901,PH,51,Olea,
274902,PH,47,Castellano,
274903,PH,H2,Pitogo,
274904,PH,37,Cebuana,
274905,PH,39,Crossing,
274906,PH,71,Tran,
274907,PH,21,Fortaleza,
274908,PH,30,Gines,
274909,PH,21,Sansan,
274910,PH,15,Langga,
274911,PH,28,Torre,
274912,PH,4,Dongon,
274913,PH,D5,Balasbas,
274914,PH,G2,Galicia,
274915,PH,6,Esparagoza,
274916,PH,B1,Cabahug,
274917,PH,63,Conception,
274918,PH,67,Trujillo,
274919,PH,9,Conde,
274920,PH,20,Aniban,
274921,PH,9,Bolo,
274922,PH,66,Bucacao,
274923,PH,4,Aranas,
274924,PH,F2,Quezon City,
274925,PH,13,Loma De Gato,
274926,PH,13,Sulucan,
274927,PH,50,Santa Ana,
274928,PH,53,Ebaiu,
274929,PH,33,San Juan,
274930,PH,21,Talisay,
274931,PH,H3,Kapitan Ramon,
274932,PH,13,Akle,
274933,PH,13,Liciada,
274934,PH,18,Bungsuan,
274935,PH,13,Bocaue,
274936,PH,H3,Minoyan,
274937,PH,13,Vizal Santo Niño,
274938,PH,53,Malanday,
274939,PH,13,Lambakin,
274940,PH,F4,San Carlos,
274941,PH,13,Manatal,
274942,PH,B4,Caloocan,
274943,PH,13,Pulong Gubat,
274944,PH,9,Balagtasin,
274945,PH,H3,Pandanon,
274946,PH,20,Carmona,
274947,PH,F7,Santa Catalina,
274948,PH,53,Posadas Village,
274949,PH,21,Magay,
274950,PH,21,Tayud,
274951,PH,53,Montalban,
274952,PH,F4,Palampas,
274953,PH,H3,Santa Cruz,
274954,PH,F4,Codcod,
274955,PH,33,Masaya,
274956,PH,13,Camias,
274957,PH,13,Maasim,
274958,PH,21,Nangka,
274959,PH,50,Lourdes,
274960,PH,53,Baclaran,
274961,PH,50,Pulungmasle,
274962,PH,57,Marbel,
274963,PH,57,Salunayan,
274964,PH,57,Magpet,
274965,PH,H3,San Juan,
274966,PH,56,Pigkelegan,
274967,PH,63,Calapan,
274968,PH,50,Balucuc,
274969,PH,53,Pildira,
274970,PH,13,Pinambaran,
274971,PH,50,Bulaon,
274972,PH,50,Telabastagan,
274973,PH,12,Sankanan,
274974,PH,G3,Tagbilaran,
274975,PH,13,Balasing,
274976,PH,30,Buenavista,
274977,PH,66,Mahayag,
274978,PH,9,Tranca,
274979,PH,H2,Cagsiay,
274980,PH,58,Caditaan,
274981,PH,56,Dalumangcob,
274982,PH,57,Bao,
274983,PH,H3,Tinongan,
274984,PH,46,Malusay,
274985,PH,29,Cabugao,
274986,PH,30,Dueñas,
274987,PH,7,Limay,
274988,PH,53,San Dionisio,
274989,PH,66,Tambulig,
274990,PH,44,Loacan,
274991,PH,50,San Ildefonso,
274992,PH,B2,Tagpangi,
274993,PH,7,Orion,
274994,PH,E7,Pagadian,
274995,PH,16,Tambo,
274996,PH,9,Pantay,
274997,PH,24,Tagnanan,
274998,PH,D6,Santa Cruz,
274999,PH,11,San Isidro,
275000,PH,11,Abucayan,
275001,PH,25,New Baclayon,
275002,PH,25,Tanglad,
275003,PH,5,Malabog,
275004,PH,16,Baao,
275005,PH,50,Mapaniqui,
275006,PH,25,Kiblawan,
275007,PH,56,Bato,
275008,PH,53,Punta,
275009,PH,37,San Miguel,
275010,PH,39,San Fernando,
275011,PH,D5,Sagpon,
275012,PH,58,Bulusan,
275013,PH,5,Libog,
275014,PH,34,Maigo,
275015,PH,34,Bunawan,
275016,PH,30,East Valencia,
275017,PH,16,Canaman,
275018,PH,55,Santa Rita,
275019,PH,50,San Luis,
275020,PH,50,Bahay Pare,
275021,PH,5,Buyo,
275022,PH,12,Santa Fe,
275023,PH,12,Alae,
275024,PH,F4,Igmaya-an,
275025,PH,30,Dingle,
275026,PH,45,Pandanon,
275027,PH,30,Bolilao,
275028,PH,53,Merville Subdivision,
275029,PH,E9,Tabon,
275030,PH,50,Calibutbut,
275031,PH,20,Imus,
275032,PH,E5,Oroquieta,
275033,PH,51,Macayug,
275034,PH,E6,Tabid,
275035,PH,25,Padada,
275036,PH,13,Culianin,
275037,PH,63,Balaoang,
275038,PH,13,Upig,
275039,PH,53,Alabang Hills Village,
275040,PH,47,Lambakin,
275041,PH,53,Bagumbayan,
275042,PH,13,San Jose Del Monte,
275043,PH,50,Salapuñgan,
275044,PH,57,Kalaisan,
275045,PH,56,Pagatin,
275046,PH,56,Digal,
275047,PH,56,Datu Paglas,
275048,PH,71,Columbio,
275049,PH,71,Telafas,
275050,PH,H2,Mamala,
275051,PH,H2,Pagbilao,
275052,PH,47,Pias,
275053,PH,54,Punta,
275054,PH,63,San Miguel,
275055,PH,H3,Ma-ao,
275056,PH,D9,New Alabang Height Village,
275057,PH,63,Santa Ines,
275058,PH,45,Dulao,
275059,PH,30,Cadagmayan,
275060,PH,F4,Prosperidad,
275061,PH,16,Salingogon,
275062,PH,28,Tabug,
275063,PH,50,San Jose Malino,
275064,PH,D6,Banaybanay,
275065,PH,47,San Roque,
275066,PH,13,Pantubig,
275067,PH,33,Nagcarlan,
275068,PH,33,Bay,
275069,PH,13,Calumpang,
275070,PH,9,Lapolapo,
275071,PH,47,Villa Isla,
275072,PH,9,Ambulong,
275073,PH,30,Aglalana,
275074,PH,9,Sampaloc,
275075,PH,B9,Dagupan City,
275076,PH,14,Dassun,
275077,PH,50,Buensuceso,
275078,PH,57,Kisante,
275079,PH,30,Tumcon,
275080,PH,21,Aloguinsan,
275081,PH,F4,Guadalupe,
275082,PH,50,San Carlos,
275083,PH,47,Calancuasan,
275084,PH,51,Tombod,
275085,PH,F4,Buluangan,
275086,PH,45,Talaban,
275087,PH,36,Dagup,
275088,PH,63,San Antonio,
275089,PH,50,Mandili,
275090,PH,13,San Jose,
275091,PH,63,Santo Niño,
275092,PH,50,Minalin,
275093,PH,50,San Nicolas,
275094,PH,58,Sorsogon,
275095,PH,F7,Bautista,
275096,PH,33,Alaminos,
275097,PH,47,San Felipe,
275098,PH,47,Rajal,
275099,PH,50,Panlinlang,
275100,PH,47,Marawa,
275101,PH,47,Lawang Kupang,
275102,PH,47,Santo Rosario,
275103,PH,50,Santo Niño,
275104,PH,50,Candating,
275105,PH,50,San Mateo,
275106,PH,50,Santa Maria,
275107,PH,47,Santa Cruz,
275108,PH,51,Bued,
275109,PH,51,Sanlibo,
275110,PH,10,Ambuclao,
275111,PH,51,Legaspi,
275112,PH,13,Angat,
275113,PH,47,Paitan,
275114,PH,51,Cabalitian,
275115,PH,48,Bone,
275116,PH,51,Samon,
275117,PH,51,Puelay,
275118,PH,50,Pandacaqui,
275119,PH,9,San Pascual,
275120,PH,21,Alegria,
275121,PH,21,Cogon,
275122,PH,25,Baracatan,
275123,PH,5,Balinad,
275124,PH,E4,Manlilinao,
275125,PH,37,Tunga,
275126,PH,55,Daram,
275127,PH,56,Bongued,
275128,PH,51,San Pedro,
275129,PH,46,San Miguel,
275130,PH,70,Malandag,
275131,PH,13,Balite,
275132,PH,30,Trapiche,
275133,PH,5,Binitayan,
275134,PH,H2,Lucban,
275135,PH,61,Mainit,
275136,PH,53,Bule,
275137,PH,57,Bialong,
275138,PH,24,New Sibonga,
275139,PH,25,Dolo,
275140,PH,70,Suyan,
275141,PH,24,Camudmud,
275142,PH,50,San Roque,
275143,PH,5,Masarawag,
275144,PH,10,Dalupirip,
275145,PH,16,San Miguel,
275146,PH,47,Concepcion,
275147,PH,13,Camachile,
275148,PH,47,Cama Juan,
275149,PH,13,Niugan,
275150,PH,47,Nieves,
275151,PH,50,Mabalacat,
275152,PH,C3,Bato,
275153,PH,43,Santa Cruz,
275154,PH,24,Tagdangua,
275155,PH,24,Santo Niño,
275156,PH,26,Mati,
275157,PH,43,Santa Ana,
275158,PH,43,Candiis,
275159,PH,12,Puntian,
275160,PH,24,Panabo,
275161,PH,C3,Lasang,
275162,PH,51,San Jacinto,
275163,PH,31,San Jose,
275164,PH,12,Lingion,
275165,PH,66,Sumalig,
275166,PH,57,Malasila,
275167,PH,5,Muladbucad,
275168,PH,64,Maloma,
275169,PH,48,Belance,
275170,PH,7,Samal,
275171,PH,56,Tapayan,
275172,PH,25,Malalag,
275173,PH,37,Bilwang,
275174,PH,H2,Lalig,
275175,PH,20,Lumil,
275176,PH,57,Bagontapay,
275177,PH,16,Pinit,
275178,PH,50,Talang,
275179,PH,25,Malinao,
275180,PH,30,Igbaras,
275181,PH,50,San Jose,
275182,PH,30,Cabano,
275183,PH,E1,Marawi,
275184,PH,20,Puting Kahoy,
275185,PH,21,Oslob,
275186,PH,42,Langcangan,
275187,PH,51,Santa Catalina,
275188,PH,37,Alangalang,
275189,PH,2,Balangbalang,
275190,PH,41,Puerto Galera,
275191,PH,C3,Tagakpan,
275192,PH,31,San Juan,
275193,PH,5,Anoling,
275194,PH,58,San Vicente,
275195,PH,66,Josefina,
275196,PH,13,Masalipit,
275197,PH,30,Pakiad,
275198,PH,56,Talitay,
275199,PH,D6,Kinalaglagan,
275200,PH,20,Maguyam,
275201,PH,46,Zamboanguita,
275202,PH,7,Cabcaben,
275203,PH,20,Batas,
275204,PH,66,Danlugan,
275205,PH,51,Lobong,
275206,PH,21,Carmelo,
275207,PH,21,Jaclupan,
275208,PH,H3,Japitan,
275209,PH,21,Tajao,
275210,PH,45,Canroma,
275211,PH,H3,Santa Rosa,
275212,PH,H3,Refugio,
275213,PH,21,Buanoy,
275214,PH,F4,Kumaliskis,
275215,PH,H2,Santa Lucia,
275216,PH,47,Carmen,
275217,PH,13,Obando,
275218,PH,2,Tubay,
275219,PH,37,Matlang,
275220,PH,63,Santa Juliana,
275221,PH,51,Sonquil,
275222,PH,63,Talaga,
275223,PH,33,Masapang,
275224,PH,9,San Pedro,
275225,PH,25,Coronon,
275226,PH,13,Pulong Sampalok,
275227,PH,30,Getulio,
275228,PH,30,Constancia,
275229,PH,57,Malamote,
275230,PH,H3,Cansilayan,
275231,PH,21,Himensulan,
275232,PH,21,Bulasa,
275233,PH,21,Guibuangan,
275234,PH,21,Lamacan,
275235,PH,11,Loon,
275236,PH,29,Rubio,
275237,PH,D8,Mandawe,
275238,PH,33,Nueva,
275239,PH,46,Alum,
275240,PH,33,Camagong,
275241,PH,49,Alcoba,
275242,PH,47,Parilla,
275243,PH,55,Tizon,
275244,PH,9,Lobo,
275245,PH,21,Lugo,
275246,PH,50,Laput,
275247,PH,63,Layug,
275248,PH,50,Floridablanca,
275249,PH,53,Pinugay,
275250,PH,34,Digkilaan,
275251,PH,47,San Vicente,
275252,PH,9,Mahabang Parang,
275253,PH,54,Pato-o,
275254,PH,51,Labayug,
275255,PH,34,Kalanganan,
275256,PH,43,Mauswagon,
275257,PH,17,Mambajao,
275258,PH,33,Bitin,
275259,PH,9,Janopol,
275260,PH,58,Quezon,
275261,PH,B2,Tignapoloan,
275262,PH,71,Gansing,
275263,PH,46,Tabon,
275264,PH,70,Manuel Roxas,
275265,PH,29,Magsingal,
275266,PH,10,Buguias,
275267,PH,50,Culubasa,
275268,PH,62,San Miguel,
275269,PH,D5,Bigaa,
275270,PH,D5,Maslog,
275271,PH,C7,Gingoog,
275272,PH,43,San Juan,
275273,PH,H3,Patun-an,
275274,PH,30,Abañgay,
275275,PH,50,San Roque Dau,
275276,PH,13,Maguinao,
275277,PH,E9,Airmen Village,
275278,PH,53,Tanay,
275279,PH,H3,San Enrique,
275280,PH,E6,Dimaluna,
275281,PH,25,Tuli,
275282,PH,50,Vizal San Pablo,
275283,PH,63,Matayumtayum,
275284,PH,63,Balingcanaway,
275285,PH,50,San Rafael,
275286,PH,45,Taloc,
275287,PH,47,Lennec,
275288,PH,70,Lamba,
275289,PH,27,Baguinge,
275290,PH,28,Mabusag,
275291,PH,63,Mapalacsiao,
275292,PH,D6,Bulacnin,
275293,PH,13,Sibul,
275294,PH,9,Taysan,
275295,PH,H3,Alegria,
275296,PH,51,Mangaldan,
275297,PH,57,Bulatukan,
275298,PH,H2,General Nakar,
275299,PH,30,Tiwi,
275300,PH,13,Bulihan,
275301,PH,25,Tacub,
275302,PH,20,Biga,
275303,PH,9,San Joaquin,
275304,PH,47,Santa Rosa,
275305,PH,47,Putlod,
275306,PH,50,Santa Cruz,
275307,PH,50,San Basilio,
275308,PH,51,Domanpot,
275309,PH,10,Baculongan,
275310,PH,63,Salcedo,
275311,PH,16,San Antonio,
275312,PH,37,Carigara,
275313,PH,55,Talalora,
275314,PH,71,Tacurong,
275315,PH,11,Catarman,
275316,PH,16,Salvacion,
275317,PH,16,San Agustin,
275318,PH,34,Tacub,
275319,PH,66,Aurora,
275320,PH,13,San Roque,
275321,PH,30,Cagbang,
275322,PH,71,Ligao,
275323,PH,70,Lampitak,
275324,PH,25,Bolila,
275325,PH,24,Bincungan,
275326,PH,70,Silway,
275327,PH,43,Solana,
275328,PH,20,Santa Rosa,
275329,PH,61,Cantapoy,
275330,PH,12,Sumilao,
275331,PH,C3,Mahayag,
275332,PH,43,Claveria,
275333,PH,50,Santo Domingo,
275334,PH,32,Tabuk,
275335,PH,65,Sindangan,
275336,PH,30,Buyu-an,
275337,PH,E9,San Roque,
275338,PH,53,Hagonoy,
275339,PH,20,Guyam,
275340,PH,46,Bacong,
275341,PH,37,Caibiran,
275342,PH,53,Cupang,
275343,PH,21,Esperanza,
275344,PH,36,Damortis,
275345,PH,47,Entablado,
275346,PH,D5,Padang,
275347,PH,45,La Granja,
275348,PH,30,Igcocolo,
275349,PH,20,Amadeo,
275350,PH,55,Mabini,
275351,PH,20,Ternate,
275352,PH,21,Owak,
275353,PH,18,Ma-ayon,
275354,PH,2,Jagupit,
275355,PH,63,Amucao,
275356,PH,30,San Salvador,
275357,PH,H3,Talisay,
275358,PH,21,Bonbon,
275359,PH,E9,Maricaban,
275360,PH,46,Pinocawan,
275361,PH,21,Langtad,
275362,PH,21,Panalipan,
275363,PH,21,Japitan,
275364,PH,37,Bantigue,
275365,PH,51,Alalay,
275366,PH,54,Calatrava,
275367,PH,23,Barbo,
275368,PH,3,Cuevas,
275369,PH,E4,Panama,
275370,PH,32,Bulalayao,
275371,PH,37,Ponce,
275372,PH,21,Patag,
275373,PH,70,Kuya,
275374,PH,58,Castilla,
275375,PH,5,Banag,
275376,PH,18,Bula,
275377,PH,56,Layog,
275378,PH,37,Kabayan,
275379,PH,9,Boot,
275380,PH,18,Panitan,
275381,PH,57,Amas,
275382,PH,16,San Gabriel,
275383,PH,20,Sabang,
275384,PH,47,General Mamerto Natividad,
275385,PH,71,Tambak,
275386,PH,63,Calingcuan,
275387,PH,16,Curry,
275388,PH,25,Goma,
275389,PH,25,Tamayong,
275390,PH,D5,Tagas,
275391,PH,37,Barugo,
275392,PH,30,Libertad,
275393,PH,25,Sulop,
275394,PH,51,Bugayong,
275395,PH,47,Bangad,
275396,PH,34,Kawit,
275397,PH,34,Kauswagan,
275398,PH,51,Binalonan,
275399,PH,63,Murcia,
275400,PH,10,Sablan,
275401,PH,51,Santa Maria Norte,
275402,PH,H2,Isabang,
275403,PH,57,Saguing,
275404,PH,57,Tulunan,
275405,PH,13,Dampol,
275406,PH,28,Bil-loca,
275407,PH,36,Tagudin,
275408,PH,D6,Rizal,
275409,PH,47,Tabacao,
275410,PH,21,Lanao,
275411,PH,18,Capagao,
275412,PH,21,Catmondaan,
275413,PH,29,Santa Cruz,
275414,PH,47,Alua,
275415,PH,63,San Juan De Mata,
275416,PH,36,Rosario,
275417,PH,51,Naguelguel,
275418,PH,11,Calape,
275419,PH,5,Lanigay,
275420,PH,25,Astorga,
275421,PH,A8,Caloc-an,
275422,PH,2,Del Pilar,
275423,PH,70,Tokawal,
275424,PH,51,Asin,
275425,PH,12,Santa Ana,
275426,PH,43,Kimaya,
275427,PH,43,Tagoloan,
275428,PH,43,Ani-e,
275429,PH,31,Siempre Viva,
275430,PH,16,San Isidro,
275431,PH,C1,Nangka,
275432,PH,50,San Pablo,
275433,PH,B4,Baesa,
275434,PH,66,Lakewood,
275435,PH,50,Anao,
275436,PH,65,Pinan,
275437,PH,51,Nancalabasaan,
275438,PH,48,Uddiawan,
275439,PH,20,Halayhay,
275440,PH,63,Estacion,
275441,PH,30,Carmelo,
275442,PH,30,Culasi,
275443,PH,21,Lut-od,
275444,PH,45,Alacaygan,
275445,PH,21,Sangat,
275446,PH,47,Batitang,
275447,PH,2,Bancasi,
275448,PH,51,Anulid,
275449,PH,50,San Vicente,
275450,PH,21,Casay,
275451,PH,46,Hibaiyo,
275452,PH,30,Camia,
275453,PH,16,Hibaya,
275454,PH,21,Zaragosa,
275455,PH,G8,Marikit,
275456,PH,13,Frances,
275457,PH,16,Panagan,
275458,PH,H3,Maquiling,
275459,PH,24,Olayon,
275460,PH,C3,Ventura,
275461,PH,51,Manaoag,
275462,PH,66,Yason,
275463,PH,32,Abel,
275464,PH,50,Santa Maria,
275465,PH,B4,Caloocan,
275466,PH,50,San Jose,
275467,PH,E9,Dasmariñas,
275468,PH,H3,Himamaylan,
275469,PH,53,Tagig,
275470,PH,54,Romblon,
275471,PH,4,Kalibo,
275472,PH,53,Bel-air Four,
275473,PH,50,Sasmuan,
275474,PH,12,Cosina,
275475,PH,55,Santa Rita,
275476,PH,12,San Luis,
275477,PH,3,San Luis,
275478,PH,53,Daraitan,
275479,PH,7,Balut,
275480,PH,50,San Juan,
275481,PH,H2,Sariaya,
275482,PH,H2,Calumpang,
275483,PH,36,Bacnotan,
275484,PH,D6,Rizal,
275485,PH,20,Santa Rosa,
275486,PH,31,Magdalena,
275487,PH,37,Leyte,
275488,PH,10,La Trinidad,
275489,PH,33,Lumban,
275490,PH,H2,Quipot,
275491,PH,9,Santor,
275492,PH,47,Santa Lucia,
275493,PH,50,Malusac,
275494,PH,51,Binday,
275495,PH,51,Loñgos,
275496,PH,51,San Miguel,
275497,PH,46,Azagra,
275498,PH,5,Sugcad,
275499,PH,48,Bambang,
275500,PH,70,Polomolok,
275501,PH,63,Baquero,
275502,PH,50,Acli,
275503,PH,21,Bogo,
275504,PH,33,Majada,
275505,PH,71,New Lagao,
275506,PH,29,Calongbuyan,
275507,PH,29,Narvacan,
275508,PH,H3,Toboso,
275509,PH,63,Buenlag,
275510,PH,20,Silang,
275511,PH,10,Nangalisan,
275512,PH,H3,Calampisawan,
275513,PH,51,Botao,
275514,PH,45,Calapi,
275515,PH,30,Jalaud,
275516,PH,45,Atipuluan,
275517,PH,50,San Antonio,
275518,PH,18,Wright,
275519,PH,21,Olivo,
275520,PH,37,Isabel,
275521,PH,31,Basilio,
275522,PH,B9,Tabag,
275523,PH,51,Tandoc,
275524,PH,H3,Robles,
275525,PH,E2,Grande,
275526,PH,72,Buan,
275527,PH,F4,Fortuna,
275528,PH,66,Tolosa,
275529,PH,63,Lanat,
275530,PH,65,Sibutad,
275531,PH,37,Lemon,
275532,PH,4,Bulwang,
275533,PH,34,Lapinig,
275534,PH,33,Liliw,
275535,PH,57,Nunguan,
275536,PH,47,San Roque,
275537,PH,20,Javalera,
275538,PH,50,San Mateo,
275539,PH,7,Abucay,
275540,PH,51,Agoo,
275541,PH,12,Talakag,
275542,PH,24,Santo Niño,
275543,PH,46,Guihulngan,
275544,PH,C6,Conel,
275545,PH,6,Hamtic,
275546,PH,37,Palompon,
275547,PH,9,San Nicolas,
275548,PH,1,Bangued,
275549,PH,50,Dau,
275550,PH,50,Mexico,
275551,PH,51,Bactad,
275552,PH,66,Dimaya,
275553,PH,63,Ayson,
275554,PH,55,Rama,
275555,PH,41,Bayanan,
275556,PH,5,Bella,
275557,PH,22,Sana,
275558,PH,42,Calolot,
275559,PH,30,Espinosa,
275560,PH,50,Lubao,
275561,PH,3,Bayugan,
275562,PH,5,Oas,
275563,PH,55,Calbiga,
275564,PH,9,San Pedro,
275565,PH,53,Bago Bantay,
275566,PH,33,Kapatalan,
275567,PH,E8,Palayan,
275568,PH,F4,San Carlos,
275569,PH,14,Bauan,
275570,PH,H2,Ilasan,
275571,PH,51,Unzad,
275572,PH,7,Samal,
275573,PH,G4,Tangub,
275574,PH,12,Indulang,
275575,PH,12,Dalirig,
275576,PH,46,Tabon,
275577,PH,39,Colorado,
275578,PH,12,Nicdao,
275579,PH,33,Palacio,
275580,PH,H2,Magsino,
275581,PH,21,Booc,
275582,PH,27,Banao,
275583,PH,39,Alas,
275584,PH,47,Santoyo,
275585,PH,40,Banilao,
275586,PH,37,Vega,
275587,PH,60,Cepe,
275588,PH,55,Concord,
275589,PH,1,Abas,
275590,PH,71,Minas,
275591,PH,40,Ligaya,
275592,PH,31,Luyao,
275593,PH,67,Mondragon,
275594,PH,C3,Mintal,
275595,PH,20,Noveleta,
275596,PH,30,Dava,
275597,PH,30,Cabatuan,
275598,PH,51,Landas,
275599,PH,24,Tapia,
275600,PH,39,Mabunga,
275601,PH,15,Enrique,
275602,PH,50,Betis,
275603,PH,50,Balas,
275604,PH,16,Pasacao,
275605,PH,4,Numancia,
275606,PH,68,Cabarroguis,
275607,PH,53,Ususan,
275608,PH,63,Mamonit,
275609,PH,62,Bislig,
275610,PH,47,San Leonardo,
275611,PH,57,Midsayap,
275612,PH,2,Comagascas,
275613,PH,43,Bolobolo,
275614,PH,46,Vallehermoso,
275615,PH,64,Masinloc,
275616,PH,40,Adela,
275617,PH,9,Carlo,
275618,PH,60,Sablay,
275619,PH,51,Balani,
275620,PH,43,Bona,
275621,PH,25,Malit,
275622,PH,10,Suyoc,
275623,PH,60,Paragon,
275624,PH,53,Zaniga,
275625,PH,16,Calabanga,
275626,PH,5,Tabaco,
275627,PH,21,Yati,
275628,PH,51,Calasiao,
275629,PH,33,Mabitac,
275630,PH,7,Hermosa,
275631,PH,43,El Salvador,
275632,PH,20,Balite,
275633,PH,7,Parang,
275634,PH,A8,Tungao,
275635,PH,21,Malbago,
275636,PH,30,Merced,
275637,PH,48,Junction,
275638,PH,5,Villahermosa,
275639,PH,65,Bali,
275640,PH,H2,Malinao,
275641,PH,24,Kangleon,
275642,PH,60,Liong,
275643,PH,69,Libo,
275644,PH,6,Osorio,
275645,PH,45,Montilla,
275646,PH,45,Catalina,
275647,PH,70,Creek,
275648,PH,49,Tapic,
275649,PH,14,Lapi,
275650,PH,16,Cabusao,
275651,PH,36,Bauang,
275652,PH,4,Malay,
275653,PH,31,San Bernardo,
275654,PH,7,Dinalupihan,
275655,PH,16,Milaor,
275656,PH,5,San Roque,
275657,PH,9,Balayan,
275658,PH,C2,Dapitan,
275659,PH,51,Bacag,
275660,PH,33,Loma,
275661,PH,4,Alas-as,
275662,PH,59,Estela,
275663,PH,51,Gonzalo,
275664,PH,33,Dorado,
275665,PH,16,Anderson,
275666,PH,46,Nabua,
275667,PH,35,Palao,
275668,PH,28,Bada,
275669,PH,67,Among,
275670,PH,12,Maramag,
275671,PH,56,Gang,
275672,PH,11,Abaca,
275673,PH,C3,Ilang,
275674,PH,35,Madamba,
275675,PH,44,Pastor,
275676,PH,32,Toga,
275677,PH,71,Carandang,
275678,PH,36,Lloren,
275679,PH,25,Siao,
275680,PH,16,Bahay,
275681,PH,29,Cuta,
275682,PH,B7,Labangon,
275683,PH,55,Mauricio,
275684,PH,30,Abay,
275685,PH,26,Nangan,
275686,PH,47,General Luna,
275687,PH,F2,Tandang Sora,
275688,PH,44,Sagada,
275689,PH,12,Sumpong,
275690,PH,39,Placer,
275691,PH,43,Lunao,
275692,PH,H2,Bukal,
275693,PH,G6,Aliang,
275694,PH,49,Aborlan,
275695,PH,47,Bongabon,
275696,PH,13,Marilao,
275697,PH,7,Balsic,
275698,PH,13,Norzagaray,
275699,PH,13,Bustos,
275700,PH,51,Basing,
275701,PH,51,Nama,
275702,PH,51,Villasis,
275703,PH,28,Bolinao,
275704,PH,51,Asingan,
275705,PH,51,Tayug,
275706,PH,69,Siquijor,
275707,PH,23,Guiuan,
275708,PH,2,Cabadbaran,
275709,PH,37,Burauen,
275710,PH,33,Mamplasan,
275711,PH,9,Bolboc,
275712,PH,31,Manaring,
275713,PH,38,Yook,
275714,PH,55,Catbalogan,
275715,PH,B7,Buhisan,
275716,PH,B7,Tisa,
275717,PH,51,Baybay,
275718,PH,51,Mapandan,
275719,PH,H3,Pontevedra,
275720,PH,63,Cabayaoasan,
275721,PH,33,Paete,
275722,PH,50,Bacolor,
275723,PH,43,Opol,
275724,PH,50,Magalang,
275725,PH,64,Porac,
275726,PH,37,Biliran,
275727,PH,H3,Rizal,
275728,PH,37,Lamak,
275729,PH,46,Tandayag,
275730,PH,46,Sibulan,
275731,PH,37,Tabango,
275732,PH,23,Lalawigan,
275733,PH,58,Putiao,
275734,PH,53,Muntinglupa,
275735,PH,66,Titay,
275736,PH,57,Carmen,
275737,PH,9,Nasugbu,
275738,PH,2,La Union,
275739,PH,65,Lingasad,
275740,PH,20,General Trias,
275741,PH,53,Pasig,
275742,PH,46,Jimalalud,
275743,PH,72,Bata,
275744,PH,38,Agot,
275745,PH,H3,Escalante,
275746,PH,27,Pula,
275747,PH,65,Talan,
275748,PH,11,Cabug,
275749,PH,55,Gallego,
275750,PH,28,Sangil,
275751,PH,48,Silao,
275752,PH,21,Koró,
275753,PH,20,Las Piñas,
275754,PH,20,Indang,
275755,PH,47,San Anton,
275756,PH,65,Dicoyong,
275757,PH,G7,Talisayan,
275758,PH,F2,Banlat,
275759,PH,5,Tiwi,
275760,PH,50,San Simon,
275761,PH,H2,Tiaong,
275762,PH,47,Cabiao,
275763,PH,53,Bahay Toro,
275764,PH,53,Pililla,
275765,PH,36,Aringay,
275766,PH,51,Umingan,
275767,PH,48,Bagabag,
275768,PH,5,Iraya,
275769,PH,16,Libmanan,
275770,PH,21,Borbon,
275771,PH,21,Balamban,
275772,PH,H3,Victorias,
275773,PH,62,Tandag,
275774,PH,31,Mallig,
275775,PH,51,Zaragoza,
275776,PH,51,Olo,
275777,PH,21,Can-asujan,
275778,PH,7,Cupang,
275779,PH,70,Apas,
275780,PH,16,La Purisima,
275781,PH,45,Andres Bonifacio,
275782,PH,11,Sikatuna,
275783,PH,64,Botolan,
275784,PH,33,Pila,
275785,PH,4,New Washington,
275786,PH,51,Alcala,
275787,PH,20,Naic,
275788,PH,28,Bacarra,
275789,PH,51,Urbiztondo,
275790,PH,9,Ibaan,
275791,PH,5,Polangui,
275792,PH,25,Santa Maria,
275793,PH,31,Tumauini,
275794,PH,48,Bayombong,
275795,PH,70,Norala,
275796,PH,59,Liloan,
275797,PH,46,Bais,
275798,PH,34,Silang,
275799,PH,C3,Matina,
275800,PH,23,Borongan,
275801,PH,14,Iguig,
275802,PH,6,Catungan,
275803,PH,21,Carcar,
275804,PH,11,Talibon,
275805,PH,51,Polong,
275806,PH,33,Pangil,
275807,PH,E9,Dasmarinas Village,
275808,PH,H2,Gumian,
275809,PH,A8,Agusan,
275810,PH,43,Initao,
275811,PH,33,Bubukal,
275812,PH,28,Paoay,
275813,PH,50,Arayat,
275814,PH,40,Cabra,
275815,PH,51,Alac,
275816,PH,50,Candaba,
275817,PH,21,Pinamungahan,
275818,PH,21,Obong,
275819,PH,F2,New Manila,
275820,PH,B4,Marulas,
275821,PH,50,San Patricio,
275822,PH,28,Piddig,
275823,PH,51,Lingayen,
275824,PH,51,Rosales,
275825,PH,16,Goa,
275826,PH,4,Banga,
275827,PH,H2,Atimonan,
275828,PH,11,Ubay,
275829,PH,21,Ginatilan,
275830,PH,H3,Cabadiangan,
275831,PH,11,Panglao,
275832,PH,21,Naga,
275833,PH,51,Caloocan,
275834,PH,13,San Juan,
275835,PH,36,San Fernando,
275836,PH,H2,Progreso,
275837,PH,H2,Talipan,
275838,PH,13,Bulacan,
275839,PH,13,Plaridel,
275840,PH,11,Dauis,
275841,PH,H2,Quezon,
275842,PH,39,Umabay,
275843,PH,9,Tanauan,
275844,PH,F2,Quezon,
275845,PH,4,Linabuan,
275846,PH,D9,Navotas,
275847,PH,H2,Baguio,
275848,PH,36,Namboongan,
275849,PH,51,Alaminos,
275850,PH,36,Agoo,
275851,PH,47,Santa Rita,
275852,PH,36,San Jose,
275853,PH,51,Linmansangan,
275854,PH,21,Cotcot,
275855,PH,37,Julita,
275856,PH,37,Hindang,
275857,PH,37,Capoocan,
275858,PH,4,Caticlan,
275859,PH,50,Porac,
275860,PH,21,Sulangan,
275861,PH,9,San Jose,
275862,PH,64,Subic,
275863,PH,11,San Jacinto,
275864,PH,7,Orani,
275865,PH,3,Trento,
275866,PH,39,Laguna,
275867,PH,64,San Felipe,
275868,PH,33,Luisiana,
275869,PH,33,Majayjay,
275870,PH,16,Ragay,
275871,PH,12,Lumintao,
275872,PH,12,Valencia,
275873,PH,47,Muñoz,
275874,PH,47,San Carlos,
275875,PH,51,San Nicolas,
275876,PH,13,Cauayan,
275877,PH,39,Kabankalan,
275878,PH,24,Maco,
275879,PH,11,Baclayon,
275880,PH,39,Claveria,
275881,PH,6,Maria,
275882,PH,32,Taga,
275883,PH,11,Loay,
275884,PH,3,Prosperidad,
275885,PH,37,Maasin,
275886,PH,B4,Malabon,
275887,PH,F2,Novaliches,
275888,PH,33,San Pablo,
275889,PH,51,Malasiqui,
275890,PH,H2,Gumaca,
275891,PH,27,Lagawe,
275892,PH,46,Amlan,
275893,PH,5,Santo Domingo,
275894,PH,4,Ugsod,
275895,PH,53,Malabon,
275896,PH,G6,Trece Martires,
275897,PH,C2,Sicayab,
275898,PH,13,San Rafael,
275899,PH,47,Talavera,
275900,PH,47,San Manuel,
275901,PH,51,Pozorrubio,
275902,PH,B2,Lumbia,
275903,PH,37,Kananga,
275904,PH,31,Cauayan,
275905,PH,5,Ligao,
275906,PH,9,Mataasnakahoy,
275907,PH,20,Rosario,
275908,PH,65,Polanco,
275909,PH,21,Consolacion,
275910,PH,36,San Juan,
275911,PH,7,Central,
275912,PH,H2,Bataan,
275913,PH,37,Palawan,
275914,PH,E6,Misamis,
275915,PH,29,Quirino,
275916,PH,H2,Lopez,
275917,PH,51,Washington,
275918,PH,21,Cagayan,
275919,PH,49,Bohol,
275920,PH,14,Aparri,
275921,PH,16,Nabua,
275922,PH,63,Capas,
275923,PH,B7,Banawa,
275924,PH,53,Mayamot,
275925,PH,20,Molino,
275926,PH,H2,Candelaria,
275927,PH,33,Banlic,
275928,PH,41,Calapan,
275929,PH,26,Lupon,
275930,PH,31,Alicia,
275931,PH,5,Daraga,
275932,PH,34,Tubod,
275933,PH,11,Tubigon,
275934,PH,H2,Baliwag,
275935,PH,20,Tanza,
275936,PH,27,Lamut,
275937,PH,29,Santa Lucia,
275938,PH,51,Binmaley,
275939,PH,6,Sibalom,
275940,PH,27,Kiangan,
275941,PH,D9,Santa Mesa,
275942,PH,63,Camiling,
275943,PH,D9,Tondo,
275944,PH,13,Abañgan Sur,
275945,PH,24,Samal,
275946,PH,5,Bacacay,
275947,PH,31,Roxas,
275948,PH,D6,Balintawak,
275949,PH,36,Caba,
275950,PH,51,Bugallon,
275951,PH,21,Ilihan,
275952,PH,63,Paniqui,
275953,PH,51,San Fabian,
275954,PH,G8,Baler,
275955,PH,31,San Guillermo,
275956,PH,58,La Union,
275957,PH,18,Roxas,
275958,PH,H3,Isabela,
275959,PH,51,San Manuel,
275960,PH,45,Blumentritt,
275961,PH,13,Santa Maria,
275962,PH,20,Binakayan,
275963,PH,D6,Angeles,
275964,PH,30,Miagao,
275965,PH,28,Bangui,
275966,PH,D9,Makati,
275967,PH,K8,Mandaluyong City,
275968,PH,0,,
275969,PH,F2,Libis,
275970,PH,53,,
275971,PH,53,,
275972,PH,53,Maybunga,
275973,PH,F2,East Triangle,
275974,PH,H5,Antipolo,
275975,PH,D9,Santamesa,
275976,PH,15,Santa Elena,
275977,PH,N6,Taguig,
275978,PH,K9,Marikina,
275979,PH,53,Palanas,
275980,PH,K8,Zaniga,
275981,PH,12,Kalasungay,
275982,PH,K9,Marikina City,
275983,PH,66,Pagadian,
275984,PH,L8,Pinagbuhatan,
275985,PH,53,Tabacalera,
275986,PH,33,Siniloan,
275987,PH,5,Guinobatan,
275988,PH,K6,Malaybalay,
275989,PH,N6,Tuktukan,
275990,PH,53,Ogongo,
275991,PH,H2,Alabat,
275992,PH,53,Calumpang Santo Cristo,
275993,PH,33,Tarlac,
275994,PH,36,San Fabian,
275995,PH,N6,Pateros,
275996,PH,20,Maduya,
275997,PH,K4,Fort Bonifacio,
275998,PH,N6,Bicutan,
275999,PH,L8,Kapitolyo,
276000,PH,F2,Commonwealth,
276001,PH,K8,Highway Hills,
276002,PH,F2,Marilag,
276003,PH,K8,Daang Bakal,
276004,PH,N6,Poblacion,
276005,PH,L8,Ugong,
276006,PH,28,Caniogan,
276007,PH,N6,Western Bicutan,
276008,PH,K8,Bagong Silang,
276009,PH,L8,Kapasigan,
276010,PH,42,Dela Paz,
276011,PH,F2,Tagumpay,
276012,PH,L8,Santolan,
276013,PH,F2,South Triangle,
276014,PH,K8,Wack Wack,
276015,PH,F2,Soccorro,
276016,PH,F2,Doña Josefa,
276017,PH,F2,Fairview,
276018,PH,F2,Ugong Norte,
276019,PH,K8,Barangka Ibaba,
276020,PH,L8,Pineda,
276021,PH,K8,Pleasant Hills,
276022,PH,N6,Signal Village,
276023,PH,K4,Olympia,
276024,PH,L8,Maybunga,
276025,PH,K8,Addition Hills,
276026,PH,12,Freedom,
276027,PH,K8,Vergara,
276028,PH,F2,Laging Handa,
276029,PH,C8,Suarez,
276030,PH,42,Adorable,
276031,PH,56,Malang,
276032,PH,50,Layug,
276033,PH,42,Corrales,
276034,PH,51,Tabag,
276035,PH,K4,Comembo,
276036,PH,5,Malilipot,
276037,PH,72,Bongao,
276038,PH,L8,Bagong Ilog,
276039,PH,41,Pinamalayan,
276040,PH,10,Kapangan,
276041,PH,56,Isulan,
276042,PH,49,Coron,
276043,PH,43,Lugait,
276044,PH,60,Bas,
276045,PH,31,Cordon,
276046,PH,N6,Tagig,
276047,PH,51,Bayambang,
276048,PH,37,Baybay,
276049,PH,55,Basey,
276050,PH,H5,Beverly Hills,
276051,PH,63,Santa Cruz,
276052,PH,15,Capalonga,
276053,PH,31,San Mateo,
276054,PH,K9,Malanday,
276055,PH,68,Saguday,
276056,PH,70,Bañga,
276057,PH,F2,Damayang Lagi,
276058,PH,33,Cavinti,
276059,PH,3,San Francisco,
276060,PH,21,Liloan,
276061,PH,46,Valencia,
276062,PH,50,Cutud,
276063,PH,16,Sagnay,
276064,PH,40,Mamburao,
276065,PH,4,Ibajay,
276066,PH,5,Pio Duran,
276067,PH,46,Dauin,
276068,PH,K8,Mandaluyong,
276069,PH,21,Cordoba,
276070,PH,13,San Ildefonso,
276071,PH,9,San Fernando,
276072,PH,16,Nato,
276073,PH,F2,Project 6,
276074,PH,C3,Calinan,
276075,PH,47,Cabatuan,
276076,PH,47,San Fernando,
276077,PH,30,Pavia,
276078,PH,51,Santa Barbara,
276079,PH,47,Santiago,
276080,PH,67,Catarman,
276081,PH,68,Maddela,
276082,PH,12,Don Carlos,
276083,PH,47,Cuyapo,
276084,PH,69,Canlambo,
276085,PH,57,Makilala,
276086,PH,50,Macabebe,
276087,PH,15,Labo,
276088,PH,9,Taal,
276089,PH,66,Basagan,
276090,PH,4,Lezo,
276091,PH,50,Pulong Santol,
276092,PH,H3,Pulupandan,
276093,PH,33,San Pablo Norte,
276094,PH,21,Argao,
276095,PH,H3,Sagay City,
276096,PH,40,Makati,
276097,PH,20,Paradahan,
276098,PH,59,Libagon,
276099,PH,9,Rosario,
276100,PH,31,San Mariano,
276101,PH,34,Baroy,
276102,PH,57,Libungan,
276103,PH,37,Ormocay,
276104,PH,33,Paagahan,
276105,PH,H3,Hinigaran,
276106,PH,17,Sagay,
276107,PH,59,Maasin,
276108,PH,C6,Katangawan,
276109,PH,30,Leganes,
276110,PH,B2,Bulua,
276111,PH,9,Agoncillo,
276112,PH,15,Basud,
276113,PH,50,Masantol,
276114,PH,F2,Manila Heights Subdivision,
276115,PH,62,Cantilan,
276116,PH,53,Airport Village,
276117,PH,25,Sinawilan,
276118,PH,53,Tambo,
276119,PH,36,Concepcion,
276120,PH,50,Gutad,
276121,PH,33,Mamatid,
276122,PH,63,Santo Cristo,
276123,PH,13,Pugad,
276124,PH,43,Gimangpang,
276125,PH,42,Sinonoc,
276126,PH,50,San Francisco,
276127,PH,33,Aplaya,
276128,PH,50,Vizal Santo Niño,
276129,PH,24,Tambongon,
276130,PH,C8,Dalipuga,
276131,PH,E9,Santa Clara,
276132,PH,38,Boac,
276133,PH,64,Bato,
276134,PH,28,Vintar,
276135,PH,A8,Basag,
276136,PH,53,Timukan,
276137,PH,51,Cabalaoañgan,
276138,PH,20,Malabag,
276139,PH,C6,London,
276140,PH,42,Calamba,
276141,PH,36,Cabugao,
276142,PH,41,Bongabong,
276143,PH,47,Bacal,
276144,PH,F2,Roxas,
276145,PH,12,Kibawe,
276146,PH,12,Manolo Fortich,
276147,PH,33,Rizal,
276148,PH,43,Samay,
276149,PH,50,Tabagan,
276150,PH,33,Prinza,
276151,PH,53,Sapang,
276152,PH,37,Hilongos,
276153,PH,10,Tuding,
276154,PH,43,Naawan,
276155,PH,64,Castillejos,
276156,PH,6,Paso,
276157,PH,62,Barobo,
276158,PH,F2,Loyola Heights,
276159,PH,37,Dulag,
276160,PH,31,Echague,
276161,PH,21,Dalaguete,
276162,PH,50,Maquiapo,
276163,PH,17,Mahinog,
276164,PH,53,Darangan,
276165,PH,21,Simala,
276166,PH,G7,Guiwan,
276167,PH,41,Bansud,
276168,PH,68,Diffun,
276169,PH,4,Kalibo Town,
276170,PH,14,Peñablanca,
276171,PH,16,Sipocot,
276172,PH,12,Kiokong,
276173,PH,F2,Baesa,
276174,PH,13,Pamarauan,
276175,PH,C3,Lumot,
276176,PH,47,San Casimiro,
276177,PH,34,Pualas,
276178,PH,D9,Pandacan,
276179,PH,51,Mangatarem,
276180,PH,53,Ampid,
276181,PH,47,San Fabian,
276182,PH,33,San Antonio De Bay,
276183,PH,33,Biñang,
276184,PH,33,Barandal,
276185,PH,33,Laguan,
276186,PH,51,Balungao,
276187,PH,29,San Vicente,
276188,PH,F2,Paltok,
276189,PH,51,Anda,
276190,PH,H2,Tagkawayan,
276191,PH,B4,Llano,
276192,PH,57,Pigcawayan,
276193,PH,7,Mauban,
276194,PH,20,Maragondon,
276195,PH,D4,Kalawisan,
276196,PH,C9,Mandurriao,
276197,PH,47,Aliaga,
276198,PH,56,Ampatuan,
276199,PH,71,Isulan,
276200,PH,11,Catigbian,
276201,PH,59,Ichon,
276202,PH,21,Barili,
276203,PH,50,Maimpis,
276204,PH,12,Camp Phillips,
276205,PH,B4,Karuhatan,
276206,PH,33,Cigaras,
276207,PH,9,Pinagsibaan,
276208,PH,40,Wawa,
276209,PH,63,Lomboy,
276210,PH,48,Makati,
276211,PH,37,Tacaban,
276212,PH,13,Lugam,
276213,PH,33,Casile,
276214,PH,F2,San Juan Del Monte,
276215,PH,70,Surallah,
276216,PH,24,Southern Davao,
276217,PH,37,Abuyog,
276218,PH,H2,Mauban,
276219,PH,G8,San Luis,
276220,PH,13,Gatbuca,
276221,PH,13,Parada,
276222,PH,34,Kapatagan,
276223,PH,7,Sipit,
276224,PH,51,Sumabnit,
276225,PH,5,Jovellar,
276226,PH,C8,Libertad,
276227,PH,9,Baguilaua,
276228,PH,1,Cauayan,
276229,PH,D6,Inosloban,
276230,PH,13,Anyatam,
276231,PH,66,Tukuran,
276232,PH,57,Old Kidapawan,
276233,PH,29,Tagudin,
276234,PH,9,Balete,
276235,PH,28,Sarrat,
276236,PH,29,Candon,
276237,PH,14,Bayabat,
276238,PH,21,Tabunok,
276239,PH,21,Lawaan,
276240,PH,30,Oton Town,
276241,PH,9,Muzon,
276242,PH,47,Calaba,
276243,PH,16,Pawili,
276244,PH,47,Llanera,
276245,PH,33,Pasong Manga,
276246,PH,66,Dipola,
276247,PH,25,Bansalan,
276248,PH,49,Cuyo,
276249,PH,37,Tolosa,
276250,PH,42,Tudela,
276251,PH,53,Mangahan,
276252,PH,31,Cabagan,
276253,PH,71,Batalbolol,
276254,PH,43,Kalagonoy,
276255,PH,20,Pasong Kawayan,
276256,PH,50,San Augustin,
276257,PH,30,Maabay,
276258,PH,22,Lamitan,
276259,PH,13,Sipat,
276260,PH,70,Tupi,
276261,PH,36,Urayong,
276262,PH,B7,Pardo,
276263,PH,53,Talim,
276264,PH,62,Catihan,
276265,PH,31,Masipi,
276266,PH,50,Santa Rita,
276267,PH,47,Pamabaran,
276268,PH,14,Gattaran,
276269,PH,9,Calansayan,
276270,PH,F2,Culiat,
276271,PH,70,Maitum,
276272,PH,10,Twin Peaks-tabaan,
276273,PH,F2,Grace Park,
276274,PH,43,Anakan,
276275,PH,47,General Tinio,
276276,PH,46,Maniac,
276277,PH,33,Paliguan,
276278,PH,11,Balilihan,
276279,PH,29,Caoayan,
276280,PH,65,Labason,
276281,PH,7,Pinuunan,
276282,PH,37,Canhandugan,
276283,PH,47,Guimba,
276284,PH,29,San Juan,
276285,PH,63,Pando,
276286,PH,64,Mampaen,
276287,PH,11,Lawis,
276288,PH,H2,Infanta,
276289,PH,20,Welfareville,
276290,PH,16,Bombon,
276291,PH,9,Santo Tomas,
276292,PH,43,Hinaplanan,
276293,PH,29,Pilpilid,
276294,PH,10,Klondike,
276295,PH,29,Lungog,
276296,PH,29,Caterman,
276297,PH,51,Payas,
276298,PH,50,Plaza Luma,
276299,PH,71,Lebak,
276300,PH,16,Binanwanaan,
276301,PH,53,Bagumbong,
276302,PH,9,Alitagtag,
276303,PH,53,Tunasan,
276304,PH,25,South Digos,
276305,PH,53,Pulanglupa,
276306,PH,21,Banilad,
276307,PH,70,Glan,
276308,PH,10,Tabaan,
276309,PH,37,Matalom,
276310,PH,66,Ramon Magsaysay,
276311,PH,53,Maagay,
276312,PH,48,Dupax Del Norte,
276313,PH,B2,Agusan,
276314,PH,6,Anini-y,
276315,PH,33,Taytay,
276316,PH,D4,Gun-ob,
276317,PH,31,Luna,
276318,PH,51,Bolinao,
276319,PH,69,Lazi,
276320,PH,50,Manibaug Paralaya,
276321,PH,50,Pau,
276322,PH,33,Pacita Complex,
276323,PH,20,Mandaluyong,
276324,PH,51,Basista,
276325,PH,36,Balaoan,
276326,PH,43,Balingasag,
276327,PH,57,Matalam,
276328,PH,33,Calumpang,
276329,PH,F2,Balara,
276330,PH,21,Moalboal,
276331,PH,44,Besao,
276332,PH,30,Santa Barbara,
276333,PH,H3,Blumentritt,
276334,PH,11,Roosevelt,
276335,PH,33,Biñan,
276336,PH,53,Cuyambay,
276337,PH,F6,San Jose,
276338,PH,D6,Latag,
276339,PH,5,Busay,
276340,PH,B6,San Roque,
276341,PH,53,Bilibiran,
276342,PH,D9,San Nicolas,
276343,PH,F5,San Carlos,
276344,PH,28,Biningan,
276345,PH,50,Cauayan,
276346,PH,38,Gasan,
276347,PH,B1,Cadiz City,
276348,PH,13,Salong,
276349,PH,B5,Linothangan,
276350,PH,20,Iba,
276351,PH,51,San Macario Norte,
276352,PH,9,Masili,
276353,PH,50,Bitas,
276354,PH,50,Santa Monica Tacforsan,
276355,PH,48,Lurad,
276356,PH,27,Gurog,
276357,PH,A5,Bais,
276358,PH,20,Moonwalk Subdivision,
276359,PH,33,Halayhayin,
276360,PH,9,Santo Niño,
276361,PH,12,San Isidro,
276362,PH,38,Mogpog,
276363,PH,27,Banaue,
276364,PH,9,Aplaya,
276365,PH,21,Greenhills,
276366,PH,I7,Fernandez,
276367,PH,53,Libis,
276368,PH,F2,White Plains,
276369,PH,13,Tagalog,
276370,PH,33,Calendola,
276371,PH,31,Cabatuan,
276372,PH,9,Bauan,
276373,PH,53,Dolores,
276374,PH,40,Bule,
276375,PH,33,Baclaran,
276376,PH,M9,Kiamba,
276377,PH,36,Bangar,
276378,PH,4,Nabas,
276379,PH,F7,San Gregorio,
276380,PH,47,Laur,
276381,PH,30,Janiuay,
276382,PH,20,Bf Homes,
276383,PH,F2,Sangandaan,
276384,PH,53,Baras,
276385,PH,9,Lemery,
276386,PH,20,Queens Row Subdivision,
276387,PH,4,Bañga,
276388,PH,M5,Bayan,
276389,PH,F2,San Francisco Del Monte,
276390,PH,65,Katipunan,
276391,PH,29,Alilem,
276392,PH,68,Aklan,
276393,PH,53,San Pedro,
276394,PH,21,Tabogon,
276395,PH,H3,Murcia,
276396,PH,28,Barbara,
276397,PH,9,Mataas Na Kahoy,
276398,PH,14,Amulung,
276399,PH,20,Gatchalian,
276400,PH,H2,Marcelo,
276401,PH,11,Dimiao,
276402,PH,59,Sogod,
276403,PH,M5,San Jose Delmonte,
276404,PH,M9,Malandag,
276405,PH,20,Pasong Buaya,
276406,PH,B2,Cagayan De Oro City,
276407,PH,C8,Iligan City,
276408,PH,D5,Legaspi City,
276409,PH,D5,Legazpi City,
276410,PH,E2,Naga City,
276411,PH,F7,San Pablo City,
276412,PH,F2,San Jose,
276413,PH,C3,Davao City,
276414,PH,9,Caloocan,
276415,PH,F8,Silay City,
276416,PH,B7,Cebu City,
276417,PH,A2,Bacolod City,
276418,PH,C9,Iloilo City,
276419,PH,D4,Lapu-lapu City,
276420,PH,38,Antipolo,
276421,PH,B8,Cotabato City,
276422,PH,G3,Tagbilaran City,
276423,PH,D6,Lipa City,
276424,PH,41,Manila,
276425,PH,G7,Zamboanga City,
276426,PH,13,Calapan,
276427,PH,C4,Dipolog City,
276428,PH,D8,Mandaue City,
276429,PH,A1,Angeles City,
276430,PH,5,Manila,
276431,PH,D7,Lucena City,
276432,PH,A4,Baguio City,
276433,PH,A9,Cabanatuan City,
276434,PH,D6,Bulacanin,
276435,PH,51,Santiago,
276436,PH,N1,Sipalay,
276437,PH,F5,San Carlos City,
276438,PH,B9,Dagupan,
276439,PH,F6,San Jose City,
276440,PH,9,Cruz,
276441,PH,C2,Dapitan City,
276442,PH,C5,Dumaguete City,
276443,PH,C9,Iloilo Proper,
276444,PH,E5,Oroquieta City,
276445,PH,A7,Batangas City,
276446,PH,11,Sta Cruz,
276447,PH,B6,Cavite City,
276448,PH,63,San Fernando,
276449,PH,50,San Miguel,
276450,PH,E3,Olongapo City,
276451,PH,B3,Calbayog City,
276452,PH,F3,Roxas City,
276453,PH,48,Balungao,
276454,PH,31,Kalinga,
276455,PH,G1,Tacloban City,
276456,PH,D2,La Carlota City,
276457,PH,I6,Nabunturan,
276458,PH,51,Cabatuan,
276459,PH,E1,Marawi City,
276460,PH,E6,Ozamiz City,
276461,PH,A8,Butuan City,
276462,PH,E4,Ormoc City,
276463,PH,F9,Surigao City,
276464,PH,D1,Iriga City,
276465,PH,C7,Gingoog City,
276466,PH,B5,Canlaon City,
276467,PH,D3,Laoag City,
276468,PH,G5,Toledo City,
276469,PH,G2,Tagaytay City,
276470,PH,11,Bacong,
276471,PH,16,Tigaon,
276472,PH,12,Quezon,
276473,PH,48,Roxas,
276474,PH,F4,San Carlos City,
276475,PH,P2,Tungawan,
276476,PH,7,Morong,
276477,PH,A5,Bais City,
276478,PH,F2,Kings Point Subdivision,
276479,PH,30,Apo,
276480,PH,18,Dumalag,
276481,PH,33,Lawang Bato,
276482,PH,31,Santa,
276483,PH,9,Calaca,
276484,PH,20,San Nicolas,
276485,PH,49,Calauag,
276486,PH,47,Mataas Na Kahoy,
276487,PH,A3,Bago City,
276488,PH,50,Manibaug,
276489,PH,28,San Juan,
276490,PH,59,Saint Bernard,
276491,PH,1,Bucay,
276492,PH,15,Santo Domingo,
276493,PH,30,Estancia,
276494,PH,7,Bagac,
276495,PH,50,San Isidro,
276496,PH,N3,Dapa,
276497,PH,63,San Clemente,
276498,PH,51,Carmen,
276499,PH,47,Lupao,
276500,PH,J7,Tabuk,
276501,PH,G8,Dipaculao,
276502,PH,47,Paniqui,
276503,PH,16,Camaligan,
276504,PH,C1,Danao City,
276505,PH,63,San Roque,
276506,PH,33,Maulawin,
276507,PH,50,Consuelo,
276508,PH,56,Lambayong,
276509,PH,30,New Lucena,
276510,PH,14,Lucban,
276511,PH,20,Anabu I,
276512,PH,I7,Bincungan,
276513,PH,63,San Isidro,
276514,PH,42,Sinacaban,
276515,PH,51,Nagsaing,
276516,PH,64,Tondo,
276517,PH,64,San Narciso,
276518,PH,P1,Margosatubig,
276519,PH,63,San,
276520,PH,9,Balanga,
276521,PH,16,Magarao,
276522,PH,50,Dolores,
276523,PH,B4,Kaligayahan,
276524,PH,50,Malusak,
276525,PH,6,Culasi,
276526,PH,67,X,
276527,PH,53,Santa Rosa,
276528,PH,20,Camella Homes,
276529,PH,E8,Palayan City,
276530,PH,28,Solsona,
276531,PH,33,Pulo,
276532,PH,63,Bamban,
276533,PH,F2,Sauyo,
276534,PH,20,General Mariano Alvarez,
276535,PH,36,San Gabriel,
276536,PH,B7,Banilad,
276537,PH,37,Bislig,
276538,PH,B9,San Miguel,
276539,PH,23,Balangiga,
276540,PH,31,Santos,
276541,PH,6,Antique,
276542,PH,41,Socorro,
