locId,country,region,city,postcode
276543,PK,,,
276544,PK,4,Lahore,
276545,PK,8,Islamabad,
276546,PK,5,Karachi,
276547,PK,4,Multan,
276548,PK,4,Rawalpindi,
276549,PK,2,Azad,
276550,PK,3,Swabi,
276551,PK,5,Khan,
276552,PK,4,Kabirwala,
276553,PK,4,Muzaffargarh,
276554,PK,3,Mills,
276555,PK,3,Main,
276556,PK,5,Hyderabad,
276557,PK,4,Gujranwala,
276558,PK,3,Haripur,
276559,PK,2,Agha Khan,
276560,PK,3,Peshawar,
276561,PK,4,Chakwal,
276562,PK,6,Pindi,
276563,PK,6,Rawlakot,
276564,PK,5,Qasim,
276565,PK,2,Quetta,
276566,PK,5,Clifton,
276567,PK,5,Jamali,
276568,PK,3,Abbottabad,
276569,PK,1,Hazara,
276570,PK,3,Kohat,
276571,PK,3,Nowshera,
276572,PK,4,Faisalabad,
276573,PK,4,Jahania,
276574,PK,4,Okara,
276575,PK,5,Sukkur,
276576,PK,5,Larkana,
276577,PK,4,Sargodha,
276578,PK,3,Havelian,
276579,PK,4,Warburton,
276580,PK,5,Mirpur,
276581,PK,6,Judhal,
276582,PK,4,Kahuta,
276583,PK,4,Sialkot,
276584,PK,4,Narang,
276585,PK,4,Wah,
276586,PK,6,Muzaffarabad,
276587,PK,4,Kamoke,
276588,PK,4,Gujrat,
276589,PK,4,Koot Hathial,
276590,PK,4,Gojra,
276591,PK,5,Tando Jam,
276592,PK,3,Mansehra,
276593,PK,5,Bandhi,
276594,PK,4,Muridke,
276595,PK,4,Gujar Khan,
276596,PK,3,Hangu,
276597,PK,4,Kharian,
276598,PK,4,Vihari,
276599,PK,4,Sahiwal,
276600,PK,5,Nawabshah,
276601,PK,4,Daska,
276602,PK,4,Mandi Bahauddin,
276603,PK,3,Mardan,
276604,PK,4,Chak Seventeen-eight L,
276605,PK,3,Cherat,
276606,PK,4,Khanewal,
276607,PK,4,Pasrur,
276608,PK,4,Rabwah,
276609,PK,4,Mochi Mohra,
276610,PK,4,Chatta Bakhtawar,
276611,PK,4,Attock,
276612,PK,4,Sanjwal,
276613,PK,4,Chak Bera Singh,
276614,PK,4,Sambrial,
276615,PK,6,Bhimber,
276616,PK,4,Sharqpur,
276617,PK,3,Burjida Bando,
276618,PK,4,Shekhupura,
276619,PK,4,Burewala,
276620,PK,3,Utmanzai,
276621,PK,2,Loralai,
276622,PK,6,Fatehpur,
276623,PK,4,Mianwali,
276624,PK,4,Tandlianwala,
276625,PK,4,Baghati,
276626,PK,4,Dera Ghazi Khan,
276627,PK,3,Banda Batang,
276628,PK,4,Sadiqabad,
276629,PK,6,Mirpur,
276630,PK,4,Bahawal,
276631,PK,4,Jaranwala,
276632,PK,4,Toba Tek Singh,
276633,PK,4,Ahmadpur East,
276634,PK,4,Bahawalnagar,
276635,PK,5,Sanghar,
276636,PK,4,Bahawalpur,
276637,PK,4,Phalia,
276638,PK,4,Shakrial,
276639,PK,4,Jhelum,
276640,PK,3,Swat,
276641,PK,3,Mingaora,
276642,PK,4,Islamabad,
276643,PK,5,Khairpur,
276644,PK,4,Kamra,
276645,PK,4,Pir Mahal,
276646,PK,4,Wazirabad,
276647,PK,3,Charsadda,
276648,PK,7,Gilgit,
276649,PK,4,Mian Channun,
276650,PK,4,Kot Addu,
276651,PK,5,Rustam,
276652,PK,3,Kalam,
276653,PK,3,Dera Ismail Khan,
276654,PK,6,Palandri,
276655,PK,4,Kalaswala,
276656,PK,4,Rahim,
276657,PK,5,Tando Muhammad Khan,
276658,PK,4,Murree,
276659,PK,5,Dina,
276660,PK,4,Yazman,
276661,PK,4,Jhang Sadar,
276662,PK,4,Attock City,
276663,PK,1,Lahor,
276664,PK,4,Kasur,
276665,PK,4,Chiniot,
276666,PK,4,Narowal,
276667,PK,4,Khushab,
276668,PK,3,Shabqadar,
276669,PK,2,Sibi,
276670,PK,5,Nawab,
276671,PK,5,Dadu,
276672,PK,4,Kundian,
276673,PK,4,Hasilpur,
276674,PK,4,Kamalia,
276675,PK,4,Sarai Alamgir,
276676,PK,5,Badin,
276677,PK,3,Risalpur,
276678,PK,5,Digri,
276679,PK,4,Gulberg,
276680,PK,5,Talpur,
276681,PK,4,Jhawarian,
276682,PK,3,Kashmir,
276683,PK,4,Arifwala,
276684,PK,6,Jhang,
276685,PK,5,Nazimabad,
276686,PK,4,Khaur,
276687,PK,4,Pakpattan,
276688,PK,4,Sanda,
276689,PK,4,Chichawatni,
276690,PK,2,Khanozai,
276691,PK,5,Kotri,
276692,PK,4,Baddomalhi,
276693,PK,4,Chunian,
276694,PK,5,Matli,
276695,PK,4,Kahror Pakka,
276696,PK,4,Rahimyar Khan,
276697,PK,4,Gagan Thal,
276698,PK,3,Shinkiari,
276699,PK,4,Alipur,
276700,PK,2,Khuzdar,
276701,PK,4,Jauharabad,
276702,PK,4,Nankana,
276703,PK,5,Shikarpur,
276704,PK,3,Bannu,
276705,PK,3,Kotli,
276706,PK,4,Chawinda,
276707,PK,4,Fort Abbas,
276708,PK,4,Pindi Gheb,
276709,PK,5,Jacobabad,
276710,PK,5,Kunri,
276711,PK,4,Yazman Mandi,
276712,PK,2,Cantt,
276713,PK,5,Mirpur Mathelo,
276714,PK,2,Gwadar,
276715,PK,5,Tando Allahyar,
276716,PK,5,Ghotki,
276717,PK,4,Lodhran,
276718,PK,3,Topi,
276719,PK,4,Hafizabad,
276720,PK,4,Basti Bappran,
276721,PK,2,Kot Malik,
276722,PK,3,Mardan Cantonment,
276723,PK,3,Ghulam Khel,
276724,PK,5,Tando Adam,
276725,PK,5,Ratodero,
276726,PK,4,Lahore Cantonment,
276727,PK,4,Muzaffar,
276728,PK,7,Hunza,
276729,PK,3,Hayatabad,
276730,PK,4,Pattoki,
276731,PK,3,Thana,
276732,PK,3,Bagh,
276733,PK,2,Mastung,
276734,PK,4,Jahanian,
276735,PK,4,Sillanwali,
276736,PK,4,Sangla Hill,
276737,PK,6,Bagh,
276738,PK,4,Dina,
276739,PK,3,Sawabi,
276740,PK,3,Rahim,
276741,PK,4,Thatta,
276742,PK,5,Halani,
276743,PK,4,Malakwal,
276744,PK,5,Pano Aqil,
276745,PK,5,Shahdadpur,
276746,PK,5,Karachi Lines,
276747,PK,4,Kashmir,
276748,PK,4,Rawalpindi Cantonment,
276749,PK,4,Rawalpindi West Ridge,
276750,PK,5,Bahawal,
276751,PK,5,Matiari,
276752,PK,5,Pakistan Employees Cooperative Housing Society,
276753,PK,3,Khan,
276754,PK,4,Laharanwala,
276755,PK,3,Isa,
276756,PK,2,Quetta Cantonment,
276757,PK,4,Dinga,
276758,PK,4,Talagang,
276759,PK,5,Karachi Manora,
276760,PK,7,Skardu,
276761,PK,4,Model Town,
276762,PK,4,Chakrah,
276763,PK,4,Haroon,
276764,PK,4,Sarai,
276765,PK,3,Zaida,
276766,PK,3,Akora,
276767,PK,4,Pind Dadan Khan,
276768,PK,5,Madeji,
276769,PK,4,Tatta Vasiran,
276770,PK,4,Majhu Chak,
276771,PK,4,Nangal Sadhan,
276772,PK,4,Dalianwali,
276773,PK,3,Langrial,
276774,PK,4,Khalaq Dad,
276775,PK,3,Chajian,
276776,PK,1,Hayat Nam Kili,
276777,PK,4,Khewra,
276778,PK,3,Darra Pezu,
276779,PK,5,Tangwani,
276780,PK,3,Dingi,
276781,PK,4,Umarpur Tiwana,
276782,PK,4,Naukaryan,
276783,PK,5,Ghulam Haidar Ujran,
276784,PK,3,Shah Pasand Koruna,
276785,PK,4,Bannu,
276786,PK,4,Mailsi,
276787,PK,5,Kandhkot,
276788,PK,4,Gajiana Shimali,
276789,PK,4,Kotha Chishtian,
276790,PK,4,Dangdeo Gujarmal,
276791,PK,4,Khairpur,
276792,PK,4,Zafarwal,
276793,PK,4,Chishian,
276794,PK,4,Hazro,
276795,PK,4,Pakistan Nunt,
276796,PK,5,Moro,
276797,PK,4,Kahna Nau,
276798,PK,5,Larka,
276799,PK,4,Nankana Sahib,
276800,PK,4,Nagar,
276801,PK,5,Jarwar,
276802,PK,4,Banka Cheema,
276803,PK,3,Dhunran,
276804,PK,4,Walton,
276805,PK,3,Chakdara,
276806,PK,4,Hassan Abdal,
276807,PK,4,Bhera,
276808,PK,3,Saji Kot,
276809,PK,3,Garamthun,
276810,PK,4,Libana,
276811,PK,4,Jandiala Dhabwala,
276812,PK,4,Ram Raian Khurd,
276813,PK,6,Rawala Kot,
276814,PK,4,Faiz Bagh,
276815,PK,3,Nowshera Cantonment,
276816,PK,3,Islam Derai,
276817,PK,3,Pakistan Kili,
276818,PK,5,Rohri,
276819,PK,3,Akhruto,
276820,PK,4,Rasulnagar,
276821,PK,4,Punianwala,
276822,PK,4,Baner Keswal,
276823,PK,4,Gujraniwala,
276824,PK,3,Rawaikot,
276825,PK,4,Bahawalpur Ghalwan,
276826,PK,5,Hyderabad Lines,
276827,PK,4,Shahwali Ki Dhok,
276828,PK,5,Goth Khando Gado,
276829,PK,6,Mi Kol,
276830,PK,4,Lab,
276831,PK,4,Gaggoo,
276832,PK,2,Hala,
276833,PK,3,Pind,
276834,PK,3,Shahkot,
276835,PK,5,Kumb,
276836,PK,4,Rawal,
276837,PK,4,Chak One Hundred Two-ten R,
276838,PK,4,Kunjah,
276839,PK,5,Mirpur Khas,
276840,PK,4,Lalian,
276841,PK,4,Bhai Pheru,
276842,PK,5,Sukkur Lines,
276843,PK,3,Bat Khela,
276844,PK,3,Malakand,
276845,PK,5,Peshawar Lines,
276846,PK,4,Khanpur,
276847,PK,4,Lohar,
276848,PK,5,Dhoro,
276849,PK,4,Gurangwala,
276850,PK,3,Saidu Sharif,
276851,PK,5,Thatta,
276852,PK,4,Dhok Ahmad Khan,
276853,PK,4,Lohachwala,
276854,PK,2,Pakistan Mineral Development Corporation Colony,
276855,PK,2,Ziarat,
276856,PK,5,Korangi,
276857,PK,4,Khan Piara,
276858,PK,4,Basiwala,
276859,PK,5,Hingorja,
276860,PK,5,Tando Alahyar,
276861,PK,4,Ra Bazar,
276862,PK,4,Wara Khumban,
276863,PK,4,Panjdera,
276864,PK,4,Rowal,
276865,PK,4,Bhakkar,
276866,PK,3,Karachh,
276867,PK,4,Gubindpura,
276868,PK,4,Bhimunwali,
276869,PK,5,Dhingan Khan,
276870,PK,5,Sindhri,
276871,PK,4,Kharolian Khas,
276872,PK,4,Butt,
276873,PK,5,Jamshore,
276874,PK,3,Shorkot,
276875,PK,4,Bucheki,
276876,PK,3,Jab,
276877,PK,3,Kot Abdul Aziz,
276878,PK,4,Daultala,
276879,PK,3,Pabbi,
276880,PK,4,Gob,
276881,PK,4,Chak 60-4 R,
276882,PK,4,Renala Khurd,
276883,PK,5,Mehar,
276884,PK,4,Sodhra,
276885,PK,4,Begowala,
276886,PK,4,Muzafar,
276887,PK,4,Bhalwal,
276888,PK,3,Calvary Rakh,
276889,PK,3,Charbagh,
276890,PK,4,Jhang City,
276891,PK,5,Darya Khan Mari,
276892,PK,5,Obri Goth,
276893,PK,5,Sehwan,
276894,PK,2,Mach,
276895,PK,4,Ado Rai,
276896,PK,4,Qila Didar Singh,
276897,PK,5,Gullu Jo Goth,
276898,PK,5,Kashmor,
276899,PK,4,Dunyapur,
276900,PK,4,Kathala,
276901,PK,3,Daman Afghani,
276902,PK,4,Jalalpur Jattan,
276903,PK,4,Mustafabad,
276904,PK,6,Plot,
276905,PK,5,Gulberg,
276906,PK,5,Goth Hashim Khan,
276907,PK,6,Saiyidan,
276908,PK,4,Mohra Nur,
276909,PK,4,Mianapura Khurd,
276910,PK,5,Barkat Bhai Town,
276911,PK,6,Khamb,
276912,PK,4,Wandhi Aramwali,
276913,PK,4,Samina Gharbi,
276914,PK,4,Kitarwala,
276915,PK,4,Eminabad,
276916,PK,4,Atari,
276917,PK,5,Rajo Khanani,
276918,PK,6,Dara,
276919,PK,4,Raiwind,
276920,PK,7,Sneuron,
276921,PK,4,Ugoke,
276922,PK,4,Man,
276923,PK,4,Mankera,
276924,PK,4,Darya Khan,
276925,PK,4,Sheikhupura,
276926,PK,4,Sadiq,
276927,PK,4,Jhang,
276928,PK,4,Kotli Bago,
276929,PK,5,Ojjan Goth,
276930,PK,5,Goth Inayat,
276931,PK,5,Akhtar Colony,
276932,PK,4,Fatehjang,
276933,PK,4,Sahu Chak,
276934,PK,4,Liaquatpur,
276935,PK,4,Jalalpur Pirwala,
276936,PK,4,Sarai Sidhu,
276937,PK,4,Sharifpura,
276938,PK,4,Chicha,
276939,PK,4,Wer,
276940,PK,5,Gambat,
276941,PK,4,Tajpura,
276942,PK,5,Redhar,
276943,PK,2,Usta Muhammad,
276944,PK,3,Battagram,
276945,PK,4,Khudian,
276946,PK,5,Kotli,
276947,PK,5,Johi,
276948,PK,5,Haji Bachal Khan,
276949,PK,4,Wazir,
276950,PK,4,Siranwali,
276951,PK,3,Chitral,
276952,PK,4,Changa Manga,
276953,PK,4,Sheikupura,
276954,PK,5,Talhar,
276955,PK,5,Tando Said Khan,
276956,PK,3,Thal,
276957,PK,4,Noorpur,
276958,PK,3,Faisalabad,
276959,PK,4,Vehari,
276960,PK,3,Mingora,
276961,PK,5,Sarhari,
276962,PK,3,Jalalabad,
276963,PK,2,Lahore,
276964,PK,3,Manhda Nakka,
276965,PK,4,Aghapur,
276966,PK,5,Tala Bhanda,
276967,PK,5,Jamshoro,
276968,PK,4,Ghakhar,
276969,PK,4,Abdul Hakim,
276970,PK,4,Jattan,
276971,PK,3,Garhi Habibullah,
276972,PK,6,Mandi,
276973,PK,5,Malir,
276974,PK,2,Abad,
276975,PK,4,Mian Channu,
276976,PK,3,Gujrat,
276977,PK,5,Sakrand,
276978,PK,3,Mor Kalan,
276979,PK,5,Goth Kalwar,
276980,PK,5,Mian Chhohra,
276981,PK,4,Ahmedpur East,
276982,PK,1,Hasan,
276983,PK,3,Allahbad,
276984,PK,4,Kot Samaba,
276985,PK,4,Pajah,
276986,PK,5,Gulshan-e-iqbal,
276987,PK,5,Ubauro,
276988,PK,5,Pano Akil,
276989,PK,5,Mitha Kathara,
276990,PK,4,Daira,
276991,PK,4,Chak Twenty-eight Nb,
276992,PK,3,Chaphri,
276993,PK,5,Khairpur Mirs,
276994,PK,5,Tharu Shah,
276995,PK,3,Dharlala,
276996,PK,4,Pindi Bhattian,
276997,PK,3,Jamal Gnazi Ziarat,
276998,PK,4,Chak 107 Sb,
276999,PK,5,Fazal,
277000,PK,5,Samundri,
277001,PK,3,Khat,
277002,PK,4,Rajanpur,
277003,PK,4,Murala,
277004,PK,5,Mirpur Bathoro,
