locId,country,region,city,postcode
300833,PT,,,
300834,PT,14,Lisboa,
300835,PT,14,Lisbon,
300836,PT,17,Maia,
300837,PT,14,Carnaxide,
300838,PT,17,Porto,
300839,PT,14,Amadora,
300840,PT,14,Pontinha,
300841,PT,18,Constância,
300842,PT,19,Almada,
300843,PT,4,Braga,
300844,PT,17,Gaia,
300845,PT,5,Bragança,
300846,PT,18,Abrantes,
300847,PT,8,Avenida,
300848,PT,2,Águeda,
300849,PT,7,Coimbra,
300850,PT,8,Évora,
300851,PT,14,Oeiras,
300852,PT,17,Matosinhos,
300853,PT,14,Queluz,
300854,PT,21,Pereira,
300855,PT,23,Horta,
300856,PT,21,Trofa,
300857,PT,21,Vila Nova,
300858,PT,17,Oporto,
300859,PT,14,Torres Vedras,
300860,PT,13,Leiria,
300861,PT,17,Campo,
300862,PT,14,Cascais,
300863,PT,17,Valadares,
300864,PT,14,Banco,
300865,PT,14,Cacém,
300866,PT,2,Aveiro,
300867,PT,14,Bucelas,
300868,PT,9,Faro,
300869,PT,16,Portalegre,
300870,PT,9,Loulé,
300871,PT,14,Mem Martins,
300872,PT,4,Vale,
300873,PT,14,Sintra,
300874,PT,8,Alqueva,
300875,PT,14,Idanha,
300876,PT,14,Linda-a-velha,
300877,PT,7,Espírito Santo,
300878,PT,23,Ponta Delgada,
300879,PT,7,Vasco,
300880,PT,9,Rocha,
300881,PT,4,Casa,
300882,PT,14,Alcântara,
300883,PT,17,Vila Do Conde,
300884,PT,14,Parede,
300885,PT,4,Agro,
300886,PT,23,Norte,
300887,PT,14,Alfragide,
300888,PT,14,Sacavém,
300889,PT,6,Madeirã,
300890,PT,22,Viseu,
300891,PT,17,Ferreira,
300892,PT,17,Penafiel,
300893,PT,22,Caramulo,
300894,PT,4,Vizela,
300895,PT,19,Caparica,
300896,PT,9,Quarteira,
300897,PT,20,Viana Do Castelo,
300898,PT,17,Pedroso,
300899,PT,2,Gafanha Da Nazaré,
300900,PT,2,Cortegaça,
300901,PT,14,Algés,
300902,PT,21,Quintã,
300903,PT,7,Alentejo,
300904,PT,6,Alvaro,
300905,PT,10,Funchal,
300906,PT,6,Carvalhos,
300907,PT,7,Ordem,
300908,PT,19,Setúbal,
300909,PT,18,Tramagal,
300910,PT,14,Loures,
300911,PT,11,Açores,
300912,PT,4,Fafe,
300913,PT,17,Senhora Da Hora,
300914,PT,2,Vouga,
300915,PT,22,Forca,
300916,PT,14,Vila Franca De Xira,
300917,PT,21,Portela,
300918,PT,20,Aguiã,
300919,PT,22,Peneda,
300920,PT,14,Ericeira,
300921,PT,21,Póvoa,
300922,PT,3,Bens,
300923,PT,7,Costa,
300924,PT,18,Filhós,
300925,PT,14,Camarate,
300926,PT,2,Arcos,
300927,PT,14,Estoril,
300928,PT,17,Rio Tinto,
300929,PT,2,Sangalhos,
300930,PT,22,Vinhós,
300931,PT,9,Portimão,
300932,PT,22,Córdova,
300933,PT,17,Canidelo,
300934,PT,4,Oliveira,
300935,PT,17,Vila Nova De Gaia,
300936,PT,19,Sines,
300937,PT,17,Leça,
300938,PT,21,São Domingos,
300939,PT,14,Albarraque,
300940,PT,18,Madeiras,
300941,PT,2,Ílhavo,
300942,PT,23,Beira,
300943,PT,7,Carvalho,
300944,PT,22,Couto,
300945,PT,2,Rio Meão,
300946,PT,14,Linda-a-pastora,
300947,PT,14,Carregado,
300948,PT,19,Quinta Do Anjo,
300949,PT,14,Rana,
300950,PT,14,Rio De Mouro,
300951,PT,19,Aldeia De Paio Pires,
300952,PT,14,Terrugem,
300953,PT,4,Basto,
300954,PT,7,Figueira Da Foz,
300955,PT,17,Lordelo,
300956,PT,18,Rio Maior,
300957,PT,11,Torre,
300958,PT,11,Guarda,
300959,PT,5,Mirandela,
300960,PT,22,Ribeiro,
300961,PT,19,Barreiro,
300962,PT,13,Marinha Grande,
300963,PT,4,Guimarães,
300964,PT,6,Covilhã,
300965,PT,2,Ovar,
300966,PT,3,Beja,
300967,PT,19,Palmela,
300968,PT,19,Azoia,
300969,PT,4,Ribeirão,
300970,PT,3,Odemira,
300971,PT,13,Pombal,
300972,PT,6,Rolã,
300973,PT,22,Loureiro,
300974,PT,7,Teixeira,
300975,PT,9,Tavira,
300976,PT,14,São Domingos De Rana,
300977,PT,3,Mesquita,
300978,PT,11,Famalicão,
300979,PT,17,Perafita,
300980,PT,2,Oliveira Do Bairro,
300981,PT,14,Silveira,
300982,PT,2,Escapães,
300983,PT,13,Infesta,
300984,PT,22,Mangualde,
300985,PT,17,Valongo,
300986,PT,17,Vila Nova Da Telha,
300987,PT,4,Conde,
300988,PT,14,Paço De Arcos,
300989,PT,17,Leça Da Palmeira,
300990,PT,22,Felgueiras,
300991,PT,9,Guiné,
300992,PT,11,Seia,
300993,PT,14,Azambuja,
300994,PT,22,Montes,
300995,PT,22,Moldes,
300996,PT,9,Estradas,
300997,PT,14,Montelavar,
300998,PT,7,Bonitos,
300999,PT,18,Santarém,
301000,PT,3,Castro Verde,
301001,PT,2,Avanca,
301002,PT,14,Bobadela,
301003,PT,2,Esmoriz,
301004,PT,2,Fiães,
301005,PT,17,Fajozes,
301006,PT,14,Alenquer,
301007,PT,17,Vermoim,
301008,PT,6,Castelo Branco,
301009,PT,2,São João Da Madeira,
301010,PT,20,Agros,
301011,PT,14,São João Da Talha,
301012,PT,13,Garcia,
301013,PT,4,Brito,
301014,PT,17,Gonçalves,
301015,PT,17,Argivai,
301016,PT,7,Caneiro,
301017,PT,20,Portos,
301018,PT,17,Fontainhas,
301019,PT,3,Neves,
301020,PT,2,Espinho,
301021,PT,17,Nogueira,
301022,PT,7,Carregosa,
301023,PT,19,Paio Pires,
301024,PT,14,Venda Do Pinheiro,
301025,PT,22,Nelas,
301026,PT,14,Famões,
301027,PT,14,Alverca,
301028,PT,17,São Mamede,
301029,PT,7,Avelar,
301030,PT,14,Vialonga,
301031,PT,18,Marta,
301032,PT,14,Ramada,
301033,PT,22,Corvo,
301034,PT,13,Alcobaça,
301035,PT,18,Tomar,
301036,PT,5,Meireles,
301037,PT,9,Mealha,
301038,PT,21,Vila Real,
301039,PT,4,Real,
301040,PT,13,Reguengo Do Fetal,
301041,PT,14,Queijas,
301042,PT,17,Gandra,
301043,PT,19,Macau,
301044,PT,18,Estação,
301045,PT,9,Albufeira,
301046,PT,20,Valença,
301047,PT,14,Trajouce,
301048,PT,17,Marco De Canavezes,
301049,PT,11,São Gabriel,
301050,PT,4,Pevidem,
301051,PT,14,Carcavelos,
301052,PT,4,Mota,
301053,PT,21,Barqueiros,
301054,PT,9,Concelho,
301055,PT,14,Barcarena,
301056,PT,11,Castanheira,
301057,PT,11,Cubo,
301058,PT,14,Abuxarda,
301059,PT,17,Santo Tirso,
301060,PT,5,Saldanha,
301061,PT,7,Bom Sucesso,
301062,PT,2,São João,
301063,PT,23,Angra,
301064,PT,21,Cortinhas,
301065,PT,2,Anadia,
301066,PT,17,Azevedo,
301067,PT,9,Castro Marim,
301068,PT,18,Entroncamento,
301069,PT,7,Cantanhede,
301070,PT,13,Peniche,
301071,PT,17,Avintes,
301072,PT,16,Alter Do Chão,
301073,PT,17,Valbom,
301074,PT,19,Alcochete,
301075,PT,3,Santa Iria,
301076,PT,17,Póvoa De Varzim,
301077,PT,14,Alcabideche,
301078,PT,9,Almancil,
301079,PT,20,Mozelos,
301080,PT,23,Belém,
301081,PT,18,Benfica,
301082,PT,17,Guifões,
301083,PT,2,Oliveira De Azemeis,
301084,PT,2,Arrifana,
301085,PT,2,Vila Chã,
301086,PT,2,Feira,
301087,PT,14,Milharado,
301088,PT,18,Fátima,
301089,PT,23,Praça,
301090,PT,2,Branca,
301091,PT,6,Ferro,
301092,PT,19,Corroios,
301093,PT,7,Atouguia,
301094,PT,8,Arraiolos,
301095,PT,2,Estarreja,
301096,PT,19,Moita,
301097,PT,7,Cavaleiros,
301098,PT,18,Cabo,
301099,PT,13,Caldas Da Rainha,
301100,PT,11,Almeida,
301101,PT,6,Belmonte,
301102,PT,19,Torre Da Marinha,
301103,PT,4,Marinhas,
301104,PT,17,Baguim Do Monte,
301105,PT,17,Paços De Ferreira,
301106,PT,14,Mafra,
301107,PT,19,Seixal,
301108,PT,13,Batalha,
301109,PT,17,Coronado,
301110,PT,14,Alcoitão,
301111,PT,7,Poiares,
301112,PT,22,Carregal Do Sal,
301113,PT,13,Marinha,
301114,PT,22,Prime,
301115,PT,9,Sagres,
301116,PT,22,Pinho,
301117,PT,4,Caldas,
301118,PT,7,Lousã,
301119,PT,13,Mendes,
301120,PT,4,Ponte,
301121,PT,2,Cacia,
301122,PT,22,Torredeita,
301123,PT,14,Odivelas,
301124,PT,17,Araújo,
301125,PT,17,Barros,
301126,PT,9,Olhão,
301127,PT,17,Grijó,
301128,PT,23,Lagoa,
301129,PT,13,Maceira,
301130,PT,2,Verdemilho,
301131,PT,9,Silves,
301132,PT,2,Costa Do Valado,
301133,PT,17,Boavista,
301134,PT,4,Joane,
301135,PT,4,Caldas De Vizela,
301136,PT,2,Albergaria-a-velha,
301137,PT,18,Coruche,
301138,PT,4,Calendário,
301139,PT,7,Sampaio,
301140,PT,19,Montijo,
301141,PT,4,Seide,
301142,PT,23,Portal,
301143,PT,17,Santa Cruz Do Bispo,
301144,PT,4,Barcelos,
301145,PT,8,Gato,
301146,PT,20,Melgaço,
301147,PT,13,Marques,
301148,PT,8,Estremoz,
301149,PT,4,Esposende,
301150,PT,6,Vila Velha De Ródão,
301151,PT,17,Marco De Canaveses,
301152,PT,4,Santa Maria,
301153,PT,2,Castelo De Paiva,
301154,PT,17,Moreira,
301155,PT,19,Alvalade,
301156,PT,22,Tondela,
301157,PT,9,Lagos,
301158,PT,22,Mortágua,
301159,PT,7,Abrunheira,
301160,PT,6,Boidobra,
301161,PT,22,Oleiros,
301162,PT,3,Ourique,
301163,PT,7,Montemor-o-velho,
301164,PT,9,Guia,
301165,PT,14,Engenheiro,
301166,PT,22,Santa Comba Dão,
301167,PT,18,Santos,
301168,PT,17,Carneiro,
301169,PT,7,Estrada,
301170,PT,7,Capelo,
301171,PT,18,Samora Correia,
301172,PT,8,Falcão,
301173,PT,13,Castanheira De Pêra,
301174,PT,16,Elvas,
301175,PT,3,Moura,
301176,PT,8,Montemor-o-novo,
301177,PT,4,Tamel,
301178,PT,22,Penalva Do Castelo,
301179,PT,2,Mealhada,
301180,PT,18,Salvador,
301181,PT,17,Telões,
301182,PT,17,Regilde,
301183,PT,19,Coina,
301184,PT,18,Besteiros,
301185,PT,11,Celorico Da Beira,
301186,PT,4,Pardieiro,
301187,PT,23,Anjos,
301188,PT,2,São Roque,
301189,PT,21,Paredes,
301190,PT,22,Pousada,
301191,PT,3,Estrela,
301192,PT,2,Alféloas,
301193,PT,18,Alcanena,
301194,PT,22,Santo Adrião,
301195,PT,17,Fânzeres,
301196,PT,17,Madalena,
301197,PT,7,Casal Da Areia,
301198,PT,14,Abóbada,
301199,PT,20,Lanhelas,
301200,PT,6,Sertã,
301201,PT,22,Coimbrões,
301202,PT,17,Arcozelo,
301203,PT,6,Alcoutim,
301204,PT,8,Redondo,
301205,PT,16,Camões,
301206,PT,22,Cimo De Vila,
301207,PT,17,Formiga,
301208,PT,17,Amorim,
301209,PT,11,Melo,
301210,PT,22,Espinhosa,
301211,PT,22,Lamas,
301212,PT,7,Alvares,
301213,PT,17,Carvalhosa,
301214,PT,14,Linhó,
301215,PT,18,Torres Novas,
301216,PT,14,Aboboda,
301217,PT,11,Sabugal,
301218,PT,18,Gondemaria,
301219,PT,7,Penacova,
301220,PT,22,Santiago,
301221,PT,2,Oliveirinha,
301222,PT,17,Bela Vista,
301223,PT,16,Monte Da Quinta,
301224,PT,2,Algar,
301225,PT,22,Lapa,
301226,PT,8,Amendoeira,
301227,PT,18,Parreira,
301228,PT,20,Pedrosa,
301229,PT,4,Apúlia,
301230,PT,11,Aldeia Nova,
301231,PT,13,Douro,
301232,PT,22,Casal,
301233,PT,17,Pedrouços,
301234,PT,23,Areeiro,
301235,PT,20,Ramo,
301236,PT,5,Morais,
301237,PT,21,Ermida,
301238,PT,7,Marinha Das Ondas,
301239,PT,17,Vilar Do Pinheiro,
301240,PT,7,Góis,
301241,PT,13,Carris,
301242,PT,14,Pero Pinheiro,
301243,PT,14,Barata,
301244,PT,4,Rego,
301245,PT,17,Canelas,
301246,PT,7,Pedrulha,
301247,PT,11,Vila Cortês,
301248,PT,18,Óbidos,
301249,PT,17,Penha Longa,
301250,PT,7,Murtede,
301251,PT,17,Gemunde,
301252,PT,21,Outeiro,
301253,PT,17,Vilar Do Paraíso,
301254,PT,6,Monfortinho,
301255,PT,7,Alqueidão,
301256,PT,11,Freixo,
301257,PT,14,Machado,
301258,PT,17,Gulpilhares,
301259,PT,14,Baleia,
301260,PT,22,Mundão,
301261,PT,2,Pampilhosa,
301262,PT,8,Portel,
301263,PT,14,Carnide,
301264,PT,16,Aires,
301265,PT,3,Mértola,
301266,PT,23,Brasil,
301267,PT,17,Árvore,
301268,PT,17,São Félix Da Marinha,
301269,PT,18,Santa Catarina,
301270,PT,8,Monte Alegre,
301271,PT,13,Vieira,
301272,PT,22,Vila,
301273,PT,14,Moscavide,
301274,PT,19,Barra Cheia,
301275,PT,16,Areia,
301276,PT,14,Santa Iria De Azoia,
301277,PT,6,Fundão,
301278,PT,7,Marco,
301279,PT,18,Alferrarede,
301280,PT,4,Vasconcelos,
301281,PT,23,Ponta,
301282,PT,14,Arranhó,
301283,PT,9,São Marcos,
301284,PT,8,Vendas Novas,
301285,PT,11,Castelo,
301286,PT,13,Martingança,
301287,PT,4,Neiva,
301288,PT,22,Felgueira,
301289,PT,22,Igreja,
301290,PT,14,Massamá,
301291,PT,2,Aguada De Cima,
301292,PT,10,Câmara De Lobos,
301293,PT,17,Mindelo,
301294,PT,10,Quinta Grande,
301295,PT,14,Sobral,
301296,PT,17,Senhora,
301297,PT,18,Almonda,
301298,PT,21,Paço,
301299,PT,4,Lago,
301300,PT,14,Aveiras De Cima,
301301,PT,9,São Brás De Alportel,
301302,PT,4,Areias De Vilar,
301303,PT,21,Vilar,
301304,PT,5,França,
301305,PT,6,Segura,
301306,PT,22,Resende,
301307,PT,17,Gondomar,
301308,PT,17,Penamaior,
301309,PT,7,Venda Nova,
301310,PT,17,Fonseca,
301311,PT,22,Lazarim,
301312,PT,18,Azinhaga,
301313,PT,2,Luso,
301314,PT,23,Facho,
301315,PT,3,Guerreiro,
301316,PT,22,Silvã,
301317,PT,6,Águas,
301318,PT,4,Guardizela,
301319,PT,21,Quintão,
301320,PT,18,Fonte Santa,
301321,PT,7,Cortiça,
301322,PT,7,Armazéns,
301323,PT,21,Frutuoso,
301324,PT,22,Amoreiras,
301325,PT,9,Colégio,
301326,PT,20,Cãis,
301327,PT,14,Lourinhã,
301328,PT,8,Forte,
301329,PT,20,Junto,
301330,PT,7,Lagoas,
301331,PT,8,Barbosa,
301332,PT,17,Portelinha,
301333,PT,14,Sete Rios,
301334,PT,23,Cruzeiro,
301335,PT,4,Padim Da Graça,
301336,PT,3,Panóias,
301337,PT,16,Dom Pedro,
301338,PT,11,Amoreira,
301339,PT,23,Praia Da Vitória,
301340,PT,14,Póvoa De Santa Iria,
301341,PT,9,Canada,
301342,PT,8,Defesa,
301343,PT,17,Alfena,
301344,PT,13,Benedita,
301345,PT,4,Lugar,
301346,PT,17,Athayde,
301347,PT,22,Tojal,
301348,PT,23,Ribeira Grande,
301349,PT,7,Cova,
301350,PT,17,Lousada,
301351,PT,17,Barca,
301352,PT,14,Ranholas,
301353,PT,17,Vilarinho,
301354,PT,8,Aguiar,
301355,PT,14,Montemor,
301356,PT,4,Este,
301357,PT,13,Colmeias,
301358,PT,13,Barosa,
301359,PT,7,Taveiro,
301360,PT,13,Bombarral,
301361,PT,11,Trinta,
301362,PT,7,Chamusca,
301363,PT,11,Pinheiro,
301364,PT,4,Mogege,
301365,PT,17,São Pedro Da Cova,
301366,PT,4,Grimancelos,
301367,PT,18,Carregueira,
301368,PT,14,Turcifal,
301369,PT,5,Guide,
301370,PT,14,Cabo Ruivo,
301371,PT,14,Belas,
301372,PT,13,Reis,
301373,PT,9,Budens,
301374,PT,2,Casal Comba,
301375,PT,17,Recarei,
301376,PT,21,Chaves,
301377,PT,7,Arroteia,
301378,PT,11,Prado,
301379,PT,17,Águas Santas,
301380,PT,14,Frielas,
301381,PT,4,Palme,
301382,PT,7,Tábua,
301383,PT,7,Mira,
301384,PT,23,Boa Hora,
301385,PT,11,Torres,
301386,PT,17,Devesas,
301387,PT,17,Carvalhido,
301388,PT,2,Metal,
301389,PT,22,Cunha,
301390,PT,21,Vilela,
301391,PT,11,Meios,
301392,PT,14,Vermelha,
301393,PT,13,Regueira De Pontes,
301394,PT,22,Cruz,
301395,PT,11,Vendas,
301396,PT,18,Cardigos,
301397,PT,23,São Francisco,
301398,PT,18,Benavente,
301399,PT,4,Caldas Das Taipas,
301400,PT,7,Casal Novo,
301401,PT,14,Cabra Figa,
301402,PT,14,Cruz Quebrada,
301403,PT,17,São Pedro Fins,
301404,PT,22,Vouzela,
301405,PT,18,Barrocas,
301406,PT,17,Amarante,
301407,PT,20,Caminha,
301408,PT,18,Ourém,
301409,PT,17,Cavaco,
301410,PT,22,Tarouca,
301411,PT,5,Castro,
301412,PT,5,Nunes,
301413,PT,8,Sousa,
301414,PT,14,Bairro Alto,
301415,PT,10,Caniço,
301416,PT,2,Bustos,
301417,PT,11,Figueiredo,
301418,PT,3,Serpa,
301419,PT,18,Golegã,
301420,PT,17,Anta,
301421,PT,2,Lourosa,
301422,PT,14,Póvoa De Santo Adrião,
301423,PT,14,Alcoentre,
301424,PT,14,Unhos,
301425,PT,14,Santo Antão Do Tojal,
301426,PT,14,Arruda Dos Vinhos,
301427,PT,18,Salvaterra De Magos,
301428,PT,19,Pinhal Novo,
301429,PT,14,Ventosa,
301430,PT,17,Lavra,
301431,PT,17,Meinedo,
301432,PT,14,Alhandra,
301433,PT,22,Castro Daire,
301434,PT,2,Eixo,
301435,PT,21,Peso Da Régua,
301436,PT,2,Lobão,
301437,PT,4,Adaúfe,
301438,PT,17,Bougado,
301439,PT,18,Poceirão,
301440,PT,2,Macieira De Cambra,
301441,PT,13,Louriçal,
301442,PT,14,Porto Salvo,
301443,PT,18,Pontével,
301444,PT,19,Santo António Da Charneca,
301445,PT,13,Porto De Mós,
301446,PT,14,Caneças,
301447,PT,2,Pardilhó,
301448,PT,18,Alcanede,
301449,PT,14,Sobralinho,
301450,PT,14,Castanheira Do Ribatejo,
301451,PT,2,Válega,
301452,PT,14,Apelação,
301453,PT,18,Alpiarça,
301454,PT,2,Oiã,
301455,PT,22,São Pedro Do Sul,
301456,PT,2,Milheirós De Poiares,
301457,PT,4,Ferreiros,
301458,PT,18,Pinhal,
301459,PT,18,Cartaxo,
301460,PT,13,Santa Catarina Da Serra,
301461,PT,4,Póvoa De Lanhoso,
301462,PT,17,Freamunde,
301463,PT,17,Rebordosa,
301464,PT,20,Agriboa,
301465,PT,5,Macedo De Cavaleiros,
301466,PT,19,Arrentela,
301467,PT,4,Refojos De Basto,
301468,PT,21,Valpaços,
301469,PT,22,Sátão,
301470,PT,22,Campo,
301471,PT,13,Nazaré,
301472,PT,7,Soure,
301473,PT,13,Ferrel,
301474,PT,13,Aljubarrota,
301475,PT,20,Campo Grande,
301476,PT,20,Darque,
301477,PT,18,Marinhais,
301478,PT,14,Malveira,
301479,PT,11,Pai Penela,
301480,PT,6,Alcafozes,
301481,PT,11,Alcains,
301482,PT,22,Lamego,
301483,PT,21,Cainha,
301484,PT,23,Topo,
301485,PT,23,Capelas,
301486,PT,23,Fenais Da Luz,
301487,PT,7,Arazede,
301488,PT,5,Cércio,
301489,PT,18,Bexiga,
301490,PT,21,Sobreira,
301491,PT,23,Fajã Dos Cúberes,
301492,PT,8,São Miguel De Machede,
301493,PT,21,Fonte Fria,
301494,PT,19,Cova Da Piedade,
301495,PT,3,Ferreira Do Alentejo,
301496,PT,4,Candoso,
301497,PT,19,Charneca De Caparica,
301498,PT,9,Armação De Pêra,
301499,PT,7,Alhadas,
301500,PT,19,Amora,
301501,PT,19,Alhos Vedros,
301502,PT,8,Vila Viçosa,
301503,PT,11,Freixial,
301504,PT,23,Fajã Da Caldeira De Santo Cristo,
301505,PT,4,Serzedo,
301506,PT,4,Vila Nova De Famalicão,
301507,PT,9,São Bartolomeu De Messines,
301508,PT,8,Reguengos De Monsaraz,
301509,PT,17,Figueiró,
301510,PT,4,Serzedelo,
301511,PT,20,Vila Nova De Cerveira,
301512,PT,20,Arga De São João,
301513,PT,20,Ponte De Lima,
301514,PT,20,Ameixeda,
301515,PT,7,Lorvão,
301516,PT,9,Laranjeiro,
301517,PT,7,Arganil,
301518,PT,14,Almargem Do Bispo,
301519,PT,19,Alcácer Do Sal,
301520,PT,19,Santiago Do Cacém,
301521,PT,19,Grândola,
301522,PT,3,Aljustrel,
301523,PT,3,Vila Nova Da Baronia,
301524,PT,9,Moncarapacho,
301525,PT,4,Vila Verde,
301526,PT,13,Caranguejeira,
301527,PT,18,Almeirim,
301528,PT,16,Campo Maior,
301529,PT,13,Pataias,
301530,PT,17,Seroa,
301531,PT,2,Salreu,
301532,PT,14,Algueirão,
301533,PT,19,Trafaria,
301534,PT,13,Souto Da Carpalhosa,
301535,PT,18,Fungalvaz,
301536,PT,19,Sobreda,
301537,PT,16,Barca Da Amieira,
301538,PT,10,Machico,
301539,PT,17,Sandim,
301540,PT,22,Fiais Da Telha,
301541,PT,20,Monção,
301542,PT,22,Abraveses,
301543,PT,9,Santa Bárbara De Nexe,
301544,PT,16,Ponte De Sor,
301545,PT,7,Montes Da Torre,
301546,PT,9,Boliqueime,
301547,PT,17,Baltar,
301548,PT,14,São Pedro Da Cadeira,
301549,PT,16,Santo André,
301550,PT,17,Jovim,
301551,PT,4,Landim,
301552,PT,19,Pragal,
301553,PT,14,São João Dos Montes,
301554,PT,19,Sesimbra,
301555,PT,2,Paços De Brandão,
301556,PT,19,Santo André,
301557,PT,13,Atouguia Da Baleia,
301558,PT,9,Brejos,
301559,PT,9,Alvor,
301560,PT,17,Foz Do Sousa,
301561,PT,2,Argoncilhe,
301562,PT,2,Beduido,
301563,PT,11,Gonçalo,
301564,PT,9,Monchique,
301565,PT,7,Buarcos,
301566,PT,17,Perozinho,
301567,PT,13,Usseira,
301568,PT,23,Fajã Da Ribeira Da Areia,
301569,PT,23,Fajã De Baixo,
301570,PT,21,Godim,
301571,PT,4,Galegos,
301572,PT,17,Margaride,
301573,PT,5,Mogadouro,
301574,PT,17,Baião,
301575,PT,17,Milheirós,
301576,PT,11,Gouveia,
301577,PT,22,São Joaninho,
301578,PT,22,Lajeosa,
301579,PT,13,Monte Redondo,
301580,PT,13,Amor,
301581,PT,10,Santa Cruz,
301582,PT,20,Vila Franca,
301583,PT,2,Nogueira Da Regedoura,
301584,PT,19,Arouca,
301585,PT,18,Riachos,
301586,PT,20,Vila Praia De Âncora,
301587,PT,17,Negrelos,
301588,PT,11,Muxagata,
301589,PT,7,Oliveira Do Hospital,
301590,PT,11,Gouveias,
301591,PT,9,São Marcos Da Serra,
301592,PT,2,Canedo,
301593,PT,17,São Mamede De Infesta,
301594,PT,2,Silvalde,
301595,PT,4,Vila Frescainha,
301596,PT,6,Teixoso,
301597,PT,19,Melides,
301598,PT,17,Leça Do Bailio,
301599,PT,17,Olival,
301600,PT,13,Turquel,
301601,PT,3,Vila Nova De Milfontes,
301602,PT,2,São João De Ver,
301603,PT,17,Castelões De Cepeda,
301604,PT,20,Rebordãis,
301605,PT,7,Condeixa,
301606,PT,17,Barrosas,
301607,PT,2,Aradas,
301608,PT,4,Gagos,
301609,PT,9,Lagoa,
301610,PT,14,Merceana,
301611,PT,20,Cerquido,
301612,PT,9,Vila Do Bispo,
301613,PT,18,Fazendas De Almeirim,
301614,PT,20,Ranhados,
301615,PT,18,Carvoeiro,
301616,PT,23,Vila Do Porto,
301617,PT,23,Fajã Do Ouvidor,
301618,PT,23,Nordeste,
301619,PT,23,Vila Franca Do Campo,
301620,PT,9,Luz,
301621,PT,10,Porto Santo,
301622,PT,23,Monte,
301623,PT,17,Sobrado,
301624,PT,22,Oliveira De Frades,
301625,PT,23,Arrifes,
301626,PT,22,Marmelal,
301627,PT,4,Arões,
301628,PT,9,Almádena,
301629,PT,14,A Dos Cunhados,
301630,PT,2,Moinhos,
301631,PT,7,Miranda Do Corvo,
301632,PT,9,Estômbar,
301633,PT,4,Sande,
301634,PT,17,Frazão,
301635,PT,17,Lustosa,
301636,PT,5,Bemposta,
301637,PT,16,Morrenoto,
301638,PT,2,Vagos,
301639,PT,8,Borba,
301640,PT,20,Montezelo,
301641,PT,14,Vale De Lobos,
301642,PT,4,Caldelas,
301643,PT,17,Aves,
301644,PT,7,Ançã,
301645,PT,16,Outeiro Cimeiro,
301646,PT,11,Linhares,
301647,PT,19,Cotovia,
301648,PT,11,Pinhel,
301649,PT,23,Bretanha,
301650,PT,22,Rio De Loba,
301651,PT,7,Lavos,
301652,PT,16,Nisa,
301653,PT,8,Monte Do Pau,
301654,PT,20,Freixieiro De Soutelo,
301655,PT,20,Além,
301656,PT,20,Escusa,
301657,PT,11,Vascoveiro,
301658,PT,11,Travancinha,
301659,PT,11,Regada,
301660,PT,11,Mangide,
301661,PT,20,Arcos De Valdevez,
301662,PT,13,Trutas,
301663,PT,19,Cercal,
301664,PT,4,Lordelo,
301665,PT,17,Aguçadoura,
301666,PT,17,Oliveira Do Douro,
301667,PT,13,Abelheira,
301668,PT,6,Carroqueiro,
301669,PT,18,Amêndoa,
301670,PT,5,Vimioso,
301671,PT,22,Lajes,
301672,PT,8,Azaruja,
301673,PT,22,Boa Aldeia,
301674,PT,22,Cambra,
301675,PT,9,Monte Gordo,
301676,PT,16,Assumar,
301677,PT,7,Leirosa,
301678,PT,22,Junçal,
301679,PT,2,Sardinha,
301680,PT,18,Casais Dos Penedos,
301681,PT,20,Cheira,
301682,PT,2,Gafanha Da Encarnação,
301683,PT,23,Calheta,
301684,PT,16,Vale Da Amoreira,
301685,PT,17,Vilar De Andorinho,
301686,PT,4,São Sebastião,
301687,PT,17,Praia Da Granja,
301688,PT,17,Avessadas,
301689,PT,7,Granja Do Ulmeiro,
301690,PT,8,Nossa Senhora De Machede,
301691,PT,4,Cavalões,
301692,PT,22,Galizas,
301693,PT,17,Fojo,
301694,PT,6,Pedrógão Pequeno,
301695,PT,4,Antas,
301696,PT,2,Murtosa,
301697,PT,13,Cidade,
301698,PT,13,Mosqueiros,
301699,PT,23,Achadinha,
301700,PT,21,Calvão,
301701,PT,20,Venade De Baixo,
301702,PT,9,Ferreiras,
301703,PT,7,Carrasqueira,
301704,PT,21,Cadaval,
301705,PT,5,Veigas,
301706,PT,17,Casais,
301707,PT,4,Freitas,
301708,PT,19,Monserrate,
301709,PT,2,Sever Do Vouga,
301710,PT,3,Zambujeira Do Mar,
301711,PT,9,Alcantarilha,
301712,PT,8,Canaviais,
301713,PT,21,Pinhão,
301714,PT,13,Óbidos,
301715,PT,22,Tabuaço,
301716,PT,22,Pinheiros,
301717,PT,22,Moimenta Da Beira,
301718,PT,5,Freixo De Espada à Cinta,
301719,PT,20,Gontomil,
301720,PT,20,Antas,
301721,PT,21,Mondim De Basto,
301722,PT,18,Sardoal,
301723,PT,13,Alvaiázere,
301724,PT,14,Santo Antônio,
301725,PT,14,Queluz De Baixo,
301726,PT,3,Cuba,
301727,PT,14,Ribas De Cima,
301728,PT,4,Cambeses,
301729,PT,17,Infesta,
301730,PT,14,Tercena,
301731,PT,14,Manique,
301732,PT,3,Vidigueira,
301733,PT,17,Vila Meã,
301734,PT,18,Minde,
301735,PT,22,São João Da Pesqueira,
301736,PT,21,Alijó,
301737,PT,22,Figueira,
301738,PT,7,Santana,
301739,PT,2,César,
301740,PT,17,Paredes,
301741,PT,17,Lever,
301742,PT,11,Fornos De Algodres,
301743,PT,2,Gafanha Da Boa Hora,
301744,PT,14,Colares,
301745,PT,17,Gove,
301746,PT,13,Marrazes,
301747,PT,13,Monte Real,
301748,PT,20,Carreço,
301749,PT,18,Caxarias,
301750,PT,13,Salir De Matos,
301751,PT,20,Paredes De Coura,
301752,PT,7,Cernache,
301753,PT,4,Amares,
301754,PT,4,Dornelas,
301755,PT,22,Campo,
301756,PT,18,Castelo Novo,
301757,PT,7,Carvoeiro,
301758,PT,17,Alpendurada,
301759,PT,2,Alquerubim,
301760,PT,4,Moure,
301761,PT,14,Rinchoa,
301762,PT,14,Buraca,
301763,PT,20,Riba De Âncora,
301764,PT,14,Murganhal,
301765,PT,9,Mexilhoeira,
301766,PT,18,São José,
301767,PT,22,Carreira,
301768,PT,17,Rebordões,
301769,PT,14,Tires,
301770,PT,20,Portuzelo,
301771,PT,4,Fradelos,
301772,PT,20,Picaranha,
301773,PT,9,Praia Da Rocha,
301774,PT,2,Cucujães,
301775,PT,18,Vila Nova Da Barquinha,
301776,PT,7,Liceia,
301777,PT,11,Granja,
301778,PT,14,Orjariça,
301779,PT,13,Alqueidão Da Serra,
301780,PT,14,Cadaval,
301781,PT,18,Romeiros,
301782,PT,22,Silvares,
301783,PT,19,Santo André,
301784,PT,9,Lagoa,
301785,PT,22,Matos,
301786,PT,18,Palmeira,
301787,PT,22,Fresta,
301788,PT,21,Tourém,
301789,PT,20,Meadela,
301790,PT,14,São Pedro Do Estoril,
301791,PT,21,Campeã,
301792,PT,22,Armamar,
301793,PT,22,Vila Franca,
301794,PT,18,Igreja Nova,
301795,PT,14,Alvarinhos,
301796,PT,18,Atalaia,
301797,PT,14,Azueira,
301798,PT,22,Chãs De Tavares,
301799,PT,23,Velas,
301800,PT,13,Calvária De Cima,
301801,PT,22,Tourigo,
301802,PT,18,Brogueira,
301803,PT,9,Aljezur,
301804,PT,18,Rossio Ao Sul Do Tejo,
301805,PT,7,São João Do Campo,
301806,PT,16,Cano,
301807,PT,22,Lousã,
301808,PT,17,Freixo De Cima,
301809,PT,11,São Miguel,
301810,PT,22,Cinfães,
301811,PT,9,Odeceixe,
301812,PT,20,Ageito,
301813,PT,21,Vidago,
301814,PT,7,Cadima,
301815,PT,10,Ponta Do Sol,
301816,PT,4,Nine,
301817,PT,7,Condeixa A Nova,
301818,PT,4,Lanhoso,
301819,PT,17,Sermonde,
301820,PT,2,Ventosa Do Bairro,
301821,PT,11,Custoias,
301822,PT,14,Negrais,
301823,PT,13,Aguda,
301824,PT,18,Vale De Santarém,
301825,PT,13,Pêra,
301826,PT,14,Bicesse,
301827,PT,7,Laborins,
301828,PT,22,Castanheira,
301829,PT,14,Sobral De Monte Agraço,
301830,PT,22,Canas De Senhorim,
301831,PT,20,Ponte Da Barca,
301832,PT,18,Urqueira,
301833,PT,14,Caparide,
301834,PT,17,Cárdia,
301835,PT,23,Furnas,
301836,PT,11,Póvoa Do Concelho,
301837,PT,2,Arouca,
301838,PT,18,Freixianda,
301839,PT,22,Vila Meã,
301840,PT,22,Castelejo,
301841,PT,9,Algoz,
301842,PT,22,Fontelo,
301843,PT,6,Janeiro De Cima,
301844,PT,10,Madalena Do Mar,
301845,PT,5,Romariz,
301846,PT,14,Portela,
301847,PT,22,Fornelo,
301848,PT,20,Jolda,
301849,PT,10,Camacha,
301850,PT,2,Ossela,
301851,PT,22,Palma,
301852,PT,21,Seara,
301853,PT,19,Vila Nogueira,
301854,PT,18,Rio De Couros,
301855,PT,21,Boticas,
301856,PT,11,Manteigas,
301857,PT,6,Penamacor,
301858,PT,20,Cepões,
301859,PT,7,Gala,
301860,PT,4,Delães,
301861,PT,14,Janas,
301862,PT,22,Santar,
301863,PT,8,Évora Monte,
301864,PT,22,Macieira,
301865,PT,2,Paredes Do Bairro,
301866,PT,4,Pousa,
301867,PT,20,Areosa,
301868,PT,7,Furadouro,
301869,PT,13,Golpilheira,
301870,PT,4,Vila Nova,
301871,PT,17,Paço De Sousa,
301872,PT,14,São Marcos,
301873,PT,17,Beiriz,
301874,PT,17,Reguenga,
301875,PT,20,Mujães,
301876,PT,18,Mouriscas,
301877,PT,16,Seda,
301878,PT,17,Carvalhos,
301879,PT,22,Farves,
301880,PT,6,Penha Garcia,
301881,PT,19,Costa De Caparica,
301882,PT,8,Casebres,
301883,PT,13,São Martinho Do Porto,
301884,PT,7,Praia De Mira,
301885,PT,18,Ferreira Do Zêzere,
301886,PT,9,Monte Francisco,
301887,PT,9,Altura,
301888,PT,2,Palmaz,
301889,PT,11,Cinco Vilas,
301890,PT,11,Trancoso,
301891,PT,11,Figueira De Castelo Rodrigo,
301892,PT,23,Agualva,
301893,PT,18,Porto Alto,
301894,PT,3,Vila De Frades,
301895,PT,7,São Paulo,
301896,PT,21,Montalegre,
301897,PT,4,Fão,
301898,PT,13,Alfeizerão,
301899,PT,9,Cacela,
301900,PT,11,Sequeira,
301901,PT,5,Rio Frio,
301902,PT,3,Taipas,
301903,PT,22,Peso,
301904,PT,22,Cambres,
301905,PT,6,Lardosa,
301906,PT,19,Ermidas-sado,
301907,PT,4,Marrancos,
301908,PT,21,Vila Pouca De Aguiar,
301909,PT,16,Fronteira,
301910,PT,8,Represa,
301911,PT,13,Aroeira,
301912,PT,19,Cacilhas,
301913,PT,19,Pegões,
301914,PT,9,Mexilhoeira Grande,
301915,PT,9,Vila Real De Santo António,
301916,PT,14,Abrigada,
301917,PT,4,Avidos,
301918,PT,23,Ginetes,
301919,PT,4,Moreira De Conegos,
301920,PT,14,Agualva,
301921,PT,18,Cabeça Gorda,
301922,PT,14,Ota,
301923,PT,14,Birre,
301924,PT,2,Fajões,
301925,PT,2,Sanguedo,
301926,PT,11,São Pedro,
301927,PT,5,Miranda,
301928,PT,11,Santo António,
301929,PT,2,Ouça,
301930,PT,14,Mercês,
301931,PT,23,Livramento,
301932,PT,2,Mansores,
301933,PT,6,Idanha-a-nova,
301934,PT,14,Fontanelas,
301935,PT,4,Viatodos,
301936,PT,8,Cabeção,
301937,PT,14,Anços,
301938,PT,22,Calvos,
301939,PT,7,Penela,
301940,PT,7,Cabouco,
301941,PT,14,Gradil,
301942,PT,13,Serra Do Bouro,
301943,PT,4,Fragoso,
301944,PT,2,Aguim,
301945,PT,6,Montes Da Senhora,
301946,PT,7,Samuel,
301947,PT,9,Querença,
301948,PT,14,Aldeia Galega,
301949,PT,2,Souto,
301950,PT,9,Alte,
301951,PT,13,Alvados,
301952,PT,16,Montargil,
301953,PT,4,Gandarela,
301954,PT,19,Samouco,
301955,PT,19,Sarilhos Grandes,
301956,PT,13,Alvorninha,
301957,PT,22,Forjães,
301958,PT,3,Alvito,
301959,PT,22,Trapa,
301960,PT,22,Beijós,
301961,PT,7,Brasfemes,
301962,PT,11,Marmeleiro,
301963,PT,17,Sanfins De Ferreira,
301964,PT,4,Abade De Vermoim,
301965,PT,17,Modivas,
301966,PT,18,Paialvo,
301967,PT,11,Malta,
301968,PT,22,Vila Nova Da Rainha,
301969,PT,17,Campinas,
301970,PT,18,Glória,
301971,PT,17,Pinheiro,
301972,PT,2,Barcouço,
301973,PT,7,Monforte,
301974,PT,11,Atalaia,
301975,PT,6,Orca,
301976,PT,18,Reguengos,
301977,PT,11,Vale De Amoreira,
301978,PT,7,Nogueira Do Cravo,
301979,PT,17,Ermezinde,
301980,PT,22,Pias,
301981,PT,2,Macinhata Do Vouga,
301982,PT,4,Magos,
301983,PT,4,Estorãos,
301984,PT,6,Herdade,
301985,PT,7,Ourentã,
301986,PT,22,Sanfins,
301987,PT,7,Ameal,
301988,PT,3,São Teotónio,
301989,PT,6,Souto Da Casa,
301990,PT,18,Estreito,
301991,PT,7,Coja,
301992,PT,10,Ribeira Brava,
301993,PT,22,Penedono,
301994,PT,16,Monte Da Pedra,
301995,PT,17,Macieira Da Maia,
301996,PT,10,Santo Da Serra,
301997,PT,19,Alfarim,
301998,PT,13,Tornada,
301999,PT,10,Arco Da Calheta,
302000,PT,7,Castelo Viegas,
302001,PT,17,Vairão,
302002,PT,4,Lemenhe,
302003,PT,14,Santo Estêvão Das Galés,
302004,PT,4,Macieira De Rates,
302005,PT,18,Abitureiras,
302006,PT,7,Antanhol,
302007,PT,9,Salema,
302008,PT,22,Senhorim,
302009,PT,2,Gafanha Do Carmo,
302010,PT,2,Esgueira,
302011,PT,9,Montes De Alvor,
302012,PT,17,Foz Do Douro,
302013,PT,18,Murtal,
302014,PT,7,Febres,
302015,PT,11,Mosteiro,
302016,PT,18,Travessa,
302017,PT,14,Marvila,
302018,PT,18,Montargil,
302019,PT,17,São Pedro De Avioso,
302020,PT,21,Régua,
302021,PT,2,Almansor,
302022,PT,11,Castelo Bom,
302023,PT,11,Castelo Rodrigo,
302024,PT,22,Cabanas De Viriato,
302025,PT,6,Quinta Das Laranjeiras,
302026,PT,13,Vidais,
302027,PT,6,Orjais,
302028,PT,7,Lamarosa,
302029,PT,23,Cabo Da Praia,
302030,PT,11,Santo Amaro,
302031,PT,22,Cabeço,
302032,PT,7,Tapada,
302033,PT,20,Riba De Mouro,
302034,PT,16,Castelo De Vide,
302035,PT,21,Raiz Do Monte,
302036,PT,7,Tavarede,
302037,PT,14,Vila Franca Do Rosário,
302038,PT,2,Antes,
302039,PT,21,Cerva,
302040,PT,20,Alvarães,
302041,PT,9,Salir,
302042,PT,11,Vilar Formoso,
302043,PT,13,Tinto,
302044,PT,22,Covas,
302045,PT,14,Encarnação,
302046,PT,18,Ramalhal,
302047,PT,22,Aveloso,
302048,PT,22,Mourão,
302049,PT,11,Freixeda Do Torrão,
302050,PT,13,Pedrógão Grande,
302051,PT,13,Figueiró Dos Vinhos,
302052,PT,22,Pinheirinho,
302053,PT,6,Póvoa De Rio De Moinhos,
302054,PT,18,Charneca,
302055,PT,18,Olaia,
302056,PT,17,Póvoa,
302057,PT,14,Marteleira,
302058,PT,19,Sarilhos Pequenos,
302059,PT,11,Vinhas,
302060,PT,2,Mamarrosa,
302061,PT,17,São Mamede Do Coronado,
302062,PT,19,Taipadas,
302063,PT,9,Estói,
302064,PT,4,Abade De Neiva,
302065,PT,23,Rabo De Peixe,
302066,PT,18,Secorio,
302067,PT,22,São Bernardo,
302068,PT,22,Paredes Da Beira,
302069,PT,6,Sobreira Formosa,
302070,PT,22,Vila Cova,
302071,PT,4,Arnoso,
302072,PT,8,Igrejinha,
302073,PT,13,Cruzes,
302074,PT,13,Gaio,
302075,PT,22,Vila Chã De Sá,
302076,PT,23,Lajes Do Pico,
302077,PT,4,Nogueiro,
302078,PT,3,Vila Alva,
302079,PT,18,Praia Do Ribatejo,
302080,PT,17,Constance,
302081,PT,23,Cinco Ribeiras,
302082,PT,18,Assentiz,
302083,PT,22,Vide,
302084,PT,7,Soito,
302085,PT,2,Torreira,
302086,PT,18,Santa Marta,
302087,PT,4,Celorico De Basto,
302088,PT,9,Tunes,
302089,PT,9,Paderne,
302090,PT,18,Mação,
302091,PT,11,Loriga,
302092,PT,20,Venade,
302093,PT,9,Burgau,
302094,PT,2,Poutena,
302095,PT,14,Cobre,
302096,PT,11,Aldeia,
302097,PT,21,Escariz,
302098,PT,9,Maria Vinagre,
302099,PT,14,Rolia,
302100,PT,13,Redondos,
302101,PT,23,São Roque Do Pico,
302102,PT,8,Mora,
302103,PT,4,Creixomil,
302104,PT,13,Boavista,
302105,PT,8,Foros Do Queimado,
302106,PT,9,Fuseta,
302107,PT,14,São João Das Lampas,
302108,PT,20,Moselos,
302109,PT,3,Almodôvar,
302110,PT,14,Ribamar,
302111,PT,7,Verride,
302112,PT,11,Folhadosa,
302113,PT,22,Lageosa,
302114,PT,22,Penedo,
302115,PT,18,Valhascos,
302116,PT,14,Alapraia,
302117,PT,22,Sendim,
302118,PT,7,Ega,
302119,PT,23,Almagreira,
302120,PT,21,Abaças,
302121,PT,23,Vitória,
302122,PT,13,Redinha,
302123,PT,17,Aboim,
302124,PT,17,Seixezelo,
302125,PT,7,São Pedro De Alva,
302126,PT,3,Baleizão,
302127,PT,22,Alvarelhos,
302128,PT,6,Vila De Rei,
302129,PT,2,Azurva,
302130,PT,7,Tocha,
302131,PT,14,Carmões,
302132,PT,3,Figueira De Cavaleiros,
302133,PT,17,Tougues,
302134,PT,17,Aldoar,
302135,PT,21,Freiria,
302136,PT,11,Rapoula,
302137,PT,11,Vila Nova De Tazem,
302138,PT,22,Rio De Moinhos,
302139,PT,21,Santa Marta De Penaguião,
302140,PT,5,Torre De Moncorvo,
302141,PT,18,Casais Da Lapa,
302142,PT,5,Alfândega Da Fé,
302143,PT,13,Foz Do Arelho,
302144,PT,13,Vermoil,
302145,PT,19,Vila Fresca,
302146,PT,13,Valado Dos Frades,
302147,PT,14,Dois Portos,
302148,PT,13,Sarnadas,
302149,PT,23,Ponta Garça,
302150,PT,4,Ronfe,
302151,PT,3,Amareleja,
302152,PT,22,Travanca,
302153,PT,21,Casas,
302154,PT,20,Vila De Punhe,
302155,PT,14,Odrinhas,
302156,PT,7,Midões,
302157,PT,2,Angeja,
302158,PT,18,Carril,
302159,PT,4,Santa,
302160,PT,2,Guetim,
302161,PT,7,Carapinheira,
302162,PT,6,Peral,
302163,PT,18,Biscainho,
302164,PT,8,Viana Do Alentejo,
302165,PT,16,Sousel,
302166,PT,7,Figueiró Do Campo,
302167,PT,23,Urzelina,
302168,PT,2,Tamengos,
302169,PT,21,Vilarandelo,
302170,PT,11,Aldeia Da Ponte,
302171,PT,7,Louredo,
302172,PT,16,Santo António Das Areias,
302173,PT,9,Castelhana,
302174,PT,20,Mazedo,
302175,PT,20,Baroso,
302176,PT,21,Pedras Salgadas,
302177,PT,10,Gaula,
302178,PT,21,Negrões,
302179,PT,17,Maceda,
302180,PT,16,Tolosa,
302181,PT,13,Parracheira,
302182,PT,11,Aldeia De Santo António,
302183,PT,11,Paranhos,
302184,PT,9,Espargal,
302185,PT,2,Mogofores,
302186,PT,7,Lemede,
302187,PT,21,São Vicente,
302188,PT,22,São João De Tarouca,
302189,PT,9,Odiáxere,
302190,PT,2,Romariz,
302191,PT,14,Virtudes,
302192,PT,11,Pinhanços,
302193,PT,14,Ajuda,
302194,PT,14,Sabugo,
302195,PT,14,Carrasqueira,
302196,PT,22,Sabugosa,
302197,PT,18,Vila Chã De Ourique,
302198,PT,11,Meda,
302199,PT,18,Pernes,
302200,PT,4,Turiz,
302201,PT,2,Póvoa Do Paço,
302202,PT,14,Runa,
302203,PT,13,Marinheiros,
302204,PT,22,Fail,
302205,PT,21,Delgada,
302206,PT,10,São Vicente,
302207,PT,17,Afurada,
302208,PT,13,Santiago Da Guarda,
302209,PT,2,Trofa,
302210,PT,22,Queimada,
302211,PT,17,Pombal,
302212,PT,14,Vila Nova Da Rainha,
302213,PT,7,Pombal,
302214,PT,6,Erada,
302215,PT,13,Moura,
302216,PT,14,Montargil,
302217,PT,16,Santo Amaro,
302218,PT,14,Entroncamento,
302219,PT,23,Madalena,
302220,PT,2,Santiago De Riba-ul,
302221,PT,22,Paços,
302222,PT,14,Seixal,
302223,PT,2,Paramos,
302224,PT,9,Praia Do Carvoeiro,
302225,PT,8,Rio De Moinhos,
302226,PT,7,Santo Varão,
302227,PT,7,Condeixa-a-velha,
302228,PT,22,Seixo,
302229,PT,13,Juncal,
302230,PT,4,Palmeira De Faro,
302231,PT,18,Ribeira Branca,
302232,PT,13,Ribeira Do Pereiro,
302233,PT,14,Livramento,
302234,PT,11,Nabais,
302235,PT,22,Vilar De Besteiros,
302236,PT,18,Malaqueijo,
302237,PT,22,Sabrosa,
302238,PT,4,Felgueiras,
302239,PT,11,Cativelos,
302240,PT,18,Bemposta,
302241,PT,22,Povolide,
302242,PT,7,Seixas,
302243,PT,21,Matosinhos,
302244,PT,4,Trofa,
302245,PT,9,Buraca,
302246,PT,14,Abrunheira,
302247,PT,18,Almada,
302248,PT,14,Cadriceira,
302249,PT,14,Póvoa Da Galega,
302250,PT,4,Outiz,
302251,PT,20,Rasa,
302252,PT,22,Santarém,
302253,PT,7,Escoural,
302254,PT,22,Pinheiro De Ázere,
302255,PT,14,Enxara Do Bispo,
302256,PT,16,Aldeia Da Mata,
302257,PT,23,Cabouco,
302258,PT,23,Povoação,
302259,PT,4,Rua,
302260,PT,7,Serra,
302261,PT,20,Castro Laboreiro,
302262,PT,23,Água De Pau,
302263,PT,17,Maganha,
302264,PT,2,Fermelã,
302265,PT,23,Porto Martins,
302266,PT,7,Carapelhos,
302267,PT,11,Algodres,
302268,PT,2,Açores,
302269,PT,14,Póvoa,
302270,PT,16,Beirã,
302271,PT,13,Azoia,
302272,PT,4,Famalicão,
302273,PT,17,Felgueiras,
302274,PT,14,São Domingos,
302275,PT,2,Carregosa,
302276,PT,14,Vila Nova,
302277,PT,13,Avelar,
302278,PT,23,Corvo,
302279,PT,7,Castanheira,
302280,PT,14,Benfica,
302281,PT,13,Atouguia,
302282,PT,18,Cavaleiros,
302283,PT,17,Marinha,
302284,PT,14,Boavista,
302285,PT,2,Santa Maria,
302286,PT,2,Santo Adrião,
302287,PT,14,Lamas,
302288,PT,11,Santiago,
302289,PT,7,Casal,
302290,PT,14,Penha Longa,
302291,PT,17,Outeiro,
302292,PT,9,Santa Catarina,
302293,PT,3,Vila,
302294,PT,14,Areia,
302295,PT,17,Castelo,
302296,PT,16,Quinta,
302297,PT,19,Fonte Santa,
302298,PT,14,Amoreira,
302299,PT,14,Tojal,
302300,PT,4,Cova,
302301,PT,18,Chamusca,
302302,PT,14,Pinheiro,
302303,PT,18,Prado,
302304,PT,2,Torres,
302305,PT,19,Vendas,
302306,PT,2,Cambra,
302307,PT,14,Casais,
302308,PT,10,Palmeira,
302309,PT,8,Granja,
302310,PT,2,Arada,
302311,PT,10,Santana,
302312,PT,20,Castelo,
302313,PT,14,São Miguel,
302314,PT,10,Ponta Delgada,
302315,PT,6,Louriçal Do Campo,
302316,PT,14,Galiza,
302317,PT,23,Lajes,
302318,PT,19,Vila Nogueira De Azeitão,
302319,PT,17,Vila Boa De Quires,
302320,PT,21,Arcossó,
302321,PT,10,Calheta,
302322,PT,7,Serpins,
302323,PT,14,Freixial,
302324,PT,4,Negreiros,
302325,PT,18,Gaviaõ,
302326,PT,6,Sarnadas,
302327,PT,18,Vale Da Mua,
302328,PT,17,Novelas,
302329,PT,17,Vale,
302330,PT,18,Santo Estêvão,
302331,PT,6,Unhais Da Serra,
302332,PT,18,Pias,
302333,PT,14,Manique De Cima,
302334,PT,9,Patacão,
302335,PT,2,Troviscal,
302336,PT,14,Assenta,
302337,PT,2,Calvão,
302338,PT,18,Viegas,
302339,PT,14,Covas De Ferro,
302340,PT,23,Maía,
302341,PT,18,Areias,
302342,PT,14,Arcos,
302343,PT,7,Ceira,
302344,PT,6,Lousa,
302345,PT,14,Lousa,
302346,PT,22,Pesqueira,
302347,PT,16,Vila Boim,
302348,PT,13,Vimeiro,
302349,PT,14,Talaide,
302350,PT,4,Requião,
302351,PT,17,Sendim,
302352,PT,22,Mozelos,
302353,PT,2,Vale De Cambra,
302354,PT,4,Cabeceiras De Basto,
302355,PT,14,Ordasqueira,
302356,PT,13,Mira,
302357,PT,14,Miragaia,
302358,PT,14,Aldeia,
302359,PT,13,Pinhal,
302360,PT,17,Miramar,
302361,PT,13,Carvalhal,
302362,PT,5,Sambade,
302363,PT,6,Retaxo,
302364,PT,6,Aldeia Do Bispo,
302365,PT,18,Amiãis De Baixo,
302366,PT,9,Gambelas,
302367,PT,14,Atalaia,
302368,PT,14,Damaia,
302369,PT,7,Mouronho,
302370,PT,4,Santa Eulália,
302371,PT,14,Pêro Moniz,
302372,PT,21,Murça,
302373,PT,14,Pinheiro De Loures,
302374,PT,19,Lavradio,
302375,PT,20,Vila Nova De Gaia,
302376,PT,14,Lumiar,
302377,PT,14,Vila Verde Dos Francos,
302378,PT,14,Alfornelos,
302379,PT,2,Fornos,
302380,PT,9,Carvoeiro,
302381,PT,19,Quintinha,
302382,PT,17,Cete,
302383,PT,19,Torrão,
302384,PT,8,Graca,
302385,PT,14,Laveiras,
302386,PT,18,Barquinha,
302387,PT,7,Espinheiro,
302388,PT,17,Ancede,
302389,PT,2,Fermentelos,
302390,PT,23,Cedros,
302391,PT,2,Vilarinho Do Bairro,
302392,PT,18,Alburitel,
302393,PT,14,Aldeia Galega Da Merceana,
302394,PT,6,Aranhas,
302395,PT,17,Figueira,
302396,PT,16,Cabeço De Vide,
302397,PT,4,Rendufe,
302398,PT,4,Riba De Ave,
302399,PT,17,São Jorge,
302400,PT,2,Gafanha Da Vagueira,
302401,PT,13,Évora,
302402,PT,14,Arroeiras,
302403,PT,16,Galveias,
302404,PT,14,Sapataria,
302405,PT,14,Valejas,
302406,PT,7,Assafarge,
302407,PT,4,Carcavelos,
302408,PT,6,Barroca Grande,
302409,PT,14,Chelas,
302410,PT,6,Proença-a-nova,
302411,PT,21,Loivos,
302412,PT,19,Rosário,
302413,PT,17,Regedoura,
302414,PT,22,France,
302415,PT,14,Campelos,
302416,PT,2,Avelãs De Caminho,
302417,PT,13,Rebolaria,
302418,PT,11,Rebolosa,
302419,PT,11,Mogadouro,
302420,PT,22,Espinho,
302421,PT,19,São Francisco,
302422,PT,2,Torrão Do Lameiro,
302423,PT,14,Cardosas,
302424,PT,18,Covão Do Coelho,
302425,PT,17,Vandoma,
302426,PT,14,Casaínhos,
302427,PT,17,Melres,
302428,PT,4,Mangualde,
302429,PT,7,São Paio,
302430,PT,13,Coimbrã,
302431,PT,7,Gândara,
302432,PT,7,Vila Franca,
302433,PT,23,Estaleiro,
302434,PT,14,Carvoeira,
302435,PT,17,Aveleda,
302436,PT,17,Guimarães,
302437,PT,17,Cruz De Pau,
302438,PT,10,Boaventura,
302439,PT,5,Moncorvo,
302440,PT,20,Troviscoso,
302441,PT,21,Vilar De Maçada,
302442,PT,14,Camarnal,
302443,PT,14,Igreja Nova,
302444,PT,17,Labruge,
302445,PT,7,Antuzede,
302446,PT,13,Abiul,
302447,PT,2,Roge,
302448,PT,11,São Romão,
302449,PT,18,Tapada,
302450,PT,16,Arronches,
302451,PT,20,Amorosa,
302452,PT,14,Várzea De Sintra,
302453,PT,6,Porto,
302454,PT,14,Lourel,
302455,PT,4,Vieira,
302456,PT,4,Louro,
302457,PT,7,Pampilhosa,
302458,PT,7,Brunhos,
302459,PT,2,Loure,
302460,PT,13,Pingarelhos,
302461,PT,2,Graciosa,
302462,PT,2,Escariz,
302463,PT,2,Pessegueiro Do Vouga,
302464,PT,13,Famalicão,
302465,PT,4,Prado,
302466,PT,2,Monte,
302467,PT,20,Cristoval,
302468,PT,4,Povoação,
302469,PT,14,Palhais,
302470,PT,6,São Miguel De Acha,
302471,PT,13,Albergaria Dos Doze,
302472,PT,16,Marvão,
302473,PT,9,Pêra,
302474,PT,22,Relva,
302475,PT,2,Caldas De São Jorge,
302476,PT,21,Carrazedo De Montenegro,
302477,PT,14,Zambujal,
302478,PT,17,Arreigada,
302479,PT,14,Funchal,
302480,PT,13,Carvide,
302481,PT,2,Burgo,
302482,PT,17,Rio De Moinhos,
302483,PT,11,Vila Franca Da Serra,
302484,PT,2,Pinheiro Da Bemposta,
302485,PT,8,Alandroal,
302486,PT,3,Gomes Aires,
302487,PT,21,Canelas,
302488,PT,18,Asseiceira,
302489,PT,2,Oliveira,
302490,PT,22,Cabril,
302491,PT,14,Azenhas Do Mar,
302492,PT,14,São João Do Estoril,
302493,PT,13,Nadadouro,
302494,PT,7,Paião,
302495,PT,18,Tremês,
302496,PT,20,Neiva,
302497,PT,2,Mourisca Do Vouga,
302498,PT,7,Pampilhosa Da Serra,
302499,PT,2,Albergaria,
302500,PT,14,Paço Do Lumiar,
302501,PT,22,Dornelas,
302502,PT,20,Vila Nova,
302503,PT,14,Cadafais,
302504,PT,22,Leomil,
302505,PT,17,Bairro,
302506,PT,13,Ortigosa,
302507,PT,4,Pedome,
302508,PT,10,Santa Maria Maior,
302509,PT,22,Pindelo,
302510,PT,22,Carvalhal Redondo,
302511,PT,6,Sobral Do Campo,
302512,PT,13,Figueiras,
302513,PT,4,Agilde,
302514,PT,22,Vila Nova De Paiva,
302515,PT,4,Mar,
302516,PT,8,Ciborro,
302517,PT,22,Vila Viçosa,
302518,PT,4,Taide,
302519,PT,2,Macieira De Sarnes,
302520,PT,4,Pico,
302521,PT,6,Escalos De Cima,
302522,PT,20,Vacariça,
302523,PT,13,Alpedriz,
302524,PT,6,Salgueiro Do Campo,
302525,PT,21,Oura,
302526,PT,22,Sernancelhe,
302527,PT,13,Arelho,
302528,PT,22,Caria,
302529,PT,4,Pousada De Saramagos,
302530,PT,22,Vila Pouca,
302531,PT,21,Mesão Frio,
302532,PT,6,Cebolais De Cima,
302533,PT,4,Terras De Bouro,
302534,PT,4,Manhente,
302535,PT,8,Cabrela,
302536,PT,7,Cioga Do Monte,
302537,PT,22,Ranhados,
302538,PT,18,Azambujeira,
302539,PT,4,Lousado,
302540,PT,3,Barrancos,
302541,PT,17,Castelões,
302542,PT,17,Mancelos,
302543,PT,22,Cota,
302544,PT,22,Parada De Gonta,
302545,PT,18,Ponte,
302546,PT,14,Cercal,
302547,PT,14,Aveiras De Baixo,
302548,PT,17,Água Longa,
302549,PT,11,Sandomil,
302550,PT,11,Arrifana,
302551,PT,18,Lamarosa,
302552,PT,13,Santa Eufémia,
302553,PT,2,Aguada De Baixo,
302554,PT,2,Gião,
302555,PT,14,Casais Da Serra,
302556,PT,19,Zambujal De Cima,
302557,PT,2,Burgães,
302558,PT,14,Rocha Forte,
302559,PT,14,Malveira Da Serra,
302560,PT,14,Freiria,
302561,PT,21,Vila Verde Da Raia,
302562,PT,20,Vilar De Murteda,
302563,PT,18,Barroca,
302564,PT,6,Vale De Prazeres,
302565,PT,5,Torre De Dona Chama,
302566,PT,16,Monforte,
302567,PT,17,Portela,
302568,PT,13,Coimbrão,
302569,PT,5,Maçores,
302570,PT,14,Sobral Da Abelheira,
302571,PT,17,Caíde De Rei,
302572,PT,7,Lagares Da Beira,
302573,PT,14,Azenhas,
302574,PT,13,Vale Covo,
302575,PT,8,Bencatel,
302576,PT,19,Águas De Moura,
302577,PT,9,Canhestros,
302578,PT,3,Sabóia,
302579,PT,4,Vieira Do Minho,
302580,PT,22,São Miguel De Vila Boa,
302581,PT,13,Picoto,
302582,PT,2,Vale De Ílhavo,
302583,PT,5,Moimenta,
302584,PT,22,Cimbres,
302585,PT,14,Painho,
302586,PT,19,Porto Covo,
302587,PT,9,Mar E Guerra,
302588,PT,13,Tojal De Cima,
302589,PT,4,Guilhofrei,
302590,PT,14,Ribafria,
302591,PT,3,Garvão,
302592,PT,14,Ponte Do Rol,
302593,PT,14,Cheganças,
302594,PT,7,Pedrógão,
302595,PT,14,Manique Do Intendente,
302596,PT,13,Ataíja De Cima,
302597,PT,17,Ouro,
302598,PT,7,Medas,
302599,PT,10,Tendeira,
302600,PT,14,Estribeiro,
302601,PT,8,Machede,
302602,PT,19,Abela,
302603,PT,18,Alcobertas,
302604,PT,3,Beringel,
302605,PT,13,Rabaceira,
302606,PT,17,Paços De Gaiolo,
302607,PT,7,Aldeia Das Dez,
302608,PT,7,Maiorca,
302609,PT,2,Espairo,
302610,PT,22,Gondomar,
302611,PT,19,Serra,
302612,PT,9,Bensafrim,
302613,PT,4,Vilarinho Das Cambas,
302614,PT,2,Sobral,
302615,PT,6,Maçainhas,
302616,PT,18,Vila Moreira,
302617,PT,19,Pegões Velhos,
302618,PT,6,Atalaia Do Campo,
302619,PT,18,Lapas,
302620,PT,22,Dalvares,
302621,PT,6,Ourondo,
302622,PT,22,Soutelo,
302623,PT,3,Faro Do Alentejo,
302624,PT,18,São Vicente Do Paul,
302625,PT,4,Lijó,
302626,PT,13,Gândara Dos Olivais,
302627,PT,4,São Martinho,
302628,PT,7,Vila Flor,
302629,PT,7,Lourosa,
302630,PT,4,Balugães,
302631,PT,13,Cumeira,
302632,PT,4,Chavão,
302633,PT,21,Salto,
302634,PT,18,Alpalhão,
302635,PT,17,Matos,
302636,PT,7,Gesteira,
302637,PT,23,São Vicente Ferreira,
302638,PT,5,Miranda Do Douro,
302639,PT,11,Hospital,
302640,PT,8,Safira,
302641,PT,7,Simões,
302642,PT,18,Pinheiro Grande,
302643,PT,22,Arcozelo Das Maias,
302644,PT,20,Porto,
302645,PT,14,Vimeiro,
302646,PT,13,Roliça,
302647,PT,10,Paul Do Mar,
302648,PT,14,Manique De Baixo,
302649,PT,4,Santo Tirso,
302650,PT,10,Estreito De Câmara De Lobos,
302651,PT,18,Pé De Cão,
302652,PT,3,Santa Vitória,
302653,PT,7,Albergaria,
302654,PT,18,Lourinha,
302655,PT,3,Selmes,
302656,PT,21,Sabroso,
302657,PT,18,Pego,
302658,PT,17,Guilhabreu,
302659,PT,18,Alvega,
302660,PT,11,Faia,
302661,PT,14,Olhalvo,
302662,PT,4,Armil,
302663,PT,17,Custoias,
302664,PT,14,Falagueira,
302665,PT,10,Campanário,
302666,PT,14,Ulgueira,
302667,PT,7,Montinho,
302668,PT,18,Maxieira,
302669,PT,17,Vila Boa Do Bispo,
302670,PT,2,Ponte De Vagos,
302671,PT,17,Contumil,
302672,PT,21,Sanfins Do Douro,
302673,PT,22,Travassós,
302674,PT,20,Tregosa,
302675,PT,2,Espinheira,
302676,PT,6,Alcaide,
302677,PT,6,Aldeia De Joanes,
302678,PT,14,Montachique,
302679,PT,14,Moita,
302680,PT,14,Valbom,
302681,PT,9,Parchal,
302682,PT,19,Cantanhede,
302683,PT,7,Barreiro,
302684,PT,2,Eirol,
302685,PT,18,Parceiros,
302686,PT,2,Vila,
302687,PT,14,Maceira,
302688,PT,14,Alguber,
302689,PT,22,Britiande,
302690,PT,6,Barroca,
302691,PT,21,Sapiãos,
302692,PT,14,Fanhões,
302693,PT,8,Monsaraz,
302694,PT,13,Chão De Couce,
302695,PT,14,Camarões,
302696,PT,14,Vale Do Paraíso,
302697,PT,18,Couço,
302698,PT,17,São Martinho,
302699,PT,17,Vila Nova,
302700,PT,17,Várzea Do Douro,
302701,PT,21,Sendim,
302702,PT,18,Aljustrel,
302703,PT,7,Monte Redondo,
302704,PT,9,Casas,
302705,PT,4,Oleiros,
302706,PT,6,Canhoso,
302707,PT,2,Sarrazola,
302708,PT,16,Monte Novo,
302709,PT,13,Vale,
302710,PT,7,São Silvestre,
302711,PT,9,Pechão,
302712,PT,8,Ferreira,
302713,PT,14,Sobreiro,
302714,PT,2,Silveira,
302715,PT,7,Sobreira,
302716,PT,2,São Vicente De Pereira,
302717,PT,2,Loureiro,
302718,PT,18,Vermoeiros,
302719,PT,11,Vide,
302720,PT,18,Matos,
302721,PT,8,Campinho,
302722,PT,18,Canha,
302723,PT,8,Salvada,
302724,PT,17,Serzedo,
302725,PT,4,Mouquim,
302726,PT,13,Santarém,
302727,PT,22,Guimarães,
302728,PT,7,Cabanas,
302729,PT,13,Santa Suzana,
302730,PT,19,Santana,
302731,PT,2,Praia Da Barra,
302732,PT,7,Santa Luzia,
302733,PT,13,Tarouca,
302734,PT,17,Penacova,
302735,PT,21,Cabriz,
302736,PT,2,Rio Tinto,
302737,PT,7,São Romão,
302738,PT,9,Fuzeta,
302739,PT,2,Horta,
302740,PT,14,Tagarro,
302741,PT,17,Valpedre,
302742,PT,6,Paul,
302743,PT,18,Muge,
302744,PT,18,Cardal,
302745,PT,5,Samil,
302746,PT,11,Azinhal,
302747,PT,13,Vale Da Cabra,
302748,PT,18,Lapa,
302749,PT,13,Amoreira,
302750,PT,3,Amoreiras,
302751,PT,11,Pombal,
302752,PT,13,Maiorga,
302753,PT,9,Bengado,
302754,PT,6,Capinha,
302755,PT,5,Freixo De Espada Cinta,
302756,PT,18,Várzea,
302757,PT,14,Alvide,
302758,PT,23,São Bartolomeu,
302759,PT,10,Canhas,
302760,PT,17,Sampaio,
302761,PT,17,Mato,
302762,PT,14,Conceição,
302763,PT,13,Calvária,
302764,PT,9,Benafim,
302765,PT,4,Carreira,
302766,PT,18,Arrouquelas,
302767,PT,7,Ervedal Da Beira,
302768,PT,2,Moita,
302769,PT,17,Gião,
302770,PT,11,Aguiar Da Beira,
302771,PT,14,Calhandriz,
302772,PT,5,Vinhais,
302773,PT,18,Vale De Cavalos,
302774,PT,14,Pragança,
302775,PT,22,Frende,
302776,PT,4,Mesão Frio,
302777,PT,6,Lavacolhos,
302778,PT,6,Silvares,
302779,PT,13,Lagoa,
302780,PT,7,Pombalinho,
302781,PT,4,Carapeços,
302782,PT,14,Polima,
302783,PT,14,Mata,
302784,PT,17,Meixomil,
302785,PT,18,Linhaceira,
302786,PT,2,Requeixo,
302787,PT,4,Minhotães,
302788,PT,11,Bismula,
302789,PT,14,Faião,
302790,PT,14,Azoia,
302791,PT,14,Lebres,
302792,PT,2,Entroncamento,
302793,PT,18,Junceira,
302794,PT,17,Sobrosa,
302795,PT,2,Espargo,
302796,PT,19,Comporta,
302797,PT,14,Areias,
302798,PT,8,Videira,
302799,PT,7,Lage,
302800,PT,14,Cortegaça,
302801,PT,2,Mosteiro,
302802,PT,7,Brenha,
302803,PT,21,Ribeirinha,
302804,PT,7,Taboeira,
302805,PT,6,Gaia,
302806,PT,19,Vale Fetal,
302807,PT,6,Alpedrinha,
302808,PT,13,Machada,
302809,PT,13,Telheiro,
302810,PT,8,Orada,
302811,PT,7,Foz De Arouce,
302812,PT,14,Pernigem,
302813,PT,22,Valadares,
302814,PT,18,Canal,
302815,PT,2,Silveiro,
302816,PT,18,Pousados,
302817,PT,18,Serra De Santo António,
302818,PT,11,Valezim,
302819,PT,13,Arega,
302820,PT,7,Covões,
302821,PT,22,Santa Comba,
302822,PT,7,Labrengos,
302823,PT,22,Pereiras,
302824,PT,18,Ulme,
302825,PT,21,Rio Mau,
302826,PT,18,Vargos,
302827,PT,21,Vila Marim,
302828,PT,4,Selho,
302829,PT,14,Moita Dos Ferreiros,
302830,PT,6,Orvalho,
302831,PT,10,Prazeres,
302832,PT,20,Funchal,
302833,PT,2,Vila Maior,
302834,PT,7,Vinho,
302835,PT,13,Sobreiro,
302836,PT,18,Bugalhos,
302837,PT,7,Pinheiro De Coja,
302838,PT,7,Portunhos,
302839,PT,16,Tramaga,
302840,PT,18,Valhelhas,
302841,PT,18,Monsanto,
302842,PT,21,Bornes,
302843,PT,13,Matosos,
302844,PT,4,Espinho,
302845,PT,17,Crestuma,
302846,PT,2,Seixo,
302847,PT,18,Cortiçal,
302848,PT,7,Praia,
302849,PT,22,Barracão,
302850,PT,22,Gouviães,
302851,PT,20,Cardielos,
302852,PT,18,Chícharo,
302853,PT,19,Porches,
302854,PT,22,Roriz,
302855,PT,16,Urra,
302856,PT,3,São João De Negrilhos,
302857,PT,19,Cruzamento,
302858,PT,14,Sobreiro Curvo,
302859,PT,22,Gandra,
302860,PT,14,Almoçageme,
302861,PT,22,Pinheiro De Lafões,
302862,PT,17,Ramada,
302863,PT,18,Madalena,
302864,PT,14,Arrifana,
302865,PT,11,Infias,
302866,PT,17,Mesão Frio,
302867,PT,22,Lamelas,
302868,PT,2,Praia De Esmoriz,
302869,PT,2,Sever,
302870,PT,17,Azurara,
302871,PT,9,Areias De São João,
302872,PT,14,Valongo,
302873,PT,21,Campanho,
302874,PT,22,Rua,
302875,PT,21,Vales,
302876,PT,20,Sabadim,
302877,PT,14,Sobreira,
302878,PT,13,Pelariga,
302879,PT,4,Parada De Bouro,
302880,PT,7,Ribeira De Frades,
302881,PT,7,Corticeiro De Cima,
302882,PT,4,Fonte,
302883,PT,9,Ferragudo,
302884,PT,23,Lajes Das Flores,
302885,PT,23,São Mateus,
302886,PT,17,Idães,
302887,PT,4,Arnozela,
302888,PT,10,Porto Moniz,
302889,PT,14,Vila Verde,
302890,PT,14,Galamares,
302891,PT,14,Alfama,
302892,PT,4,Ribeira,
302893,PT,23,Porto Formoso,
302894,PT,13,Olho Marinho,
302895,PT,14,Azinhaga,
302896,PT,7,Rebordosa,
302897,PT,8,Brotas,
302898,PT,8,Giesteira,
302899,PT,17,Paraiso,
302900,PT,17,Pedras Rubras,
302901,PT,4,Rio Tinto,
302902,PT,17,Monte Córdova,
302903,PT,13,Delgada,
302904,PT,7,Cortes,
302905,PT,14,Praia Das Maçãs,
302906,PT,14,Mucifal,
302907,PT,4,Palmeira,
302908,PT,21,Carlão,
302909,PT,7,Souselas,
302910,PT,7,Quiaios,
302911,PT,21,Campos,
302912,PT,22,Alcofra,
302913,PT,20,Queijada,
302914,PT,22,São Félix,
302915,PT,3,Luzianes,
302916,PT,18,Alcanhões,
302917,PT,14,Batalha,
302918,PT,21,Dornelas,
302919,PT,18,Montalvo,
302920,PT,13,Casais Brancos,
302921,PT,8,Mourão,
302922,PT,17,Alvarenga,
302923,PT,14,Nafarros,
302924,PT,7,Pereira,
302925,PT,7,São Paio De Gramaços,
302926,PT,22,Póvoa Dos Sobrinhos,
302927,PT,22,Duas Igrejas,
302928,PT,18,Moita,
302929,PT,2,Costa Nova Do Prado,
302930,PT,22,Oliveira Do Conde,
302931,PT,4,Silveiros,
302932,PT,6,Oleiros,
302933,PT,18,Fráguas,
302934,PT,14,Casalinhos De Alfaiata,
302935,PT,6,Nesperal,
302936,PT,14,Sevilheira,
302937,PT,7,Seixo De Gatões,
302938,PT,13,Vila Facaia,
302939,PT,18,Casa Branca,
302940,PT,14,Ribeira,
302941,PT,22,Roda,
302942,PT,4,Guisande,
302943,PT,16,Alegrete,
302944,PT,13,Maçãs De Caminho,
302945,PT,18,Malhou,
302946,PT,4,Taipas,
302947,PT,11,Quintela,
302948,PT,21,Adoufe,
302949,PT,21,Constantim,
302950,PT,21,Secerigo,
302951,PT,21,Limões,
302952,PT,4,Britelo,
302953,PT,7,Arneiro,
302954,PT,18,Vila Da Marmeleira,
302955,PT,4,Bairro,
302956,PT,4,Martim,
302957,PT,14,Barril,
302958,PT,13,Melga,
302959,PT,20,Friastelas,
302960,PT,2,Curia,
302961,PT,6,Barco,
302962,PT,11,Rio Torto,
302963,PT,7,Beco,
302964,PT,6,Enxames,
302965,PT,17,Penalva,
302966,PT,16,Fortios,
302967,PT,22,Nespereira,
302968,PT,7,Póvoa Da Lomba,
302969,PT,18,Vila Nova Do Coito,
302970,PT,18,Rio De Moinhos,
302971,PT,19,Oleiros,
302972,PT,13,Columbeira,
302973,PT,5,Lodões,
302974,PT,4,Airão,
302975,PT,6,Aldeia De Santa Margarida,
302976,PT,13,Lobeiros,
302977,PT,18,Casais Da Charneca,
302978,PT,17,Trofa Velha,
302979,PT,11,Mata,
302980,PT,17,Mafamude,
302981,PT,20,Vila Fonche,
302982,PT,7,Relvas,
302983,PT,11,Almendra,
302984,PT,22,Castanheiro Do Sul,
302985,PT,23,Ribeira Quente,
302986,PT,18,Limeiras,
302987,PT,18,Marianos,
302988,PT,3,Relíquias,
302989,PT,18,Lavre,
302990,PT,21,Alvações Do Corgo,
302991,PT,22,Vale De Madeiros,
302992,PT,23,Ribeiras,
302993,PT,14,Murches,
302994,PT,22,Mões,
302995,PT,14,Cabanas Do Chão,
302996,PT,2,Avelãs De Cima,
302997,PT,17,Paranhos,
302998,PT,4,São Cosme,
302999,PT,4,Lourosa,
303000,PT,7,Barrosa,
303001,PT,14,Campo Grande,
303002,PT,13,Arrabal,
303003,PT,6,Fundada,
303004,PT,13,Vila Cã,
303005,PT,13,Alvorge,
303006,PT,22,Águas Boas,
303007,PT,6,Tortozendo,
303008,PT,13,Pousos,
303009,PT,11,Lapa Dos Dinheiros,
303010,PT,20,Afife,
303011,PT,20,Paço Vedro De Magalhães,
303012,PT,2,Bunheiro,
303013,PT,22,Cabaços,
303014,PT,18,Arruda Dos Pisões,
303015,PT,17,Abre Mar,
303016,PT,18,Soalheira,
303017,PT,16,Aldeia Velha,
303018,PT,14,Carqueja,
303019,PT,7,Pereiros,
303020,PT,22,Cerdeira,
303021,PT,20,Porto Bom,
303022,PT,7,Tentúgal,
303023,PT,17,Touguinho,
303024,PT,18,Covão Do Feto,
303025,PT,4,Atães,
303026,PT,19,São Francisco Da Serra,
303027,PT,11,Tourais,
303028,PT,8,Alcáçovas,
303029,PT,4,Ruilhe,
303030,PT,22,Penajoia,
303031,PT,20,Castelo Do Neiva,
303032,PT,18,Almoster,
303033,PT,4,Jesufrei,
303034,PT,23,Pico Da Pedra,
303035,PT,2,Nariz,
303036,PT,2,Sosa,
303037,PT,22,Vila Maior,
303038,PT,22,Póvoa Da Catarina,
303039,PT,2,Moldes,
303040,PT,4,Rebordões,
303041,PT,13,Lagares,
303042,PT,2,Frias De Baixo,
303043,PT,14,Braçal,
303044,PT,2,Ameixieira,
303045,PT,14,Casais De Baixo,
303046,PT,2,Cabrum,
303047,PT,17,Tuias,
303048,PT,14,Melroeira,
303049,PT,4,Lamelas,
303050,PT,21,Alvadia,
303051,PT,22,Mourelos,
303052,PT,22,São Cristóvão Da Nogueira,
303053,PT,7,Rapoila,
303054,PT,6,Relva Da Louça,
303055,PT,14,Caixaria,
303056,PT,17,Sande,
303057,PT,7,Zouparria Do Monte,
303058,PT,18,Casais Dos Monizes,
303059,PT,22,Pousadas,
303060,PT,17,Vila Meã De Cima,
303061,PT,6,Farpado,
303062,PT,17,Aguiar De Sousa,
303063,PT,14,Canados,
303064,PT,17,Ataíde,
303065,PT,22,Pardelhas,
303066,PT,11,Freixedas,
303067,PT,14,Arneiro Dos Marinheiros,
303068,PT,9,Martim Longo,
303069,PT,19,Palhais,
303070,PT,18,Espite,
303071,PT,14,Olelas,
303072,PT,4,Bacelos,
303073,PT,11,Girabolhos,
303074,PT,13,Bufarda,
303075,PT,6,Dornelas Do Zêzere,
303076,PT,7,Ferraria De São João,
303077,PT,7,Coles,
303078,PT,17,Guimarei,
303079,PT,18,Ribeira De Santarém,
303080,PT,4,Santo Emilião,
303081,PT,14,Lapa Da Serra,
303082,PT,18,Zibreira,
303083,PT,18,Cavadinha,
303084,PT,11,Sazes,
303085,PT,4,Tebosa,
303086,PT,17,Estela,
303087,PT,7,Casal Da Cruz,
303088,PT,22,Valado,
303089,PT,13,Lagoa Parada,
303090,PT,18,Curvaceiras Pequenas,
303091,PT,22,Gestoso,
303092,PT,4,Carvalho,
303093,PT,7,Montes De Cima,
303094,PT,4,Vila Nune,
303095,PT,2,Assilhó,
303096,PT,4,Alfarela,
303097,PT,22,Casal Maria,
303098,PT,13,Covão Dos Mendes,
303099,PT,7,Favais,
303100,PT,7,Santa Clara,
303101,PT,17,Aguim,
303102,PT,4,Cervães,
303103,PT,4,Gondomar,
303104,PT,7,Lameiras,
303105,PT,8,Vera Cruz,
303106,PT,18,Estanqueiro,
303107,PT,19,Vila Nova,
303108,PT,17,Gondar,
303109,PT,17,Santa Marinha Do Zêzere,
303110,PT,7,Coutada,
303111,PT,22,Vilharigues,
303112,PT,14,Montoito,
303113,PT,17,Rates,
303114,PT,16,Figueira E Barros,
303115,PT,18,Pousos,
303116,PT,2,Sernadelo,
303117,PT,14,Cachoeiras,
303118,PT,5,Nabo,
303119,PT,13,Moitalina,
303120,PT,17,Boim,
303121,PT,17,Travanca,
303122,PT,14,A Da Rainha,
303123,PT,17,Abol De Cima,
303124,PT,13,Freires,
303125,PT,7,Zambujal,
303126,PT,2,Rio De Frades,
303127,PT,7,Meda De Mouros,
303128,PT,17,Sobre Tâmega,
303129,PT,2,Felgueira,
303130,PT,2,Gildinho,
303131,PT,4,Leiradas,
303132,PT,17,Pala,
303133,PT,4,Borba,
303134,PT,22,Pereiro,
303135,PT,13,Fontinha,
303136,PT,17,Aboadela,
303137,PT,22,Ladreda,
303138,PT,17,Ordins,
303139,PT,14,Alfeiria,
303140,PT,13,Portela Do Vale De Espinho,
303141,PT,14,Casais Da Valentina,
303142,PT,13,Sancheira Pequena,
303143,PT,13,Lisboinha,
303144,PT,8,Silveiras,
303145,PT,10,Fajã Da Ovelha,
303146,PT,13,São Clemente,
303147,PT,3,Santana Da Serra,
303148,PT,13,Chão Das Pias,
303149,PT,7,São Facundo,
303150,PT,23,Bandeiras,
303151,PT,17,Muro,
303152,PT,13,Barrocalvo,
303153,PT,22,Pisão,
303154,PT,14,Penafirme,
303155,PT,2,Sôza,
303156,PT,18,Morgado,
303157,PT,2,Vista Alegre,
303158,PT,17,Campanhã,
303159,PT,22,Carvalhais,
303160,PT,2,Pindelo,
303161,PT,22,Santo Aleixo,
303162,PT,3,Alfundão,
303163,PT,22,Lumiares,
303164,PT,22,Caldas Da Felgueira,
303165,PT,20,Cerdal,
303166,PT,17,Lagoa,
303167,PT,17,Urrô,
303168,PT,22,Vila Chã,
303169,PT,6,São Vicente Da Beira,
303170,PT,17,Zebreiros,
303171,PT,21,Venda Nova,
303172,PT,18,Vila Nova,
303173,PT,18,Santa Margarida Da Coutada,
303174,PT,7,Vila Cova De Alva,
303175,PT,7,Pracerias,
303176,PT,20,São Pedro Da Torre,
303177,PT,7,Bandorreira,
303178,PT,6,Vale De Lobo,
303179,PT,22,Destriz,
303180,PT,2,Agualva,
303181,PT,17,Capela,
303182,PT,18,Casa De São Lourenço,
303183,PT,18,Vale Martinho,
303184,PT,13,Rebolo,
303185,PT,13,Ariques,
303186,PT,18,Telhadas,
303187,PT,22,Sequeiro,
303188,PT,7,Lata,
303189,PT,22,Benfeita,
303190,PT,18,Quinta Dos Anjos,
303191,PT,18,Vale Da Pinta,
303192,PT,2,Macinhata Da Seixa,
303193,PT,2,São Jacinto,
303194,PT,17,Gondim,
303195,PT,7,Eiras,
303196,PT,13,Vestiaria,
303197,PT,14,Capuchos,
303198,PT,19,Azinheira Dos Barros,
303199,PT,3,Penedo Gordo,
303200,PT,8,São Manços,
303201,PT,14,Póvoa De Cima,
303202,PT,7,Chainça,
303203,PT,7,Zambujeiro,
303204,PT,22,Touro,
303205,PT,14,Paço,
303206,PT,14,Cabeça Gorda,
303207,PT,17,Porto Carreiro,
303208,PT,7,Vale De Espinho,
303209,PT,5,Izeda,
303210,PT,6,Zebreira,
303211,PT,14,Pero Negro,
303212,PT,14,Santa Cruz,
303213,PT,18,Casais Martanes,
303214,PT,7,Casal De Ermio,
303215,PT,6,Colmeal,
303216,PT,22,Arrujo,
303217,PT,22,Gralheira,
303218,PT,14,Messejana,
303219,PT,17,Albergaria,
303220,PT,18,Casais Charneco,
303221,PT,14,Almeirinhos,
303222,PT,22,Sobreira,
303223,PT,4,Codeçoso,
303224,PT,18,Valverde,
303225,PT,19,Monte Do Arieiro,
303226,PT,13,Casal De São Brás,
303227,PT,21,Gontães,
303228,PT,22,Laje,
303229,PT,13,Vale Do Rio,
303230,PT,22,Panchorra,
303231,PT,11,Valverde,
303232,PT,5,Fornos De Ledra,
303233,PT,21,Bornes De Aguiar,
303234,PT,5,Vale De Prados,
303235,PT,21,Vilarinho De Cotas,
303236,PT,17,Macieira Da Lixa,
303237,PT,17,Parada,
303238,PT,20,Calheiros,
303239,PT,22,Carregal,
303240,PT,18,Chouto,
303241,PT,18,Alcorochel,
303242,PT,7,Póvoa De Midões,
303243,PT,13,Guia,
303244,PT,13,Carriço,
303245,PT,13,Burinhosa,
303246,PT,13,Pinheiros,
303247,PT,14,Paiol,
303248,PT,2,Lagarteira,
303249,PT,14,Labrugeira,
303250,PT,7,Raiva,
303251,PT,17,Touguinha,
303252,PT,4,Novais,
303253,PT,4,Coucieiro,
303254,PT,14,Trancoso De Cima,
303255,PT,6,Coutada,
303256,PT,18,Castelo De Bode,
303257,PT,18,Pintado,
303258,PT,21,Vilarelho,
303259,PT,7,Ferreira-a-nova,
303260,PT,22,Castainço,
303261,PT,6,Perais,
303262,PT,17,Olo,
303263,PT,18,Envendos,
303264,PT,7,Urgueira,
303265,PT,2,Sardoura,
303266,PT,14,Reguengo Grande,
303267,PT,7,São Martinho Da Cortiça,
303268,PT,2,Salgueiro,
303269,PT,4,Gondifelos,
303270,PT,17,Sobreira,
303271,PT,20,São Brás,
303272,PT,11,Folgosinho,
303273,PT,18,Pancas,
303274,PT,8,Mares,
303275,PT,13,Brejo De Cá,
303276,PT,7,Bemfeita,
303277,PT,17,Passinhos De Baixo,
303278,PT,13,Lagar Novo,
303279,PT,4,Gondifellos,
303280,PT,5,Róios,
303281,PT,11,Cedovim,
303282,PT,22,Trevões,
303283,PT,20,Eiras,
303284,PT,20,Rubiaes,
303285,PT,22,Moimenta,
303286,PT,7,Alfarelos,
303287,PT,7,Ribeira Da Mata,
303288,PT,7,Meãs Do Campo,
303289,PT,22,Campia,
303290,PT,13,Baleal,
303291,PT,7,Cordinhã,
303292,PT,14,Galés,
303293,PT,17,Jazente,
303294,PT,2,Óis Do Bairro,
303295,PT,22,Barrô,
303296,PT,18,Martinchel,
303297,PT,2,Talhadas,
303298,PT,22,Pindelo Dos Milagres,
303299,PT,2,Frossos,
303300,PT,17,Caramos,
303301,PT,22,Alcafache,
303302,PT,17,Cristelo,
303303,PT,7,Travasso,
303304,PT,14,Fonte Boa Dos Nabos,
303305,PT,8,Parreira,
303306,PT,2,Espinhel,
303307,PT,14,Bairro,
303308,PT,2,Landiosa,
303309,PT,20,Ponte Do Lima,
303310,PT,18,Caveira,
303311,PT,4,Lameira,
303312,PT,22,Paredes De Gravo,
303313,PT,7,Casenho,
303314,PT,18,Gansaria,
303315,PT,7,Lourinhal,
303316,PT,14,Quinta Curvaceira,
303317,PT,22,Coito,
303318,PT,13,Portela Do Outeiro,
303319,PT,18,Caixarias,
303320,PT,14,Mouguela,
303321,PT,13,Espinheiro,
303322,PT,18,Quinta De Alpompé,
303323,PT,14,Barreiras,
303324,PT,21,Anta,
303325,PT,5,Santa Comba De Rossas,
303326,PT,22,Barcos,
303327,PT,22,Soutelo Do Douro,
303328,PT,11,Vila Boa,
303329,PT,7,Travanca De Lagos,
303330,PT,7,Carapinha,
303331,PT,18,Erra,
303332,PT,20,Lanheses,
303333,PT,4,Caires,
303334,PT,16,Santa Eulália,
303335,PT,17,Mouriz,
303336,PT,13,Casal Galego,
303337,PT,22,São Cipriano,
303338,PT,22,Figueiredo Das Donas,
303339,PT,5,Vale De Gouvinhas,
303340,PT,21,Vale De Cunho,
303341,PT,2,Vale,
303342,PT,18,Arneiro Das Milhariças,
303343,PT,18,Achete,
303344,PT,21,Vilar De Nantes,
303345,PT,20,Perre,
303346,PT,17,Granja,
303347,PT,14,Abobreira,
303348,PT,13,Brinços,
303349,PT,22,Marcelim,
303350,PT,22,Lodeiro,
303351,PT,22,Boa Vista,
303352,PT,22,Fujaco,
303353,PT,22,Faifa,
303354,PT,14,Almagre,
303355,PT,18,Albergaria,
303356,PT,2,Pejão,
303357,PT,2,Taboaço,
303358,PT,18,Monte Da Sismaria Nova,
303359,PT,7,Negrote,
303360,PT,17,Alvarelhos,
303361,PT,21,Favaios,
303362,PT,5,Rabal,
303363,PT,17,Vilares,
303364,PT,17,Ovil,
303365,PT,22,Espadanedo,
303366,PT,22,Treixedo,
303367,PT,22,Barreiro De Besteiros,
303368,PT,2,Vilarinho,
303369,PT,13,Valado De Santa Quitéria,
303370,PT,7,Cardeal,
303371,PT,6,Escalos De Baixo,
303372,PT,14,Bandalhoeira,
303373,PT,7,Costa De Lavos,
303374,PT,3,Corte Do Pinto,
303375,PT,17,Marecos,
303376,PT,23,São Miguel Arcanjo,
303377,PT,17,São Lourenço Do Douro,
303378,PT,4,Arentim,
303379,PT,17,Cepelos,
303380,PT,17,Cruz,
303381,PT,7,Figueira De Lorvão,
303382,PT,7,Aldeia Formosa,
303383,PT,4,Paredes Secas,
303384,PT,21,Lama De Ouriço,
303385,PT,22,Porto Antigo,
303386,PT,13,Maios,
303387,PT,22,Vila Ruiva,
303388,PT,4,Quinchães,
303389,PT,22,São Cosmado,
303390,PT,21,Castedo,
303391,PT,18,Amiais De Cima,
303392,PT,7,Gondelim,
303393,PT,4,Antime,
303394,PT,22,Muro,
303395,PT,4,Pedra Furada,
303396,PT,2,Borralha,
303397,PT,7,Rebolia De Cima,
303398,PT,16,Monte Novo Das Freiras,
303399,PT,18,Maria Do Sizo,
303400,PT,22,Lages,
303401,PT,7,Brejo,
303402,PT,20,Moledo,
303403,PT,7,Vila Nova De Anços,
303404,PT,22,Paradinha,
303405,PT,22,Lapa Do Lobo,
303406,PT,7,Varziela,
303407,PT,2,Fermedo,
303408,PT,11,Vila Soeiro,
303409,PT,7,Vila Nova,
303410,PT,13,Vau,
303411,PT,18,Carregueiros,
303412,PT,18,Meia Via,
303413,PT,23,Terra Chã,
303414,PT,8,Boa Fé,
303415,PT,14,Aldeia De Juso,
303416,PT,19,Aldeia Do Meco,
303417,PT,11,Carrapichana,
303418,PT,3,Trigaches,
303419,PT,3,Jungeiros,
303420,PT,14,Rogel,
303421,PT,11,Forninhos,
303422,PT,18,Fazenda,
303423,PT,22,Chã,
303424,PT,14,Gouveia,
303425,PT,14,Olival,
303426,PT,17,Lamoso,
303427,PT,2,Pigeiros,
303428,PT,21,Faiões,
303429,PT,2,Amoreira Da Gândara,
303430,PT,20,Friestas,
303431,PT,6,Dominguizo,
303432,PT,2,Sabaris,
303433,PT,14,São Quintino,
303434,PT,2,Frutuária,
303435,PT,10,Caniçal,
303436,PT,18,Macieiros,
303437,PT,2,Merujal,
303438,PT,17,Covelo Do Monte,
303439,PT,4,Meijoadela,
303440,PT,2,Abitureira,
303441,PT,17,Sebolido,
303442,PT,21,Medrões,
303443,PT,7,Larçã,
303444,PT,2,Madail,
303445,PT,13,Santa Catarina,
303446,PT,13,Lapa Furada,
303447,PT,13,Mata Mourisca,
303448,PT,14,Montesouros,
303449,PT,13,Montes,
303450,PT,7,Secarias,
303451,PT,17,Oldrões,
303452,PT,13,Valado De Frades,
303453,PT,2,Casal Mau,
303454,PT,2,Ervedoso,
303455,PT,14,Outeiro,
303456,PT,22,Vilar Do Monte,
303457,PT,16,Casa Branca,
303458,PT,17,Guidões,
303459,PT,18,Torre Do Bispo,
303460,PT,4,Forjães,
303461,PT,7,Cumieira,
303462,PT,7,Casal Do Redinho,
303463,PT,21,Fernandinho,
303464,PT,17,Ameixede,
303465,PT,14,Casais Brancos,
303466,PT,7,Montes Da Formoselha,
303467,PT,18,Monte Dos Condes,
303468,PT,13,Lameira,
303469,PT,13,A Dos Francos,
303470,PT,22,Eiriz,
303471,PT,6,Aldeia Do Souto,
303472,PT,22,Covelas,
303473,PT,20,Loureda,
303474,PT,7,Quintã,
303475,PT,4,Rio Caldo,
303476,PT,22,Nagosela,
303477,PT,2,Lombinha,
303478,PT,22,Rebolfo,
303479,PT,21,Paradança,
303480,PT,19,Monte Fernanda,
303481,PT,21,São Martinho De Antas,
303482,PT,5,Freixiel,
303483,PT,22,Arcozelo Da Torre,
303484,PT,22,Pascoal,
303485,PT,7,Camarneira,
303486,PT,13,Barros Da Paz,
303487,PT,14,Cortesia,
303488,PT,3,Campo Redondo,
303489,PT,17,Boelhe,
303490,PT,20,Vilar De Mouros,
303491,PT,18,Santana Do Mato,
303492,PT,14,Vala Do Carregado,
303493,PT,7,Alcaria,
303494,PT,18,Pederneira,
303495,PT,4,Sobradelo Da Goma,
303496,PT,7,Semide,
303497,PT,22,Parada Do Bispo,
303498,PT,4,Busteliberne,
303499,PT,22,Virela,
303500,PT,2,Parada De Baixo,
303501,PT,13,Milagres,
303502,PT,3,Albernoa,
303503,PT,16,Gáfete,
303504,PT,22,Queiriga,
303505,PT,7,Olho Marinho,
303506,PT,17,Nevogilde,
303507,PT,16,Chancelaria,
303508,PT,22,Granjal,
303509,PT,4,Infesta,
303510,PT,6,Corgas,
303511,PT,7,Vinha Da Rainha,
303512,PT,7,Serro Ventoso,
303513,PT,20,Facha,
303514,PT,8,Ajuda,
303515,PT,22,Campo De Besteiros,
303516,PT,7,Lares,
303517,PT,4,Donim,
303518,PT,11,Prados,
303519,PT,22,Cabo De Vila,
303520,PT,2,Caselho De São João,
303521,PT,21,Medeiros,
303522,PT,11,Freixo De Numão,
303523,PT,7,Bolho,
303524,PT,2,Louredo,
303525,PT,18,Tremez,
303526,PT,7,Meãs,
303527,PT,18,Casais Robustos,
303528,PT,3,Amoreiras-gare,
303529,PT,3,Santa Bárbara De Padrões,
303530,PT,22,Souto De Lafões,
303531,PT,2,Cedofeita,
303532,PT,18,Póvoa De Santarém,
303533,PT,20,Anha,
303534,PT,2,Bairros,
303535,PT,17,Alventela,
303536,PT,19,Herdade Dos Frades,
303537,PT,21,Agostem,
303538,PT,7,Ereira,
303539,PT,2,Vila Nova De Monsarros,
303540,PT,7,Seixo Da Beira,
303541,PT,11,Numão,
303542,PT,13,Chainça,
303543,PT,18,Póvoa Da Isenta,
303544,PT,4,Arco De Baúlhe,
303545,PT,17,Vila Nova De Telha,
303546,PT,5,Pereira,
303547,PT,22,Chavãis,
303548,PT,10,Ribeiro Frio,
303549,PT,13,Pombaria,
303550,PT,21,Pardelhas,
303551,PT,22,Fragoa,
303552,PT,2,Amilo,
303553,PT,11,Tazem,
303554,PT,18,Moçarria,
303555,PT,22,Vila Seca,
303556,PT,17,Airães,
303557,PT,4,Soengas,
303558,PT,11,Fernão Joanes,
303559,PT,21,Macieira,
303560,PT,2,Parada,
303561,PT,17,Viariz,
303562,PT,7,Caniceira,
303563,PT,11,Celorico,
303564,PT,13,Maceirinha,
303565,PT,7,Várzeas,
303566,PT,7,Torre De Bera,
303567,PT,22,Covas Do Monte,
303568,PT,7,Póvoa Do Bispo,
303569,PT,2,Folhense,
303570,PT,21,Vilarinho,
303571,PT,21,Sanhoane,
303572,PT,6,Pêro Viseu,
303573,PT,18,Alto Da Serra,
303574,PT,23,Lomba Da Maia,
303575,PT,22,Germil,
303576,PT,18,Cabeça Das Mós,
303577,PT,14,Quebradas,
303578,PT,4,Tagilde,
303579,PT,4,Barqueiros,
303580,PT,11,Aldeias,
303581,PT,7,Vale Serrão,
303582,PT,17,Funtão De Cima,
303583,PT,18,Liteiros,
303584,PT,11,Miuzela,
303585,PT,7,Anceriz,
303586,PT,22,Arca,
303587,PT,14,Venda Seca,
303588,PT,21,Martim,
303589,PT,2,Santo António,
303590,PT,13,Rapoula,
303591,PT,22,Valdigem,
303592,PT,22,Várzea,
303593,PT,11,Galegos,
303594,PT,13,Dagorda,
303595,PT,13,Maçãs De Dona Maria,
303596,PT,13,Lagarteira,
303597,PT,14,Enxara Dos Cavaleiros,
303598,PT,14,Tala,
303599,PT,5,Bagueixe,
303600,PT,7,Tojo,
303601,PT,2,Macenhata,
303602,PT,19,Torroal,
303603,PT,4,Torrinheiras,
303604,PT,22,Vila Gozendo,
303605,PT,2,Urgueira,
303606,PT,2,Baloca,
303607,PT,22,Igarei,
303608,PT,2,Ribeira De Fráguas,
303609,PT,18,Alcaravela,
303610,PT,21,Mondim,
303611,PT,17,Caldas De Aregos,
303612,PT,18,Chãos,
303613,PT,19,Penteado,
303614,PT,2,Vale Da Mó,
303615,PT,18,Frágoas,
303616,PT,5,Samões,
303617,PT,17,Cristelos,
303618,PT,17,Macieira,
303619,PT,22,Santa Cruz Da Trapa,
303620,PT,13,Bárrio,
303621,PT,18,Charruada,
303622,PT,7,Gatões,
303623,PT,4,Arnoia,
303624,PT,4,Vale De Bouro,
303625,PT,4,Bragadela,
303626,PT,6,São Pedro Do Esteval,
303627,PT,18,Resgais,
303628,PT,18,Paio Mendes,
303629,PT,6,Soalheira,
303630,PT,14,Carnota,
303631,PT,22,Vale De Remígio,
303632,PT,22,São Vicente De Lafões,
303633,PT,18,Calhariz,
303634,PT,13,Nataria,
303635,PT,7,Fontão,
303636,PT,14,Figueiros,
303637,PT,14,Roussada,
303638,PT,17,Laundos,
303639,PT,7,Tojeira,
303640,PT,21,Cela,
303641,PT,22,Sarnadinha,
303642,PT,14,Louriceira De Baixo,
303643,PT,13,Ancião,
303644,PT,18,Ameiro,
303645,PT,6,Trigais,
303646,PT,18,Moitas,
303647,PT,23,Miragaia,
303648,PT,19,Alfeite,
303649,PT,3,São Martinho Das Amoreiras,
303650,PT,22,Novais,
303651,PT,18,Chã De Baixo,
303652,PT,7,Quimbres,
303653,PT,7,Catraia Dos Poços,
303654,PT,18,Reguengo De Alviela,
303655,PT,7,Aldeia Velha,
303656,PT,4,Barcelinhos,
303657,PT,6,Medelim,
303658,PT,4,Ourilhe,
303659,PT,18,Marmeleira,
303660,PT,7,Degrácias,
303661,PT,7,Casal Dos Galegos,
303662,PT,17,Aver-o-mar,
303663,PT,9,Bela Curral,
303664,PT,11,Vila Cortês Da Serra,
303665,PT,18,Malpique,
303666,PT,13,Alhais,
303667,PT,21,Barbadães De Cima,
303668,PT,14,Outorela,
303669,PT,17,Bitarães,
303670,PT,14,Povos,
303671,PT,17,Vila Verde,
303672,PT,7,Meruge,
303673,PT,9,Nave Do Barão,
303674,PT,21,Fontelas,
303675,PT,4,Cossourado,
303676,PT,7,Esporão,
303677,PT,2,Macinhata,
303678,PT,4,Madorra,
303679,PT,9,Barão De São João,
303680,PT,23,Piedade,
303681,PT,22,Santa Marinha,
303682,PT,18,Cumeada,
303683,PT,13,Coucinheira,
303684,PT,3,Peroguarda,
303685,PT,7,Ferreira,
303686,PT,14,Cabanas De Torres,
303687,PT,8,Casa Branca,
303688,PT,4,Fraião,
303689,PT,7,Friumes,
303690,PT,2,Barrô,
303691,PT,22,Laceiras,
303692,PT,23,Terras,
303693,PT,7,Pocariça,
303694,PT,9,São Lourenço,
303695,PT,3,Fornalhas,
303696,PT,4,Longos,
303697,PT,4,Gamil,
303698,PT,7,Podentes,
303699,PT,2,Testada Do Norte,
303700,PT,18,Outeiro Grande,
303701,PT,16,Cabeçudos,
303702,PT,21,Canaveses,
303703,PT,22,Couço,
303704,PT,20,Loivo,
303705,PT,13,Loureira,
303706,PT,6,Ribeira De Eiras,
303707,PT,18,Vale De Santiago,
303708,PT,3,Safara,
303709,PT,11,Murça,
303710,PT,13,Travasso,
303711,PT,7,Carcavelos,
303712,PT,7,Perboi De Cima,
303713,PT,17,Santão,
303714,PT,7,Fontinha,
303715,PT,13,Praia Da Vieira,
303716,PT,7,Parada,
303717,PT,7,Sepins,
303718,PT,2,Óis Da Ribeira,
303719,PT,13,Vale De Maceira,
303720,PT,4,Ruivães,
303721,PT,11,Benespera,
303722,PT,23,Termo,
303723,PT,4,Carvalhos,
303724,PT,9,Senhora Do Verde,
303725,PT,11,Várzea De Meruge,
303726,PT,13,Camarão,
303727,PT,11,Catraia,
303728,PT,22,Vila Da Ponte,
303729,PT,2,Mesas,
303730,PT,18,Alqueidão Do Mato,
303731,PT,3,Ervidel,
303732,PT,3,Vila Verde De Ficalho,
303733,PT,7,Vilamar,
303734,PT,22,Fagilde,
303735,PT,18,Ameixial,
303736,PT,17,Favões,
303737,PT,4,Gilmonde,
303738,PT,13,Sanguinhal,
303739,PT,7,Casal Do Bolho,
303740,PT,18,Furadouro,
303741,PT,7,Pena,
303742,PT,14,Lissabon,
303743,PT,7,Ladeira,
303744,PT,17,Terronhas,
303745,PT,17,Pedreira,
303746,PT,14,São Brás,
303747,PT,16,Benavila,
303748,PT,19,Aldeia De Irmãos,
303749,PT,4,Gonça,
303750,PT,7,Galizes,
303751,PT,17,Milhundos,
303752,PT,22,Carrazedo,
303753,PT,21,Trandeiras,
303754,PT,10,Porto Da Cruz,
303755,PT,18,Verdelho,
303756,PT,7,Espariz,
303757,PT,22,Casconha,
303758,PT,14,Palaios,
303759,PT,2,Mouquim,
303760,PT,5,Grijó De Parada,
303761,PT,18,Concavada,
303762,PT,18,Caseiros,
303763,PT,11,Adão,
303764,PT,17,Serra Do Monte,
303765,PT,2,Póvoa Do Pereiro,
303766,PT,22,Castelo De Penalva,
303767,PT,17,Toutosa,
303768,PT,23,Altares,
303769,PT,21,São Salvador,
303770,PT,22,Quinta Da Lama Redonda,
303771,PT,17,Cabeça Santa,
303772,PT,20,Corgo,
303773,PT,2,Póvoa Da Mealhada,
303774,PT,2,Regadio,
303775,PT,2,Gaiata,
303776,PT,2,Senhora Do Carmo,
303777,PT,2,Randam,
303778,PT,11,Figueiro Da Serra,
303779,PT,18,Ponte Do Conde,
303780,PT,14,Sibilheiro,
303781,PT,14,Pedrogão,
303782,PT,14,Guisanderia,
303783,PT,18,Vasco Carão,
303784,PT,14,Paiã,
303785,PT,17,São Gemil,
303786,PT,20,Sequeirô,
303787,PT,9,Foz,
303788,PT,2,Antuã,
303789,PT,2,Segadãis,
303790,PT,14,Beirolas,
303791,PT,14,Pombais,
303792,PT,17,Quinta Nova,
303793,PT,14,Moucheira,
303794,PT,19,Fogueteiro,
303795,PT,9,Amoreira,
303796,PT,3,Além Rio,
303797,PT,3,Rossio,
303798,PT,19,Bacelo,
303799,PT,17,Gafa,
303800,PT,17,Ródão,
303801,PT,4,Sistãis,
303802,PT,17,Vizela,
303803,PT,2,Vila Boa,
303804,PT,2,Vale De Lobo,
303805,PT,14,Caxias,
303806,PT,14,São Julião Da Barra,
303807,PT,14,Caselas,
303808,PT,14,Olivais,
303809,PT,5,Peredo,
303810,PT,14,Porto,
303811,PT,14,Categal,
303812,PT,16,Pernancha Do Meio,
303813,PT,14,Póvoa De Baixo,
303814,PT,16,Vila Formosa,
303815,PT,6,Senhora Da Graça,
303816,PT,18,Congeitaria,
303817,PT,4,Gravateira,
303818,PT,22,Bernardo,
303819,PT,20,Segirém,
303820,PT,14,Sete Casas De Baixo,
303821,PT,17,Venda Nova,
303822,PT,2,Pardelhas,
303823,PT,14,Almada,
303824,PT,2,Maceda,
303825,PT,3,Quinta Da Esperança,
303826,PT,2,Bicha Moura,
303827,PT,14,Ponte De Fridas,
303828,PT,14,Fontainhas,
303829,PT,16,Rossio,
303830,PT,9,Caliços,
303831,PT,18,Casa Velha,
303832,PT,14,Mortal,
303833,PT,14,Paços,
303834,PT,13,Ribeira De São Pedro,
303835,PT,13,Embra,
303836,PT,2,Ramilos,
303837,PT,17,Amarelhe,
303838,PT,2,Cortinhas,
303839,PT,17,Calvário,
303840,PT,7,Barreira,
303841,PT,17,Patusca,
303842,PT,21,Olival Basto,
303843,PT,13,Quinta Do Sobrado,
303844,PT,17,Francelos,
303845,PT,20,Gandra,
303846,PT,4,Tabuaças,
303847,PT,4,Freião,
303848,PT,14,Casais Do Rijo,
303849,PT,2,Cabo Da Sebe,
303850,PT,4,Pouve,
303851,PT,17,Sistelos,
303852,PT,20,Refoios Do Lima,
303853,PT,17,Baixinho,
303854,PT,20,Valverde,
303855,PT,7,Caetanos,
303856,PT,13,Famões,
303857,PT,20,Urgeira,
303858,PT,4,Trás Da Fonte,
303859,PT,16,Barretos,
303860,PT,6,Vilar Chão,
303861,PT,4,Azurém,
303862,PT,22,Filhadal,
303863,PT,9,Correeira,
303864,PT,13,Eiras,
303865,PT,13,Ribeira Do Mareto,
303866,PT,18,Curvaceiras Grandes,
303867,PT,14,Bom Visinho,
303868,PT,4,Vendas,
303869,PT,22,Bodiosa,
303870,PT,2,Romão,
303871,PT,18,Vale Do Calvo,
303872,PT,7,Vilarinho De Cima,
303873,PT,7,Mourelos,
303874,PT,14,Aldeia Gavinha,
303875,PT,6,Poeiros,
303876,PT,20,Caminho,
303877,PT,7,Lavradio,
303878,PT,13,Carnide De Cima,
303879,PT,9,Marim,
303880,PT,23,Ribeira Das Tainhas,
303881,PT,14,Cheleiros,
303882,PT,21,Padornelos,
303883,PT,4,Geme,
303884,PT,5,Carção,
303885,PT,4,Barbudo,
303886,PT,19,Telha,
303887,PT,21,Justes,
303888,PT,14,Casa De Saúde Do Telhal,
303889,PT,17,Leça Do Balio,
303890,PT,13,Vieira De Leiria,
303891,PT,4,São Gens,
303892,PT,2,Agras,
303893,PT,22,Avelal,
303894,PT,17,Aião,
303895,PT,5,Lombo,
303896,PT,4,São Torcato,
303897,PT,14,Casa Do Ninho,
303898,PT,21,Vila Do Conde,
303899,PT,4,Argova,
303900,PT,20,Agualonga,
303901,PT,11,Vila Verde,
303902,PT,18,Vale De Figueira,
303903,PT,13,Pedrogão,
303904,PT,14,Guimarães,
303905,PT,20,Grijó,
303906,PT,20,Mazarefes,
303907,PT,8,Outeiro,
303908,PT,6,Vales,
303909,PT,13,Cos,
303910,PT,20,Feira,
303911,PT,2,Vendas Novas,
303912,PT,4,Areias,
303913,PT,21,Tabuadelo,
303914,PT,18,Parceiros De São João,
303915,PT,20,Mato,
303916,PT,5,Ligares,
303917,PT,7,Enxofães,
303918,PT,2,Parameira,
303919,PT,6,Póvoa Palhaça,
303920,PT,2,Vila Nova De Fusos,
303921,PT,5,Bouça,
303922,PT,21,Ribeira De Pena,
303923,PT,14,Maçussa,
303924,PT,18,Azervadinha,
303925,PT,19,Faleiros,
303926,PT,3,Brinches,
303927,PT,7,Venda Da Esperança,
303928,PT,22,Lousa,
303929,PT,2,Palhaça,
303930,PT,4,Silvares,
303931,PT,7,Espinhal,
303932,PT,18,Quinta Da Requeixada,
303933,PT,18,Souto,
303934,PT,7,Vale De Colmeias,
303935,PT,14,Carapinheira,
303936,PT,17,Freixieiro,
303937,PT,17,Gondalães,
303938,PT,14,Almograve,
303939,PT,17,Refontoura,
303940,PT,4,Arcozelo,
303941,PT,5,Vila Verdinho,
303942,PT,17,Balazar,
303943,PT,6,Alcaria,
303944,PT,4,São Verissimo,
303945,PT,4,São João,
303946,PT,4,Garfe,
303947,PT,9,Porches,
303948,PT,23,Rosais,
303949,PT,9,Vale Figueira,
303950,PT,23,Patameiros,
303951,PT,2,Pontemieiro,
303952,PT,2,Covelas,
303953,PT,20,Lage,
303954,PT,14,Mealhada,
303955,PT,2,Vila Nova,
303956,PT,2,Nogueira,
303957,PT,21,Sabrosa,
303958,PT,22,Esmolfe,
303959,PT,13,Moita,
303960,PT,17,Lamas,
303961,PT,16,Reguengo,
303962,PT,13,Pussos,
303963,PT,5,Belver,
303964,PT,13,Zambujeira,
303965,PT,17,Rio Mau,
303966,PT,4,Bicuela,
303967,PT,21,Vilarinho De Arcos,
303968,PT,20,Orbacém,
303969,PT,9,Figueira,
303970,PT,9,Quelfes,
303971,PT,14,Monte Estoril,
303972,PT,7,Covão,
303973,PT,5,Assares,
303974,PT,11,Vila Franca Das Naves,
303975,PT,7,Belide,
303976,PT,11,Reboleiro,
303977,PT,9,Conceição,
303978,PT,9,São Bartolomeu,
303979,PT,14,São Julião Do Tojal,
303980,PT,13,Calvária De Baixo,
303981,PT,3,Odivelas,
303982,PT,4,Cavez,
303983,PT,21,Concieiro,
303984,PT,22,Bouças,
303985,PT,14,Alpriate,
303986,PT,22,Alvite,
303987,PT,22,Queimadela,
303988,PT,18,Roda Grande,
303989,PT,6,Caria,
303990,PT,17,Louzada,
303991,PT,13,Landal,
303992,PT,7,Penalva De Alva,
303993,PT,17,Vila Chã,
303994,PT,6,Enxabarda,
303995,PT,14,Fontelas,
303996,PT,13,Boisias,
303997,PT,2,Rendo,
303998,PT,22,Peva,
303999,PT,13,Serro Ventoso,
304000,PT,2,Gafanha Daquém,
304001,PT,23,Salga,
304002,PT,4,Perelhal,
304003,PT,18,Carrascal,
304004,PT,2,Valongo,
304005,PT,4,Vermil,
304006,PT,14,Vale De Figueira,
304007,PT,14,Moitelas,
304008,PT,11,Vela,
304009,PT,8,Veladas De Cima,
304010,PT,17,São Miguel Do Couto,
304011,PT,18,Ventoso,
304012,PT,17,Navais,
304013,PT,5,Castrelos,
304014,PT,4,Landeiro,
304015,PT,13,São Gregorio Da Fanadia,
304016,PT,22,Guardais,
304017,PT,16,Crato E Mártires,
304018,PT,14,Salemas,
304019,PT,14,Santa Marta,
304020,PT,17,Frende,
304021,PT,14,Paço Das Ilhas,
304022,PT,14,Quinta Do Bom Sucesso,
304023,PT,20,Seixas,
304024,PT,7,Casal Do Cimeiro,
304025,PT,13,Vieirinhos,
304026,PT,8,Casas Novas De Marés,
304027,PT,19,Valadares,
304028,PT,14,Quinta Da Vitória,
304029,PT,17,Ramalde,
304030,PT,4,Rendufinho,
304031,PT,4,Gondarém,
304032,PT,13,Mestras,
304033,PT,20,Cabanas,
304034,PT,21,Mosteirô,
304035,PT,13,Vila Verde,
304036,PT,4,Pipe,
304037,PT,20,Sião,
304038,PT,22,Lagares,
304039,PT,14,São Martinho,
304040,PT,17,Lama,
304041,PT,13,São Mamede,
304042,PT,21,Veiga De Lila,
304043,PT,14,Sendieira,
304044,PT,11,Arcozelo,
304045,PT,11,Aldeia Viçosa,
304046,PT,19,Portinho Da Arrábida,
304047,PT,11,Lagarinhos,
304048,PT,2,Veiros,
304049,PT,22,Fornelo Do Monte,
304050,PT,18,Azoia De Cima,
304051,PT,17,Nespereira,
304052,PT,13,Chão Pardo,
304053,PT,22,Comenda,
304054,PT,2,Travanca,
304055,PT,22,Aldeia De Carvalho,
304056,PT,17,Maureles,
304057,PT,5,Miradeses,
304058,PT,7,Santa Ovaia,
304059,PT,14,Açafora,
304060,PT,7,Mata,
304061,PT,9,Amaro Gonçalves,
304062,PT,7,Alcabideque,
304063,PT,17,Branzelo,
304064,PT,20,Moreira De Geraz Do Lima,
304065,PT,6,Fatela,
304066,PT,21,Selhariz,
304067,PT,20,Vila Meã,
304068,PT,20,Cevide,
304069,PT,14,Campolide,
304070,PT,20,Geraz Do Lima,
304071,PT,17,Pena,
304072,PT,7,Quinhendros,
304073,PT,13,Silveirinha Pequena,
304074,PT,13,Cabaços,
304075,PT,7,Ázere,
304076,PT,14,Vale Da Guarda,
304077,PT,2,Moselos,
304078,PT,9,Patã De Baixo,
304079,PT,9,Azinhal,
304080,PT,9,Cabanas,
304081,PT,23,Ribeirinha,
304082,PT,23,Biscoitos,
304083,PT,4,Infantas,
304084,PT,17,Roriz,
304085,PT,22,Valongo,
304086,PT,13,Bolhos,
304087,PT,20,Ribeira,
304088,PT,2,Furadouro,
304089,PT,22,Sande,
304090,PT,4,Tregosa,
304091,PT,18,Casais Do Ourego,
304092,PT,9,Três Figos De Baixo,
304093,PT,7,Poço,
304094,PT,4,Vila Pouca,
304095,PT,21,Bilhó,
304096,PT,5,Vila Nova,
304097,PT,22,Alhais,
304098,PT,6,Ladoeiro,
304099,PT,6,Bemposta,
304100,PT,14,Fonte Grada,
304101,PT,17,Perosinho,
304102,PT,4,Cabeçudos,
304103,PT,18,Entrocamento,
304104,PT,4,Vilar De Cunhas,
304105,PT,9,Alportel,
304106,PT,14,Póvoa Santa Iria,
304107,PT,9,Santa Luzia,
304108,PT,3,Quintã,
304109,PT,20,Lapela,
304110,PT,23,Angra Do Heroísmo,
304111,PT,14,Santa Iria,
304112,PT,14,Santa Iria Da Azóia,
304113,PT,3,Pedrógão,
304114,PT,3,Pias,
304115,PT,20,Marco,
304116,PT,17,São Romão Do Coronado,
304117,PT,14,Paco D'arcos,
304118,PT,19,Piedade,
304119,PT,11,Barreira,
304120,PT,20,Oliveira,
304121,PT,6,Atalaia,
304122,PT,17,Andorinho,
304123,PT,14,Castanheira,
304124,PT,2,Raiva,
304125,PT,22,Souto,
304126,PT,2,Paraíso,
304127,PT,21,Paços,
304128,PT,6,Salvador,
304129,PT,18,Pombalinho,
304130,PT,8,Ébora,
304131,PT,20,Campos,
304132,PT,20,Gondarém,
304133,PT,20,Âncora,
304134,PT,2,Vergada,
304135,PT,13,Abrunheira,
304136,PT,7,Vale Do Açor,
304137,PT,19,Apostiça,
304138,PT,22,Farminhão,
304139,PT,17,Palmeira,
304140,PT,14,Arneiro,
304141,PT,10,Madalena,
304142,PT,4,Gavião,
304143,PT,18,Carvalhos De Figueiredo,
304144,PT,21,Nuzedo,
304145,PT,17,Vilela,
304146,PT,18,Casal Branco,
304147,PT,8,Freixo,
304148,PT,7,São Simão,
304149,PT,11,Vermiosa,
304150,PT,13,Meirinhas De Baixo,
304151,PT,14,Nadrupe,
304152,PT,14,Rebelva,
304153,PT,14,Morelinho,
304154,PT,14,Toledo,
304155,PT,18,Ereira,
304156,PT,17,Lardosa,
304157,PT,22,Meixedo,
304158,PT,11,Paços Da Serra,
304159,PT,2,Alvarenga,
304160,PT,13,Estrada,
304161,PT,20,Felgueiras,
304162,PT,17,Retorta,
304163,PT,19,Atalaia,
304164,PT,22,Póvoa,
304165,PT,20,Romé,
304166,PT,6,Sarnadinha,
304167,PT,17,Silvares,
304168,PT,22,Ribafeita,
304169,PT,7,Cioga Do Campo,
304170,PT,3,Quintos,
304171,PT,18,Pafarrão,
304172,PT,18,Quinta Do Falcão,
304173,PT,2,Gafanha,
304174,PT,3,São Luis,
304175,PT,8,Vimieiro,
304176,PT,3,Rosário,
304177,PT,19,Cercal Do Alentejo,
304178,PT,3,Vila Nova,
304179,PT,7,Casal Da Azenha,
304180,PT,20,Vila Mou,
304181,PT,22,Folgosa,
304182,PT,11,Soito,
304183,PT,11,Cerdeira,
304184,PT,22,Paus,
304185,PT,19,Camarate,
304186,PT,13,Carreira,
304187,PT,13,Raposeira,
304188,PT,21,Covelinhas,
304189,PT,10,São Pedro,
304190,PT,14,Trancoso De Baixo,
304191,PT,7,Contenças,
304192,PT,14,Fetais,
304193,PT,21,Celeirós,
304194,PT,2,Teamonde,
304195,PT,18,Quinta Da Boa Vista,
304196,PT,11,Pereiro,
304197,PT,11,Balocas,
304198,PT,18,São Simão,
304199,PT,18,Raposa,
304200,PT,2,Vimieira,
304201,PT,4,Golães,
304202,PT,14,Ribeira De Pedrulhos,
304203,PT,22,Tibaldinho,
304204,PT,13,Leira,
304205,PT,13,Pilado,
304206,PT,9,Mealhas,
304207,PT,8,Monte Do Trambolho,
304208,PT,7,Monteira,
304209,PT,22,Silgueiros,
304210,PT,7,Torre De Vilela,
304211,PT,4,Santa Leocádia,
304212,PT,17,Borba De Godim,
304213,PT,18,Cardais,
304214,PT,22,Rebordinho,
304215,PT,16,Coutada,
304216,PT,21,Santa Eugénia,
304217,PT,2,Anta,
304218,PT,22,Couto De Cima,
304219,PT,7,Matos,
304220,PT,13,Silval,
304221,PT,2,Arcozelo,
304222,PT,3,Cabeça Gorda,
304223,PT,4,Vermoim,
304224,PT,17,Campelo,
304225,PT,14,Marvões,
304226,PT,21,Pinho,
304227,PT,11,Nespereira,
304228,PT,18,Romeira,
304229,PT,19,Pedreiras,
304230,PT,2,São Jorge,
304231,PT,19,Santa Cruz,
304232,PT,3,Montes,
304233,PT,13,Campelo,
304234,PT,21,Donelo,
304235,PT,13,Murteira,
304236,PT,21,Valverde,
304237,PT,17,Lagares,
304238,PT,6,Casegas,
304239,PT,5,Sendim,
304240,PT,4,Gominhães,
304241,PT,17,Louredo,
304242,PT,4,São Paio,
304243,PT,20,Cerdeira,
304244,PT,20,Moldes,
304245,PT,16,Barbacena,
304246,PT,21,Freixo,
304247,PT,7,Fornos,
304248,PT,4,Pinheiro,
304249,PT,17,Areia,
304250,PT,17,Padrão Da Légua,
304251,PT,13,Sete Lenços,
304252,PT,14,Picanceira,
304253,PT,19,Monte Da Lentisqueira,
304254,PT,18,Mata,
304255,PT,13,Paiã,
304256,PT,20,Cristelo,
304257,PT,7,Boiça,
304258,PT,22,Parada,
304259,PT,11,Sameiro,
304260,PT,11,Nave,
304261,PT,4,Lagoa,
304262,PT,18,Delongo,
304263,PT,21,Fontes,
304264,PT,22,Lordosa,
304265,PT,14,Arruda,
304266,PT,18,Pinhel,
304267,PT,16,Alagoa,
304268,PT,17,Rans,
304269,PT,4,Canedo,
304270,PT,7,Travanca,
304271,PT,22,Ribeiradio,
304272,PT,7,Casal Do Gaio,
304273,PT,5,Paredes,
304274,PT,17,Paços,
304275,PT,17,Gosende,
304276,PT,22,Quintela,
304277,PT,14,Paredes,
304278,PT,22,Vinhal,
304279,PT,18,Pedrógão,
304280,PT,9,Messines,
304281,PT,16,Flor Da Rosa,
304282,PT,3,Marmelar,
304283,PT,14,Penedo,
304284,PT,21,Friões,
304285,PT,8,Boa Vista,
304286,PT,9,Porto Do Carro,
304287,PT,8,Barro Branco,
304288,PT,13,Almoster,
304289,PT,14,Folgados,
304290,PT,4,Parada De Tibães,
304291,PT,22,Paradela,
304292,PT,22,Parafita,
304293,PT,7,Caniçal,
304294,PT,4,Faria,
304295,PT,17,Folgosa,
304296,PT,3,Santa Clara-a-velha,
304297,PT,17,Sousa,
304298,PT,19,Vale Madeiros,
304299,PT,13,Carregueiro,
304300,PT,22,Cetos,
304301,PT,14,Via Rara,
304302,PT,2,Vale De Avim,
304303,PT,10,Bemposta,
304304,PT,14,A Da Beja,
304305,PT,20,Freixieiro,
304306,PT,21,Valugas,
304307,PT,9,Cabeça,
304308,PT,2,Belazaima Do Chão,
304309,PT,16,Pombal,
304310,PT,14,Asseiceira Grande,
304311,PT,13,Barreiro,
304312,PT,4,Barco,
304313,PT,14,Cachouça,
304314,PT,22,Esculca,
304315,PT,13,Ganilhos,
304316,PT,3,Aldeia Dos Fernandes,
304317,PT,8,Reguengos,
304318,PT,21,Vila Seca,
304319,PT,3,Vila Ruiva,
304320,PT,16,Esperança,
304321,PT,2,São João De Madeira,
304322,PT,18,Azoia De Baixo,
304323,PT,21,Moure,
304324,PT,7,Póvoa De São Cosme,
304325,PT,13,Pontão,
304326,PT,6,Donas,
304327,PT,7,Vale,
304328,PT,22,Oliveira,
304329,PT,7,Porto Judeu,
304330,PT,10,São Jorge,
304331,PT,2,Cepelos,
304332,PT,4,Alvelos,
304333,PT,6,Castelo Novo,
304334,PT,23,Foros,
304335,PT,7,Dornelas Do Zêzere,
304336,PT,2,Cabecinhas,
304337,PT,13,Sancheira,
304338,PT,16,Santo Aleixo,
