locId,country,region,city,postcode
304559,RO,,,
304560,RO,38,Bucharest,
304561,RO,12,Turnu,
304562,RO,10,Bukarest,
304563,RO,23,Iasi,
304564,RO,10,Bucharest,
304565,RO,25,Baia Mare,
304566,RO,32,Satu Mare,
304567,RO,33,Sibiu,
304568,RO,13,Cluj,
304569,RO,13,Cluj-napoca,
304570,RO,36,Timisoara,
304571,RO,17,Craiova,
304572,RO,14,Constanta,
304573,RO,21,Hunedoara,
304574,RO,12,Resita,
304575,RO,42,Colibasi,
304576,RO,38,Dimitrie Cantemir,
304577,RO,9,Brasov,
304578,RO,4,Bacau,
304579,RO,8,Braila,
304580,RO,37,Tulcea,
304581,RO,1,Vîlcea,
304582,RO,2,Arad,
304583,RO,39,Valcea,
304584,RO,18,Galati,
304585,RO,30,Ploiesti,
304586,RO,7,Botosani,
304587,RO,3,Pitesti,
304588,RO,7,Alba,
304589,RO,1,Alba Iulia,
304590,RO,31,Zalau,
304591,RO,28,Piatra Neamt,
304592,RO,38,Roman,
304593,RO,32,Coca,
304594,RO,15,Catalina,
304595,RO,1,Beta,
304596,RO,41,Calarasi,
304597,RO,33,Victoria,
304598,RO,21,Deva,
304599,RO,6,Bistrita,
304600,RO,13,Kolozsvár,
304601,RO,30,Berceni,
304602,RO,29,Româna,
304603,RO,4,Traian,
304604,RO,5,Oradea,
304605,RO,5,Marghita,
304606,RO,16,Moreni,
304607,RO,34,Suceava,
304608,RO,27,Prod,
304609,RO,27,Targu-mures,
304610,RO,7,Iorga,
304611,RO,26,Turnu Severin,
304612,RO,11,Buzau,
304613,RO,2,Vladimirescu,
304614,RO,37,Sfântu Gheorghe,
304615,RO,8,Spiru Haret,
304616,RO,36,Buzias,
304617,RO,13,Mihai Viteazu,
304618,RO,32,Carei,
304619,RO,13,Turda,
304620,RO,39,Râmnicu Vâlcea,
304621,RO,40,Focsani,
304622,RO,16,Targoviste,
304623,RO,14,Cernavoda,
304624,RO,36,Pâncota,
304625,RO,27,Reghin,
304626,RO,4,Nicolae Balcescu,
304627,RO,15,Covasna,
304628,RO,41,Panduri,
304629,RO,38,Vaslui,
304630,RO,6,Matei,
304631,RO,36,Tirgoviste,
304632,RO,29,Slatina,
304633,RO,17,Cosoveni,
304634,RO,27,Sighisoara,
304635,RO,8,Praporgescu,
304636,RO,43,Otopeni,
304637,RO,39,Manta,
304638,RO,26,Petrosani,
304639,RO,22,Slobozia,
304640,RO,14,Furnica,
304641,RO,42,Câmpulung,
304642,RO,1,Miercurea,
304643,RO,36,Lugoj,
304644,RO,35,Nichita,
304645,RO,14,Eforie,
304646,RO,43,Balotesti,
304647,RO,19,Târgu Jiu,
304648,RO,29,Schitu,
304649,RO,15,Sfântul,
304650,RO,7,Timis,
304651,RO,38,Vrancea,
304652,RO,9,Dimbovita,
304653,RO,42,Giurgiu,
304654,RO,20,Harghita,
304655,RO,43,Magurele,
304656,RO,21,Grid,
304657,RO,10,Bucarest,
304658,RO,11,Ziduri,
304659,RO,38,Banca,
304660,RO,30,Brazi,
304661,RO,6,Major,
304662,RO,29,Scoala,
304663,RO,21,Floreasca,
304664,RO,6,Dorna,
304665,RO,43,Serban Voda,
304666,RO,23,Pascani,
304667,RO,31,Fabrica,
304668,RO,3,Mioveni,
304669,RO,10,Vitan,
304670,RO,23,Libertatea,
304671,RO,29,Caracal,
304672,RO,40,Marasesti,
304673,RO,35,Piatra,
304674,RO,20,Cristuru Secuiesc,
304675,RO,41,Dunarea,
304676,RO,38,Bârlad,
304677,RO,5,Centru,
304678,RO,37,Rosu,
304679,RO,9,Codlea,
304680,RO,12,Herculane,
304681,RO,13,Gherla,
304682,RO,27,Gheorghe Doja,
304683,RO,26,Târgu,
304684,RO,42,Cantemir,
304685,RO,14,Negru Voda,
304686,RO,26,Vânju-mare,
304687,RO,34,Laura,
304688,RO,36,Rieni,
304689,RO,27,Toplita,
304690,RO,42,Sabareni,
304691,RO,34,Baia,
304692,RO,14,Tomis Nord,
304693,RO,38,Miron Costin,
304694,RO,12,Caransebes,
304695,RO,17,Podari,
304696,RO,39,Curtea De Arges,
304697,RO,28,Bordea,
304698,RO,1,Sebes,
304699,RO,26,Orsova,
304700,RO,42,Lisa,
304701,RO,36,Sângeorgiu,
304702,RO,42,Mihai Bravu,
304703,RO,29,Bals,
304704,RO,27,Aurel Vlaicu,
304705,RO,32,Decebal,
304706,RO,13,Gherea,
304707,RO,39,Bucura,
304708,RO,30,Valea Calugareasca,
304709,RO,41,Oltenita,
304710,RO,12,Bocsa,
304711,RO,34,Dealul,
304712,RO,38,Onesti,
304713,RO,13,Câmpia Turzii,
304714,RO,9,Dumbravita,
304715,RO,42,Florescu,
304716,RO,42,Mircea Cel Batrin,
304717,RO,11,Baile,
304718,RO,7,Caraiman,
304719,RO,23,Kogalniceanu,
304720,RO,20,Gheorgheni,
304721,RO,14,Mangalia,
304722,RO,18,Smârdan,
304723,RO,42,Gaesti,
304724,RO,20,Miercurea-ciuc,
304725,RO,33,Noul,
304726,RO,9,Predeal,
304727,RO,28,David,
304728,RO,28,Doamna,
304729,RO,38,Bîrlad,
304730,RO,20,Odorheiu Secuiesc,
304731,RO,37,Horia,
304732,RO,38,Husi,
304733,RO,43,Snagov,
304734,RO,38,Pietris,
304735,RO,37,Luminita,
304736,RO,42,Alunis,
304737,RO,12,Oravita,
304738,RO,28,Borca,
304739,RO,42,Caragiale,
304740,RO,22,Duca,
304741,RO,9,Cristian,
304742,RO,1,Blaj,
304743,RO,3,Topoloveni,
304744,RO,5,Sântandrei,
304745,RO,25,Catalin,
304746,RO,27,Cris,
304747,RO,1,Arti,
304748,RO,34,Falticeni,
304749,RO,42,Cornesti,
304750,RO,25,Giulesti,
304751,RO,1,Cugir,
304752,RO,20,Beia,
304753,RO,38,Marasti,
304754,RO,27,Medias,
304755,RO,27,Sovata,
304756,RO,20,Suseni,
304757,RO,30,Urlati,
304758,RO,1,Aiud,
304759,RO,12,Avram Iancu,
304760,RO,26,Urda,
304761,RO,19,Rovinari,
304762,RO,36,Covaci,
304763,RO,8,Cerna,
304764,RO,27,Odorheiu,
304765,RO,13,Huedin,
304766,RO,8,Macin,
304767,RO,41,Razvan,
304768,RO,42,Seci,
304769,RO,37,Iulia,
304770,RO,42,Lunca,
304771,RO,14,Mamaia,
304772,RO,28,Doina,
304773,RO,20,Tincani,
304774,RO,13,Baciu,
304775,RO,36,Crisana,
304776,RO,38,Valea,
304777,RO,38,Corbita,
304778,RO,34,Siret,
304779,RO,27,Tarnaveni,
304780,RO,4,Costisa,
304781,RO,21,Bejan,
304782,RO,6,Cosbuc,
304783,RO,32,Lazar,
304784,RO,27,Cosma,
304785,RO,1,Lupu,
304786,RO,35,Alexandria,
304787,RO,42,Câmpina,
304788,RO,35,Voda,
304789,RO,12,Moldova Noua,
304790,RO,28,Popescu,
304791,RO,12,Toma,
304792,RO,5,Alesd,
304793,RO,38,Iana,
304794,RO,19,Motru,
304795,RO,8,Oprisenesti,
304796,RO,28,Gherman,
304797,RO,31,Jibou,
304798,RO,43,Bucurestii Noi,
304799,RO,40,Cîmpineanca,
304800,RO,25,Sighetu Marmatiei,
304801,RO,32,Marius,
304802,RO,6,Nasaud,
304803,RO,6,Moldova,
304804,RO,8,Pantea,
304805,RO,18,Maicanesti,
304806,RO,35,Videle,
304807,RO,35,Calugaru,
304808,RO,18,Lascar Catargiu,
304809,RO,18,Pisica,
304810,RO,5,Biharia,
304811,RO,10,Pantelimon,
304812,RO,7,Paun,
304813,RO,31,Bogdan,
304814,RO,13,Ocna Mures,
304815,RO,34,Radauti,
304816,RO,41,Dorobantu,
304817,RO,36,Stei,
304818,RO,10,Ghencea,
304819,RO,30,Baicoi,
304820,RO,13,Sava,
304821,RO,9,Simon,
304822,RO,1,Cristea,
304823,RO,4,Moinesti,
304824,RO,6,Enciu,
304825,RO,7,Stamate,
304826,RO,42,Urziceni,
304827,RO,34,Danila,
304828,RO,21,Unirea,
304829,RO,30,Nedelea,
304830,RO,28,Tasca,
304831,RO,26,Corabia,
304832,RO,28,Bratu,
304833,RO,9,Luta,
304834,RO,3,Floarea,
304835,RO,28,Girov,
304836,RO,25,Buzas,
304837,RO,11,Mircea,
304838,RO,1,Valea Rosie,
304839,RO,4,Dragomir,
304840,RO,13,Bistra,
304841,RO,20,Rares,
304842,RO,31,Silvaniei,
304843,RO,38,Adam,
304844,RO,14,Ovidiu,
304845,RO,32,Capleni,
304846,RO,34,Costîna,
304847,RO,29,Dragasani,
304848,RO,42,Baneasa,
304849,RO,31,Marin,
304850,RO,4,Tamas,
304851,RO,26,Voicu,
304852,RO,41,Carol I,
304853,RO,27,Botez,
304854,RO,42,Punga,
304855,RO,26,Ganea,
304856,RO,18,Independenta,
304857,RO,11,Magura,
304858,RO,14,Gherghina,
304859,RO,27,Luca,
304860,RO,31,Criseni,
304861,RO,8,Ianca,
304862,RO,22,Rosiori,
304863,RO,25,Rogoz,
304864,RO,6,Dumitrita,
304865,RO,25,Sighet,
304866,RO,8,Ciobanu,
304867,RO,26,Aurora,
304868,RO,42,Ionascu,
304869,RO,6,Arin,
304870,RO,30,Pantazi,
304871,RO,29,Scornicesti,
304872,RO,26,Puscasu,
304873,RO,7,George Enescu,
304874,RO,26,Damian,
304875,RO,36,Iosif,
304876,RO,43,Corbeanca,
304877,RO,43,Mogosoaia,
304878,RO,21,Simeria,
304879,RO,42,Barbuceanu,
304880,RO,42,Brâncoveanu,
304881,RO,42,Frunzaru,
304882,RO,4,Buhus,
304883,RO,23,Dancu,
304884,RO,38,Blaga,
304885,RO,9,Concordia,
304886,RO,20,Odorheiul Secuiesc,
304887,RO,23,Cujba,
304888,RO,35,Grosu,
304889,RO,25,Baiut,
304890,RO,26,Filiasi,
304891,RO,40,Buda,
304892,RO,12,Ferdinand,
304893,RO,28,Stefan Cel Mare,
304894,RO,7,Dorobanti,
304895,RO,36,Ilie,
304896,RO,32,Gelu,
304897,RO,27,Sarmasu,
304898,RO,32,Irina,
304899,RO,36,Beius,
304900,RO,38,Rafaila,
304901,RO,9,Astra,
304902,RO,38,Nedelcu,
304903,RO,17,Mihaita,
304904,RO,9,Persani,
304905,RO,26,Boca,
304906,RO,20,Vlahita,
304907,RO,13,Anton,
304908,RO,10,Pipera,
304909,RO,12,Nera,
304910,RO,6,Mateiu,
304911,RO,35,Margareta,
304912,RO,42,Remus,
304913,RO,27,Cozma,
304914,RO,43,Buftea,
304915,RO,10,Voluntari,
304916,RO,42,Nicolae Titulescu,
304917,RO,26,Uricani,
304918,RO,42,Viorica,
304919,RO,14,Histria,
304920,RO,11,Vintila Voda,
304921,RO,21,Hateg,
304922,RO,9,Busteni,
304923,RO,38,Adjud,
304924,RO,4,Pîrjol,
304925,RO,5,Salonta,
304926,RO,22,Gheorghe Lazar,
304927,RO,6,Valea Borcutului,
304928,RO,42,Brebu,
304929,RO,37,Crisan,
304930,RO,30,Goga,
304931,RO,42,Maia,
304932,RO,7,Eminescu,
304933,RO,9,Herman,
304934,RO,36,Racovita,
304935,RO,31,Simleu Silvaniei,
304936,RO,9,Noua,
304937,RO,36,Lóránd,
304938,RO,6,Borsa,
304939,RO,20,Aldea,
304940,RO,20,Balan,
304941,RO,43,Chiajna,
304942,RO,36,Deta,
304943,RO,41,Rosetti,
304944,RO,42,Alexandrina,
304945,RO,42,Dobrota,
304946,RO,38,Rusu,
304947,RO,42,Florica,
304948,RO,5,Bors,
304949,RO,42,Goia,
304950,RO,22,Dragalina,
304951,RO,13,Macau,
304952,RO,34,Bodea,
304953,RO,25,Negresti-oas,
304954,RO,38,Lozinca,
304955,RO,38,Robu,
304956,RO,27,Iernut,
304957,RO,43,Bragadiru,
304958,RO,42,Vladuta,
304959,RO,38,Analog,
304960,RO,19,Vidin,
304961,RO,38,Golia,
304962,RO,7,Tudora,
304963,RO,1,Lupul,
304964,RO,32,Cucu,
304965,RO,23,Visan,
304966,RO,39,Râmnicul Vâlcea,
304967,RO,7,Enescu,
304968,RO,42,Cojocaru,
304969,RO,11,Balaceanu,
304970,RO,9,Sinaia,
304971,RO,30,Barcanesti,
304972,RO,12,Baile Herculane,
304973,RO,25,Tolos,
304974,RO,4,Alecsandri,
304975,RO,9,Sacele,
304976,RO,41,Ileana,
304977,RO,43,Falcoianu,
304978,RO,3,Costesti,
304979,RO,9,Bran,
304980,RO,26,Turceni,
304981,RO,38,Tecuci,
304982,RO,18,Oancea,
304983,RO,13,Gheorghieni,
304984,RO,33,Deal,
304985,RO,36,Jimbolia,
304986,RO,42,Draghici,
304987,RO,10,Colentina,
304988,RO,30,Dumbrava,
304989,RO,30,Lipanesti,
304990,RO,30,Plopeni,
304991,RO,3,Stefanesti,
304992,RO,16,Fieni,
304993,RO,20,Zoltan,
304994,RO,22,Bratianu,
304995,RO,36,Pecica,
304996,RO,32,Ratiu,
304997,RO,42,Titu,
304998,RO,21,Berthelot,
304999,RO,43,Afumati,
305000,RO,25,Mara,
305001,RO,6,Bobeica,
305002,RO,20,Joseni,
305003,RO,31,Rugea,
305004,RO,26,Magheru,
305005,RO,32,Cuta,
305006,RO,42,Breaza,
305007,RO,11,Sageata,
305008,RO,13,Deus,
305009,RO,21,Reea,
305010,RO,39,Horezu,
305011,RO,42,Mizil,
305012,RO,39,Govora,
305013,RO,19,Matasari,
305014,RO,31,Dobrin,
305015,RO,26,Tantaru,
305016,RO,34,Moldovita,
305017,RO,39,Cheia,
305018,RO,15,Estelnic,
305019,RO,38,Barsesti,
305020,RO,35,Petra,
305021,RO,12,Carasova,
305022,RO,31,Crasna,
305023,RO,27,Corunca,
305024,RO,30,Strejnicu,
305025,RO,26,Iancu Jianu,
305026,RO,33,Rosia,
305027,RO,17,Lânga,
305028,RO,43,Domnesti,
305029,RO,42,Vieru,
305030,RO,5,Tinca,
305031,RO,26,Cioaca,
305032,RO,38,Ciuperca,
305033,RO,15,Cernat,
305034,RO,9,Fagaras,
305035,RO,11,Cîmpeni,
305036,RO,36,Chisineu Cris,
305037,RO,1,Teius,
305038,RO,37,Sulina,
305039,RO,17,Marioara,
305040,RO,23,Pildesti,
305041,RO,12,Tatu,
305042,RO,7,Galben,
305043,RO,7,Florea,
305044,RO,23,Raducaneni,
305045,RO,36,Negru,
305046,RO,41,Manolache,
305047,RO,38,Palermo,
305048,RO,42,Zimnicea,
305049,RO,38,Laza,
305050,RO,7,Rahova,
305051,RO,11,Spataru,
305052,RO,30,Puscas,
305053,RO,39,Baiculesti,
305054,RO,42,Moroeni,
305055,RO,27,Sincai,
305056,RO,42,Grigorescu,
305057,RO,26,Godeanu,
305058,RO,12,Coronini,
305059,RO,43,Militari,
305060,RO,38,Alexandru Vlahuta,
305061,RO,14,Fetesti,
305062,RO,23,Alexandru Ioan Cuza,
305063,RO,42,Turnu Magurele,
305064,RO,43,Ciorogârla,
305065,RO,27,Ungheni,
305066,RO,42,Filipestii De Padure,
305067,RO,13,Feleac,
305068,RO,42,Chiriac,
305069,RO,43,Canela,
305070,RO,42,Daia,
305071,RO,27,Alma,
305072,RO,26,Badea,
305073,RO,3,Clucereasa,
305074,RO,36,Denta,
305075,RO,16,Cretu,
305076,RO,20,Ciumani,
305077,RO,42,Petresti,
305078,RO,13,Citcau,
305079,RO,42,Gradinari,
305080,RO,29,Valea Mare,
305081,RO,12,Otelu Rosu,
305082,RO,13,Izvoru Crisului,
305083,RO,41,Dona,
305084,RO,34,Vasilache,
305085,RO,42,Rosiorii De Vede,
305086,RO,13,Visa,
305087,RO,5,Tileagd,
305088,RO,15,Tusnadu Nou,
305089,RO,39,Sîmbotin,
305090,RO,43,Moara Vlasiei,
305091,RO,38,Barzesti,
305092,RO,41,Vlad Tepes,
305093,RO,7,Ripiceni,
305094,RO,25,Ulmeni,
305095,RO,7,Dacia,
305096,RO,26,Târgul,
305097,RO,11,Izvorul,
305098,RO,10,Dobroesti,
305099,RO,1,Sântimbru,
305100,RO,42,Radu Voda,
305101,RO,26,Berbesti,
305102,RO,7,Roma,
305103,RO,21,Orastie,
305104,RO,38,Tepu,
305105,RO,40,Panciu,
305106,RO,26,Vladimir,
305107,RO,9,Rucar,
305108,RO,41,Fundeni,
305109,RO,43,Pasarea,
305110,RO,31,Chendrea,
305111,RO,34,Cornu,
305112,RO,42,Rosiori De Vede,
305113,RO,23,Bâra,
305114,RO,27,Frunte,
305115,RO,25,Guga,
305116,RO,14,Mihail Kogalniceanu,
305117,RO,38,Nicoresti,
305118,RO,36,Faget,
305119,RO,12,Brad,
305120,RO,10,Peris,
305121,RO,25,Cavnic,
305122,RO,18,Pechea,
305123,RO,36,Utvin,
305124,RO,26,Stirbei,
305125,RO,25,Bogdan Voda,
305126,RO,42,Jilava,
305127,RO,20,Ditrau,
305128,RO,2,Olari,
305129,RO,27,Ludus,
305130,RO,25,Copalnic,
305131,RO,9,Poiana Marului,
305132,RO,16,Branesti,
305133,RO,22,Amara,
305134,RO,3,Huluba,
305135,RO,42,Calugareni,
305136,RO,42,Zanoaga,
305137,RO,40,Suraia,
305138,RO,7,Vatra,
305139,RO,33,Avrig,
305140,RO,42,Zinca,
305141,RO,7,Talpa,
305142,RO,28,Biserica,
305143,RO,7,Buzdugan,
305144,RO,42,Spiridon,
305145,RO,34,Granicesti,
305146,RO,40,Lamotesti,
305147,RO,42,Joita,
305148,RO,42,Boldesti,
305149,RO,11,Movila Banului,
305150,RO,34,Adâncata,
305151,RO,38,Certesti,
305152,RO,38,Corod,
305153,RO,38,Dragomiresti,
305154,RO,40,Cosmesti,
305155,RO,38,Tutova,
305156,RO,21,Bosorod,
305157,RO,19,Turcinesti,
305158,RO,19,Albeni,
305159,RO,6,Chiochis,
305160,RO,13,Rimetea,
305161,RO,13,Petrestii De Jos,
305162,RO,38,Poienesti,
305163,RO,42,Adunatii-copaceni,
305164,RO,23,Rediu,
305165,RO,23,Plugari,
305166,RO,5,Nojorid,
305167,RO,5,Sârbi,
305168,RO,13,Dragu,
305169,RO,13,Aiton,
305170,RO,42,Telega,
305171,RO,21,Pestisu Mic,
305172,RO,12,Rusca Montana,
305173,RO,9,Rasnov,
305174,RO,2,Zimandu Nou,
305175,RO,36,Mosnita Noua,
305176,RO,21,Lelese,
305177,RO,21,Bunila,
305178,RO,25,Seini,
305179,RO,25,Ardusat,
305180,RO,36,Sacalaz,
305181,RO,36,Sânandrei,
305182,RO,42,Nucet,
305183,RO,42,Maneciu,
305184,RO,33,Valea Viilor,
305185,RO,23,Mironeasa,
305186,RO,42,Berevoesti,
305187,RO,16,Valea Lunga,
305188,RO,10,Poenarii-burchi,
305189,RO,16,Ciocanesti,
305190,RO,6,Sieu-magherus,
305191,RO,31,Varsolt,
305192,RO,6,Moisei,
305193,RO,13,Tritenii De Jos,
305194,RO,13,Recea Cristur,
305195,RO,42,Balta Doamnei,
305196,RO,43,Butimanu,
305197,RO,42,Fântânele,
305198,RO,30,Tinosu,
305199,RO,4,Tamasi,
305200,RO,16,Sotanga,
305201,RO,10,Popesti-leordeni,
305202,RO,36,Victor Vlad Delamarina,
305203,RO,42,Sârbeni,
305204,RO,19,Ticleni,
305205,RO,36,Pietroasa,
305206,RO,26,Drobeta-turnu Severin,
305207,RO,26,Simian,
305208,RO,29,Priseaca,
305209,RO,29,Potcoava,
305210,RO,29,Poboru,
305211,RO,26,Glavile,
305212,RO,39,Ciomagesti,
305213,RO,16,Motaeni,
305214,RO,6,Vatra Dornei,
305215,RO,42,Nehoiu,
305216,RO,27,Acatari,
305217,RO,25,Lapus,
305218,RO,12,Berzovia,
305219,RO,15,Slanic-moldova,
305220,RO,38,Bogdana,
305221,RO,42,Darmanesti,
305222,RO,36,Gavojdia,
305223,RO,38,Orbeni,
305224,RO,38,Tatarasti,
305225,RO,23,Hârlau,
305226,RO,4,Buhusi,
305227,RO,12,Constantin Daicoviciu,
305228,RO,34,Câmpulung Moldovenesc,
305229,RO,20,Bradeni,
305230,RO,27,Viisoara,
305231,RO,27,Danes,
305232,RO,38,Ivesti,
305233,RO,27,Bichis,
305234,RO,12,Glimboca,
305235,RO,42,Stejaru,
305236,RO,29,Piatra Olt,
305237,RO,12,Fârliug,
305238,RO,42,Otelu,
305239,RO,25,Ileanda,
305240,RO,41,Gradistea,
305241,RO,41,Sohatu,
305242,RO,38,Grivita,
305243,RO,23,Târgu-frumos,
305244,RO,23,Lungani,
305245,RO,3,Cateasca,
305246,RO,34,Frasin,
305247,RO,1,Zlatna,
305248,RO,36,Gataia,
305249,RO,18,Branistea,
305250,RO,42,Bulbucata,
305251,RO,11,Faurei,
305252,RO,18,Frumusita,
305253,RO,34,Darmanesti,
305254,RO,32,Cauas,
305255,RO,5,Chislaz,
305256,RO,27,Ghindari,
305257,RO,26,Baru,
305258,RO,26,Vulcan,
305259,RO,29,Perieti,
305260,RO,23,Lespezi,
305261,RO,9,Halchiu,
305262,RO,13,Tureni,
305263,RO,5,Salard,
305264,RO,36,Ghiroda,
305265,RO,14,Basarabi,
305266,RO,14,Tuzla,
305267,RO,42,Cornatelu,
305268,RO,38,Balasesti,
305269,RO,35,Vitanesti,
305270,RO,42,Ghimpati,
305271,RO,38,Motoseni,
305272,RO,36,Nadrag,
305273,RO,42,Valeni,
305274,RO,42,Draganesti-olt,
305275,RO,25,Cicarlau,
305276,RO,36,Darova,
305277,RO,12,Stiuca,
305278,RO,23,Ruginoasa,
305279,RO,25,Sarasau,
305280,RO,14,Techirghiol,
305281,RO,27,Paucisoara,
305282,RO,27,Glodeni,
305283,RO,14,Targusor,
305284,RO,26,Urdari,
305285,RO,26,Barbatesti,
305286,RO,13,Alunis,
305287,RO,5,Popesti,
305288,RO,31,Marca,
305289,RO,25,Baia-sprie,
305290,RO,31,Cuzaplac,
305291,RO,4,Strugari,
305292,RO,1,Ighiu,
305293,RO,1,Poiana Sibiului,
305294,RO,42,Banesti,
305295,RO,23,Vanatori,
305296,RO,16,Pucioasa,
305297,RO,8,Greci,
305298,RO,42,Salciile,
305299,RO,18,Fartanesti,
305300,RO,30,Gura Vitioarei,
305301,RO,38,Pancesti,
305302,RO,16,Tartasesti,
305303,RO,33,Turnu Rosu,
305304,RO,41,Ulmu,
305305,RO,31,Gârbou,
305306,RO,23,Ipatele,
305307,RO,23,Doljesti,
305308,RO,27,Bala,
305309,RO,27,Cristesti,
305310,RO,16,Ulmi,
305311,RO,42,Bilciuresti,
305312,RO,38,Parava,
305313,RO,38,Cudalbi,
305314,RO,38,Miclesti,
305315,RO,27,Atintis,
305316,RO,18,Sendreni,
305317,RO,38,Vinderei,
305318,RO,42,Rusetu,
305319,RO,42,Prim Decembrie,
305320,RO,18,Maxineni,
305321,RO,19,Bumbesti-jiu,
305322,RO,38,Balteni,
305323,RO,38,Vulturesti,
305324,RO,13,Savadisla,
305325,RO,26,Lupeni,
305326,RO,21,Santamaria Orlea,
305327,RO,20,Avramesti,
305328,RO,27,Râciu,
305329,RO,15,Apata,
305330,RO,6,Sintereag,
305331,RO,36,Sagu,
305332,RO,36,Recas,
305333,RO,18,Piscu,
305334,RO,30,Scorteni,
305335,RO,28,Targu-neamt,
305336,RO,27,Urmenis,
305337,RO,13,Dabaca,
305338,RO,13,Borsa,
305339,RO,38,Gaiceana,
305340,RO,11,Pietroasele,
305341,RO,38,Boghesti,
305342,RO,31,Somes-odorhei,
305343,RO,31,Balan,
305344,RO,30,Targsorul-vechi,
305345,RO,42,Amaru,
305346,RO,36,Tormac,
305347,RO,13,Sanpaul,
305348,RO,4,Târgu Ocna,
305349,RO,42,Dridu,
305350,RO,38,Vizantea,
305351,RO,14,Medgidia,
305352,RO,38,Zapodeni,
305353,RO,30,Cocorastii-misli,
305354,RO,16,Dragomiresti,
305355,RO,16,Gura Ocnitei,
305356,RO,42,Magureni,
305357,RO,23,Movileni,
305358,RO,14,Mircea Voda,
305359,RO,13,Dej,
305360,RO,16,Aninoasa,
305361,RO,12,Pojejena,
305362,RO,14,Navodari,
305363,RO,23,Scheia,
305364,RO,43,Crevedia,
305365,RO,4,Rosiori,
305366,RO,30,Aricestii-rahtivani,
305367,RO,10,Gorgota,
305368,RO,31,Agrij,
305369,RO,13,Sic,
305370,RO,1,Sona,
305371,RO,27,Noslac,
305372,RO,18,Rediu,
305373,RO,23,Cordun,
305374,RO,41,Borcea,
305375,RO,18,Baleni,
305376,RO,12,Blajeni,
305377,RO,36,Sacosu Turcesc,
305378,RO,38,Glavanesti,
305379,RO,11,Ramnicu Sarat,
305380,RO,30,Blejoi,
305381,RO,38,Munteni,
305382,RO,38,Tanasoaia,
305383,RO,42,Letca Noua,
305384,RO,10,Ciolpani,
305385,RO,39,Cuca,
305386,RO,15,Ojdula,
305387,RO,26,Copaceni,
305388,RO,4,Valea Seaca,
305389,RO,4,Cleja,
305390,RO,17,Calafat,
305391,RO,34,Calafindesti,
305392,RO,33,Marpod,
305393,RO,33,Slimnic,
305394,RO,33,Câineni,
305395,RO,41,Salcioara,
305396,RO,4,Livezi,
305397,RO,38,Sascut,
305398,RO,35,Cosmesti,
305399,RO,42,Bucsani,
305400,RO,11,Breaza,
305401,RO,28,Roznov,
305402,RO,12,Bolvasnita,
305403,RO,27,Galesti,
305404,RO,27,Mica,
305405,RO,38,Priponesti,
305406,RO,42,Cervenia,
305407,RO,36,Semlac,
305408,RO,22,Tandarei,
305409,RO,38,Cotofanesti,
305410,RO,38,Izvoru Berheciului,
305411,RO,14,Chirnogeni,
305412,RO,42,Fratesti,
305413,RO,38,Ghidigeni,
305414,RO,35,Blejesti,
305415,RO,18,Scanteiesti,
305416,RO,41,Frasinet,
305417,RO,14,Rasova,
305418,RO,35,Nanov,
305419,RO,42,Tufeni,
305420,RO,35,Galateni,
305421,RO,38,Dealu Morii,
305422,RO,29,Morunglav,
305423,RO,42,Caldararu,
305424,RO,42,Selaru,
305425,RO,42,Bolintin Deal,
305426,RO,35,Magura,
305427,RO,43,Cornetu,
305428,RO,42,Brezoaiele,
305429,RO,42,Ulmi,
305430,RO,28,Rediu,
305431,RO,39,Runcu,
305432,RO,31,Cehu Silvaniei,
305433,RO,20,Hoghiz,
305434,RO,42,Corbii Mari,
305435,RO,19,Scoarta,
305436,RO,19,Dragutesti,
305437,RO,19,Targu Carbunesti,
305438,RO,9,Ghimbav,
305439,RO,5,Copacel,
305440,RO,2,Sofronea,
305441,RO,1,Metes,
305442,RO,23,Cucuteni,
305443,RO,23,Baltati,
305444,RO,23,Podu Iloaiei,
305445,RO,23,Strunga,
305446,RO,23,Dobrovat,
305447,RO,23,Stanita,
305448,RO,23,Dumesti,
305449,RO,38,Oniceni,
305450,RO,38,Bacesti,
305451,RO,23,Sipote,
305452,RO,23,Tiganasi,
305453,RO,23,Voinesti,
305454,RO,4,Horgesti,
305455,RO,26,Farcasu,
305456,RO,5,Cetariu,
305457,RO,36,Nitchidorf,
305458,RO,36,Ortisoara,
305459,RO,33,Ucea,
305460,RO,33,Merghindeal,
305461,RO,27,Balauseri,
305462,RO,20,Atid,
305463,RO,27,Neaua,
305464,RO,16,Ocnita,
305465,RO,9,Vama Buzaului,
305466,RO,29,Curtisoara,
305467,RO,42,Barla,
305468,RO,3,Bascov,
305469,RO,14,Mihai Viteazu,
305470,RO,23,Tacuta,
305471,RO,38,Stanisesti,
305472,RO,15,Comandau,
305473,RO,13,Baia De Aries,
305474,RO,32,Doba,
305475,RO,41,Lehliu,
305476,RO,41,Fundulea,
305477,RO,11,Pogoanele,
305478,RO,38,Tulnici,
305479,RO,20,Ticusul,
305480,RO,27,Miercurea Nirajului,
305481,RO,20,Homorod,
305482,RO,32,Moftinu Mare,
305483,RO,6,Salva,
305484,RO,42,Scrioastea,
305485,RO,29,Brebeni,
305486,RO,36,Bata,
305487,RO,28,Bicaz,
305488,RO,20,Siculeni,
305489,RO,42,Doftana,
305490,RO,6,Uriu,
305491,RO,34,Patrauti,
305492,RO,28,Viisoara,
305493,RO,34,Stroiesti,
305494,RO,3,Merisani,
305495,RO,42,Crângurile De Sus,
305496,RO,42,Chiojdu,
305497,RO,29,Falcoiu,
305498,RO,42,Movilita,
305499,RO,38,Vidra,
305500,RO,1,Ohaba,
305501,RO,33,Mihaileni,
305502,RO,2,Curtici,
305503,RO,26,Pui,
305504,RO,36,Lapugiu De Jos,
305505,RO,27,Dumbraveni,
305506,RO,33,Mosna,
305507,RO,36,Topolovatu Mare,
305508,RO,41,Frumusani,
305509,RO,13,Moldovenesti,
305510,RO,20,Soars,
305511,RO,27,Iacobeni,
305512,RO,37,Mihail Kogalniceanu,
305513,RO,37,Niculitel,
305514,RO,18,Draguseni,
305515,RO,36,Sag,
305516,RO,20,Voslobeni,
305517,RO,28,Bargaoani,
305518,RO,16,Glodeni,
305519,RO,42,Racari,
305520,RO,32,Tasnad,
305521,RO,13,Taga,
305522,RO,5,Capalna,
305523,RO,36,Conop,
305524,RO,32,Ardud,
305525,RO,28,Pastraveni,
305526,RO,23,Cristesti,
305527,RO,42,Dobra,
305528,RO,42,Lunguletu,
305529,RO,35,Trivalea-mosteni,
305530,RO,41,Tamadau Mare,
305531,RO,40,Milcovul,
305532,RO,19,Bumbesti,
305533,RO,13,Margau,
305534,RO,23,Ciurea,
305535,RO,38,Negresti,
305536,RO,34,Todiresti,
305537,RO,2,Fântânele,
305538,RO,28,Zanesti,
305539,RO,18,Nanesti,
305540,RO,36,Lovrin,
305541,RO,36,Varias,
305542,RO,39,Galicea,
305543,RO,42,Mogosani,
305544,RO,34,Paltinoasa,
305545,RO,4,Ardeoani,
305546,RO,28,Margineni,
305547,RO,35,Draganesti-vlasca,
305548,RO,28,Urecheni,
305549,RO,34,Malini,
305550,RO,28,Agapia,
305551,RO,35,Plosca,
305552,RO,30,Valcanesti,
305553,RO,41,Cascioarele,
305554,RO,6,Lechinta,
305555,RO,25,Chiuiesti,
305556,RO,5,Sacueni,
305557,RO,18,Corni,
305558,RO,14,Cobadin,
305559,RO,28,Pipirig,
305560,RO,23,Focuri,
305561,RO,20,Capalnita,
305562,RO,26,Podeni,
305563,RO,20,Simonesti,
305564,RO,38,Perieni,
305565,RO,42,Cojasca,
305566,RO,13,Apahida,
305567,RO,4,Pârjol,
305568,RO,27,Faragau,
305569,RO,36,Lipova,
305570,RO,25,Cernesti,
305571,RO,19,Danesti,
305572,RO,38,Bogdanesti,
305573,RO,12,Batrana,
305574,RO,23,Scânteia,
305575,RO,36,Margina,
305576,RO,34,Valea Moldovei,
305577,RO,36,Tomesti,
305578,RO,36,Bogda,
305579,RO,26,Sarmizegetusa,
305580,RO,25,Botiza,
305581,RO,16,Vacaresti,
305582,RO,43,Chitila,
305583,RO,11,Zarnesti,
305584,RO,23,Stolniceni-prajescu,
305585,RO,26,Hurezani,
305586,RO,30,Plopu,
305587,RO,36,Biled,
305588,RO,17,Dragotesti,
305589,RO,36,Becicherecu Mic,
305590,RO,12,Prigor,
305591,RO,12,Bautar,
305592,RO,23,Poienari,
305593,RO,34,Dolhesti,
305594,RO,29,Cârlogani,
305595,RO,36,Brestovat,
305596,RO,42,Odobesti,
305597,RO,36,Pischia,
305598,RO,21,Certeju De Sus,
305599,RO,36,Costeiu,
305600,RO,36,Masloc,
305601,RO,12,Lunca Cernii De Jos,
305602,RO,36,Ohaba Lunga,
305603,RO,36,Satchinez,
305604,RO,36,Sistarovat,
305605,RO,36,Ciumeghiu,
305606,RO,36,Birchis,
305607,RO,36,Secas,
305608,RO,36,Ghizela,
305609,RO,1,Intregalde,
305610,RO,1,Blandiana,
305611,RO,32,Valea Vinului,
305612,RO,13,Iclod,
305613,RO,1,Ramet,
305614,RO,25,Poiana Blenchii,
305615,RO,31,Hida,
305616,RO,1,Galda De Jos,
305617,RO,31,Hodod,
305618,RO,31,Zalha,
305619,RO,31,Hereclean,
305620,RO,13,Ocolis,
305621,RO,31,Fildu De Jos,
305622,RO,31,Rus,
305623,RO,13,Caseiu,
305624,RO,6,Beclean,
305625,RO,32,Socond,
305626,RO,6,Budesti,
305627,RO,13,Ceanu Mare,
305628,RO,38,Plopana,
305629,RO,23,Coarnele Caprei,
305630,RO,23,Gheraesti,
305631,RO,38,Delesti,
305632,RO,34,Vama,
305633,RO,38,Buciumeni,
305634,RO,7,Vorona,
305635,RO,4,Icusesti,
305636,RO,42,Branistea,
305637,RO,23,Tibanesti,
305638,RO,42,Tatarastii De Jos,
305639,RO,42,Crevedia Mare,
305640,RO,42,Slobozia Moara,
305641,RO,35,Crevenicu,
305642,RO,20,Bunesti,
305643,RO,20,Saschiz,
305644,RO,9,Budila,
305645,RO,20,Ulies,
305646,RO,27,Suplac,
305647,RO,15,Baraolt,
305648,RO,20,Remetea,
305649,RO,9,Prejmer,
305650,RO,27,Biertan,
305651,RO,33,Copsa Mica,
305652,RO,33,Seica Mare,
305653,RO,20,Rupea,
305654,RO,20,Martinis,
305655,RO,15,Belin,
305656,RO,27,Gornesti,
305657,RO,27,Vetca,
305658,RO,33,Bruiu,
305659,RO,20,Apold,
305660,RO,15,Feldioara,
305661,RO,27,Bagaciu,
305662,RO,9,Recea,
305663,RO,15,Maierus,
305664,RO,27,Sangeorgiu-de-padure,
305665,RO,9,Sercaia,
305666,RO,9,Lisa,
305667,RO,27,Zagar,
305668,RO,27,Solovastru,
305669,RO,20,Zetea,
305670,RO,20,Jibert,
305671,RO,27,Vargata,
305672,RO,33,Agnita,
305673,RO,42,Adâncata,
305674,RO,31,Salatig,
305675,RO,27,Valea Larga,
305676,RO,13,Vultureni,
305677,RO,14,Vulturu,
305678,RO,4,Comanesti,
305679,RO,25,Rona De Sus,
305680,RO,25,Desesti,
305681,RO,13,Baisoara,
305682,RO,1,Lopadea Noua,
305683,RO,34,Bunesti,
305684,RO,20,Lueta,
305685,RO,42,Reviga,
305686,RO,30,Bucov,
305687,RO,41,Barcanesti,
305688,RO,42,Bolintinu-din-vale,
305689,RO,38,Podu Turcului,
305690,RO,40,Movileni,
305691,RO,18,Târgu Bujor,
305692,RO,38,Albesti,
305693,RO,23,Schitu-duca,
305694,RO,38,Danesti,
305695,RO,35,Botoroaga,
305696,RO,38,Bacani,
305697,RO,3,Budeasa,
305698,RO,34,Satu Mare,
305699,RO,23,Helesteni Harmaneasa,
305700,RO,41,Nicolae Balcescu,
305701,RO,23,Siretel,
305702,RO,23,Gropnita,
305703,RO,4,Secuieni,
305704,RO,23,Madarjac,
305705,RO,42,Manesti,
305706,RO,23,Miroslovesti,
305707,RO,35,Rasmiresti,
305708,RO,38,Huruesti,
305709,RO,38,Pufesti,
305710,RO,42,Stefan Cel Mare,
305711,RO,38,Urechesti,
305712,RO,38,Corbasca,
305713,RO,23,Scobinti,
305714,RO,1,Cricau,
305715,RO,14,Agigea,
305716,RO,36,Cheveresu Mare,
305717,RO,41,Budesti,
305718,RO,40,Ciorasti,
305719,RO,37,Babadag,
305720,RO,38,Homocea,
305721,RO,40,Cotesti,
305722,RO,42,Puchenii Mari,
305723,RO,42,Buturugeni,
305724,RO,25,Miresu Mare,
305725,RO,8,Bordei Verde,
305726,RO,8,Silistea,
305727,RO,26,Baia De Arama,
305728,RO,13,Panticeu,
305729,RO,27,Papiu Ilarian,
305730,RO,42,Sirna,
305731,RO,35,Poroschia,
305732,RO,35,Izvoarele,
305733,RO,42,Vanatorii Mici,
305734,RO,42,Brazii,
305735,RO,25,Boiu Mare,
305736,RO,7,Dorohoi,
305737,RO,7,Corlateni,
305738,RO,8,Sutesti,
305739,RO,26,Banita,
305740,RO,25,Sapanta,
305741,RO,36,Sintea Mare,
305742,RO,36,Bara,
305743,RO,38,Bozieni,
305744,RO,23,Tansa,
305745,RO,38,Stefan Cel Mare,
305746,RO,33,Cisnadie,
305747,RO,23,Dolhesti,
305748,RO,26,Petrila,
305749,RO,38,Gohor,
305750,RO,34,Partestii De Jos,
305751,RO,13,Cornesti,
305752,RO,4,Bahna,
305753,RO,42,Nuci,
305754,RO,36,Giarmata,
305755,RO,35,Buzescu,
305756,RO,1,Livezile,
305757,RO,31,Benesat,
305758,RO,13,Gilau,
305759,RO,27,Craciunesti,
305760,RO,42,Singureni,
305761,RO,12,Copacele,
305762,RO,35,Mosteni,
305763,RO,18,Namoloasa,
305764,RO,40,Vartescoiu,
305765,RO,42,Dragodana,
305766,RO,42,Matasaru,
305767,RO,4,Filipeni,
305768,RO,16,Candesti,
305769,RO,26,Cioroiasiu,
305770,RO,31,Treznea,
305771,RO,38,Lipovat,
305772,RO,38,Bogdanita,
305773,RO,34,Gura Humorului,
305774,RO,13,Feleacu,
305775,RO,20,Praid,
305776,RO,12,Berliste,
305777,RO,6,Fundu Moldovei,
305778,RO,26,Negomiru,
305779,RO,41,Lehliu-gara,
305780,RO,41,Gurbanesti,
305781,RO,18,Schela,
305782,RO,13,Belis,
305783,RO,9,Secaria,
305784,RO,23,Romanesti,
305785,RO,6,Sânmihaiu De Câmpie,
305786,RO,42,Fundatura,
305787,RO,41,Culea,
305788,RO,42,Draganesti,
305789,RO,23,Letcani,
305790,RO,42,Carbunesti,
305791,RO,31,Sanmihaiul-almasului,
305792,RO,27,Camarasu,
305793,RO,23,Ceplenita,
305794,RO,23,Barnova,
305795,RO,5,Rontau,
305796,RO,32,Pir,
305797,RO,5,Abram,
305798,RO,5,Spinus,
305799,RO,5,Abramut,
305800,RO,5,Brusturi,
305801,RO,31,Bicaz,
305802,RO,4,Sanduleni,
305803,RO,3,Leordeni,
305804,RO,5,Sacadat,
305805,RO,37,Murighiol,
305806,RO,38,Oncesti,
305807,RO,42,Finta,
305808,RO,13,Lunca Muresului,
305809,RO,14,Pantelimon,
305810,RO,42,Valea Mare-pravat,
305811,RO,15,Lemnia,
305812,RO,13,Vad,
305813,RO,38,Osesti,
305814,RO,40,Poiana Cristei,
305815,RO,42,Tatarastii De Sus,
305816,RO,27,Craiesti,
305817,RO,26,Crusetu,
305818,RO,42,Ciocile,
305819,RO,18,Smulti,
305820,RO,14,Poarta Alba,
305821,RO,5,Tulca,
305822,RO,3,Poiana Lacului,
305823,RO,32,Livada,
305824,RO,34,Milisauti,
305825,RO,1,Romos,
305826,RO,8,Luncavita,
305827,RO,14,Pestera,
305828,RO,33,Cenade,
305829,RO,23,Sagna,
305830,RO,18,Costache Negri,
305831,RO,42,Iepuresti,
305832,RO,42,Costestii Din Vale,
305833,RO,33,Sadu,
305834,RO,38,Pungesti,
305835,RO,31,Bulz,
305836,RO,1,Mogos,
305837,RO,13,Ciurila,
305838,RO,40,Straoane,
305839,RO,38,Valea Marului,
305840,RO,14,Istria,
305841,RO,42,Ogrezeni,
305842,RO,12,Ramna,
305843,RO,36,Boldur,
305844,RO,3,Uda,
305845,RO,3,Bogati,
305846,RO,42,Schitu,
305847,RO,27,Bahnea,
305848,RO,38,Pogana,
305849,RO,39,Boisoara,
305850,RO,33,Talmaciu,
305851,RO,42,Patarlagele,
305852,RO,38,Costesti,
305853,RO,38,Colonesti,
305854,RO,23,Popesti,
305855,RO,23,Tibana,
305856,RO,23,Oteleni,
305857,RO,35,Tiganesti,
305858,RO,26,Aninoasa,
305859,RO,17,Pielesti,
305860,RO,26,Amarasti,
305861,RO,39,Olanu,
305862,RO,39,Calimanesti,
305863,RO,42,Mirosi,
305864,RO,26,Gusoeni,
305865,RO,14,Ceamurlia De Jos,
305866,RO,2,Ghioroc,
305867,RO,28,Faurei,
305868,RO,20,Varghis,
305869,RO,42,Gruiu,
305870,RO,38,Fitionesti,
305871,RO,16,Buciumeni,
305872,RO,43,Petrachioaia,
305873,RO,16,Manesti,
305874,RO,34,Cacica,
305875,RO,28,Raucesti,
305876,RO,15,Plaiesii-de-jos,
305877,RO,32,Baita De Sub Codru,
305878,RO,40,Barcea,
305879,RO,28,Vanatori-neamt,
305880,RO,27,Voivodeni,
305881,RO,17,Vulpeni,
305882,RO,12,Cristioru De Jos,
305883,RO,36,Remetea Mare,
305884,RO,5,Dobresti,
305885,RO,23,Sinesti,
305886,RO,23,Dagata,
305887,RO,36,Paulis,
305888,RO,36,Giroc,
305889,RO,32,Terebesti,
305890,RO,16,Ludesti,
305891,RO,30,Magurele,
305892,RO,36,Batar,
305893,RO,14,Crucea,
305894,RO,2,Mâsca,
305895,RO,21,Martinesti,
305896,RO,36,Plescuta,
305897,RO,36,Târnova,
305898,RO,36,Secusigiu,
305899,RO,36,Chisindia,
305900,RO,36,Liebling,
305901,RO,36,Beliu,
305902,RO,36,Belint,
305903,RO,36,Bârna,
305904,RO,36,Vinga,
305905,RO,36,Sebis,
305906,RO,2,Simand,
305907,RO,1,Salistea,
305908,RO,13,Catcau,
305909,RO,31,Samsud,
305910,RO,13,Garbau,
305911,RO,13,Maguri-racatau,
305912,RO,25,Poienile Izei,
305913,RO,1,Stremt,
305914,RO,31,Basesti,
305915,RO,34,Forasti,
305916,RO,38,Dulcesti,
305917,RO,28,Grumazesti,
305918,RO,23,Butea,
305919,RO,23,Prajeni,
305920,RO,34,Cajvana,
305921,RO,38,Valea Ursului,
305922,RO,28,Timisesti,
305923,RO,42,Uliesti,
305924,RO,28,Savinesti,
305925,RO,23,Tamaseni,
305926,RO,20,Ungra,
305927,RO,27,Gurghiu,
305928,RO,20,Ocland,
305929,RO,20,Cata,
305930,RO,9,Beclean,
305931,RO,27,Iclanzel,
305932,RO,20,Cincu,
305933,RO,8,Tudor Vladimirescu,
305934,RO,31,Buciumi,
305935,RO,31,Carastelec,
305936,RO,27,Sanpaul,
305937,RO,13,Sanmartin,
305938,RO,23,Mircesti,
305939,RO,20,Danesti,
305940,RO,15,Baile Tusnad,
305941,RO,42,Varbilau,
305942,RO,42,Rociu,
305943,RO,14,Sacele,
305944,RO,7,Vladeni,
305945,RO,27,Coroisânmartin,
305946,RO,27,Nades,
305947,RO,1,Hoparta,
305948,RO,1,Radesti,
305949,RO,42,Vidra,
305950,RO,11,Beceni,
305951,RO,40,Balesti,
305952,RO,8,Salcia Tudor,
305953,RO,42,Ciocârlia,
305954,RO,27,Adamus,
305955,RO,42,Schitu-golesti,
305956,RO,38,Gârceni,
305957,RO,43,Tunari,
305958,RO,33,Saliste,
305959,RO,36,Manastiur,
305960,RO,4,Helegiu,
305961,RO,4,Hemeius,
305962,RO,13,Manastireni,
305963,RO,31,Creaca,
305964,RO,41,Chiselet,
305965,RO,14,Castelu,
305966,RO,40,Bordesti,
305967,RO,1,Rosia De Secas,
305968,RO,36,Seitin,
305969,RO,1,Mihalt,
305970,RO,20,Mugeni,
305971,RO,42,Gaiseni,
305972,RO,20,Varsag,
305973,RO,26,Valea Mare,
305974,RO,13,Calarasi,
305975,RO,33,Apoldu De Jos,
305976,RO,38,Botesti,
305977,RO,20,Bradut,
305978,RO,42,Provita De Jos,
305979,RO,32,Mediesu Aurit,
305980,RO,41,Dor Marunt,
305981,RO,42,Adunati,
305982,RO,42,Ion Roata,
305983,RO,41,Axintele,
305984,RO,23,Erbiceni,
305985,RO,42,Cislau,
305986,RO,27,Sânpetru-de-câmpie,
305987,RO,13,Frata,
305988,RO,41,Lupsanu,
305989,RO,11,Vâlcelele,
305990,RO,6,Ciceu-giurgesti,
305991,RO,23,Victoria,
305992,RO,23,Braesti,
305993,RO,23,Hlipiceni,
305994,RO,5,Sinteu,
305995,RO,12,Armenis,
305996,RO,42,Produlesti,
305997,RO,13,Chinteni,
305998,RO,34,Stulpicani,
305999,RO,12,Târnova,
306000,RO,37,Isaccea,
306001,RO,3,Priboieni,
306002,RO,42,Gura Foii,
306003,RO,27,Porumbeni,
306004,RO,16,Izvoarele,
306005,RO,42,Poiana,
306006,RO,36,Brazii,
306007,RO,42,Mozaceni,
306008,RO,12,Obreja,
306009,RO,18,Grindu,
306010,RO,25,Targu-lapus,
306011,RO,5,Ciuhoiu,
306012,RO,11,Robeasca,
306013,RO,38,Borodesti,
306014,RO,26,Turburea,
306015,RO,36,Dumbravita,
306016,RO,26,Stoina,
306017,RO,25,Pomi,
306018,RO,3,Micesti,
306019,RO,16,Comisani,
306020,RO,21,Orastioara De Sus,
306021,RO,33,Carta,
306022,RO,32,Homorod-de Jos,
306023,RO,18,Fundeni,
306024,RO,27,Chetani,
306025,RO,42,Stoenesti,
306026,RO,42,Sotrile,
306027,RO,21,Soimus,
306028,RO,13,Aghiresu,
306029,RO,36,Zerind,
306030,RO,14,Douazeci Si Trei August,
306031,RO,36,Jebel,
306032,RO,38,Rachitoasa,
306033,RO,4,Targu-trotus,
306034,RO,38,Caiuti,
306035,RO,42,Rasuceni,
306036,RO,3,Vladesti,
306037,RO,42,Putineiu,
306038,RO,33,Ludos,
306039,RO,41,Belciugatele,
306040,RO,4,Faraoaní,
306041,RO,18,Vârlezi,
306042,RO,38,Brahasesti,
306043,RO,42,Necsesti,
306044,RO,42,Gratia,
306045,RO,3,Calinesti,
306046,RO,42,Saceni,
306047,RO,33,Tilisca,
306048,RO,26,Bustuchin,
306049,RO,9,Pârâu,
306050,RO,38,Padureni,
306051,RO,7,Copalau,
306052,RO,41,Nana,
306053,RO,42,Pucheni,
306054,RO,12,Lapusnicel,
306055,RO,26,Susani,
306056,RO,12,Vermes,
306057,RO,5,Sambata,
306058,RO,1,Sugag,
306059,RO,26,Galicea Mare,
306060,RO,20,Carta,
306061,RO,36,Hitias,
306062,RO,36,Petris,
306063,RO,36,Savarsin,
306064,RO,12,Bucosnita,
306065,RO,36,Olcea,
306066,RO,36,Dumbrava,
306067,RO,37,Frecatei,
306068,RO,30,Dumbravesti,
306069,RO,5,Vârciorog,
306070,RO,36,Cermei,
306071,RO,2,Siria,
306072,RO,36,Zabrani,
306073,RO,36,Traian Vuia,
306074,RO,13,Fizesu Gherlii,
306075,RO,31,Napradea,
306076,RO,31,Galgau,
306077,RO,1,Ponor,
306078,RO,13,Valea Ierii,
306079,RO,25,Sisesti,
306080,RO,28,Gârcina,
306081,RO,28,Tibucani,
306082,RO,34,Rasca,
306083,RO,7,Flamanzi,
306084,RO,4,Solont,
306085,RO,4,Balcani,
306086,RO,34,Boroaia,
306087,RO,15,Intorsura Buzaului,
306088,RO,20,Dârjiu,
306089,RO,27,Ernei,
306090,RO,9,Voila,
306091,RO,15,Vâlcele,
306092,RO,42,Zavoaia,
306093,RO,20,Subcetate,
306094,RO,1,Ciugud,
306095,RO,26,Salasu De Sus,
306096,RO,1,Sâncel,
306097,RO,20,Vanatori,
306098,RO,42,Teisani,
306099,RO,42,Hulubesti,
306100,RO,20,Borsec,
306101,RO,6,Telciu,
306102,RO,23,Horlesti,
306103,RO,42,Floresti,
306104,RO,39,Baile Olanesti,
306105,RO,42,Gura Sutii,
306106,RO,12,Ocna De Fier,
306107,RO,22,Albesti,
306108,RO,27,Cetatea De Balta,
306109,RO,42,Comarnic,
306110,RO,13,Cojocna,
306111,RO,38,Dumesti,
306112,RO,25,Copalnic Manastur,
306113,RO,4,Gârleni,
306114,RO,26,Polovragi,
306115,RO,33,Vurpar,
306116,RO,16,Barbuletu,
306117,RO,25,Viseu De Sus,
306118,RO,25,Budesti,
306119,RO,42,Botesti,
306120,RO,42,Hartiesti,
306121,RO,23,Mogosesti,
306122,RO,4,Racaciuni,
306123,RO,18,Tudor Vladimirescu,
306124,RO,33,Micasasa,
306125,RO,27,Jidvei,
306126,RO,35,Vedea,
306127,RO,35,Calinesti,
306128,RO,13,Palatca,
306129,RO,21,Turdas,
306130,RO,8,Gemenele,
306131,RO,14,Corbu,
306132,RO,9,Vîlcea,
306133,RO,2,Deva,
306134,RO,2,Pâncota,
306135,RO,10,Floreasca,
306136,RO,1,Centru,
306137,RO,5,Rieni,
306138,RO,2,Cugir,
306139,RO,2,Avram Iancu,
306140,RO,5,Huedin,
306141,RO,2,Bejan,
306142,RO,1,Ocna Mures,
306143,RO,5,Stei,
306144,RO,41,Valea Rosie,
306145,RO,1,Bistra,
306146,RO,5,Dâncu,
306147,RO,5,Irina,
306148,RO,5,Beius,
306149,RO,2,Salonta,
306150,RO,5,Ratiu,
306151,RO,5,Rugea,
306152,RO,2,Chisineu Cris,
306153,RO,5,Negru,
306154,RO,5,Izvoru Crisului,
306155,RO,2,Orastie,
306156,RO,2,Faget,
306157,RO,2,Brad,
306158,RO,41,Glina,
306159,RO,19,Tîrgu Jiu,
306160,RO,5,Lugasu De Jos,
306161,RO,36,Cenei,
306162,RO,15,Zabala,
306163,RO,26,Livezi,
306164,RO,26,Dubova,
306165,RO,34,Fratautii Noi,
306166,RO,27,Viisoara,
306167,RO,38,Balabanesti,
306168,RO,36,Voiteg,
306169,RO,26,Carpen,
306170,RO,25,Recea,
306171,RO,2,Pietroasa,
306172,RO,35,Cosmesti,
306173,RO,15,Sfîntu Gheorghe,
306174,RO,33,Ucea De Sus,
306175,RO,30,Valenii De Munte,
306176,RO,5,Derna,
306177,RO,2,Beriu,
306178,RO,42,Drajna,
306179,RO,27,Chinari,
306180,RO,27,Sânger,
306181,RO,2,Salasu De Sus,
306182,RO,26,Grecesti,
306183,RO,11,Podgoria,
306184,RO,5,Bulz,
306185,RO,38,Racoasa,
306186,RO,12,Belobresca,
306187,RO,42,Darmanesti,
306188,RO,30,Baltesti,
306189,RO,36,Teremia Mare,
306190,RO,28,Baltatesti,
306191,RO,42,Salcioara,
306192,RO,15,Ghelinta,
306193,RO,15,Kèzdivásàrhely,
306194,RO,34,Zvoristea,
306195,RO,39,Brezoi,
306196,RO,19,Farcasesti,
306197,RO,9,Zarnesti,
306198,RO,39,Muereasca,
306199,RO,42,Caldarasti,
306200,RO,28,Faurei,
306201,RO,15,Haghig,
306202,RO,15,Ilieni,
306203,RO,6,Tarlisua,
306204,RO,25,Ocna Sugatag,
306205,RO,25,Cupseni,
306206,RO,3,Cocu,
306207,RO,5,Tasnad,
306208,RO,2,Brazii,
306209,RO,42,Suhaia,
306210,RO,36,Sânnicolaul Mare,
306211,RO,39,Runcu,
306212,RO,4,Zemes,
306213,RO,4,Filipesti,
306214,RO,28,Dumbrava Rosie,
306215,RO,2,Sebis,
306216,RO,2,Bâra,
306217,RO,2,Curtea,
306218,RO,5,Olcea,
306219,RO,5,Ineu,
306220,RO,21,Cârjiti,
306221,RO,21,Ilia,
306222,RO,2,Bocsig,
306223,RO,2,Santana,
306224,RO,2,Ineu,
306225,RO,2,Ponor,
306226,RO,5,Zimbor,
306227,RO,1,Livezile,
306228,RO,30,Floresti,
306229,RO,1,Câmpeni,
306230,RO,16,Tatarani,
306231,RO,38,Bogdana,
306232,RO,4,Moldoveni,
306233,RO,4,Parincea,
306234,RO,7,Darabani,
306235,RO,42,Roata De Jos,
306236,RO,9,Lisa,
306237,RO,9,Tarlungeni,
306238,RO,15,Ormenis,
306239,RO,31,Deja,
306240,RO,20,Sândominic,
306241,RO,42,Aninoasa,
306242,RO,41,Sarulesti,
306243,RO,40,Urechesti,
306244,RO,25,Suciu De Sus,
306245,RO,35,Storobaneasa,
306246,RO,42,Gostinu,
306247,RO,38,Falciu,
306248,RO,42,Prundu,
306249,RO,27,Bazna,
306250,RO,40,Liesti,
306251,RO,26,Petros,
306252,RO,25,Budesti,
306253,RO,2,Lipova,
306254,RO,36,Periam,
306255,RO,15,Sanmartin,
306256,RO,26,Bailesti,
306257,RO,5,Aghiresu,
306258,RO,40,Vintileasca,
306259,RO,23,Tomesti,
306260,RO,42,Mircea Voda,
306261,RO,9,Bod,
306262,RO,26,Gradistea,
306263,RO,21,Calan,
306264,RO,33,Arpasu De Jos,
306265,RO,2,Conop,
306266,RO,30,Filipestii De Targ,
306267,RO,28,Poiana Teiului,
306268,RO,26,Dabuleni,
306269,RO,39,Ocnele Mari,
306270,RO,41,Ganeasa,
306271,RO,12,Ezeris,
306272,RO,26,Pades,
306273,RO,9,Azuga,
306274,RO,2,Cermei,
306275,RO,36,Moravita,
306276,RO,2,Intregalde,
306277,RO,38,Voinesti,
306278,RO,38,Bâlteni,
306279,RO,34,Dolhasca,
306280,RO,9,Recea,
306281,RO,4,Brusturoasa,
306282,RO,1,Sasciori,
306283,RO,34,Bogdanesti,
306284,RO,42,Poeni,
306285,RO,5,Sacuieu,
306286,RO,38,Ivesti,
306287,RO,23,Deleni,
306288,RO,42,Traian,
306289,RO,19,Tismana,
306290,RO,30,Pacureti,
306291,RO,42,Silistea Gumesti,
306292,RO,30,Boldesti-scaeni,
306293,RO,8,Gradistea,
306294,RO,42,Dobrotesti,
306295,RO,26,Sinesti,
306296,RO,26,Strehaia,
306297,RO,29,Brâncoveni,
306298,RO,42,Cerasu,
306299,RO,36,Balint,
306300,RO,14,Eforie Sud,
306301,RO,13,Jichisu De Jos,
306302,RO,40,Odobesti,
306303,RO,11,Sapoca,
306304,RO,40,Balesti,
306305,RO,11,Jirlau,
306306,RO,13,Sanmartin,
306307,RO,42,Buzoesti,
306308,RO,34,Ostra,
306309,RO,20,Ciucsângeorgiu,
306310,RO,16,Visinesti,
306311,RO,28,Tulghes,
306312,RO,2,Branisca,
306313,RO,37,Somova,
306314,RO,25,Satulung,
306315,RO,27,Ceuasul-de Campie,
306316,RO,17,Murgasi,
306317,RO,26,Vaideeni,
306318,RO,33,Selimbar,
306319,RO,29,Voineasa,
306320,RO,20,Drauseni,
306321,RO,16,Bezdead,
306322,RO,36,Banloc,
306323,RO,11,Cochirleanca,
306324,RO,39,Ciofrângeni,
306325,RO,42,Visina,
306326,RO,26,Prunisor,
306327,RO,23,Belcesti,
306328,RO,30,Albesti-paleologu,
306329,RO,6,Teaca,
306330,RO,6,Sangeorz-bai,
306331,RO,19,Danesti,
306332,RO,34,Slatina,
306333,RO,2,Graniceri,
306334,RO,12,Anina,
306335,RO,13,Alunis,
306336,RO,25,Vima Mica,
306337,RO,1,Abrud,
306338,RO,6,Rebra,
306339,RO,2,Criscior,
306340,RO,7,Bucecea,
306341,RO,27,Ibanesti,
306342,RO,20,Sacel,
306343,RO,19,Balanesti,
306344,RO,6,Caianu Mic,
306345,RO,34,Vicovu De Jos,
306346,RO,38,Codaesti,
306347,RO,31,Cheud,
306348,RO,17,Isalnita,
306349,RO,28,Petricani,
306350,RO,14,Lumina,
306351,RO,27,Livezeni,
306352,RO,12,Cornereva,
306353,RO,23,Sabaoani,
306354,RO,28,Tarcau,
306355,RO,30,Bratasanca,
306356,RO,34,Straja,
306357,RO,38,Nicopole,
306358,RO,43,Clinceni,
306359,RO,32,Tiream,
306360,RO,15,Sita Buzaului,
306361,RO,23,Motca,
306362,RO,2,Baita,
306363,RO,42,Oinacu,
306364,RO,22,Harsova,
306365,RO,34,Volovat,
306366,RO,3,Topana,
306367,RO,6,Nuseni,
306368,RO,25,Salistea De Sus,
306369,RO,13,Caianu,
306370,RO,13,Cuzdrioara,
306371,RO,25,Ruscova,
306372,RO,11,Maracineni,
306373,RO,20,Bodogaia,
306374,RO,34,Bosanci,
306375,RO,34,Vicovu De Sus,
306376,RO,4,Darmanesti,
306377,RO,26,Jiana,
306378,RO,29,Plesoiu,
306379,RO,39,Stoenesti,
306380,RO,28,Oglinzi,
306381,RO,28,Piatra Soimului,
306382,RO,27,Galautas,
306383,RO,20,Sancraieni,
306384,RO,42,Provita De Sus,
306385,RO,6,Unguras,
306386,RO,8,Tepes Voda,
306387,RO,26,Salcia,
306388,RO,39,Cernisoara,
306389,RO,20,Corund,
306390,RO,38,Vadu,
306391,RO,5,Baile Felix,
306392,RO,42,Sfîntu Gheorghe,
306393,RO,11,Ghergheasa,
306394,RO,5,Husasau De Tinca,
306395,RO,40,Slobozia Bradului,
306396,RO,39,Barbatesti,
306397,RO,23,Miroslava,
306398,RO,26,Orlesti,
306399,RO,26,Novaci,
306400,RO,29,Stoenesti,
306401,RO,36,Beregsau Mare,
306402,RO,36,Cenad,
306403,RO,27,Magherani,
306404,RO,42,Poiana-câmpina,
306405,RO,15,Ghidfalau,
306406,RO,7,Rachiti,
306407,RO,8,Jijila,
306408,RO,20,Taureni,
306409,RO,34,Capu Codrului,
306410,RO,26,Vladila,
306411,RO,11,Berca,
306412,RO,27,Fântânele,
306413,RO,41,Mitreni,
306414,RO,13,Suatu,
306415,RO,42,Maldaeni,
306416,RO,2,Bautar,
306417,RO,39,Bujoreni,
306418,RO,5,Margau,
306419,RO,36,Carpinis,
306420,RO,36,Beba,
306421,RO,29,Susani,
306422,RO,39,Mihaesti,
306423,RO,41,Cernica,
306424,RO,26,Plopsoru,
306425,RO,36,Comlosu Mare,
306426,RO,36,Sânmihaiul-german,
306427,RO,31,Nusfalau,
306428,RO,2,Ohaba Lunga,
306429,RO,5,Valea Lui Mihai,
306430,RO,12,Greoni,
306431,RO,2,Macea,
306432,RO,32,Odoreu,
306433,RO,12,Racasdia,
306434,RO,42,Calmatuiu,
306435,RO,29,Parscoveni,
306436,RO,15,Zagon,
306437,RO,13,Iara,
306438,RO,20,Pauleni-ciuc,
306439,RO,11,Margaritesti,
306440,RO,8,Viziru,
306441,RO,16,Razvad,
306442,RO,33,Sura Mare,
306443,RO,26,Maglavit,
306444,RO,31,Bocsa,
306445,RO,31,Maeriste,
306446,RO,2,Felnac,
306447,RO,36,Ciacova,
306448,RO,11,Cozieni,
306449,RO,5,Paleu,
306450,RO,27,Sanisor,
306451,RO,20,Lunca De Jos,
306452,RO,28,Brosteni,
306453,RO,36,Ivanda,
306454,RO,26,Devesel,
306455,RO,23,Todiresti,
306456,RO,42,Scurtu Mare,
306457,RO,34,Veresti,
306458,RO,27,Santana-de-mures,
306459,RO,25,Libotin,
306460,RO,34,Solca,
306461,RO,34,Salcea,
306462,RO,3,Spineni,
306463,RO,6,Poienile Zagrei,
306464,RO,41,Ostrov,
306465,RO,34,Pojorâta,
306466,RO,12,Bozovici,
306467,RO,36,Peciu Nou,
306468,RO,2,Sicula,
306469,RO,27,Ganesti,
306470,RO,7,Concesti,
306471,RO,36,Manastur,
306472,RO,27,Chibed,
306473,RO,25,Coltau,
306474,RO,25,Satu Nou De Jos,
306475,RO,23,Bunesti,
306476,RO,2,Sintea Mare,
306477,RO,2,Tipar,
306478,RO,23,Gadinti,
306479,RO,2,Zlatna,
306480,RO,16,Gheboieni,
306481,RO,30,Tomsani,
306482,RO,43,Dragomiresti-vale,
306483,RO,43,Stefanestii De Jos,
306484,RO,26,Corlatel,
306485,RO,17,Segarcea,
306486,RO,26,Balcesti,
306487,RO,14,Cumpana,
306488,RO,27,Sangeorg-de Mures,
306489,RO,11,Rîmnicelu,
306490,RO,26,Bâlteni,
306491,RO,5,Ip,
306492,RO,34,Fântânele,
306493,RO,1,Jina,
306494,RO,15,Sânsimion,
306495,RO,11,Blajani,
306496,RO,34,Sucevita,
306497,RO,40,Garoafa,
306498,RO,41,Jegalia,
306499,RO,33,Cristian,
306500,RO,18,Posada,
306501,RO,40,Golesti,
306502,RO,38,Herastrau,
306503,RO,35,Calomfiresti,
306504,RO,14,Orzari,
306505,RO,38,Valea Grecului,
306506,RO,19,Sacelu,
306507,RO,36,Nadlac,
306508,RO,5,Topa De Cris,
306509,RO,15,Tîrgu Secuiesc,
306510,RO,15,Lunga,
306511,RO,3,Stâlpeni,
306512,RO,26,Ladesti,
306513,RO,3,Bradu,
306514,RO,5,Tarcaia,
306515,RO,6,Rodna,
306516,RO,42,Ditesti,
306517,RO,20,Sarmas,
306518,RO,5,Vascau,
306519,RO,2,Buteni,
306520,RO,32,Vetis,
306521,RO,39,Babeni,
306522,RO,15,Sepsiszentgyorgy,
306523,RO,42,Comana,
306524,RO,38,Stanilesti,
306525,RO,40,Vanatori,
306526,RO,34,Burdujeni,
306527,RO,38,Ruginesti,
306528,RO,42,Cazanesti,
306529,RO,7,Hudesti,
306530,RO,2,Tebea,
306531,RO,28,Bistricioara,
306532,RO,27,Moisa,
306533,RO,13,Sandulesti,
306534,RO,42,Filipescu,
306535,RO,23,Tîrgu Frumos,
306536,RO,7,Curtesti,
306537,RO,5,Suplacu De Barcau,
306538,RO,5,Cordau,
306539,RO,20,Leliceni,
306540,RO,1,Gârbova,
306541,RO,20,Szekelyszentmihaly,
306542,RO,23,Trifesti,
306543,RO,23,Valea Lupului,
306544,RO,17,Ghindeni,
306545,RO,19,Musetesti,
306546,RO,5,Vadu Crisului,
306547,RO,36,Iecea Mica,
306548,RO,41,Roseti,
306549,RO,27,Band,
306550,RO,15,Tinoasa,
306551,RO,3,Titesti,
306552,RO,1,Daia-romana,
306553,RO,41,Chirnogi,
306554,RO,1,Oarda De Jos,
306555,RO,42,Mihailesti,
306556,RO,2,Gurba,
306557,RO,36,Tipari,
306558,RO,2,Savarsin,
306559,RO,25,Certeze,
306560,RO,1,Ghirbom,
306561,RO,1,Sibot,
306562,RO,14,Valu Lui Traian,
306563,RO,42,Godeni,
306564,RO,31,Tihau,
306565,RO,6,Josenii-bargaului,
306566,RO,27,Cuci,
306567,RO,26,Samarinesti,
306568,RO,38,Cotoroaia,
306569,RO,42,Izbiceni,
306570,RO,42,Pietrosita,
306571,RO,9,Harman,
306572,RO,15,Teliu,
306573,RO,42,Balaciu,
306574,RO,31,Sarmasag,
306575,RO,42,Sahateni,
306576,RO,40,Gugesti,
306577,RO,42,Panatau,
306578,RO,42,Glavacioc,
306579,RO,19,Balesti,
306580,RO,23,Adjudeni,
306581,RO,5,Sanislau,
306582,RO,27,Lunca Bradului,
306583,RO,42,Ceptura De Jos,
306584,RO,34,Vadu Moldovei,
306585,RO,34,Siminicea,
306586,RO,30,Podenii Noi,
306587,RO,7,Avrameni,
306588,RO,25,Pribilesti,
306589,RO,25,Viseu De Jos,
306590,RO,42,Slanic,
306591,RO,38,Matca,
306592,RO,5,Suncuius,
306593,RO,35,Brânceni,
306594,RO,5,Ciucea,
306595,RO,9,Sinca Veche,
306596,RO,36,Dudestii Vechi,
306597,RO,26,Baia De Fier,
306598,RO,2,Sambateni,
306599,RO,25,Leordina,
306600,RO,37,Izvoarele,
306601,RO,3,Maracineni,
306602,RO,41,Modelu,
306603,RO,16,Doicesti,
306604,RO,42,Cocora,
306605,RO,26,Plenita,
306606,RO,15,Ozun,
306607,RO,6,Baile Borsa,
306608,RO,11,Posta Calnau,
306609,RO,1,Miercurea Sibiului,
306610,RO,2,Geoagiu,
306611,RO,42,Starchiojd,
306612,RO,14,Tortoman,
306613,RO,42,Cilieni,
306614,RO,5,Belejeni,
306615,RO,11,Costesti,
306616,RO,5,Buntesti,
306617,RO,36,Chisoda,
306618,RO,4,Letea Veche,
306619,RO,2,Baia De Aries,
306620,RO,2,Dezna,
306621,RO,25,Ilba,
306622,RO,2,Marga,
306623,RO,5,Ioanis,
306624,RO,1,Pianu De Jos,
306625,RO,5,Urvind,
306626,RO,9,Sînpetru,
306627,RO,36,Fratelia,
306628,RO,12,Domasnea,
306629,RO,35,Furculesti,
306630,RO,5,Sâncraiu,
306631,RO,6,Feldru,
306632,RO,7,Saveni,
306633,RO,26,Goicea,
306634,RO,10,Tancabesti,
306635,RO,15,Reci,
306636,RO,32,Micula,
306637,RO,34,Putna,
306638,RO,2,Pilu,
306639,RO,42,Pamânteni,
306640,RO,27,Bogata,
306641,RO,35,Târnava,
306642,RO,42,Mlajet,
306643,RO,42,Colti,
306644,RO,23,Banu,
306645,RO,25,Petrova,
306646,RO,5,Budureasa,
306647,RO,17,Desa,
306648,RO,19,Runcu,
306649,RO,6,Mariselu,
306650,RO,12,Toplet,
306651,RO,5,Tarcea,
306652,RO,12,Susca,
306653,RO,21,Cristur,
306654,RO,34,Botosana,
306655,RO,40,Jaristea,
306656,RO,4,Dofteana,
306657,RO,20,Lazarea,
306658,RO,39,Baile Govora,
306659,RO,16,Gulia,
306660,RO,12,Iablanita,
306661,RO,22,Grivita,
306662,RO,25,Somcuta Mare,
306663,RO,34,Negostina,
306664,RO,42,Gherghita,
306665,RO,38,Rosiesti,
306666,RO,39,Budesti,
306667,RO,30,Paulesti,
306668,RO,15,Sfântu-gheorghe,
306669,RO,2,Sânmartin,
306670,RO,42,Sfântu Gheorghe,
306671,RO,2,Tulca,
306672,RO,5,Pietroasa,
306673,RO,36,Padureni,
306674,RO,17,Horezu,
306675,RO,25,Dumbravita,
306676,RO,2,Sepreus,
306677,RO,4,Asau,
306678,RO,39,Corbi,
306679,RO,5,Camar,
306680,RO,7,Cordareni,
306681,RO,36,Maureni,
306682,RO,2,Vetel,
306683,RO,6,Monor,
306684,RO,13,Floresti,
306685,RO,2,Livada,
306686,RO,5,Câmpani,
306687,RO,15,Valea Crisului,
306688,RO,34,Brodina,
306689,RO,34,Arbore,
306690,RO,36,Bulgarus,
306691,RO,1,Petresti,
306692,RO,23,Andrieseni,
306693,RO,35,Peretu,
306694,RO,26,Dragotesti,
306695,RO,1,Rosia Montana,
306696,RO,26,Ceplea,
306697,RO,18,Vames,
306698,RO,18,Movileni,
306699,RO,26,Sadova,
306700,RO,26,Melinesti,
306701,RO,19,Carbunesti,
306702,RO,36,Foeni,
306703,RO,40,Brosteni,
306704,RO,4,Cândesti,
306705,RO,28,Ceahlau,
306706,RO,27,Chendu,
306707,RO,41,Baneasa,
306708,RO,40,Câmpineanca,
306709,RO,2,Beliu,
306710,RO,6,Saru Dornei,
306711,RO,36,Lugojel,
306712,RO,22,Perisoru,
306713,RO,20,Lupeni,
306714,RO,3,Mosoaia,
306715,RO,21,Lapusnic,
306716,RO,17,Poiana Mare,
306717,RO,16,Tirgoviste,
306718,RO,2,Cris,
306719,RO,20,Odorheiu,
306720,RO,9,Cheia,
306721,RO,1,Lupsa,
306722,RO,26,Halânga,
306723,RO,28,Bodesti,
306724,RO,34,Gramesti,
306725,RO,5,Inand,
306726,RO,5,Borozel,
306727,RO,2,Craiova,
306728,RO,5,Diosig,
306729,RO,30,Iordacheanu,
306730,RO,5,Ghenetea,
306731,RO,42,Poenari,
306732,RO,2,Hinchiris,
306733,RO,25,Rusor,
306734,RO,33,Orlat,
306735,RO,38,Murgeni,
306736,RO,4,Gura Vaii,
306737,RO,21,Lapugiu De Jos,
306738,RO,13,Jucu De Mijloc,
306739,RO,2,Ciumeghiu,
306740,RO,32,Boinesti,
306741,RO,20,Albesti,
306742,RO,42,Cocorastii-colt,
306743,RO,27,Sòvàrad,
306744,RO,8,Gârliciu,
306745,RO,42,Cosereni,
306746,RO,42,Silistea,
306747,RO,27,Blajel,
306748,RO,12,Varadia,
306749,RO,37,Topolog,
306750,RO,42,Gostavatu,
306751,RO,6,Maieru,
306752,RO,40,Mera,
306753,RO,3,Vranesti,
306754,RO,28,Borlesti,
306755,RO,28,Damuc,
306756,RO,34,Vatra Moldovitei,
306757,RO,2,Blajeni,
306758,RO,5,Girisu De Cris,
306759,RO,42,Bîra,
306760,RO,42,Pietrosani,
306761,RO,17,Simnicu De Sus,
306762,RO,23,Popricani,
306763,RO,26,Jiu-paroseni,
306764,RO,42,Sinaia,
306765,RO,10,Fundeni,
306766,RO,4,Români,
306767,RO,32,Lazuri,
306768,RO,20,Crit,
306769,RO,5,Birtin,
306770,RO,19,Ciocadia,
306771,RO,2,Zadareni,
306772,RO,5,Pir,
306773,RO,5,Cusuius,
306774,RO,2,Turnu,
306775,RO,2,Sânleani,
306776,RO,28,Bicaz Chei,
306777,RO,15,Belani,
306778,RO,26,Vârtop,
306779,RO,5,Hotarel,
306780,RO,30,Gura Vaii,
306781,RO,26,Dârvari,
306782,RO,34,Maritei,
306783,RO,29,Strejesti,
306784,RO,14,Cogealac,
306785,RO,6,Izvoarele Sucevei,
306786,RO,13,Nicula,
306787,RO,42,Homorâciu,
306788,RO,5,Ghighiseni,
306789,RO,2,Adea,
306790,RO,5,Cefa,
306791,RO,5,Fanate,
306792,RO,1,Arieseni,
306793,RO,11,Viforâta,
306794,RO,13,Tautii,
306795,RO,23,Hermeziu,
306796,RO,13,Luncani,
306797,RO,42,Vadu Sapat,
306798,RO,37,Sarichioi,
306799,RO,20,Lunca De Sus,
306800,RO,39,Balcesti,
306801,RO,26,Mateesti,
306802,RO,40,Naruja,
306803,RO,38,Cotu Vames,
306804,RO,5,Carastelec,
306805,RO,20,Ocna De Sus,
306806,RO,40,Draganesti,
306807,RO,11,Fulga,
306808,RO,2,Dorobanti,
306809,RO,27,Sâncraiul-de-mures,
306810,RO,28,Vanatori,
306811,RO,9,Cincsor,
306812,RO,9,Sambata-de-sus,
306813,RO,38,Epureni,
306814,RO,13,Dezmir,
306815,RO,40,Ciuslea,
306816,RO,42,Veres,
306817,RO,26,Catelu,
306818,RO,23,Holboca,
306819,RO,1,Biia,
306820,RO,26,Satu Mare,
306821,RO,5,Pocola,
306822,RO,22,Ciulnita,
306823,RO,15,Bodoc,
306824,RO,31,Bogdand,
306825,RO,36,Pesac,
306826,RO,31,Cuceu,
306827,RO,33,Ucea De Jos,
306828,RO,20,Bradesti,
306829,RO,5,Pomezeu,
306830,RO,35,Frasinet,
306831,RO,34,Dornesti,
306832,RO,3,Piscani,
306833,RO,32,Paulesti,
306834,RO,13,Viisoara,
306835,RO,21,Vâlcelele-bune,
306836,RO,34,Galanesti,
306837,RO,31,Panic,
306838,RO,2,Romos,
306839,RO,25,Hideaga,
306840,RO,28,Grinties,
306841,RO,14,Stelnica,
306842,RO,12,Ticvaniu Mare,
306843,RO,16,Ghirdoveni,
306844,RO,26,Vînju Mare,
306845,RO,39,Corbeni,
306846,RO,14,Costinesti,
306847,RO,34,Falcau,
306848,RO,6,Cârlibaba,
306849,RO,6,Rebrisoara,
306850,RO,20,Meresti,
306851,RO,42,Buzesti,
306852,RO,5,Mézes,
306853,RO,5,Palota,
306854,RO,2,Bobâlna,
306855,RO,42,Daneasa,
306856,RO,12,Medved,
306857,RO,8,Stancuta,
306858,RO,26,Elisabeta,
306859,RO,38,Mandresti,
306860,RO,5,Berechiu,
306861,RO,42,Manasia,
306862,RO,3,Oarja,
306863,RO,9,Vulcan,
306864,RO,5,Petrileni,
306865,RO,31,Inau,
306866,RO,36,Carani,
306867,RO,6,Bargaului,
306868,RO,16,Lazuri,
306869,RO,41,Manastirea,
306870,RO,16,Brezoaia,
306871,RO,8,Carcaliu,
306872,RO,42,Gârbovi,
306873,RO,8,Peceneaga,
306874,RO,8,Insuratei,
306875,RO,15,Talisoara,
306876,RO,39,Arefu,
306877,RO,34,Radaseni,
306878,RO,27,Petelea,
306879,RO,12,Plugova,
306880,RO,28,Ingaresti,
306881,RO,26,Halangesti,
306882,RO,33,Boita,
306883,RO,26,Bechet,
306884,RO,9,Moeciu De Jos,
306885,RO,5,Finis,
306886,RO,38,Averesti,
306887,RO,25,Poienile De Sub Munte,
306888,RO,36,Targoviste,
306889,RO,16,Voinesti,
306890,RO,41,Branesti,
306891,RO,6,Anies,
306892,RO,4,Beresti-tazlau,
306893,RO,27,Laslea,
306894,RO,33,Hasag,
306895,RO,41,Radovanu,
306896,RO,40,Paltin,
306897,RO,5,Hidiselu De Jos,
306898,RO,42,Cioranii De Jos,
306899,RO,34,Dumbraveni,
306900,RO,27,Dumbravioara,
306901,RO,2,Cherelus,
306902,RO,15,Bailesti,
306903,RO,38,Angheluta,
306904,RO,5,Port,
306905,RO,36,Sânmihaiu German,
306906,RO,42,Zimnicele,
306907,RO,1,Sard,
306908,RO,7,Leorda,
306909,RO,12,Bania,
306910,RO,8,Turcoaia,
306911,RO,28,Gîrcina,
306912,RO,36,Sânpetrul-mare,
306913,RO,5,Sânnicolaul-român,
306914,RO,2,Gurahont,
306915,RO,25,Farcasa,
306916,RO,6,Lesu,
306917,RO,17,Constanta,
306918,RO,25,Arinis,
306919,RO,42,Pitaru,
306920,RO,6,Susenii Bârgâului,
306921,RO,30,Puchenii Mici,
306922,RO,28,Petru Voda,
306923,RO,18,Slobozia-conachi,
306924,RO,43,Ghermanesti,
306925,RO,8,Râmnicelu,
306926,RO,36,Dudestii Noi,
306927,RO,26,Bucinisu,
306928,RO,30,Tatarani,
306929,RO,23,Valea-adanca,
306930,RO,43,Silistea Snagovului,
306931,RO,42,Morteni,
306932,RO,34,Vîrfu Cîmpului,
306933,RO,12,Moldova Veche,
306934,RO,6,Rastolita,
306935,RO,8,Ardeal,
306936,RO,14,Ghindaresti,
306937,RO,42,Tecuci,
306938,RO,12,Zavoi,
306939,RO,5,Tarian,
306940,RO,11,Niculesti,
306941,RO,34,Liteni,
306942,RO,30,Gornet,
306943,RO,8,Vadeni,
306944,RO,17,Carcea,
306945,RO,36,Dragsina,
306946,RO,2,Densus,
306947,RO,2,Zimandcuz,
306948,RO,5,Cauaceu,
306949,RO,25,Vadu Izei,
306950,RO,6,Sieu,
306951,RO,25,Grosi,
306952,RO,23,Scoposeni,
306953,RO,36,Keresztúr,
306954,RO,42,Brosteni,
306955,RO,23,Mogosesti-siret,
306956,RO,22,Cosambesti,
306957,RO,26,Orlea,
306958,RO,15,Poian,
306959,RO,14,Limanu,
306960,RO,25,Sasar,
306961,RO,13,Manastirea,
306962,RO,1,Tibru,
306963,RO,36,Bazosu Nou,
306964,RO,42,Serboeni,
306965,RO,25,Grosii Tiblesului,
306966,RO,14,2 Mai,
306967,RO,30,Valea Dulce,
306968,RO,42,Potigrafu,
306969,RO,9,Traisteni,
306970,RO,5,Draganesti,
306971,RO,23,Sticlaria,
306972,RO,43,Slobozia,
306973,RO,39,Otesani,
306974,RO,33,Axente Sever,
306975,RO,12,Turnul,
306976,RO,27,Saulia,
306977,RO,5,Nucet,
306978,RO,6,Reteag,
306979,RO,38,Blânzi,
306980,RO,42,Rusanesti,
306981,RO,26,Racarii De Jos,
306982,RO,23,Costesti,
306983,RO,20,Ghimes,
306984,RO,31,Banisor,
306985,RO,27,Eremitu,
306986,RO,28,Borseni,
306987,RO,32,Gherta Mare,
306988,RO,42,Maruntisu,
306989,RO,13,Cara,
306990,RO,13,Rascruci,
306991,RO,5,Saud,
306992,RO,23,Valea Adinca,
306993,RO,36,Mosnita Veche,
306994,RO,22,Smirna,
306995,RO,27,Haranglab,
306996,RO,28,Cracaoani,
306997,RO,36,Criciova,
306998,RO,27,Captalan,
306999,RO,42,Clejani,
307000,RO,20,Ruganesti,
307001,RO,22,Mihai-voda,
307002,RO,1,Loman,
307003,RO,42,Parepa,
307004,RO,42,Fulga De Sus,
307005,RO,42,Bughea De Sus,
307006,RO,42,Tariceni,
307007,RO,32,Turulung,
307008,RO,42,Bujoru,
307009,RO,20,Frumoasa,
307010,RO,37,Mineri,
307011,RO,40,Tataranu,
307012,RO,30,Mislea,
307013,RO,5,Rabagani,
307014,RO,23,Zmeu,
307015,RO,5,Tetchea,
307016,RO,38,Marginea,
307017,RO,5,Parhida,
307018,RO,15,Turia,
307019,RO,17,Tuglui,
307020,RO,42,Lipia,
307021,RO,2,Socodor,
307022,RO,32,Berveni,
307023,RO,32,Asuaju De Sus,
307024,RO,42,Fierbinti,
307025,RO,42,Livadea,
307026,RO,7,Horodistea,
307027,RO,38,Oituz,
307028,RO,2,Sâc,
307029,RO,15,Augustin,
307030,RO,40,Dumbraveni,
307031,RO,5,Cheriu,
307032,RO,20,Satu Mare,
307033,RO,31,Giurtelecul Simleului,
307034,RO,33,Hosman,
307035,RO,5,Haieu,
307036,RO,27,Vidrasau,
307037,RO,32,Viile Satu Mare,
307038,RO,1,Oarda De Sus,
307039,RO,21,Simeria Veche,
307040,RO,2,Zerind,
307041,RO,5,Sântion,
307042,RO,20,Boiu,
307043,RO,1,Coslariu,
307044,RO,30,Bordenii Mari,
307045,RO,42,Dudesti,
307046,RO,25,Coruia,
307047,RO,5,Santau,
307048,RO,36,Giarmata Vii,
307049,RO,38,Zorleni,
307050,RO,34,Sfântu-ilie,
307051,RO,2,Taut,
307052,RO,5,Luncasprie,
307053,RO,42,Berceni,
307054,RO,3,Cosesti,
307055,RO,5,Maguri-racatau,
307056,RO,26,Negoiu,
307057,RO,32,Dorolt,
307058,RO,25,Viseul De Sus,
307059,RO,27,Viilor,
307060,RO,8,General Praporgescu,
307061,RO,7,Paltinis,
307062,RO,41,Cuza Voda,
307063,RO,36,Sânnicolau Mare,
307064,RO,23,Vechi,
307065,RO,20,Csikszereda,
307066,RO,2,Brascu,
307067,RO,23,Breazu,
307068,RO,2,Vulcan,
307069,RO,23,Onesti,
307070,RO,26,Tâmna,
307071,RO,5,Erselénd,
307072,RO,26,Cujmir,
307073,RO,33,Cisnadioara,
307074,RO,2,Batar,
307075,RO,39,Bistrita,
307076,RO,5,Remeti,
307077,RO,26,Urzicuta,
307078,RO,17,Malu Mare,
307079,RO,5,Petrani,
307080,RO,22,Mihail Kogalniceanu,
307081,RO,34,Basarabi,
307082,RO,9,Sinca Noua,
307083,RO,26,Danceu,
307084,RO,37,Jurilovca,
307085,RO,42,Bujoreni,
307086,RO,1,Ciumbrud,
307087,RO,23,Brosteni,
307088,RO,42,Crângeni,
307089,RO,42,Cioceni,
307090,RO,27,Brateiu,
307091,RO,38,Slobozia,
307092,RO,26,Cetate,
307093,RO,26,Bralostita,
307094,RO,17,Tunarii Vechi,
307095,RO,42,Serbanesti,
307096,RO,17,Bucovat,
307097,RO,31,Ilisua,
307098,RO,29,Berbesti,
307099,RO,8,Tichilesti,
307100,RO,34,Brusturi,
307101,RO,25,Tulghies,
307102,RO,27,Baita,
307103,RO,7,Dobârceni,
307104,RO,6,Neagra Sarului,
307105,RO,34,Scheia,
307106,RO,27,Panet,
307107,RO,42,Jilavele,
307108,RO,42,Rascaeti,
307109,RO,42,Leresti,
307110,RO,36,Sânpetru German,
307111,RO,42,Urleta,
307112,RO,20,Dacia,
307113,RO,2,Geoagiu Bai,
307114,RO,12,Eftimie Murgu,
307115,RO,42,Lita,
307116,RO,37,Cataloi,
307117,RO,9,Iasi,
307118,RO,22,Scînteia,
307119,RO,31,Badon,
307120,RO,15,Araci,
307121,RO,14,Amzacea,
307122,RO,23,Pacurari,
307123,RO,15,Kövàr,
307124,RO,42,Papa,
307125,RO,7,Frumusica,
307126,RO,2,Totesti,
307127,RO,5,Sînmartin,
307128,RO,29,Osica De Sus,
307129,RO,27,Suseni,
307130,RO,42,Nasturelu,
307131,RO,5,Varviz,
307132,RO,42,Cosoba,
307133,RO,8,Ostrov,
307134,RO,27,Valenii De Mures,
307135,RO,36,Johanisfeld,
307136,RO,38,Gara Banca,
307137,RO,15,Chichis,
307138,RO,34,Lisaura,
307139,RO,36,Sânmihaiu Român,
307140,RO,32,Iojib,
307141,RO,25,Strâmtura,
307142,RO,42,Letca Veche,
307143,RO,39,Ocnita,
307144,RO,26,Grojdibodu,
307145,RO,31,Surduc,
307146,RO,42,Voinesti,
307147,RO,27,Santamarie,
307148,RO,26,Cerna-vîrf,
307149,RO,19,Slobozia,
307150,RO,42,Butesti,
307151,RO,26,Visina,
307152,RO,27,Jabenita,
307153,RO,11,Scortoasa,
307154,RO,28,Tupilati,
307155,RO,25,Repedea,
307156,RO,27,Nazna,
307157,RO,25,Racsa,
307158,RO,27,Breaza,
307159,RO,1,Inoc,
307160,RO,7,Mandresti,
307161,RO,23,Maxut,
307162,RO,33,Faget,
307163,RO,42,Cazaci,
307164,RO,20,Mercheasa,
307165,RO,42,Laicai,
307166,RO,33,Barghis,
307167,RO,15,Bita,
307168,RO,20,Sears,
307169,RO,42,Bolintin,
307170,RO,42,Stolnici,
307171,RO,34,Gulia,
307172,RO,26,Bârca,
307173,RO,34,Ipotesti,
307174,RO,5,Tamaseu,
307175,RO,4,Frumoasa,
307176,RO,6,Mocod,
307177,RO,25,Ocolis,
307178,RO,42,Corbeanca,
307179,RO,14,Palazu Mare,
307180,RO,41,Ciocanesti,
307181,RO,2,Carand,
307182,RO,6,Nimigea De Jos,
307183,RO,31,Nadis,
307184,RO,41,Soldanu,
307185,RO,14,Topalu,
307186,RO,42,Gura Vadului,
307187,RO,42,Mija,
307188,RO,23,Draguseni,
307189,RO,26,Valea Bisericii,
307190,RO,43,Saftica,
307191,RO,12,Ciclova-romana,
307192,RO,26,Bradesti,
307193,RO,32,Beltiug,
307194,RO,25,Vama,
307195,RO,41,Curcani,
307196,RO,26,Alunu,
307197,RO,36,Iecea Mare,
307198,RO,22,Andrasesti,
307199,RO,13,Capusu Mic,
307200,RO,26,Nedeia,
307201,RO,26,Brastavatu,
307202,RO,8,Nicolescu,
307203,RO,23,Hlincea,
307204,RO,38,Lupesti,
307205,RO,5,Damis,
307206,RO,2,Manastiur,
307207,RO,2,Rusca Montana,
307208,RO,5,Sîntion,
307209,RO,27,Pogaceaua,
307210,RO,38,Valeni,
307211,RO,6,Poiana Stampei,
307212,RO,16,Adânca,
307213,RO,32,Caraseu,
307214,RO,6,Magura Ilvei,
307215,RO,6,Chiuza,
307216,RO,11,Istrita De Jos,
307217,RO,1,Dumitra,
307218,RO,42,Marsa,
307219,RO,27,Idrifaia,
307220,RO,26,Corcova,
307221,RO,29,Maruntei,
307222,RO,42,Draganesti De Vede,
307223,RO,26,Eselnita,
307224,RO,10,Ciofliceni,
307225,RO,9,Ileni,
307226,RO,28,Versesti,
307227,RO,23,Tatarusi,
307228,RO,14,Plopeni,
307229,RO,20,Márèfalva,
307230,RO,1,Lunca De Sus,
307231,RO,25,Chiuzbaia,
307232,RO,31,Oarta De Jos,
307233,RO,2,Soimus,
307234,RO,39,Ionesti,
307235,RO,2,Dud,
307236,RO,12,Garbovat,
307237,RO,5,Miersig,
307238,RO,33,Rasinari,
307239,RO,38,Vrâncioaia,
307240,RO,6,Piatra,
307241,RO,36,Livezile,
307242,RO,16,Valea,
307243,RO,17,Seaca De Câmp,
307244,RO,36,Parta,
307245,RO,23,Alexandru Cel Bun,
307246,RO,41,Nuci,
307247,RO,16,Ghimpati,
307248,RO,39,Marina,
307249,RO,26,Danciulesti,
307250,RO,21,Gros,
307251,RO,34,Gainesti,
307252,RO,1,Berghin,
307253,RO,26,Bulzesti,
307254,RO,26,Scaesti,
307255,RO,5,Cabesti,
307256,RO,40,Ivesti,
307257,RO,19,Stanesti,
307258,RO,2,Madaras,
307259,RO,1,Scarisoara,
307260,RO,1,Oiejdea,
307261,RO,42,Cornu De Jos,
307262,RO,14,Tepes Voda,
307263,RO,5,Marca,
307264,RO,11,Vizireni,
307265,RO,3,Dobresti,
307266,RO,26,Creteni,
307267,RO,42,Teiu,
307268,RO,28,Bicazu Ardelean,
307269,RO,25,Baita,
307270,RO,6,Deda,
307271,RO,34,Marginea,
307272,RO,36,Uivar,
307273,RO,26,Cocoreni,
307274,RO,42,Stanesti,
307275,RO,15,Moacsa,
307276,RO,27,Tonciu,
307277,RO,5,Gurani,
307278,RO,1,Sohodol,
307279,RO,23,Valea Seaca,
307280,RO,19,Dumbraveni,
307281,RO,39,Moraresti,
307282,RO,33,Sannicoara,
307283,RO,12,Gradinari,
307284,RO,20,Hodosa,
307285,RO,42,Scarisoara,
307286,RO,2,Paulis,
307287,RO,6,Ciceu-mihaiesti,
307288,RO,36,Ianova,
307289,RO,6,Crainimat,
307290,RO,3,Argeselu,
307291,RO,31,Borla,
307292,RO,16,Baldana,
307293,RO,43,Zurbaua,
307294,RO,38,Cîmpuri,
307295,RO,11,Surdila-greci,
307296,RO,40,Tamboesti,
307297,RO,25,Rozavlea,
307298,RO,31,Buc,
307299,RO,16,Vulcana De Sus,
307300,RO,42,Burduca,
307301,RO,11,Vadu Soresti,
307302,RO,20,Dealu,
307303,RO,42,Marginenii De Jos,
307304,RO,30,Rahtivani,
307305,RO,7,Catamarasti,
307306,RO,38,Suletea,
307307,RO,27,Agristeu,
307308,RO,2,Traian Vuia,
307309,RO,27,Hodac,
307310,RO,3,Balilesti,
307311,RO,20,Chileni,
307312,RO,26,Moreni,
307313,RO,41,Dobromir,
307314,RO,16,Gaesti,
307315,RO,27,Gogan,
307316,RO,30,Albestii,
307317,RO,42,Benga,
307318,RO,12,Cornutel,
307319,RO,38,Târzii,
307320,RO,38,Casin,
307321,RO,27,Voiniceni,
307322,RO,34,Fratautii Vechi,
307323,RO,36,Ficatar,
307324,RO,6,Valea Ungurasului,
307325,RO,2,Almás,
307326,RO,5,Cociuba Mare,
307327,RO,25,Lapusel,
307328,RO,33,Porumbacu De Jos,
307329,RO,35,Dulceanca,
307330,RO,16,Scheiu De Jos,
307331,RO,42,Darasti,
307332,RO,15,Ladauti,
307333,RO,4,Margineni,
307334,RO,6,Parva,
307335,RO,36,Tomnatic,
307336,RO,36,Dinias,
307337,RO,23,Barticesti,
307338,RO,2,Lunca,
307339,RO,33,Seica Mica,
307340,RO,12,Slatina-timis,
307341,RO,32,Orasu Nou,
307342,RO,2,Simbateni,
307343,RO,14,Pecineaga,
307344,RO,41,Ulmeni,
307345,RO,12,Borlovenii Noi,
307346,RO,15,Valea Mica,
307347,RO,27,Cucerdea,
307348,RO,9,Savastreni,
307349,RO,31,Arduzel,
307350,RO,23,Halaucesti,
307351,RO,5,Sumal,
307352,RO,25,Valea Chioarului,
307353,RO,5,Auseu,
307354,RO,6,Budus,
307355,RO,42,Sitaru,
307356,RO,39,Daesti,
307357,RO,13,Luna De Sus,
307358,RO,1,Ighiel,
307359,RO,15,Sântionlunca,
307360,RO,42,Padina,
307361,RO,42,Crivina,
307362,RO,27,Cornesti,
307363,RO,31,Bodia,
307364,RO,2,Saracsau,
307365,RO,16,Vulcana-pandele,
307366,RO,23,Cotnari,
307367,RO,26,Tantareni,
307368,RO,25,Bârsana,
307369,RO,27,Copsa Mare,
307370,RO,1,Balcaciu,
307371,RO,5,Hidiselu De Sus,
307372,RO,42,Malu,
307373,RO,20,Lutita,
307374,RO,32,Ciumesti,
307375,RO,32,Remetea Oasului,
307376,RO,12,Mehadica,
307377,RO,38,Nartesti,
307378,RO,29,Lungesti,
307379,RO,6,Negrilesti,
307380,RO,8,Daeni,
307381,RO,36,Izvin,
307382,RO,2,Homorog,
307383,RO,25,Borcut,
307384,RO,28,Madei,
307385,RO,33,Oltet,
307386,RO,7,Trusesti,
307387,RO,40,Petresti,
307388,RO,15,Papauti,
307389,RO,4,Agas,
307390,RO,14,Lazu,
307391,RO,25,Coas,
307392,RO,11,Pârscov,
307393,RO,35,Olteni,
307394,RO,28,Tazlau,
307395,RO,39,Cernelele,
307396,RO,31,Chiesd,
307397,RO,9,Timisul-de-jos,
307398,RO,5,Borod,
307399,RO,41,Ogoru,
307400,RO,36,Hodoni,
307401,RO,27,Dedrad,
307402,RO,12,Valea Timisului,
307403,RO,42,Boboci,
307404,RO,22,Bucu,
307405,RO,19,Bengesti,
307406,RO,26,Streminoasa,
307407,RO,2,Dieci,
307408,RO,11,Candesti,
307409,RO,12,Borlovenii Vechi,
307410,RO,15,Telechia,
307411,RO,3,Grigoreni,
307412,RO,40,Nereju,
307413,RO,5,Ianosda,
307414,RO,14,Topraisar,
307415,RO,39,Stoilesti,
307416,RO,26,Bucicani,
307417,RO,42,Darasti-vlasca,
307418,RO,2,Pîncota,
307419,RO,31,Mirsid,
307420,RO,23,Horia,
307421,RO,3,Valea Mare,
307422,RO,5,1 Mai,
307423,RO,42,Vedea,
307424,RO,31,Câmpia,
307425,RO,35,Orbeasca De Sus,
307426,RO,26,Bulbuceni,
307427,RO,26,Logresti,
307428,RO,19,Telesti,
307429,RO,39,Pietrari,
307430,RO,7,Pomârla,
307431,RO,1,Miraslau,
307432,RO,36,Hezeris,
307433,RO,42,Plopul,
307434,RO,34,Ulma,
307435,RO,9,Venetia De Jos,
307436,RO,2,Luncoiu De Jos,
307437,RO,12,Prilipet,
307438,RO,13,Dumbrau,
307439,RO,26,Zatreni,
307440,RO,2,Colonel Ruschita,
307441,RO,5,Astileu,
307442,RO,2,Lunca Cernii De Jos,
307443,RO,42,Alunisu,
307444,RO,26,Cernatesti,
307445,RO,41,Valea Argovei,
307446,RO,41,Sinesti,
307447,RO,29,Voicesti,
307448,RO,15,Aita Seaca,
307449,RO,28,Razboieni,
307450,RO,25,Firiza-de-jos,
307451,RO,19,Schela,
307452,RO,6,Cutca,
307453,RO,28,Farcasa,
307454,RO,42,Cetateni,
307455,RO,39,Berislavesti,
307456,RO,38,Bradetu,
307457,RO,19,Lelesti,
307458,RO,8,Racovita,
307459,RO,42,Izvoarele,
307460,RO,39,Danicei,
307461,RO,25,Tautii Margheraus,
307462,RO,5,Cuzaplac,
307463,RO,12,Plopu,
307464,RO,10,Ologeni,
307465,RO,26,Malaia,
307466,RO,2,Vanatori,
307467,RO,39,Dobroteasa,
307468,RO,34,Grosi,
307469,RO,38,Trifesti,
307470,RO,17,Baldovinesti,
307471,RO,26,Celaru,
307472,RO,42,Sprancenata,
307473,RO,27,Pasareni,
307474,RO,6,Sieu-odorhei,
307475,RO,16,Edera De Jos,
307476,RO,8,Tufesti,
307477,RO,42,Flaminda Vlasca,
307478,RO,26,Obarsia-closani,
307479,RO,28,Piona,
307480,RO,40,Sihlea,
307481,RO,5,Sanmihaiul-almasului,
307482,RO,26,Tetoiu,
307483,RO,3,Fagetelu,
307484,RO,2,Baia De Cris,
307485,RO,15,Tusnad,
307486,RO,39,Salatrucu,
307487,RO,34,Capu Câmpului,
307488,RO,36,Grabat,
307489,RO,32,Stîna,
307490,RO,5,Cosniciu De Jos,
307491,RO,9,Holbav,
307492,RO,39,Curtea,
307493,RO,2,Dubesti,
307494,RO,40,Bucesti,
307495,RO,5,Saldabagiu De Munte,
307496,RO,5,Magura,
307497,RO,5,Fizis,
307498,RO,42,Crângurile-de-jos,
307499,RO,17,Ciupercenii Vechi,
307500,RO,22,Facaeni,
307501,RO,36,Opatita,
307502,RO,1,Lancram,
307503,RO,2,Siclau,
307504,RO,6,Zagra,
307505,RO,14,Bordusani,
307506,RO,26,Daneti,
307507,RO,20,Doboseni,
307508,RO,15,Dobolii De Jos,
307509,RO,28,Vaduri,
307510,RO,11,Grebanu,
307511,RO,38,Berezeni,
307512,RO,42,Greaca,
307513,RO,29,Coteana,
307514,RO,25,Valenii Lapusului,
307515,RO,6,Bistrita-bargaului,
307516,RO,19,Moi,
307517,RO,13,Mintiu Gherlii,
307518,RO,39,Zigoneni,
307519,RO,19,Dobrita,
307520,RO,13,Vaida-camaras,
307521,RO,2,Vata De Jos,
307522,RO,38,Slobozia-blaneasa,
307523,RO,2,Bositura,
307524,RO,33,Dealu Cioara,
307525,RO,6,Dumitra,
307526,RO,2,Ceru-bacainti,
307527,RO,27,Bilbor,
307528,RO,6,Spermezeu,
307529,RO,34,Ciprian Porumbescu,
307530,RO,26,Redea,
307531,RO,29,Dobrun,
307532,RO,27,Chiheru De Jos,
307533,RO,39,Sirineasa,
307534,RO,13,Simisna,
307535,RO,25,Coroieni,
307536,RO,27,Hodosa,
307537,RO,28,Chiliile De Sus,
307538,RO,41,Buturugeni-uzunu,
307539,RO,8,Marasu,
307540,RO,39,Cumpana-buda,
307541,RO,26,Fartatesti,
307542,RO,2,Orasti,
307543,RO,11,Galbenu,
307544,RO,11,Tisau,
307545,RO,5,Poieni,
307546,RO,12,Lupac,
307547,RO,38,Ivanesti,
307548,RO,22,Gura Ialomitei,
307549,RO,26,Schinteiesti,
307550,RO,42,Varasti,
307551,RO,31,Biusa,
307552,RO,15,Tîrgu Secuesc,
307553,RO,37,Slava Rusa,
307554,RO,26,Visina Noua,
307555,RO,38,Manastirea Casin,
307556,RO,14,Adamclisi,
307557,RO,36,Chizatau,
307558,RO,36,Jdioara,
307559,RO,36,Mailat,
307560,RO,2,Moneasa,
307561,RO,35,Marzanesti,
307562,RO,11,Babeni,
307563,RO,7,Broscauti,
307564,RO,31,Mesesenii De Jos,
307565,RO,41,Orasti,
307566,RO,34,Berchisesti,
307567,RO,16,Lucieni,
307568,RO,8,Giurgeni,
307569,RO,15,Hârja,
307570,RO,23,Osoi,
307571,RO,23,Boghicea,
307572,RO,42,Apostolache,
307573,RO,42,Bertea,
307574,RO,12,Dognecea,
307575,RO,42,Beciu,
307576,RO,5,Lorau,
307577,RO,39,Roesti,
307578,RO,42,Gârcovu,
307579,RO,26,Cioroiu Nou,
307580,RO,42,Manastioara,
307581,RO,42,Naipu,
307582,RO,42,Ratesti,
307583,RO,29,Bobicesti,
307584,RO,26,Ghioroiu,
307585,RO,37,Manastirea Cocosul,
307586,RO,34,Vulturesti,
307587,RO,2,Rapoltu Mare,
307588,RO,7,Cervicesti-crac,
307589,RO,36,Lenauheim,
307590,RO,2,Aradul Nou,
307591,RO,43,Caciulati,
307592,RO,2,Zimand,
307593,RO,1,Musca,
307594,RO,18,Beresti,
307595,RO,28,Podoleni,
307596,RO,26,Alimpesti,
307597,RO,25,Poiana Codrului,
307598,RO,33,Alamor,
307599,RO,26,Gighera,
307600,RO,5,Gera,
307601,RO,20,Daisoara,
307602,RO,26,Braniste,
307603,RO,26,Balacesti,
307604,RO,23,Heci,
307605,RO,27,Bardesti,
307606,RO,25,Rohia,
307607,RO,6,Sant,
307608,RO,27,Cerghid,
307609,RO,8,Movila Miresei,
307610,RO,26,Rosia De Amaradia,
307611,RO,37,Mahmudia,
307612,RO,22,Luciu,
307613,RO,43,Dascalu,
307614,RO,17,Cîrcea,
307615,RO,25,Craciunesti,
307616,RO,12,Mehadia,
307617,RO,26,Cotofenii Din Dos,
307618,RO,27,Maiad,
307619,RO,7,Miorcani,
307620,RO,38,Iezer,
307621,RO,7,Cotusca,
307622,RO,42,Sarbii-magura,
307623,RO,42,Munteni Buzau,
307624,RO,36,Petroasa Mare,
307625,RO,34,Bucsoaia,
307626,RO,3,Mihaesti,
307627,RO,29,Osica De Jos,
307628,RO,18,Rachelu,
307629,RO,42,Valea Dragului,
307630,RO,27,Grindeni,
307631,RO,39,Clanest,
307632,RO,42,Finta Veche,
307633,RO,26,Slatioara,
307634,RO,21,Vorta,
307635,RO,2,Bagara,
307636,RO,5,Dragesti,
307637,RO,18,Cheoveni,
307638,RO,11,Topliceni,
307639,RO,20,Baile Chirui,
307640,RO,34,Manastirea Homorului,
307641,RO,2,Bucium,
307642,RO,25,Ulmoasa,
307643,RO,36,Gross-sakosch,
307644,RO,2,Rachitova,
307645,RO,42,Colceag,
307646,RO,6,Negoescu,
307647,RO,40,Tifesti,
307648,RO,12,Slatina,
307649,RO,12,Dalci,
307650,RO,36,Unip,
307651,RO,5,Mierag,
307652,RO,34,Tarna Mare,
307653,RO,41,Clatesti,
307654,RO,28,Pangarati,
307655,RO,8,Cazasu,
307656,RO,11,Vîlcelele,
307657,RO,6,Cepari,
307658,RO,25,Iadara,
307659,RO,6,Mijlocenii Bargaului,
307660,RO,15,Arkos,
307661,RO,42,Deagu De Jos,
307662,RO,41,Stancea,
307663,RO,19,Rosiuta,
307664,RO,4,Poduri,
307665,RO,1,Bucerdea-vinoasa,
307666,RO,13,Fundatura,
307667,RO,6,Cristestii-ciceului,
307668,RO,42,Minieri,
307669,RO,7,Sendriceni,
307670,RO,34,Cotargasi,
307671,RO,42,Hotarele,
307672,RO,36,Bacova,
307673,RO,20,Feliceni,
307674,RO,42,Saelele,
307675,RO,29,Valeni,
307676,RO,36,Bobda,
307677,RO,19,Vacarea,
307678,RO,42,Cornu De Sus,
307679,RO,42,Jugur,
307680,RO,20,Maros,
307681,RO,9,Crizbav,
307682,RO,42,Ragu,
307683,RO,3,Cotmeana,
307684,RO,26,Motrisor,
307685,RO,2,Coroiu,
307686,RO,5,Sumugiu,
307687,RO,2,Torjás,
307688,RO,1,Runcului,
307689,RO,9,Paltin,
307690,RO,7,Stiubieni,
307691,RO,22,Valea Ciorii,
307692,RO,8,Hamcearca,
307693,RO,7,Havârna,
307694,RO,34,Spataresti,
307695,RO,41,Tânganu,
307696,RO,14,Baia,
307697,RO,5,Toboliu,
307698,RO,25,Remeti,
307699,RO,15,Sfântul-gheorghe,
307700,RO,12,Sichevita,
307701,RO,1,Bucerdea-granoasa,
307702,RO,41,Balaceanca,
307703,RO,42,Baduleasa,
307704,RO,42,Ciuperceni,
307705,RO,33,Vestem,
307706,RO,16,Pietrari,
307707,RO,11,Gheraseni,
307708,RO,42,Calvini,
307709,RO,23,Vaii,
307710,RO,25,Satu Nou De Sus,
307711,RO,42,Sângeru,
307712,RO,30,Pleasa,
307713,RO,33,Ocna Sibiului,
307714,RO,9,Dridif,
307715,RO,11,Caltuna,
307716,RO,25,Culcea,
307717,RO,7,Corni,
307718,RO,25,Chelnita,
307719,RO,5,Calatele,
307720,RO,2,Sânpetru,
307721,RO,12,Dulau,
307722,RO,25,Blidar,
307723,RO,4,Berzunti,
307724,RO,15,Dobarlau,
307725,RO,17,Dosul Sandei,
307726,RO,27,Tagul,
307727,RO,26,Bistret,
307728,RO,34,Miron,
307729,RO,6,Ciresoaia,
307730,RO,6,Petris,
307731,RO,21,Dobra,
307732,RO,36,Vucova,
307733,RO,12,Carbunari,
307734,RO,26,Valea Stanciului,
307735,RO,26,Vanatori,
307736,RO,12,Teregova,
307737,RO,42,Preajba,
307738,RO,12,Binis,
307739,RO,43,Dragomiresti-deal,
307740,RO,39,Albota,
307741,RO,19,Vladuleni,
307742,RO,14,Stejaru,
307743,RO,15,Mikôujfalù,
307744,RO,28,Bistrita,
307745,RO,15,Marcus,
307746,RO,20,Nicolesti,
307747,RO,42,Trestieni,
307748,RO,43,Ostratu,
307749,RO,36,Macedonia,
307750,RO,5,Belfir,
307751,RO,21,Zam,
307752,RO,25,Ieud,
307753,RO,6,Caila,
307754,RO,25,Bixad,
307755,RO,25,Remetea Chioarului,
307756,RO,34,Strateni,
307757,RO,29,Verguleasa,
307758,RO,36,Sînmihaiu German,
307759,RO,26,Prundeni,
307760,RO,22,Vladeni,
307761,RO,40,Obrejita,
307762,RO,22,Ograda,
307763,RO,17,Zanoaga,
307764,RO,15,Zabratau,
307765,RO,23,Iugani,
307766,RO,13,Mociu,
307767,RO,5,Valea Draganului,
307768,RO,42,Herasti,
307769,RO,11,Unguriu,
307770,RO,9,Buzau Mic,
307771,RO,28,Vadurele,
307772,RO,23,Lutca,
307773,RO,25,Bargau,
307774,RO,33,Sura Mica,
307775,RO,30,Strejnic,
307776,RO,38,Maraseni,
307777,RO,20,Ocna De Jos,
307778,RO,36,Cheglevici,
307779,RO,27,Dârlos,
307780,RO,26,Ostroveni,
307781,RO,35,Ciuperceni,
307782,RO,5,Chesereu,
307783,RO,32,Ghilvaci,
307784,RO,6,Tureac,
307785,RO,6,Ilva Mare,
307786,RO,20,Palanca,
307787,RO,34,Mihaileni,
307788,RO,27,Tirimia,
307789,RO,25,Firiza,
307790,RO,42,Sperieteni,
307791,RO,39,Pausesti-maglasi,
307792,RO,2,Chisindia,
307793,RO,26,Diosti,
307794,RO,25,Câmpulung-la Tisa,
307795,RO,27,Ideciu De Jos,
307796,RO,30,Scaeni,
307797,RO,34,Slatioara,
307798,RO,27,Farau,
307799,RO,26,Apele Vii,
307800,RO,17,Adunati,
307801,RO,11,Vadu Pasii,
307802,RO,2,Silindia,
307803,RO,2,Tomesti,
307804,RO,2,Ursici,
307805,RO,26,Rojistea,
307806,RO,34,Manastioara,
307807,RO,5,Magesti,
307808,RO,2,Mocrea,
307809,RO,5,Cuzap,
307810,RO,25,Razoare,
307811,RO,25,Danestii-chioarului,
307812,RO,12,Caransebesu Nou,
307813,RO,20,Ciceu,
307814,RO,42,Malu Spart,
307815,RO,29,Bechet,
307816,RO,39,Olanesti,
307817,RO,15,Bretcu,
307818,RO,38,Lunca Banului,
307819,RO,32,Satmarel,
307820,RO,27,Curteni,
307821,RO,26,Jupanesti,
307822,RO,31,Ulciug,
307823,RO,25,Stoiceni,
307824,RO,30,Brazii De Jos,
307825,RO,12,Gornea,
307826,RO,30,Vadu Parului,
307827,RO,41,Spantov,
307828,RO,42,Brebina,
307829,RO,42,Potlogi,
307830,RO,23,Slobozia,
307831,RO,13,Trítenii De Sus,
307832,RO,38,Paunesti,
307833,RO,8,Fagarasu Nou,
307834,RO,28,Straja,
307835,RO,11,Galbinasi,
307836,RO,38,Puiesti,
307837,RO,34,Maneuti,
307838,RO,15,Micfalau,
307839,RO,27,Adrianu Mare,
307840,RO,27,Dambau,
307841,RO,42,Picior De Munte,
307842,RO,3,Lazaresti,
307843,RO,42,Boteni,
307844,RO,36,Saravale,
307845,RO,36,Ghilad,
307846,RO,35,Mavrodin,
307847,RO,3,Vedea,
307848,RO,1,Piclisa,
307849,RO,2,Satu Nou,
307850,RO,2,Bârzava,
307851,RO,20,Sântimbru,
307852,RO,33,Mirsa,
307853,RO,34,Frumosu,
307854,RO,22,Milosesti,
307855,RO,41,Horia,
307856,RO,12,Lindenfeld,
307857,RO,42,Crâmpoaia,
307858,RO,26,Perisor,
307859,RO,2,Cerboaia,
307860,RO,2,Turdas,
307861,RO,21,Burjuc,
307862,RO,26,Vadastrita,
307863,RO,20,Jimbor,
307864,RO,41,Vlaiculesti,
307865,RO,1,Mesentea,
307866,RO,2,Ribita,
307867,RO,4,Magiresti,
307868,RO,39,Popesti,
307869,RO,42,Goreni,
307870,RO,34,Cumparatura,
307871,RO,5,Telechiu,
307872,RO,19,Bâlta,
307873,RO,4,Luizi-calugara,
307874,RO,5,Zauan,
307875,RO,16,Teis,
307876,RO,25,Carbunari,
307877,RO,25,Gardani,
307878,RO,36,Peregu Mare,
307879,RO,25,Viile Apei,
307880,RO,34,Sadova,
307881,RO,5,Cherechiu,
307882,RO,2,Halmagiu,
307883,RO,21,Manerau,
307884,RO,25,Chechis,
307885,RO,11,Valea Nucului,
307886,RO,34,Mihoveni,
307887,RO,42,Alexeni,
307888,RO,17,Ghidici,
307889,RO,42,Gradistea,
307890,RO,32,Camin,
307891,RO,13,Urca,
307892,RO,11,Cernatesti,
307893,RO,28,Dobreni,
307894,RO,30,Predeal,
307895,RO,30,Stoenesti,
307896,RO,2,Marginea,
307897,RO,42,Varnita,
307898,RO,9,Tohanu Nou,
307899,RO,38,Lepsa,
307900,RO,2,Nadab,
307901,RO,41,Buzoeni,
307902,RO,18,Umbraresti,
307903,RO,26,Izimsa,
307904,RO,42,Bratesti,
307905,RO,36,Urseni,
307906,RO,42,Harsesti,
307907,RO,27,Trei Sate,
307908,RO,19,Tetila,
307909,RO,15,Sânzieni,
307910,RO,42,Marcesti,
307911,RO,41,Vasilati,
307912,RO,42,Malu Alb,
307913,RO,1,Pauca,
307914,RO,39,Milcoiu,
307915,RO,25,Crucisor,
307916,RO,6,Alunisul,
307917,RO,11,Murgesti,
307918,RO,26,Berlesti,
307919,RO,26,Prigoria,
307920,RO,2,Corcesti,
307921,RO,2,Zarand,
307922,RO,2,Harau,
307923,RO,32,Unimat,
307924,RO,26,Deveselu,
307925,RO,42,Rata,
307926,RO,42,Miroslavesti,
307927,RO,5,Balc,
307928,RO,38,Morareni,
307929,RO,27,Morareni,
307930,RO,2,Cil,
307931,RO,18,Garvan,
307932,RO,23,Rachiteni,
307933,RO,18,Vanatori,
307934,RO,9,Purcareni,
307935,RO,33,Dragus,
307936,RO,23,Podu Hagiului,
307937,RO,14,Dorobantu,
307938,RO,32,Turt,
307939,RO,11,Vernesti,
307940,RO,8,Chiscani,
307941,RO,26,Vela,
307942,RO,23,Nisiporesti,
307943,RO,39,Pausesti,
307944,RO,19,Rasova,
307945,RO,30,Gageni,
307946,RO,42,Drajna De Sus,
307947,RO,30,Fagetu,
307948,RO,38,Ghermanesti,
307949,RO,42,Slobozia,
307950,RO,36,Fibis,
307951,RO,2,Valisoara,
307952,RO,7,Dumeni,
307953,RO,26,Orevita Mare,
307954,RO,33,Tîrnava,
307955,RO,36,Barateaz,
307956,RO,35,Baciu,
307957,RO,21,Teliucu Inferior,
307958,RO,20,Alsòsòfalva,
307959,RO,19,Pojogeni,
307960,RO,41,Calarasii Vechi,
307961,RO,27,Delenii,
307962,RO,27,Batos,
307963,RO,42,Albesti,
307964,RO,42,Ungheni,
307965,RO,17,Breasta,
307966,RO,26,Marsani,
307967,RO,26,Tamburesti,
307968,RO,17,Tartalau,
307969,RO,26,Giubega,
307970,RO,38,Todiresti,
307971,RO,27,Tagsorul,
307972,RO,39,Bercioiu,
307973,RO,27,Stânceni,
307974,RO,32,Amati,
307975,RO,36,Bazos,
307976,RO,39,Maldaresti,
307977,RO,4,Racova,
307978,RO,34,Dersca,
307979,RO,25,Cîmpulung La Tisa,
307980,RO,34,Balcauti,
307981,RO,39,Suici,
307982,RO,5,Sauaeu,
307983,RO,29,Cezieni,
307984,RO,5,Gepiu,
307985,RO,42,Mosteni,
307986,RO,40,Hotaru,
307987,RO,26,Slivilesti,
307988,RO,30,Popesti,
307989,RO,32,Homorodu De Sus,
307990,RO,34,Buda,
307991,RO,42,Balamuci,
307992,RO,27,Laslau Mare,
307993,RO,19,Glogova,
307994,RO,14,Valea Dacilor,
307995,RO,40,Dumitresti,
307996,RO,34,Masca,
307997,RO,5,Gheghie,
307998,RO,2,Bucova,
307999,RO,31,Oarta De Sus,
308000,RO,42,Toporu,
308001,RO,5,Chioag,
308002,RO,15,Icafalau,
308003,RO,12,Girbovat,
308004,RO,26,Macesu De Sus,
308005,RO,39,Valea Danului,
308006,RO,5,Cosniciu De Sus,
308007,RO,12,Resita Mica,
308008,RO,2,Chiscau,
308009,RO,28,Dragomiresti,
308010,RO,2,Iratosu,
308011,RO,43,Dârza,
308012,RO,25,Mocira,
308013,RO,9,Vladeni,
308014,RO,27,Feisa,
308015,RO,26,Draghiceni,
308016,RO,2,Aradu Nou,
308017,RO,42,Cartojani,
308018,RO,1,Cisteiu De Mures,
308019,RO,30,Puscasi,
308020,RO,9,Comana De Jos,
308021,RO,4,Lespezi,
308022,RO,26,Bolbosi,
308023,RO,26,Listeava,
308024,RO,36,Igris,
308025,RO,36,Jamu Mare,
308026,RO,23,Sorogari,
308027,RO,4,Valea Budului,
308028,RO,5,Carpinet,
308029,RO,6,Bistra Muresului,
308030,RO,33,Bradu,
308031,RO,36,Gross-jetscha,
308032,RO,2,Horia,
308033,RO,2,Ociu,
308034,RO,39,Valea Iasului,
308035,RO,39,Tomsani,
308036,RO,6,Budacu De Jos,
308037,RO,27,Saes,
308038,RO,42,Tataru,
308039,RO,5,Voica,
308040,RO,39,Între Prejbi,
308041,RO,2,Aldesti,
308042,RO,36,Checea,
308043,RO,2,Galsa,
308044,RO,6,Lunca,
308045,RO,14,Fântânele,
308046,RO,9,Mândra,
308047,RO,43,Baneasa,
308048,RO,2,Certeju De Sus,
308049,RO,11,Vârfu,
308050,RO,27,Capalna De Jos,
308051,RO,42,Silistea Mica,
308052,RO,21,Sântandrei,
308053,RO,27,Eremieni,
308054,RO,32,Soconzel,
308055,RO,22,Gaita,
308056,RO,12,Ghertenis,
308057,RO,2,Vârfurile,
308058,RO,22,Saveni,
308059,RO,42,Surani,
308060,RO,9,Copacel,
308061,RO,42,Stâlpu,
308062,RO,15,Albis,
308063,RO,11,Clondiru,
308064,RO,38,Isvor,
308065,RO,25,Oncesti,
308066,RO,14,Silistea,
308067,RO,42,Muscel,
308068,RO,21,Valeanu,
308069,RO,34,Comanesti,
308070,RO,16,Vulcana Bai,
308071,RO,17,Cotofenii Din Fata,
308072,RO,6,Lunca Ilvei,
308073,RO,17,Leu,
308074,RO,39,Mioarele,
308075,RO,2,Manerau,
308076,RO,38,Valea Sarii,
308077,RO,14,Tariverde,
308078,RO,28,Bodestii De Jos,
308079,RO,27,Stejeris,
308080,RO,25,Rona De Jos,
308081,RO,34,Preutesti,
308082,RO,39,Calina,
308083,RO,1,Geoagiu De Sus,
308084,RO,26,Caraula,
308085,RO,26,Vadastra,
308086,RO,3,Popesti,
308087,RO,26,Branesti,
308088,RO,40,Gologanu,
308089,RO,34,Risca,
308090,RO,29,Teslui,
308091,RO,8,Traian,
308092,RO,27,Bezid,
308093,RO,26,Obirsia,
308094,RO,42,Islaz,
308095,RO,5,Chisirid,
308096,RO,23,Grajduri,
308097,RO,27,Dumitreni,
308098,RO,32,Craidorolt,
308099,RO,32,Supuru De Jos,
308100,RO,42,Darasti-ilfov,
308101,RO,39,Francesti,
308102,RO,25,Berchez,
308103,RO,7,Baluseni,
308104,RO,27,Tigmandru,
308105,RO,41,Cucuieti,
308106,RO,25,Sacalaseni,
308107,RO,16,Tita,
308108,RO,28,Hangu,
308109,RO,13,Nima,
308110,RO,36,Mosnita,
308111,RO,5,Calatea,
308112,RO,26,Voineasa,
308113,RO,6,Romuli,
308114,RO,4,Magura,
308115,RO,34,Arinii,
308116,RO,6,Agrisu De Jos,
308117,RO,17,Balta Verde,
308118,RO,31,Racova,
308119,RO,26,Seaca De Padure,
308120,RO,36,Juresti,
308121,RO,42,Mihai Voda,
308122,RO,22,Baraganul,
308123,RO,26,Bala,
308124,RO,5,Muntele Cacovei,
308125,RO,5,Uileacu De Cris,
308126,RO,7,Cristinesti,
308127,RO,12,Tirol,
308128,RO,38,Cornet,
308129,RO,37,Enisala,
308130,RO,27,Peris,
308131,RO,27,Neagra,
308132,RO,5,Tilecus,
308133,RO,27,Cipaeni,
308134,RO,7,Vlasinesti,
308135,RO,27,Oarba De Mures,
308136,RO,3,Malureni,
308137,RO,3,Geamana,
308138,RO,23,Pribesti,
308139,RO,1,Aiudul-de-sus,
308140,RO,30,Valea Cucului,
308141,RO,7,Cotârgaci,
308142,RO,26,Severinesti,
308143,RO,38,Hoceni,
308144,RO,40,Gagesti,
308145,RO,40,Bolotesti,
308146,RO,32,Botiz,
308147,RO,26,Motatei,
308148,RO,2,Ignesti,
308149,RO,42,Zavoiu,
308150,RO,43,Teghes,
308151,RO,42,Armasesti,
308152,RO,42,Nucsoara De Sus,
308153,RO,5,Misca,
308154,RO,42,Burdulesti,
308155,RO,26,Butoiesti,
308156,RO,10,Vladiceasca,
308157,RO,26,Pesteana,
308158,RO,13,Valeni,
308159,RO,36,Sânpetru Mic,
308160,RO,19,Godinesti,
308161,RO,18,Moscu,
308162,RO,42,Dumitrana,
308163,RO,18,Viile,
308164,RO,5,Ticau,
308165,RO,39,Pausa,
308166,RO,13,Geaca,
308167,RO,42,Bughea De Jos,
308168,RO,10,Dudesti,
308169,RO,42,Babiciu,
308170,RO,1,Câlnic,
308171,RO,42,Lunca Jaristei,
308172,RO,23,Chicerea,
308173,RO,42,Nucsoara De Jos,
308174,RO,36,Gottlob,
308175,RO,36,Nerau,
308176,RO,6,Iacobeni,
308177,RO,27,Malancrav,
308178,RO,26,Breznita Ocol,
308179,RO,11,Smeeni,
308180,RO,26,Capreni,
308181,RO,2,Bucuresci,
308182,RO,42,Slatina,
308183,RO,8,Dedulesti,
308184,RO,5,Lesmir,
308185,RO,2,Varsand,
308186,RO,25,Huta Certeze,
308187,RO,3,Davidesti,
308188,RO,25,Dragomiresti,
308189,RO,34,Udesti,
308190,RO,41,Crivat,
308191,RO,26,Râu-alb,
308192,RO,5,Bilghez,
308193,RO,26,Urzica,
308194,RO,5,Curtuiseni,
308195,RO,6,Livezile,
308196,RO,3,Smeura,
308197,RO,34,Cornu Luncii,
308198,RO,29,Farcasele,
308199,RO,38,Soci,
308200,RO,32,Baba Novac,
308201,RO,13,Kolozsvar,
308202,RO,29,Romana,
308203,RO,16,Prod,
308204,RO,16,Viilor,
308205,RO,39,Ramnicu Valcea,
308206,RO,2,Pancota,
308207,RO,16,Sighisoara,
308208,RO,21,Petrosani,
308209,RO,22,Ion Ghica,
308210,RO,19,Targu Jiu,
308211,RO,15,Sfantul,
308212,RO,9,Vilcea,
308213,RO,38,Barlad,
308214,RO,12,Delinesti,
308215,RO,21,Negru Voda,
308216,RO,18,Cluceru,
308217,RO,26,Vanju-mare,
308218,RO,11,Nifon,
308219,RO,14,Ferdinand I,
308220,RO,26,Targu,
308221,RO,36,Sangeorgiu,
308222,RO,7,Aurel Vlaicu,
308223,RO,13,Campia Turzii,
308224,RO,18,Smardan,
308225,RO,5,Santandrei,
308226,RO,26,Lacul,
308227,RO,42,Ciochina,
308228,RO,42,Campulung,
308229,RO,27,Calusei,
308230,RO,37,Sfantu Gheorghe,
308231,RO,34,Costina,
308232,RO,39,Teiul,
308233,RO,42,Brancoveanu,
308234,RO,5,Dancu,
308235,RO,4,Pirjol,
308236,RO,42,Campina,
308237,RO,15,Sinzieni,
308238,RO,36,Lorand,
308239,RO,42,Crangasi,
308240,RO,20,Izvorul Trotusului,
308241,RO,42,Luncsoara,
308242,RO,13,Valea Florilor,
308243,RO,39,Ramnicul Valcea,
308244,RO,8,Cojocaru,
308245,RO,30,Paleologu,
308246,RO,34,Voronet,
308247,RO,36,Toader,
308248,RO,23,Trestiana,
308249,RO,31,Campia,
308250,RO,39,Nucsoara,
308251,RO,26,Tina,
308252,RO,42,Badeni,
308253,RO,17,Langa,
308254,RO,2,Ruschita,
308255,RO,43,Ciorogarla,
308256,RO,23,Ion Neculce,
308257,RO,16,Petresti,
308258,RO,38,Suranesti,
308259,RO,26,Filaret,
308260,RO,1,Santimbru,
308261,RO,11,Cimpeni,
308262,RO,20,Izvorul Muresului,
308263,RO,7,Gafencu,
308264,RO,37,Malcoci,
308265,RO,26,Barca,
308266,RO,38,Delea,
308267,RO,38,Izvor,
308268,RO,13,Huda,
308269,RO,33,Talmacel,
308270,RO,19,Mogoseni,
308271,RO,21,Lupeni,
308272,RO,26,Targul,
308273,RO,27,Ilioara,
308274,RO,4,Targu Ocna,
308275,RO,38,Bulboaca,
308276,RO,26,Halanga,
308277,RO,5,Sarbi,
308278,RO,42,Berindei,
308279,RO,7,Burla,
308280,RO,41,Luica,
308281,RO,43,Otetelesanu,
308282,RO,38,Balca,
308283,RO,42,Caldarusani,
308284,RO,21,Vulcan,
308285,RO,28,Humulesti,
308286,RO,23,Targul Frumos,
308287,RO,42,Selari,
308288,RO,9,Teleajen,
308289,RO,21,Balomir,
308290,RO,21,Bobalna,
308291,RO,8,Sihleanu,
308292,RO,42,Odai,
308293,RO,4,Negri,
308294,RO,10,Polizu,
308295,RO,21,Orzari,
308296,RO,20,Fantana,
308297,RO,39,Paduretu,
308298,RO,23,Botea,
308299,RO,3,Cotroceni,
308300,RO,23,Bara,
308301,RO,21,Manu,
308302,RO,1,Uioara,
308303,RO,2,Minis,
308304,RO,26,Rotunda,
308305,RO,23,Targu-frumos,
308306,RO,23,Tirgu Frumos,
308307,RO,21,Petrila,
308308,RO,34,Campulung Moldovenesc,
308309,RO,42,Poiana-campina,
308310,RO,5,Delani,
308311,RO,5,Reny,
308312,RO,5,Bontesd,
308313,RO,5,Erselend,
308314,RO,26,Tamna,
308315,RO,42,Sfantu Gheorghe,
308316,RO,15,Sfintu Gheorghe,
308317,RO,30,Paulestii Noi,
308318,RO,16,Matasaru,
308319,RO,42,Sfintu Gheorghe,
308320,RO,27,Sancraiul-de-mures,
308321,RO,5,Merag,
308322,RO,36,Sannicolaul Mare,
308323,RO,27,Chirileu,
308324,RO,15,Tirgu Secuesc,
308325,RO,15,Kezdivasarhely,
308326,RO,34,Sfantu-ilie,
308327,RO,16,Fantanele,
308328,RO,27,Stanceni,
308329,RO,2,Deznalaz,
308330,RO,41,Tanganu,
308331,RO,36,Sanovita,
308332,RO,16,Crangurile-de-jos,
308333,RO,36,Sanmihaiu Roman,
308334,RO,36,Sanandrei,
308335,RO,1,Campeni,
308336,RO,2,Birsa,
308337,RO,2,Borossebes,
308338,RO,5,Cimp-moti,
308339,RO,25,Barsana,
308340,RO,22,Tovarasia,
308341,RO,25,Stramtura,
308342,RO,16,Laslau Mare,
308343,RO,23,Harlau,
308344,RO,21,Pietrosani,
308345,RO,43,Darza,
308346,RO,26,Rau-alb,
308347,RO,36,Sinmihaiu German,
308348,RO,26,Isverna,
308349,RO,16,Gura Foii,
308350,RO,18,Targu Bujor,
308351,RO,21,Cobadin,
308352,RO,1,Calnic,
308353,RO,20,Sandominic,
308354,RO,16,Laslea,
308355,RO,42,Crampoaia,
308356,RO,32,Sanislau,
308357,RO,42,Sangeru,
308358,RO,15,Sfantu-gheorghe,
308359,RO,15,Sansimion,
308360,RO,27,Raciu,
308361,RO,2,Savirsin,
308362,RO,34,Tibeni,
308363,RO,33,Tirnava,
308364,RO,16,Sangeorgiu-de-padure,
308365,RO,16,Balauseri,
308366,RO,16,Dumitreni,
308367,RO,13,Bunesti,
308368,RO,21,Santandrei,
308369,RO,5,Szod,
308370,RO,7,Cotargaci,
308371,RO,9,Sinpetru,
308372,RO,4,Parjol,
308373,RO,28,Garcina,
308374,RO,13,Klausenburg,
308375,RO,36,Temeswar,
308376,RO,18,Galatz,
308377,RO,9,Kronstadt,
308378,RO,26,Stejari,
308379,RO,21,Rapoltu Mare,
308380,RO,38,Domnesti-sat,
308381,RO,26,Amarastii De Jos,
308382,RO,20,Valea-stramba,
308383,RO,40,Hingulesti,
308384,RO,16,Mogosani,
308385,RO,21,Ciula Mare,
308386,RO,2,Sanmartin,
308387,RO,25,Salsig,
308388,RO,11,Parscov,
308389,RO,36,Sinersig,
308390,RO,42,Jugureni,
308391,RO,3,Varzaroaia,
308392,RO,42,Bujoreanca,
308393,RO,20,Bisericani,
308394,RO,5,Ceica,
308395,RO,12,Tarnova,
308396,RO,12,Marul,
308397,RO,27,Roandola,
308398,RO,13,Vistea,
308399,RO,7,Suharau,
308400,RO,26,Stroesti,
308401,RO,39,Sambotin,
308402,RO,16,Coroisanmartin,
308403,RO,15,Sfantul-gheorghe,
308404,RO,19,Ciorasti,
308405,RO,1,Boz,
308406,RO,21,Chirnogeni,
308407,RO,36,Sinpetru German,
308408,RO,7,Catamaresti-deal,
308409,RO,39,Raureni,
308410,RO,26,Galiciuica,
308411,RO,5,Carandeni,
308412,RO,19,Catunele,
308413,RO,6,Cozanesti,
308414,RO,5,Vasad,
308415,RO,17,Mlecanesti,
308416,RO,39,Bunesti,
308417,RO,16,Viisoara,
308418,RO,40,Campineanca,
308419,RO,28,Topolita,
308420,RO,35,Tarnava,
308421,RO,1,Rachita,
308422,RO,19,Novaci,
308423,RO,42,Glodeanul Sarat,
308424,RO,21,Branisca,
308425,RO,15,Tirgu Secuiesc,
308426,RO,31,Cristoltel,
308427,RO,20,Szentlelek,
308428,RO,20,Racos,
308429,RO,27,Porumbenii,
308430,RO,34,Adancata,
308431,RO,31,Boghis,
308432,RO,27,Brancovenesti,
308433,RO,42,Copaceni,
308434,RO,21,Aninoasa,
308435,RO,21,Subcetate,
308436,RO,4,Candesti,
308437,RO,13,Unirea,
308438,RO,25,Perii Vadului,
308439,RO,19,Rasovita,
308440,RO,5,Sinmartin,
308441,RO,32,Porumbesti,
308442,RO,31,Domnin,
308443,RO,20,Firtusu,
308444,RO,21,Bragadiru,
308445,RO,41,Faurei,
308446,RO,42,Negrilesti,
308447,RO,21,Harau,
308448,RO,26,Purcaru,
308449,RO,39,Tabaci,
308450,RO,28,Bicazul Ardelean,
308451,RO,21,Josani,
308452,RO,29,Salcia,
308453,RO,15,Dopca,
308454,RO,25,Berbesti,
308455,RO,15,Aita Medie,
308456,RO,18,Tulucesti,
308457,RO,23,Saveni,
308458,RO,27,Capilna De Jos,
308459,RO,37,Nufaru,
308460,RO,28,Ghindaoani,
308461,RO,42,Stefesti,
308462,RO,36,Birda,
308463,RO,5,Santion,
308464,RO,29,Brancoveni,
308465,RO,34,Pojorata,
308466,RO,21,Livadia,
308467,RO,26,Ostrovul Corbului,
308468,RO,42,Baba Ana,
308469,RO,14,Dulcesti,
308470,RO,20,Borzont,
308471,RO,41,Gruiu,
308472,RO,15,Valcele,
308473,RO,35,Sfintesti,
308474,RO,6,Cosna,
308475,RO,7,Cismea,
308476,RO,11,Potoceni,
308477,RO,11,Boboc,
308478,RO,21,Vetel,
308479,RO,7,Sirbi,
308480,RO,33,Cirtisoara,
308481,RO,34,Fantanele,
308482,RO,35,Bogdana,
308483,RO,21,Boli,
308484,RO,38,Ploscuteni,
308485,RO,42,Homoraciu,
308486,RO,42,Gheboaia,
308487,RO,7,Unteni,
308488,RO,2,Salciua De Sus,
308489,RO,12,Liubcova,
308490,RO,8,Paunesti,
308491,RO,4,Saucesti,
308492,RO,26,Traian,
308493,RO,5,Santaul-mic,
308494,RO,25,Valeni,
308495,RO,21,Pestera,
308496,RO,42,Crangeni,
308497,RO,8,Plopu,
308498,RO,26,Gangiova,
308499,RO,42,Domnesti,
308500,RO,16,Dragodana,
308501,RO,40,Slobozia-ciorasti,
308502,RO,33,Racovita,
308503,RO,2,Sarmizegetusa,
308504,RO,15,Martineni,
308505,RO,42,Tia Mare,
308506,RO,12,Naidas,
308507,RO,17,Izvorul Rece,
308508,RO,21,Rascoala,
308509,RO,11,Oreavul,
308510,RO,21,Costesti,
308511,RO,25,Mogosesti,
308512,RO,31,Ciumarna,
308513,RO,35,Vaceni,
308514,RO,21,Paroseni,
308515,RO,20,Tomesti,
308516,RO,26,Afumati,
308517,RO,42,Hatcarau,
308518,RO,16,Nades,
308519,RO,42,Ciocarlia,
308520,RO,13,Mica,
308521,RO,16,Zagar,
308522,RO,4,Bizga,
308523,RO,42,Gutu,
308524,RO,6,Maier,
308525,RO,27,Deaj,
308526,RO,27,Sanger,
308527,RO,31,Barsa,
308528,RO,19,Balteni,
308529,RO,1,Drasov,
308530,RO,41,Razvani,
308531,RO,1,Sancel,
308532,RO,34,Musenita,
308533,RO,2,Cigmau,
308534,RO,27,Padurea,
308535,RO,13,Comsesti,
308536,RO,27,Rusii Munti,
308537,RO,22,Movila,
308538,RO,26,Piscuri,
308539,RO,16,Raciu,
308540,RO,3,Colonesti,
308541,RO,29,Slatioara,
308542,RO,11,Chiliile,
308543,RO,25,Buciumi,
308544,RO,42,Badesti,
308545,RO,30,Podenii Vechi,
308546,RO,21,Almasul Mic,
308547,RO,15,Bicfalau,
308548,RO,13,Fodora,
308549,RO,31,Rona,
308550,RO,27,Kibed,
308551,RO,5,Buduslau,
308552,RO,39,Cepari,
308553,RO,16,Sateni,
308554,RO,5,Curatele,
308555,RO,22,Fetesti-gara,
308556,RO,13,Capusu Mare,
308557,RO,25,Calinesti,
308558,RO,5,Almasu,
308559,RO,20,Armaseni,
308560,RO,33,Apoldu De Sus,
308561,RO,42,Negrasi,
308562,RO,2,Grosshalmagen,
308563,RO,42,Bolovani,
308564,RO,26,Ionesti,
308565,RO,7,Dumbravita,
308566,RO,2,Mandruloc,
308567,RO,38,Popeni,
308568,RO,3,Stalpeni,
308569,RO,13,Babutiu,
308570,RO,30,Rifov,
308571,RO,12,Berzasca,
308572,RO,10,Andronache,
308573,RO,4,Itesti,
308574,RO,27,Brincovenesti,
308575,RO,34,Cimpulung Moldovenesc,
308576,RO,36,Sannicolau Mare,
308577,RO,14,Eforie Nord,
308578,RO,14,Constantza,
308579,RO,19,Tirgu Jiu,
308580,RO,39,Rimnicu Vilcea,
308581,RO,12,Otelul Rosu,
308582,RO,27,Sincraiu De Mures,
308583,RO,43,Tamasi,
308584,RO,20,Ujfalu,
308585,RO,42,Bolintin Vale,
308586,RO,11,Rimnicu Sarat,
308587,RO,34,Campulung,
308588,RO,14,Murfatlar,
308589,RO,38,Birlad,
308590,RO,36,Sinmihaiu Roman,
308591,RO,28,Tirgu Neamt,
308592,RO,42,1 Decembrie,
308593,RO,34,Dolhestii Mari,
308594,RO,42,Maneciu-ungureni,
308595,RO,42,Cimpulung,
308596,RO,27,Singeorgiu De Mures,
308597,RO,27,Nyaradszereda,
308598,RO,11,Ramnicul Sarat,
308599,RO,1,Cimpeni,
308600,RO,20,Gyergyoszentmiklos,
308601,RO,20,Borszek,
308602,RO,19,Bilteni,
308603,RO,28,Pingarati,
308604,RO,20,Sincraieni,
308605,RO,30,Tirgsoru Vechi,
308606,RO,34,Tampesti,
308607,RO,30,Valeni-de-munte,
308608,RO,16,Candesti Vale,
308609,RO,16,Erdoszentgyorgy,
308610,RO,2,Vinga,
308611,RO,9,Brasso,
308612,RO,42,Cimpina,
308613,RO,20,Szekelyudvarhely,
308614,RO,20,Szekelykeresztur,
308615,RO,15,Barot,
308616,RO,15,Batanii Mari,
308617,RO,11,Luciu,
308618,RO,43,Ciorogirla,
308619,RO,13,Colonia,
308620,RO,27,Tirnaveni,
308621,RO,25,Viseu,
308622,RO,16,Picior De Munte,
308623,RO,23,Ciohorani,
308624,RO,34,Moara Nica,
308625,RO,7,Plopenii Mici,
308626,RO,39,Ciofrangeni,
308627,RO,38,Valea Merilor,
308628,RO,41,Crasani,
308629,RO,36,Cherestur,
308630,RO,1,Panade,
308631,RO,17,Ciupercenii Noi,
308632,RO,15,Batanii Mici,
308633,RO,5,Hidis,
308634,RO,27,Marosszentgyorgy,
308635,RO,12,Buchin,
308636,RO,23,Hirlau,
308637,RO,27,Lunca Muresului,
308638,RO,28,Socea,
308639,RO,1,Dacia-romana,
308640,RO,7,Valea Grajdului,
308641,RO,16,Danes,
308642,RO,39,Tigveni,
308643,RO,39,Cetatuia,
308644,RO,6,Corvinesti,
308645,RO,34,Iaslovat,
308646,RO,25,Bocicoiu Mare,
308647,RO,5,Sig,
308648,RO,16,Hoghilag,
308649,RO,19,Arcani,
308650,RO,16,Sperieteni,
308651,RO,27,Velt,
308652,RO,42,Garbovi,
308653,RO,20,Gheorghieni,
308654,RO,30,Stejaru,
308655,RO,30,Boldesti,
308656,RO,5,Voivozi,
308657,RO,43,Stefanesti-de-jos,
308658,RO,19,Floresti,
308659,RO,5,Margine,
308660,RO,13,Vlaha,
308661,RO,42,Contesti,
308662,RO,42,Cocorasti-colt,
308663,RO,23,Hartoape,
308664,RO,20,Remete,
308665,RO,6,Susenii Bargaului,
308666,RO,8,Scortaru Vechi,
308667,RO,11,Pirscov,
308668,RO,4,Garleni,
308669,RO,20,Ciucsangeorgiu,
308670,RO,28,Valea Seaca,
308671,RO,42,Tisa,
308672,RO,36,German,
308673,RO,5,Burda,
308674,RO,2,Cuvin,
308675,RO,15,Tamasfalva,
308676,RO,6,Singeorz-bai,
308677,RO,42,Valea Plopului,
308678,RO,23,Stefanesti,
308679,RO,38,Focsa,
308680,RO,15,Kozepajta,
308681,RO,4,Satu Nou,
308682,RO,14,Sibioara,
308683,RO,21,Bobilna,
308684,RO,19,Calugareasa,
308685,RO,23,Cozmesti,
308686,RO,20,Gyergyoalfalu,
308687,RO,37,Nalbant,
308688,RO,16,Viforoasa,
308689,RO,26,Ceptureni,
308690,RO,20,Santimbru,
308691,RO,15,Aita Mare,
308692,RO,38,Ciorani,
308693,RO,11,Mosesti,
308694,RO,18,Bujor,
308695,RO,2,Voislova,
308696,RO,31,Doba,
308697,RO,6,Sasarm,
308698,RO,40,Oreavu,
308699,RO,26,Rusanesti,
308700,RO,2,Negoi,
308701,RO,21,Pestisul-mic,
308702,RO,30,Filipestii De Tirg,
308703,RO,42,Novacesti,
308704,RO,32,Dumbrava,
308705,RO,36,Barna,
308706,RO,21,Ghelari,
308707,RO,8,Lacu Sarat,
308708,RO,35,Comoara,
308709,RO,31,Bobota,
308710,RO,20,Selistat,
308711,RO,1,Sincrai,
308712,RO,26,Bibesti,
308713,RO,3,Suseni,
308714,RO,42,Stanila,
308715,RO,42,Soimari,
308716,RO,30,Batesti,
308717,RO,2,Bethausen,
308718,RO,11,Merei,
308719,RO,17,Curtisoara,
308720,RO,14,Nicolae Balcescu,
308721,RO,20,Filia,
308722,RO,39,Cicanesti,
308723,RO,36,Temesvar,
308724,RO,36,Cerneteaz,
308725,RO,20,Csikszentmiklos,
308726,RO,36,Sinandrei,
308727,RO,36,Gelu,
308728,RO,29,Fumureni,
308729,RO,42,Valea Plopilor,
308730,RO,27,Sintana De Mures,
308731,RO,13,Casele Micesti,
308732,RO,17,Mischii,
308733,RO,5,Mezes,
308734,RO,5,Sancraiu,
308735,RO,38,Movilita,
308736,RO,12,Prisian,
308737,RO,42,Boranesti,
308738,RO,42,Maneciu-pamanteni,
308739,RO,16,Agristeu,
308740,RO,6,Sieut,
308741,RO,39,Salatrucel,
308742,RO,15,Malnas,
308743,RO,5,Sintion,
308744,RO,30,Ploesti,
308745,RO,25,Tautii De Sus,
308746,RO,7,Bajura,
308747,RO,36,Sanmihaiu German,
308748,RO,40,Cirligele,
308749,RO,20,Gyergyo,
308750,RO,12,Forotic,
308751,RO,42,Mirsa,
308752,RO,21,Chitid,
308753,RO,15,Rotbav,
308754,RO,21,Carjiti,
308755,RO,4,Capota,
308756,RO,42,Olarii Vechi,
308757,RO,20,Ditro,
308758,RO,1,Spring,
308759,RO,16,Ionesti,
308760,RO,3,Catanele,
308761,RO,12,Girnic,
308762,RO,13,Corusu,
308763,RO,20,Kanyad,
308764,RO,1,Sintimbru,
308765,RO,5,Budoi,
308766,RO,14,Kogealak,
308767,RO,9,Rausor,
308768,RO,27,Cund,
308769,RO,21,Bacia,
308770,RO,3,Teiu,
308771,RO,9,Szentpeter,
308772,RO,33,Hamba,
308773,RO,38,Vrancioaia,
308774,RO,3,Badesti,
308775,RO,32,Sacaseni,
308776,RO,5,Bratca,
308777,RO,42,Malu Rosu,
