locId,country,region,city,postcode
308778,RS,,,
308779,RS,2,Belgrade,
308780,RS,2,Subotica,
308781,RS,2,Beograd,
308782,RS,2,Novi Sad,
308783,RS,2,Becej,
308784,RS,2,Sremska Kamenica,
308785,RS,0,Beograd,
308786,RS,2,Zrenjanin,
308787,RS,2,Vrsac,
308788,RS,1,Niksic,
308789,RS,2,Kragujevac,
308790,RS,2,Kosovo,
308791,RS,0,Belgrade,
308792,RS,1,Podgorica,
308793,RS,2,Pristina,
308794,RS,2,Prishtinë,
308795,RS,2,Novi Beograd,
308796,RS,2,Smederevo,
308797,RS,2,Kula,
308798,RS,2,Pancevo,
308799,RS,2,Sremska Mitrovica,
308800,RS,2,Vrnjacka Banja,
308801,RS,2,Sombor,
308802,RS,2,Cacak,
308803,RS,2,Sabac,
308804,RS,2,Kanjiza,
308805,RS,2,Dardania,
308806,RS,2,Backa Palanka,
308807,RS,2,Ljutice,
308808,RS,2,Popovica,
308809,RS,2,Smederevska Palanka,
308810,RS,2,Vrbas,
308811,RS,2,Vranje,
308812,RS,2,Uzice,
308813,RS,2,Kikinda,
308814,RS,2,Pogled,
308815,RS,2,Senta,
308816,RS,2,Kosovska Mitrovica,
308817,RS,2,Prokuplje,
308818,RS,2,Ferizaj,
308819,RS,2,Gjakovë,
308820,RS,2,Backa Topola,
308821,RS,2,Leskovac,
308822,RS,2,Arilje,
308823,RS,2,Kraljevo,
308824,RS,2,Zajecar,
308825,RS,2,Popovac,
308826,RS,2,Krusevac,
308827,RS,2,Kursumlija,
308828,RS,2,Apatin,
308829,RS,2,Markovica,
308830,RS,2,Presevo,
308831,RS,2,Zvecan,
308832,RS,2,Vlasotince,
308833,RS,2,Pirot,
308834,RS,2,Celarevo,
308835,RS,2,Albanija,
308836,RS,2,Dushi,
308837,RS,2,Obrenovac,
308838,RS,2,Zemun,
308839,RS,2,Mionica,
308840,RS,2,Indjija,
308841,RS,2,Krnjevo,
308842,RS,2,Pozarevac,
308843,RS,2,Sevojno,
308844,RS,1,Mramor,
308845,RS,2,Valjevo,
308846,RS,2,Brus,
308847,RS,2,Petrovac,
308848,RS,2,Milanovac,
308849,RS,2,Gradska,
308850,RS,2,Loznica,
308851,RS,2,Cukarica,
308852,RS,2,Karadjordjevo,
308853,RS,2,Bela Palanka,
308854,RS,2,Cuprija,
308855,RS,2,Markovic,
308856,RS,2,Pozega,
308857,RS,2,Grocka,
308858,RS,2,Priboj,
308859,RS,2,Topola,
308860,RS,2,Prizren,
308861,RS,2,Simanovci,
308862,RS,1,Petrovic,
308863,RS,2,Backi Jarak,
308864,RS,2,Tosin Bunar,
308865,RS,2,Zeleznik,
308866,RS,2,Kucevo,
308867,RS,2,Kovin,
308868,RS,2,Kostolac,
308869,RS,2,Krnjesevci,
308870,RS,1,Rakovac,
308871,RS,2,Vojska,
308872,RS,2,Guca,
308873,RS,2,Crveni,
308874,RS,2,Barajevo,
308875,RS,2,Vrcin,
308876,RS,2,Nova Pazova,
308877,RS,2,Cesta,
308878,RS,2,Lazarevac,
308879,RS,2,Negotin,
308880,RS,2,Berisha,
308881,RS,2,Raca,
308882,RS,2,Idjos,
308883,RS,2,Milentija,
308884,RS,2,Dolovo,
308885,RS,2,Ruma,
308886,RS,2,Zatriq,
308887,RS,2,Zabari,
308888,RS,2,Vucje,
308889,RS,2,Paracin,
308890,RS,2,Kladovo,
308891,RS,2,Novi Pazar,
308892,RS,2,Bujanovac,
308893,RS,2,Gjilan,
308894,RS,2,Mitrovica,
308895,RS,2,Istog,
308896,RS,2,Pejë,
308897,RS,2,Music,
308898,RS,2,Gornji Milanovac,
308899,RS,2,Mladenovac,
308900,RS,2,Vreoci,
308901,RS,0,Pancevo,
308902,RS,0,Mitrovic,
308903,RS,0,Subotica,
308904,RS,2,Stara Pazova,
308905,RS,2,Besianë,
308906,RS,0,Obrenovac,
308907,RS,2,Sonta,
308908,RS,2,Soko Banja,
308909,RS,0,Novi Beograd,
308910,RS,1,Petnica,
308911,RS,2,Mataruska Banja,
308912,RS,2,Odzaci,
308913,RS,0,Novi Sad,
308914,RS,1,Kolonija,
308915,RS,2,Bela Crkva,
308916,RS,2,Beska,
308917,RS,2,Lebane,
308918,RS,2,Kovilj,
308919,RS,0,Jelen Do,
308920,RS,0,Nova Pazova,
308921,RS,2,Jagodina,
308922,RS,0,Vrbas,
308923,RS,2,Kovilovo,
308924,RS,0,Sonta,
308925,RS,0,Sremski Karlovci,
308926,RS,0,Simanovci,
308927,RS,0,Kikinda,
308928,RS,2,Bajina Basta,
308929,RS,2,Aleksinac,
308930,RS,2,Kosjeric,
308931,RS,0,Zemun,
308932,RS,0,Odzaci,
308933,RS,0,Ferizaj,
308934,RS,0,Viti,
308935,RS,2,Veternik,
308936,RS,0,Ljutice,
308937,RS,2,Mesarci,
308938,RS,2,Plandiste,
308939,RS,0,Cacak,
308940,RS,0,Ivanjica,
308941,RS,2,Temerin,
308942,RS,0,Stara Pazova,
308943,RS,0,Kula,
308944,RS,0,Starobecejski Sor,
308945,RS,0,Palic,
308946,RS,0,Curug,
308947,RS,0,Kragujevac,
308948,RS,0,Krusevac,
308949,RS,0,Telecka,
308950,RS,0,Ugrinovci,
308951,RS,0,Novi Banovci,
308952,RS,0,Dobanovci,
308953,RS,0,Vojka,
308954,RS,0,Senta,
308955,RS,0,Majdanpek,
308956,RS,0,Pozarevac,
308957,RS,0,Backa Topola,
308958,RS,0,Becej,
308959,RS,0,Jagodina,
308960,RS,0,Vrnjacka Banja,
308961,RS,0,Despotovac,
308962,RS,0,Kac,
308963,RS,0,Beska,
308964,RS,0,Indija,
308965,RS,0,Srbobran,
308966,RS,0,Sajkas,
308967,RS,0,Batocina,
308968,RS,0,Titel,
308969,RS,0,Zrenjanin,
308970,RS,0,Beocin,
308971,RS,0,Rumenka,
308972,RS,0,Backi Jarak,
308973,RS,0,Kovacica,
308974,RS,0,Pristina,
308975,RS,0,Gornji Milanovac,
308976,RS,0,Nis,
308977,RS,0,Backo Petrovo Selo,
308978,RS,0,Sabac,
308979,RS,0,Temerin,
308980,RS,0,Vrsac,
308981,RS,0,Valjevo,
308982,RS,0,Vinca,
308983,RS,0,Celarevo,
308984,RS,0,Vlasotince,
308985,RS,0,Veternik,
308986,RS,0,Petrovaradin,
308987,RS,0,Crvenka,
308988,RS,0,Stanisic,
308989,RS,0,Lazarevac,
308990,RS,0,Milovici,
308991,RS,0,Podgorica,
308992,RS,0,Bijela,
308993,RS,0,Niksic,
308994,RS,0,Sombor,
308995,RS,0,Leskovac,
308996,RS,0,Smederevo,
308997,RS,0,Opovo,
308998,RS,0,Omoljica,
308999,RS,0,Zvecka,
309000,RS,0,Kraljevo,
309001,RS,0,Mali Idos,
309002,RS,0,Pirot,
309003,RS,0,Veliki Crljeni,
309004,RS,0,Bolec,
309005,RS,0,Rekovac,
309006,RS,0,Paracin,
309007,RS,0,Medveda,
309008,RS,0,Bela Palanka,
309009,RS,0,Radinac,
309010,RS,0,Stari Banovci,
309011,RS,0,Rudovci,
309012,RS,0,Ada,
309013,RS,0,Irig,
309014,RS,0,Prijepolje,
309015,RS,0,Velika Plana,
309016,RS,0,Glogonj,
309017,RS,0,Barajevo,
309018,RS,0,Bavaniste,
309019,RS,0,Grocka,
309020,RS,0,Kosovska Mitrovica,
309021,RS,0,Melenci,
309022,RS,0,Padina,
309023,RS,0,Presevo,
309024,RS,0,Svilajnac,
309025,RS,0,Azanja,
309026,RS,0,Kusadak,
309027,RS,0,Durdevo,
309028,RS,0,Sopot,
309029,RS,0,Kovin,
309030,RS,0,Cicevac,
309031,RS,0,Smederevska Palanka,
309032,RS,0,Uzice,
309033,RS,0,Koceljeva,
309034,RS,0,Petrovac,
309035,RS,0,Bogovina,
309036,RS,0,Mionica,
309037,RS,0,Vogacica,
309038,RS,0,Kosovo Polje,
309039,RS,0,Mladenovac,
309040,RS,0,Backo Gradiste,
309041,RS,0,Ruma,
309042,RS,0,Ostruznica,
309043,RS,0,Priboj,
309044,RS,0,Zabalj,
309045,RS,2,Jankovic,
309046,RS,0,Varvarin,
309047,RS,2,Majdanpek,
309048,RS,0,Backa Palanka,
309049,RS,2,Umka,
309050,RS,2,Ravnaja,
309051,RS,0,Gornji Breg,
309052,RS,0,Beli Potok,
309053,RS,0,Cantavir,
309054,RS,0,Vrcin,
309055,RS,0,Prizren,
309056,RS,0,Starcevo,
309057,RS,0,Futog,
309058,RS,0,Kisac,
309059,RS,0,Ljig,
309060,RS,0,Topola,
309061,RS,0,Aleksinac,
309062,RS,0,Novi Pazar,
309063,RS,0,Baljevac,
309064,RS,0,Ratkovic,
309065,RS,0,Josanicka Banja,
309066,RS,0,Banatsko Novo Selo,
309067,RS,0,Sremcica,
309068,RS,0,Trstenik,
309069,RS,0,Padinska Skela,
309070,RS,0,Ub,
309071,RS,0,Vreoci,
309072,RS,2,Knic,
309073,RS,0,Sremska Mitrovica,
309074,RS,0,Sivac,
309075,RS,0,Negotin,
309076,RS,0,Surcin,
309077,RS,0,Arandelovac,
309078,RS,0,Kljajicevo,
309079,RS,0,Indjija,
309080,RS,0,Sremska Kamenica,
309081,RS,0,Zeleznik,
309082,RS,0,Stara Moravica,
309083,RS,0,Dolovo,
309084,RS,0,Osecina,
309085,RS,0,Ovca,
309086,RS,0,Lapovo,
309087,RS,0,Prokuplje,
309088,RS,0,Pinosava,
309089,RS,0,Ripanj,
309090,RS,2,Dunav,
309091,RS,0,Zajecar,
309092,RS,0,Kanjiza,
309093,RS,0,Coka,
309094,RS,0,Apatin,
309095,RS,0,Deçan,
309096,RS,0,Kostolac,
309097,RS,0,Bajina Basta,
309098,RS,0,Lacarak,
309099,RS,0,Bosilegrad,
309100,RS,0,Dushi,
309101,RS,0,Pec,
309102,RS,0,Jakovo,
309103,RS,0,Bujanovac,
309104,RS,0,Donja Borina,
309105,RS,0,Plandiste,
309106,RS,0,Novi Becej,
309107,RS,0,Gnjilane,
309108,RS,0,Milentija,
309109,RS,0,Prigrevica,
309110,RS,0,Arilje,
309111,RS,0,Urosevac,
309112,RS,0,Begec,
309113,RS,0,Rusanj,
309114,RS,0,Banatsko Veliko Selo,
309115,RS,0,Bela Crkva,
309116,RS,0,Belgrad,
309117,RS,2,Ljig,
309118,RS,2,Backa,
309119,RS,0,Cuprija,
309120,RS,0,Dakovaica,
309121,RS,0,Backi Petrovac,
309122,RS,0,Karavukovo,
309123,RS,0,Lajkovac,
309124,RS,2,Vranjska Banja,
309125,RS,2,Veliko Gradiste,
309126,RS,0,Bor,
309127,RS,0,Svrljig,
309128,RS,0,Boljevac,
309129,RS,0,Brus,
309130,RS,0,Kovilovo,
309131,RS,0,Banatski Karlovac,
309132,RS,0,Abrijë E Poshtemë,
309133,RS,0,Bajmok,
309134,RS,2,Raska,
309135,RS,0,Mataruska Banja,
309136,RS,0,Mol,
309137,RS,0,Carevac,
309138,RS,0,Kucura,
309139,RS,0,Lebane,
309140,RS,0,Stragari,
309141,RS,0,Klenak,
309142,RS,0,Dobra Mahala,
309143,RS,0,Veliko Gradiste,
309144,RS,0,Mediana,
309145,RS,0,Brdo,
309146,RS,0,Dunav,
309147,RS,0,Babusnica,
309148,RS,0,Orahovac,
309149,RS,0,Begaljica,
309150,RS,0,Tica,
309151,RS,2,Labudnjaca,
309152,RS,0,Vladimirovac,
309153,RS,0,Tutin,
309154,RS,0,Vranje,
309155,RS,0,Gospodjinci,
309156,RS,0,Krinyink,
309157,RS,0,Zatriq,
309158,RS,0,Skenderaj,
309159,RS,0,Crepaja,
309160,RS,0,Bogatic,
309161,RS,0,Pozega,
309162,RS,0,Kacarevo,
309163,RS,0,Uzdin,
309164,RS,0,Belo Blato,
309165,RS,0,Bersici,
309166,RS,0,Bocar,
309167,RS,0,Obrovac,
309168,RS,0,Nikinci,
309169,RS,0,Kosovo,
309170,RS,0,Vushtrri,
309171,RS,0,Pejë,
309172,RS,0,Gjilan,
309173,RS,0,Gjakovë,
309174,RS,0,Banja,
309175,RS,0,Kulpin,
309176,RS,0,Loznica,
309177,RS,0,Golubinci,
309178,RS,0,Ðala,
309179,RS,0,Lalic,
309180,RS,0,Batajnica,
309181,RS,0,Umka,
309182,RS,0,Mackat,
309183,RS,0,Raca,
309184,RS,0,Ruski Krstur,
309185,RS,0,Turija,
309186,RS,0,Bezdan,
309187,RS,0,Soko Banja,
309188,RS,0,Kosjeric,
309189,RS,0,Bac,
309190,RS,0,Cajetina,
309191,RS,0,Horgos,
309192,RS,0,Perlez,
309193,RS,0,Shtime,
309194,RS,0,Idvor,
309195,RS,0,Kursumlija,
309196,RS,0,Mali Zvornik,
309197,RS,0,Baric,
309198,RS,0,Mala Mostanica,
309199,RS,2,Avala,
309200,RS,2,Mala Mostanica,
309201,RS,0,Karadjordjevo,
309202,RS,2,Mali Zvornik,
309203,RS,0,Sjenica,
309204,RS,0,Guca,
309205,RS,0,Malishevë,
309206,RS,0,Vranovo,
309207,RS,0,Prishtinë,
309208,RS,0,Dardania,
309209,RS,0,Popovica,
309210,RS,0,Pogled,
309211,RS,0,Popovac,
309212,RS,0,Markovica,
309213,RS,0,Zvecan,
309214,RS,0,Albanija,
309215,RS,0,Krnjevo,
309216,RS,0,Sevojno,
309217,RS,0,Mramor,
309218,RS,0,Milanovac,
309219,RS,0,Gradska,
309220,RS,0,Markovic,
309221,RS,0,Petrovic,
309222,RS,0,Krnjesevci,
309223,RS,0,Rakovac,
309224,RS,0,Vojska,
309225,RS,0,Tosin Bunar,
309226,RS,0,Berisha,
309227,RS,0,Idjos,
309228,RS,0,Zabari,
309229,RS,0,Vucje,
309230,RS,0,Kladovo,
309231,RS,0,Mitrovica,
309232,RS,0,Istog,
309233,RS,0,Music,
309234,RS,0,Besianë,
309235,RS,0,Petnica,
309236,RS,0,Kolonija,
309237,RS,0,Kovilj,
309238,RS,0,Mesarci,
309239,RS,0,Jankovic,
309240,RS,0,Ravnaja,
309241,RS,0,Knic,
309242,RS,0,Backa,
309243,RS,0,Vranjska Banja,
309244,RS,0,Raska,
309245,RS,0,Labudnjaca,
309246,RS,0,Avala,
309247,RS,0,Itebej,
309248,RS,0,Macvanska Mitrovica,
309249,RS,0,Sirig,
309250,RS,0,Kupusina,
309251,RS,0,Lipjan,
309252,RS,0,Vukovac,
309253,RS,0,Dugo Polje,
309254,RS,0,Lucani,
309255,RS,0,Veliki Borak,
309256,RS,0,Zagubica,
309257,RS,0,Ziva,
309258,RS,0,Velika Drenova,
309259,RS,0,Sid,
309260,RS,0,Stajicevo,
309261,RS,0,Samaila,
309262,RS,0,Gakovo,
309263,RS,0,Novi Slankamen,
309264,RS,0,Ogar,
309265,RS,0,Becmen,
309266,RS,0,Sremski Mihaljevci,
309267,RS,0,Zemun Polje,
309268,RS,0,Jabuka,
309269,RS,0,Neresnica,
309270,RS,0,Sumarak,
309271,RS,0,Ecka,
309272,RS,0,Secanj,
309273,RS,0,Orom,
309274,RS,0,Bajsa,
309275,RS,0,Nestin,
309276,RS,0,Davidovica,
309277,RS,0,Cesta,
309278,RS,0,Radljevo,
309279,RS,0,Doroslovo,
309280,RS,0,Surdulica,
309281,RS,0,Deliblato,
309282,RS,0,Krajisnik,
309283,RS,0,Velika Greda,
309284,RS,0,Samarinovac,
309285,RS,0,Centa,
309286,RS,0,Bosnjace,
309287,RS,0,Vladicin Han,
309288,RS,0,Novi Knezevac,
309289,RS,0,Vrnjci,
309290,RS,0,Palilula,
309291,RS,0,Krnjaca,
309292,RS,0,Zitiste,
309293,RS,0,Tornjos,
309294,RS,0,Bukovik,
309295,RS,0,Setonje,
309296,RS,0,Svetozar Miletic,
309297,RS,0,Nova Gajdobra,
309298,RS,0,Tresnjevac,
309299,RS,0,Martonos,
309300,RS,0,Feketic,
309301,RS,0,Ralja,
309302,RS,0,Sumadija,
309303,RS,0,Zvezdara,
309304,RS,0,Rakovica,
309305,RS,0,Subotici,
309306,RS,0,Gunaras,
309307,RS,0,Palanka,
309308,RS,0,Strpce,
309309,RS,0,Bozevac,
309310,RS,0,Aleksandrovac,
309311,RS,0,Pecinci,
309312,RS,0,Novi Karlovci,
309313,RS,0,Adorjan,
309314,RS,0,Ticevac,
309315,RS,0,Selenca,
309316,RS,0,Palánk,
309317,RS,0,Krcedin,
309318,RS,0,Brestovac,
309319,RS,0,Rusko Selo,
309320,RS,0,Despotovo,
309321,RS,0,Macvanski Pricinovic,
309322,RS,0,Gornje Medjurovo,
309323,RS,0,Zlatibor,
309324,RS,0,Cukarica,
309325,RS,0,Zvezdan,
309326,RS,0,Stanovo,
309327,RS,0,Rutevac,
309328,RS,0,Dragobraca,
309329,RS,0,Skela,
309330,RS,0,Nadalj,
309331,RS,0,Maglic,
309332,RS,0,Glozan,
309333,RS,0,Selo,
309334,RS,0,Torak,
309335,RS,0,Savski Venac,
309336,RS,0,Singidunum,
309337,RS,0,Vozdovac,
309338,RS,0,Debeljaca,
309339,RS,0,Pranjani,
309340,RS,0,Dragash,
309341,RS,0,Pacir,
309342,RS,0,Jasa Tomic,
309343,RS,0,Alibunar,
309344,RS,0,Vucinica,
309345,RS,0,Peja,
309346,RS,0,Bobija,
309347,RS,0,Ostojicevo,
309348,RS,0,Brestovik,
309349,RS,0,Tavankut,
309350,RS,0,Bojnik,
309351,RS,0,Sefkerin,
309352,RS,0,Stepojevac,
309353,RS,0,Jablanica,
309354,RS,0,Dublje,
309355,RS,0,Istok,
309356,RS,0,Budisava,
309357,RS,0,Stublina,
309358,RS,0,Pivnice,
309359,RS,0,Cerevic,
309360,RS,0,Kucevo,
309361,RS,0,Malo Crnice,
309362,RS,0,Putinci,
309363,RS,0,Radesh,
309364,RS,0,Potocac,
309365,RS,0,Donji Milanovac,
309366,RS,0,Lugavcina,
309367,RS,0,Gajdobra,
309368,RS,0,Dragas,
309369,RS,0,Silbas,
309370,RS,0,Semlin,
309371,RS,0,Pogarevac,
309372,RS,0,Backi Brestovac,
309373,RS,0,Hajvali,
309374,RS,0,Klinë,
309375,RS,0,Zhur,
309376,RS,0,Junik,
309377,RS,0,Kos,
309378,RS,0,Markovac,
309379,RS,0,Stari Zednik,
309380,RS,0,Sërbicë,
309381,RS,0,Lokve,
309382,RS,0,Donji Stepos,
309383,RS,0,Banatski Brestovac,
309384,RS,0,Obrez Odranski,
309385,RS,0,Stalac Grad,
309386,RS,0,Subotiste,
309387,RS,0,Galagonyás,
309388,RS,0,Hajravic,
309389,RS,0,Kraljevci,
309390,RS,0,Sesalac,
309391,RS,0,Brainovac,
309392,RS,0,Ljuljaci,
309393,RS,0,Crnca,
309394,RS,0,Asanja,
309395,RS,0,Vrgudinac,
309396,RS,0,Bácskahadikfalva,
309397,RS,0,Losnac,
309398,RS,0,Progar,
309399,RS,0,Besenovacki Prnjavor,
309400,RS,0,Vencane,
309401,RS,0,Sekulic,
309402,RS,0,Velebit,
309403,RS,0,Tomanovicevo,
309404,RS,0,Trbusac,
309405,RS,0,Neu-slankamen,
309406,RS,0,Novi Stan,
309407,RS,0,Petkovic,
309408,RS,0,Nikola Tesla,
309409,RS,0,Mitrovicë,
309410,RS,0,Podujevë,
309411,RS,0,Vokshi,
309412,RS,0,Fushë Kosovë,
309413,RS,0,Kacanik,
309414,RS,0,Lipar,
309415,RS,0,Tovarisevo,
309416,RS,0,Kruscic,
309417,RS,0,Sase,
309418,RS,0,Jermenovci,
309419,RS,0,Veliko Srediste,
309420,RS,0,Ljubinje,
309421,RS,0,Rankovici,
309422,RS,0,Vojna Basta,
309423,RS,0,Karlovicz,
309424,RS,0,Gornja Dubona,
309425,RS,0,Kukolovce,
309426,RS,0,Militics,
309427,RS,0,Solnak,
309428,RS,0,Radmilovici,
309429,RS,0,Resavica,
309430,RS,0,Kevi,
309431,RS,0,Doline,
309432,RS,0,Gornji Misevic,
309433,RS,0,Cerje,
309434,RS,0,Zaplanjska Toponica,
309435,RS,0,Zorunovac,
309436,RS,0,Gradiste,
309437,RS,0,Luka,
309438,RS,0,Elemir,
309439,RS,0,Bancarevo,
309440,RS,0,Gornja Mutnica,
309441,RS,0,Zenic Mahala,
309442,RS,0,Cikot,
309443,RS,0,Medurec,
309444,RS,0,Medojevac,
309445,RS,0,Nadrlje,
309446,RS,0,Zagrada,
309447,RS,0,Graici,
309448,RS,0,Mihaljevci,
309449,RS,0,Nedicevo,
309450,RS,0,Zlatica,
309451,RS,0,Takovo,
309452,RS,0,Cerovica,
309453,RS,0,Ljubovija,
309454,RS,0,Sajan,
309455,RS,0,Doroszló,
309456,RS,0,Erdevik,
309457,RS,0,Padej,
309458,RS,0,Brestac,
309459,RS,0,Belusic,
309460,RS,0,Troglan Bara,
309461,RS,0,Sarbanovac,
309462,RS,0,Stejanovci,
309463,RS,0,Parcani,
309464,RS,0,Veliko Krcmare,
309465,RS,0,Bingola,
309466,RS,0,Sterijino Selo,
309467,RS,0,Tesici,
309468,RS,0,Knez-selo,
309469,RS,0,Popinci,
309470,RS,0,Mokra Gora,
309471,RS,0,Izvor,
309472,RS,0,Banjica,
309473,RS,0,Stubline,
309474,RS,0,Klicevac,
309475,RS,0,Veric,
309476,RS,0,Bacina,
309477,RS,0,Vajska,
309478,RS,0,Grosnica,
309479,RS,0,Cestereg,
309480,RS,0,Slankamen,
309481,RS,0,Srpski Krstur,
309482,RS,0,Ratina,
309483,RS,0,Ravno Selo,
309484,RS,0,Bresno Polje,
309485,RS,0,Taras,
309486,RS,0,Njegosevo,
309487,RS,0,Dobrodol,
309488,RS,0,Drugovac,
309489,RS,0,Borca,
309490,RS,0,Gornja Pescanica,
309491,RS,0,Srdovinska Mala,
309492,RS,0,Farkasd,
309493,RS,0,Poslon,
309494,RS,0,Sokolja,
309495,RS,0,Golubac,
309496,RS,0,Krnule,
309497,RS,0,Umcari,
309498,RS,0,Djakovica,
309499,RS,0,Dobra,
309500,RS,0,Selakovici,
309501,RS,0,Dubocka,
309502,RS,0,Divostin,
309503,RS,0,Srbijanci,
309504,RS,0,Veliki Mokri Lug,
309505,RS,0,Lestane,
309506,RS,0,Radenkovac,
309507,RS,0,Kaplari,
309508,RS,0,Katanici,
309509,RS,0,Panjak,
309510,RS,0,Strbovac,
309511,RS,0,Bacinac,
309512,RS,0,Brajkovici,
309513,RS,0,Maradik,
309514,RS,0,Brzan,
309515,RS,0,Donji Dusnik,
309516,RS,0,Vrbovno,
309517,RS,0,Podujevo,
309518,RS,0,Brezovica,
309519,RS,0,Krupanj,
309520,RS,0,Riljac,
309521,RS,0,Mokrin,
309522,RS,0,Zmajevo,
309523,RS,0,Backi Vinogradi,
309524,RS,0,Makresane,
309525,RS,0,Kumane,
309526,RS,0,Botos,
309527,RS,0,Mijatovac,
309528,RS,0,Mrcajevci,
309529,RS,0,Lug,
309530,RS,0,Morovic,
309531,RS,0,Svojinovo,
309532,RS,0,Velika Krsna,
309533,RS,0,Rashincë,
309534,RS,0,Backi Sokolac,
309535,RS,0,Ribnica,
309536,RS,0,Biserske Kuce,
309537,RS,0,Ramaca,
309538,RS,0,Drazevac,
309539,RS,0,Donji Petrovci,
309540,RS,0,Novi Grad,
309541,RS,0,Karlovcic,
309542,RS,0,Pllushinë,
309543,RS,0,Blerim,
309544,RS,0,Ratkovo,
309545,RS,0,Meljak,
309546,RS,0,Boka,
309547,RS,0,Caglavica,
309548,RS,0,Lukicevo,
309549,RS,0,Debrc,
309550,RS,0,Doljevac,
309551,RS,0,Erdec,
309552,RS,0,Sapine,
309553,RS,0,Zarkovac,
309554,RS,0,Badovinci,
309555,RS,0,Bácstóváros,
309556,RS,0,Bogaras,
309557,RS,0,Veliki Radinci,
309558,RS,0,Jancici,
309559,RS,0,Adzine Livade,
309560,RS,0,Bikovo,
309561,RS,0,Leposavic,
309562,RS,0,Zica,
309563,RS,0,Skorenovac,
309564,RS,0,Pertate,
309565,RS,0,Kraguljevcici,
309566,RS,0,Stari Slankamen,
309567,RS,0,Hrtkovci,
309568,RS,0,Srednjevo,
309569,RS,0,Knicanin,
309570,RS,0,Novi Orahovo,
309571,RS,0,Lisina,
309572,RS,0,Muzhiçani,
309573,RS,0,Pincéd,
309574,RS,0,Kutles,
309575,RS,0,Orom Breg,
309576,RS,0,Zimovnik,
309577,RS,0,Silbash,
309578,RS,0,Goricani,
309579,RS,0,Sasinci,
309580,RS,0,Carina,
309581,RS,0,Vencac,
309582,RS,0,Berava,
309583,RS,0,Padé,
309584,RS,0,Jarkovci,
309585,RS,0,Kispiac,
309586,RS,0,Ivanovo,
309587,RS,0,Pukovac,
309588,RS,0,Madjarmajdan,
309589,RS,0,Backo Dobro Polje,
309590,RS,0,Vrazogrnac,
309591,RS,0,Vodica,
309592,RS,0,Boldogasszonyfalva,
309593,RS,0,Bogalinac,
309594,RS,0,Sabazovica,
309595,RS,0,Lukar,
309596,RS,0,Zakuta,
309597,RS,0,Gornja Sabanta,
309598,RS,0,Dobrinci,
309599,RS,0,Gornji Krupac,
309600,RS,0,Liso Polje,
309601,RS,0,Zitkovac,
309602,RS,0,Baranda,
309603,RS,0,Nocaj,
309604,RS,0,Gornji Katun,
309605,RS,0,Kolare,
309606,RS,0,Jamena,
309607,RS,0,Cicina,
309608,RS,0,Malo Laole,
309609,RS,0,Dimitrovgrad,
309610,RS,0,Epr Mala,
309611,RS,0,Skulanevo,
309612,RS,0,Jakovic,
309613,RS,0,Gadzin Han,
309614,RS,0,Jagoda,
309615,RS,0,Stefánföld,
309616,RS,0,Samos,
309617,RS,0,Klek,
309618,RS,0,Beljevac,
309619,RS,0,Begracë,
309620,RS,0,Gornja Rogatica,
309621,RS,0,Razanj,
309622,RS,0,Pasjaca,
309623,RS,0,Macevac,
309624,RS,0,Gornja Sibnica,
309625,RS,0,Dulene,
309626,RS,0,Dunagárdony,
309627,RS,0,Tesica,
309628,RS,0,Sveticevo,
309629,RS,0,Kolenac,
309630,RS,0,Donje Medjurovo,
309631,RS,0,Predejane,
309632,RS,0,Poljana,
309633,RS,0,Brajinovac,
309634,RS,0,Beodra,
309635,RS,0,Knezica,
309636,RS,0,Aldinac,
309637,RS,0,Alsóaradi,
309638,RS,0,Mali Popovic,
309639,RS,0,Stapar,
309640,RS,0,Aleksandrovo,
309641,RS,0,Parage,
309642,RS,0,Tresnjevak,
309643,RS,0,Emusic,
309644,RS,0,Bosut,
309645,RS,0,Drazmirovac,
309646,RS,0,Bradarac,
309647,RS,0,Rasicev Kraj,
309648,RS,0,Kosmovac,
309649,RS,0,Veliko Trnjane,
309650,RS,0,Krusedol,
309651,RS,0,Slepcevic,
309652,RS,0,Isakovo,
309653,RS,0,Mandelos,
309654,RS,0,Marina Kutina,
309655,RS,0,Donja Mutnica,
309656,RS,0,Novi Kozarci,
309657,RS,0,Vlaska,
309658,RS,0,Plazane,
309659,RS,0,Babicko,
309660,RS,0,Mladenovo,
309661,RS,0,Deronje,
309662,RS,0,Sutjeska,
309663,RS,0,Homokos,
309664,RS,0,Bagrdan,
309665,RS,0,Vuckovac,
309666,RS,0,Banatsko Karadordevo,
309667,RS,0,Oreskovica,
309668,RS,0,Tornyos,
309669,RS,0,Prcilovica,
309670,RS,0,Rogaca,
309671,RS,0,Brezane,
309672,RS,0,Grad,
309673,RS,0,Moravac,
309674,RS,0,Lalinac,
309675,RS,0,Bajcetina,
309676,RS,0,Batusinac,
309677,RS,0,Sukë,
309678,RS,0,Donje Ljubinje,
309679,RS,0,Gornji Matejevac,
309680,RS,0,Paljesnica,
309681,RS,0,Vrsacki Ritovi,
309682,RS,0,Kosovska Kamenica,
309683,RS,0,Podunavci,
309684,RS,0,Trnovce,
309685,RS,0,Beoce,
309686,RS,0,Prahovo,
309687,RS,0,Gotovac,
309688,RS,0,Nova Varos,
309689,RS,0,Brest,
309690,RS,0,Nikolinci,
309691,RS,0,Krepoljin,
309692,RS,0,Stubik,
309693,RS,0,Majur,
309694,RS,0,Ravniste,
309695,RS,0,Mirosaljci,
309696,RS,0,Vucije Polje,
309697,RS,0,Novo Selo,
309698,RS,0,Troponje,
309699,RS,0,Kupuszina,
309700,RS,0,Ravni Topolovac,
309701,RS,0,Vrbica,
309702,RS,0,Bercinac,
309703,RS,0,Sedlari,
309704,RS,0,Adasevci,
309705,RS,0,Lovcenac,
309706,RS,0,Trbusnica,
309707,RS,0,Kukujevci,
309708,RS,0,Voganj,
309709,RS,0,Obrva,
309710,RS,0,Mrsinci,
309711,RS,0,Novi Itebej,
309712,RS,0,Obrez,
309713,RS,0,Stubica,
309714,RS,0,Vojvoda Stepa,
309715,RS,0,Barosevac,
309716,RS,0,Gornje Vidovo,
309717,RS,0,Bosnjane,
309718,RS,0,Americ,
309719,RS,0,Vrdnik,
309720,RS,0,Backi Monostor,
309721,RS,0,Vasica,
309722,RS,0,Topolya,
309723,RS,0,Boljevci,
309724,RS,0,Novi Adzibegovac,
309725,RS,0,Belotic,
309726,RS,0,Zagajica,
309727,RS,0,Letovica,
309728,RS,0,Utrine,
309729,RS,0,Szaján,
309730,RS,0,Pecenjevce,
309731,RS,0,Cortanovci,
309732,RS,0,Cenej,
309733,RS,0,Male Pijace,
309734,RS,0,Srpski Miletic,
309735,RS,0,Kosharë,
309736,RS,0,Stepanovicevo,
309737,RS,0,Kolut,
309738,RS,0,Drenas,
309739,RS,0,Rabrovac,
309740,RS,0,Donji Grabovac,
309741,RS,0,Torina,
309742,RS,0,Slivovë,
309743,RS,0,Gracko,
309744,RS,0,Dec,
309745,RS,0,Rabrovo,
309746,RS,0,Ivankovac,
309747,RS,0,Mala Vrbica,
309748,RS,0,Draginje,
309749,RS,0,Grujcici,
309750,RS,0,Gardinovci,
309751,RS,0,Krivaja,
309752,RS,0,Ðunis,
309753,RS,0,Telecska,
309754,RS,0,Obiliq,
309755,RS,0,Binovac,
309756,RS,0,Lukare,
309757,RS,0,Maovi,
309758,RS,0,Metovnica,
309759,RS,0,Borovec,
309760,RS,0,Bras,
309761,RS,0,Sipulja,
309762,RS,0,Svilos,
309763,RS,0,Suhadoll,
309764,RS,0,Savinac,
309765,RS,0,Veliko Orasje,
309766,RS,0,Melovin,
309767,RS,0,Ostrovo,
309768,RS,0,Lipolist,
309769,RS,0,Torda,
309770,RS,0,Zeoke,
309771,RS,0,Milosevac,
309772,RS,0,Mekis,
309773,RS,0,Janosik,
309774,RS,0,Boroc,
309775,RS,0,Darosava,
309776,RS,0,Ribasevina,
309777,RS,0,Tomislavci,
309778,RS,0,Mosorin,
309779,RS,0,Gllogoc,
309780,RS,0,Sedlare,
309781,RS,0,Gracanica,
309782,RS,0,Platicevo,
309783,RS,0,Belosavci,
309784,RS,0,Klina,
309785,RS,0,Bezanija,
309786,RS,0,Vrana,
309787,RS,0,Medvedja,
309788,RS,0,Mohol,
309789,RS,0,Rahovec,
309790,RS,0,Djurdjevo,
309791,RS,0,Nish,
309792,RS,0,Conoplja,
309793,RS,0,Belgrado,
309794,RS,0,Mali Idjos,
309795,RS,0,Zirovanj,
309796,RS,0,Fshati Llap,
309797,RS,0,Vodanj,
309798,RS,0,Novo Milosevo,
309799,RS,0,Gllogovc,
309800,RS,0,Provo,
309801,RS,0,Babin,
309802,RS,0,Alt-stapar,
309803,RS,0,Csantavér,
309804,RS,0,Ba,
309805,RS,0,Mali Radinci,
309806,RS,0,Vranese,
309807,RS,0,Kamenicë,
309808,RS,0,Përlepnicë,
309809,RS,0,Zenta,
309810,RS,0,Gradnja,
309811,RS,0,Karlovci,
309812,RS,0,Gurisevci,
309813,RS,0,Sakule,
309814,RS,0,Óbecse,
309815,RS,0,Bácskossuthfalva,
309816,RS,0,Kaluderica,
309817,RS,0,Zabrezje,
309818,RS,0,Pancelo,
309819,RS,0,Alt-keer,
309820,RS,0,Kamenica,
309821,RS,0,Biskuplje,
309822,RS,0,Sirakovo,
309823,RS,0,Priluzje,
309824,RS,0,Csóka,
309825,RS,0,Sena,
309826,RS,0,Djurinci,
309827,RS,0,Novi Zednik,
309828,RS,0,Kuzmin,
309829,RS,0,Dzami-mahala,
309830,RS,0,Zlatare,
309831,RS,0,Majilovac,
309832,RS,0,Siokovac,
309833,RS,0,Kravlji Do,
