locId,country,region,city,postcode
309834,RU,,,
309835,RU,54,Omsk,
309836,RU,59,Vladivostok,
309837,RU,48,Moscow,
309838,RU,69,Smolensk,
309839,RU,84,Korolëv,
309840,RU,67,Saratov,
309841,RU,48,Moscou,
309842,RU,39,Narva,
309843,RU,23,Kaliningrad,
309844,RU,66,Saint Petersburg,
309845,RU,88,Rostov,
309846,RU,66,Zelenogorsk,
309847,RU,13,Chelyabinsk,
309848,RU,59,Novgorod,
309849,RU,86,Voronezh,
309850,RU,57,Penza,
309851,RU,59,Kiev,
309852,RU,66,Sankt Petersburg,
309853,RU,25,Lva Tolstogo,
309854,RU,84,Volgograd,
309855,RU,81,Ulyanovsk,
309856,RU,30,Vyazemskaya,
309857,RU,53,Novosibirsk,
309858,RU,58,Almaz,
309859,RU,48,Moskau,
309860,RU,47,Domodedovo,
309861,RU,67,Moskva,
309862,RU,32,Surgut,
309863,RU,58,Perm,
309864,RU,70,Svobody,
309865,RU,35,Kudymkar,
309866,RU,85,Vologda,
309867,RU,39,Krasnoyarsk,
309868,RU,25,Ozersk,
309869,RU,88,Yaroslavl,
309870,RU,73,Kazan,
309871,RU,78,Tyumen,
309872,RU,23,Tushino,
309873,RU,47,Serpukhov,
309874,RU,47,Dubna,
309875,RU,30,Khabarovsk,
309876,RU,4,Barnaul,
309877,RU,53,Leningrad,
309878,RU,71,Yekaterinburg,
309879,RU,89,Birobijan,
309880,RU,84,Karpov,
309881,RU,21,Nogina,
309882,RU,85,Nova,
309883,RU,39,Minsk,
309884,RU,25,Spas,
309885,RU,72,Michurinsk,
309886,RU,72,Tambov,
309887,RU,63,Yakutsk,
309888,RU,25,Kaluga,
309889,RU,59,Pionerskaya,
309890,RU,39,Ural,
309891,RU,38,Sovetskaya,
309892,RU,72,Alfa,
309893,RU,65,Togliatti,
309894,RU,20,Irkutsk,
309895,RU,29,Kemerovo,
309896,RU,38,Sochi,
309897,RU,39,Norilsk,
309898,RU,47,Krasnogorsk,
309899,RU,42,Kommunar,
309900,RU,56,Step,
309901,RU,70,Kislovodskaya,
309902,RU,66,Petrograd,
309903,RU,61,Volgodonsk,
309904,RU,51,Nizhni Novgorod,
309905,RU,64,Pravda,
309906,RU,44,Magadan,
309907,RU,61,Voloshin,
309908,RU,46,Saransk,
309909,RU,58,Lysva,
309910,RU,38,Krasnodar,
309911,RU,76,Tula,
309912,RU,6,Arkhangelsk,
309913,RU,34,Syktyvkar,
309914,RU,49,Murmansk,
309915,RU,85,Cherepovets,
309916,RU,43,Lipetsk,
309917,RU,77,Tver,
309918,RU,30,Auri,
309919,RU,52,Vyatka,
309920,RU,83,Vladimir,
309921,RU,71,Pervouralsk,
309922,RU,86,Novovoronezh,
309923,RU,35,Piter,
309924,RU,75,Tomsk,
309925,RU,58,Bolshakova,
309926,RU,81,Sakhalin,
309927,RU,64,Yuzhno-sakhalinsk,
309928,RU,16,Cheboksary,
309929,RU,71,Sverdlovsk,
309930,RU,80,Izhevsk,
309931,RU,58,Korsakova,
309932,RU,67,Engels,
309933,RU,66,Pushkin,
309934,RU,38,Krasnoarmeyskaya,
309935,RU,68,Vladikavkaz,
309936,RU,32,Korp,
309937,RU,20,Ust-ilimsk,
309938,RU,38,Rossiyskiy,
309939,RU,82,Buryat,
309940,RU,69,Korolëva,
309941,RU,8,Sterlitamak,
309942,RU,11,Ulan-ude,
309943,RU,71,Pyshma,
309944,RU,63,Nikolay,
309945,RU,61,Kostikov,
309946,RU,55,Orsk,
309947,RU,40,Kurgan,
309948,RU,70,Stavropol,
309949,RU,38,Leningradskaya,
309950,RU,42,Pulkovo,
309951,RU,55,Orenburg,
309952,RU,13,Magnitogorsk,
309953,RU,38,Gogolya,
309954,RU,27,Cherkessk,
309955,RU,66,Sankt-peterburg,
309956,RU,61,Torgovyy,
309957,RU,64,Sani,
309958,RU,60,Pskov,
309959,RU,64,Alba,
309960,RU,25,Amur,
309961,RU,27,Arkhyz,
309962,RU,59,Svetloe,
309963,RU,81,Simbirsk,
309964,RU,10,Bryansk,
309965,RU,71,Serov,
309966,RU,84,Lebedev,
309967,RU,38,Mira,
309968,RU,59,Avangard,
309969,RU,47,Moskovskiy,
309970,RU,14,Chita,
309971,RU,73,Tagil,
309972,RU,38,Lenina,
309973,RU,84,Kamyshin,
309974,RU,29,Novokuznetsk,
309975,RU,62,Ryazan,
309976,RU,13,Miass,
309977,RU,29,Mezhdurechensk,
309978,RU,37,Kostroma,
309979,RU,1,Maykop,
309980,RU,47,Fryazino,
309981,RU,47,Lobnya,
309982,RU,45,Yoshkar-ola,
309983,RU,71,Sredneuralsk,
309984,RU,4,Altaisk,
309985,RU,76,Gorod,
309986,RU,38,Mirny,
309987,RU,28,Petrozavodsk,
309988,RU,84,Kirova,
309989,RU,38,Kaluzhskaya,
309990,RU,42,Kirishi,
309991,RU,47,Dolgoprudnyy,
309992,RU,84,Morskoy,
309993,RU,84,Petropavlovsk,
309994,RU,13,Kyshtym,
309995,RU,80,Sarapul,
309996,RU,80,Votkinsk,
309997,RU,72,Polkovaya,
309998,RU,35,Nekrasova,
309999,RU,86,Maslovka,
310000,RU,75,Gagarina,
310001,RU,39,Achinsk,
310002,RU,38,Lenin,
310003,RU,77,Ramenki,
310004,RU,59,Nakhodka,
310005,RU,50,Severnaya,
310006,RU,59,Kirovskiy,
310007,RU,5,Belogorsk,
310008,RU,87,Urengoy,
310009,RU,42,Vyborg,
310010,RU,61,Tsvetnoy,
310011,RU,53,Tolmachëvo,
310012,RU,17,Makhachkala,
310013,RU,61,Taganrog,
310014,RU,25,Svet,
310015,RU,71,Salda,
310016,RU,31,Abakan,
310017,RU,38,Frunze,
310018,RU,61,Semikarakorsk,
310019,RU,51,Tëplyy Stan,
310020,RU,53,Saturn,
310021,RU,30,Start,
310022,RU,42,Gatchina,
310023,RU,72,Kotovsk,
310024,RU,6,Archangelsk,
310025,RU,69,Sukhanova,
310026,RU,56,Orël,
310027,RU,25,Sheremetyevo,
310028,RU,71,Tyumenskaya,
310029,RU,84,Kraft,
310030,RU,41,Katerina,
310031,RU,69,Potash,
310032,RU,25,Polyanka,
310033,RU,44,Yana,
310034,RU,30,Tatarstan,
310035,RU,39,Tiny,
310036,RU,67,Marks,
310037,RU,20,Bratsk,
310038,RU,71,Malysheva,
310039,RU,84,Budennogo,
310040,RU,21,Ivanovo,
310041,RU,53,Sputnik,
310042,RU,38,Smolenskaya,
310043,RU,29,Saga,
310044,RU,84,Baranov,
310045,RU,79,Most,
310046,RU,16,Inel,
310047,RU,65,Chapaevsk,
310048,RU,39,Minusinsk,
310049,RU,38,Lunacharskogo,
310050,RU,38,Novorossisk,
310051,RU,58,Vavilova,
310052,RU,47,Solnechnogorsk,
310053,RU,79,Kyzyl,
310054,RU,41,Kursk,
310055,RU,42,Luga,
310056,RU,68,Nort,
310057,RU,6,Severodvinsk,
310058,RU,6,Archangel,
310059,RU,41,Zheleznogorsk,
310060,RU,38,Kavkaz,
310061,RU,85,Chaika,
310062,RU,25,Obninsk,
310063,RU,21,Komsomolsk,
310064,RU,4,Biysk,
310065,RU,11,Kamensk,
310066,RU,34,Pechora,
310067,RU,47,Chernogolovka,
310068,RU,38,Vestnik,
310069,RU,55,Krasnoyarskiy,
310070,RU,59,Primorskiy,
310071,RU,42,Vybor,
310072,RU,38,Vorontsovskaya,
310073,RU,13,Troitsk,
310074,RU,14,Tupik,
310075,RU,33,Moskovskaya,
310076,RU,4,Slavgorod,
310077,RU,42,Volkhov,
310078,RU,69,Dmitrovskoye,
310079,RU,62,Novomichurinsk,
310080,RU,64,Pilenga,
310081,RU,10,Star,
310082,RU,52,Polya,
310083,RU,33,Svoboda,
310084,RU,38,Tverskaya,
310085,RU,60,Velikie Luki,
310086,RU,65,Sakharov,
310087,RU,70,Pyatigorsk,
310088,RU,38,Primorye,
310089,RU,53,Musy,
310090,RU,84,Makarenko,
310091,RU,68,Orjonikidze,
310092,RU,67,Fisher,
310093,RU,67,Dubovaya,
310094,RU,75,Pisareva,
310095,RU,34,Koptyuga,
310096,RU,59,Vostok,
310097,RU,51,Dzerzhinsk,
310098,RU,64,Aton,
310099,RU,10,Petrovskogo,
310100,RU,60,Kubok,
310101,RU,60,Reshetnikova,
310102,RU,38,Dolgopolov,
310103,RU,38,Novy,
310104,RU,38,Koloss,
310105,RU,73,Veneta,
310106,RU,77,Luzhniki,
310107,RU,67,Mayak,
310108,RU,29,Promyshlennaya,
310109,RU,77,Runa,
310110,RU,67,Zolotoy,
310111,RU,5,Progress,
310112,RU,76,Sokolniki,
310113,RU,71,Zoloto,
310114,RU,47,Klin,
310115,RU,39,Kulakova,
310116,RU,47,Podolsk,
310117,RU,38,Tverskoy,
310118,RU,67,Nauka,
310119,RU,38,Kuban,
310120,RU,9,Belgorod,
310121,RU,73,Almetyevsk,
310122,RU,51,Ostankino,
310123,RU,35,Sibir,
310124,RU,53,Berdsk,
310125,RU,42,Mega,
310126,RU,83,Lisitsina,
310127,RU,42,More,
310128,RU,1,Melekhov,
310129,RU,80,Keldysh,
310130,RU,36,Korf,
310131,RU,63,Setun,
310132,RU,70,Limansky,
310133,RU,CI,Pervomayskaya,
310134,RU,24,Sidorenko,
310135,RU,29,Spassk,
310136,RU,39,Kamchatka,
310137,RU,5,Ukraina,
310138,RU,25,Krasny,
310139,RU,64,Trudovaya,
310140,RU,63,Kamenskaya,
310141,RU,4,Rubtsovsk,
310142,RU,3,Gorno-altaysk,
310143,RU,41,Kurchatov,
310144,RU,87,Salekhard,
310145,RU,22,Kabardino,
310146,RU,71,Sarana,
310147,RU,34,Ukhta,
310148,RU,33,Kirov,
310149,RU,52,Bereg,
310150,RU,70,Kniga,
310151,RU,25,Marina,
310152,RU,74,Zvereva,
310153,RU,87,Nadym,
310154,RU,33,Zarya,
310155,RU,84,Bolshoy,
310156,RU,73,Nizhnekamsk,
310157,RU,85,Novator,
310158,RU,80,Glazov,
310159,RU,47,Mozhaysk,
310160,RU,25,Koptevo,
310161,RU,48,Zelenograd,
310162,RU,7,Astrakhan,
310163,RU,52,Vinogradovo,
310164,RU,85,Yamskaya,
310165,RU,67,Shevchenko,
310166,RU,61,Krasnoyarskaya,
310167,RU,53,Plotnikova,
310168,RU,64,Prostornaya,
310169,RU,25,Semenovskaya,
310170,RU,51,Kstovo,
310171,RU,47,Rusa,
310172,RU,15,Avan,
310173,RU,32,Yugorsk,
310174,RU,27,Storozhevaya,
310175,RU,64,Uspenskoe,
310176,RU,75,Seversk,
310177,RU,62,Malaya Dmitrovka,
310178,RU,34,Vavilon,
310179,RU,38,Nikitin,
310180,RU,13,Plast,
310181,RU,38,Novorossiysk,
310182,RU,59,Artëmovskiy,
310183,RU,71,Asbest,
310184,RU,59,Artëm,
310185,RU,85,Terem,
310186,RU,59,Russkiy,
310187,RU,42,Topol,
310188,RU,85,Delo,
310189,RU,35,Dëmina,
310190,RU,35,Naberezhnaya,
310191,RU,47,Pushchino,
310192,RU,77,Ryad,
310193,RU,61,Tolstogo,
310194,RU,5,Leontyevskiy,
310195,RU,25,Nikitinskaya,
310196,RU,65,Tolyatti,
310197,RU,42,Sertolovo,
310198,RU,14,Kommunalnaya,
310199,RU,61,Novocherkassk,
310200,RU,25,Kudrinskaya,
310201,RU,53,Gagarinskiy,
310202,RU,CI,Nazran,
310203,RU,63,Rega,
310204,RU,84,Romanov,
310205,RU,85,Chistaya,
310206,RU,5,Blagoveshchensk,
310207,RU,53,Musa,
310208,RU,69,Guta,
310209,RU,47,Zhulebino,
310210,RU,41,Belaya,
310211,RU,13,Snezhinsk,
310212,RU,67,Petrovka,
310213,RU,73,Norma,
310214,RU,61,Shakhty,
310215,RU,88,Panfilova,
310216,RU,84,Smirnov,
310217,RU,84,Khvostov,
310218,RU,87,Tarko-sale,
310219,RU,32,Novaya,
310220,RU,23,Lermontova,
310221,RU,57,Kuznetsk,
310222,RU,76,Sverdlovskaya,
310223,RU,69,Yury,
310224,RU,69,Yakovlev,
310225,RU,38,Novorossiisk,
310226,RU,88,Nikitskaya,
310227,RU,63,Karla Marksa,
310228,RU,84,Ivanov,
310229,RU,75,Karbysheva,
310230,RU,70,Kislovodsk,
310231,RU,34,Vorkuta,
310232,RU,56,Liniya,
310233,RU,42,Neva,
310234,RU,47,Vnukovo,
310235,RU,20,Angarsk,
310236,RU,38,Zapadny,
310237,RU,42,Bronnaya,
310238,RU,22,Nalchik,
310239,RU,84,Kostin,
310240,RU,69,Kazakova,
310241,RU,29,Nikitinskiy,
310242,RU,61,Belaya Kalitva,
310243,RU,47,Saltykovka,
310244,RU,86,Sloboda,
310245,RU,63,Savva,
310246,RU,38,Gorkogo,
310247,RU,55,Trekhgorny,
310248,RU,23,Ochakovo,
310249,RU,CI,Doza,
310250,RU,32,Nefteyugansk,
310251,RU,53,Amba,
310252,RU,78,Molchanova,
310253,RU,7,Delta,
310254,RU,59,Luchegorsk,
310255,RU,64,Kholmsk,
310256,RU,64,Korsakov,
310257,RU,34,Pochtovy,
310258,RU,60,Ostrov,
310259,RU,43,Pushkarskaya,
310260,RU,5,Tynda,
310261,RU,40,Sadovod,
310262,RU,34,Karavannaya,
310263,RU,56,Kreml,
310264,RU,84,Pochta,
310265,RU,9,Stroitel,
310266,RU,33,Medvedkovo,
310267,RU,53,Kadrov,
310268,RU,71,Zvezda,
310269,RU,78,Berkut,
310270,RU,83,Svyato,
310271,RU,22,Arik,
310272,RU,59,Slavyanka,
310273,RU,80,Kama,
310274,RU,58,Soyuz,
310275,RU,80,Igra,
310276,RU,86,Anna,
310277,RU,33,Gorodok,
310278,RU,59,Yakovlevka,
310279,RU,59,Vrangel,
310280,RU,59,Ariadna,
310281,RU,15,Leningradskiy,
310282,RU,64,Uglegorsk,
310283,RU,85,Yugra,
310284,RU,38,Severny,
310285,RU,85,Gory,
310286,RU,25,Borets,
310287,RU,84,Serp I Molot,
310288,RU,85,Bolshaya,
310289,RU,20,Sedova,
310290,RU,71,Niva,
310291,RU,56,Ivan,
310292,RU,23,Borskoe,
310293,RU,32,Nyagan,
310294,RU,47,Zelenogradskiy,
310295,RU,39,Krasnoselskaya,
310296,RU,52,Trofimova,
310297,RU,59,Chernigovka,
310298,RU,61,Kirovka,
310299,RU,67,Pervyy,
310300,RU,47,Sviblovo,
310301,RU,47,Vostryakovo,
310302,RU,77,Akademicheskaya,
310303,RU,71,Rezh,
310304,RU,86,Kolomenskiy,
310305,RU,47,Istra,
310306,RU,61,Leonov,
310307,RU,21,Izmailovo,
310308,RU,83,Lesnaya,
310309,RU,64,Nevelsk,
310310,RU,67,Anton,
310311,RU,61,Meshkov,
310312,RU,47,Mytishi,
310313,RU,84,Petrov,
310314,RU,71,Lesnoy,
310315,RU,69,Yakovleva,
310316,RU,53,Vasyugan,
310317,RU,75,Strezhevoy,
310318,RU,75,Kargasok,
310319,RU,68,Iron,
310320,RU,69,Solnechnaya,
310321,RU,71,Tomskiy,
310322,RU,77,Akademicheskiy,
310323,RU,25,Protasovo,
310324,RU,44,Pochtovaya,
310325,RU,43,Zarechny,
310326,RU,71,Nizhniy Tagil,
310327,RU,13,Roza,
310328,RU,61,Leninskaya,
310329,RU,59,Bolshoy Kamen,
310330,RU,42,Volna,
310331,RU,84,Leninsk,
310332,RU,63,Pavlova,
310333,RU,47,Ramenskoe,
310334,RU,33,Cherëmushki,
310335,RU,47,Bykovo,
310336,RU,47,Fili,
310337,RU,48,Mnevniki,
310338,RU,47,Kupavna,
310339,RU,63,Otkrytyy,
310340,RU,76,Leninskiy,
310341,RU,35,Fedorova,
310342,RU,33,Golovinskaya,
310343,RU,84,Nikiforov,
310344,RU,24,Zvezdnyy,
310345,RU,71,Yuva,
310346,RU,4,Romanovo,
310347,RU,38,Komsomolskaya,
310348,RU,67,Balakovo,
310349,RU,51,Prudy,
310350,RU,69,Chertanovo,
310351,RU,59,Dalnerechensk,
310352,RU,47,Lytkarino,
310353,RU,29,Glavnyy,
310354,RU,69,Gorodnya,
310355,RU,65,Zhigulevsk,
310356,RU,44,Taganka,
310357,RU,25,Pushkina,
310358,RU,65,Syzran,
310359,RU,84,Alekseevskaya,
310360,RU,59,Kitay-gorod,
310361,RU,47,Tomilino,
310362,RU,40,Lenskaya,
310363,RU,41,Tsukanov,
310364,RU,47,Lublino,
310365,RU,52,Novo,
310366,RU,61,Rostov-na-donu,
310367,RU,84,Zhukovskiy,
310368,RU,47,Pushkino,
310369,RU,59,Dalnegorsk,
310370,RU,28,Sila,
310371,RU,38,Reshetnikov,
310372,RU,53,Antonova,
310373,RU,35,Gorki,
310374,RU,69,Rossiya,
310375,RU,47,Kotelniki,
310376,RU,25,Usovo,
310377,RU,65,Tushinskiy,
310378,RU,67,Balashov,
310379,RU,86,Kantemirovka,
310380,RU,86,Liski,
310381,RU,59,Zvëzdochka,
310382,RU,55,Buzuluk,
310383,RU,67,Iskra,
310384,RU,84,Spartak,
310385,RU,84,Borisov,
310386,RU,11,Mozhayka,
310387,RU,43,Dacha,
310388,RU,77,Kopylova,
310389,RU,52,Rechki,
310390,RU,64,Okha,
310391,RU,64,Nogliki,
310392,RU,47,Protvino,
310393,RU,53,Smolenskiy,
310394,RU,59,Olga,
310395,RU,38,Lotos,
310396,RU,46,Insar,
310397,RU,70,Yasnaya Polyana,
310398,RU,33,Zavodskaya,
310399,RU,20,Pushkinskiy,
310400,RU,67,Lada,
310401,RU,53,Gornyy,
310402,RU,84,Orlov,
310403,RU,47,Reutov,
310404,RU,66,Metallostroy,
310405,RU,23,Otradnoe,
310406,RU,61,Stepanov,
310407,RU,53,Smirnova,
310408,RU,52,Kosaya,
310409,RU,42,Tikhvin,
310410,RU,38,Bakinskaya,
310411,RU,72,Volodin,
310412,RU,84,Zaytsev,
310413,RU,38,Pyatigorskaya,
310414,RU,40,Koleso,
310415,RU,38,Engelsa,
310416,RU,25,Sazonova,
310417,RU,35,Zarubina,
310418,RU,32,Sklad,
310419,RU,81,Sara,
310420,RU,61,Zapadno,
310421,RU,35,Nagornaya,
310422,RU,49,Apatity,
310423,RU,13,Cheliabinsk,
310424,RU,88,Volga,
310425,RU,77,Fabrika,
310426,RU,30,Vasy,
310427,RU,84,Rodin,
310428,RU,70,Vorovskogo,
310429,RU,42,Proletarskaya,
310430,RU,43,Lebedyan,
310431,RU,84,Pavlenko,
310432,RU,46,Krasnaya Presnya,
310433,RU,42,Ozëra,
310434,RU,35,Zhukova,
310435,RU,61,Rassvet,
310436,RU,85,Roksa,
310437,RU,25,Vysokaya,
310438,RU,68,Detskiy,
310439,RU,84,Seleznev,
310440,RU,28,Ohta,
310441,RU,38,Grishkov,
310442,RU,66,Kolpino,
310443,RU,51,Arzamas,
310444,RU,35,Rogozina,
310445,RU,15,Anadyr,
310446,RU,65,Sakharny,
310447,RU,61,Olginskaya,
310448,RU,77,Plan,
310449,RU,22,Minskiy,
310450,RU,48,Khimki,
310451,RU,21,Osipenko,
310452,RU,53,Kremlevskiy,
310453,RU,67,Pokrovskaya,
310454,RU,55,Prostory,
310455,RU,86,Parizhskaya,
310456,RU,38,Kievskaya,
310457,RU,32,Vershina,
310458,RU,51,Sarov,
310459,RU,10,Zhukovka,
310460,RU,88,Danilov,
310461,RU,64,Aniva,
310462,RU,59,Ussuriysk,
310463,RU,77,Nikopol,
310464,RU,77,Zelënaya,
310465,RU,47,Galushkina,
310466,RU,63,Entuziastov,
310467,RU,69,Energiya,
310468,RU,24,Elista,
310469,RU,69,Shirokaya,
310470,RU,85,Srednyaya,
310471,RU,69,Roslavl,
310472,RU,59,Lazo,
310473,RU,59,Partizansk,
310474,RU,25,Dolina,
310475,RU,38,Nizhegorodskaya,
310476,RU,8,Konstantinova,
310477,RU,49,Kandalaksha,
310478,RU,69,Pervaya,
310479,RU,77,Ordynka,
310480,RU,69,Ugra,
310481,RU,21,Kineshma,
310482,RU,84,Antonov,
310483,RU,61,Millerovo,
310484,RU,51,Nizhniy Novgorod,
310485,RU,34,Parma,
310486,RU,69,Tishina,
310487,RU,53,Skala,
310488,RU,39,Minskaya,
310489,RU,63,Krasnaya,
310490,RU,63,Molot,
310491,RU,8,Kumertau,
310492,RU,9,Proletarskiy,
310493,RU,52,Lipetsko,
310494,RU,30,Komsomolsk-na-amure,
310495,RU,38,Novokubansk,
310496,RU,86,Borisoglebsk,
310497,RU,61,Shaumyana,
310498,RU,53,Plekhanova,
310499,RU,53,Sverdlova,
310500,RU,47,Dmitrov,
310501,RU,59,Temp,
310502,RU,55,Shar,
310503,RU,48,Degunino,
310504,RU,33,Kirovo-chepetsk,
310505,RU,38,Chkalova,
310506,RU,47,Lefortovo,
310507,RU,39,Zaozerka,
310508,RU,35,Voronovo,
310509,RU,5,Dmitrovka,
310510,RU,56,Mikhnëvo,
310511,RU,53,Kazanskiy,
310512,RU,86,Bolshaya Dmitrovka,
310513,RU,84,Mishin,
310514,RU,66,Kronshtadt,
310515,RU,85,Orlova,
310516,RU,67,Zelënyy,
310517,RU,53,Kuznetsova,
310518,RU,33,Sadovaya,
310519,RU,21,Teykovo,
310520,RU,69,Bobrova,
310521,RU,53,Sever,
310522,RU,21,Shuya,
310523,RU,85,Ushakovskaya,
310524,RU,38,Gelendzhik,
310525,RU,21,Yakimanka,
310526,RU,38,Izmaylovskiy,
310527,RU,69,Ugol,
310528,RU,35,Romanova,
310529,RU,65,Otradny,
310530,RU,65,Kinel,
310531,RU,61,Sviridov,
310532,RU,8,Beloretsk,
310533,RU,31,Sayanogorsk,
310534,RU,25,Lyublino,
310535,RU,73,Chelny,
310536,RU,51,Inzhenernyy,
310537,RU,73,Elabuga,
310538,RU,63,Taras,
310539,RU,69,Volkova,
310540,RU,89,Birobidzhan,
310541,RU,20,Baykal,
310542,RU,43,Avrora,
310543,RU,84,Tkachenko,
310544,RU,49,Monchegorsk,
310545,RU,84,Bondarëv,
310546,RU,35,Komarova,
310547,RU,8,Salavat,
310548,RU,30,Litya,
310549,RU,59,Kavalerovo,
310550,RU,59,Plastun,
310551,RU,42,Primorsk,
310552,RU,67,Pobeda,
310553,RU,30,Nekrasovka,
310554,RU,47,Kratovo,
310555,RU,56,Yablochkova,
310556,RU,32,Khanty-mansiysk,
310557,RU,64,Dolinsk,
310558,RU,64,Tomari,
310559,RU,61,Tavrida,
310560,RU,39,Medveda,
310561,RU,69,Butovo,
310562,RU,84,Grebennikov,
310563,RU,33,Oktyabr,
310564,RU,86,Rossosh,
310565,RU,64,Makarov,
310566,RU,64,Smirnykh,
310567,RU,47,Chekhov,
310568,RU,53,Ryazanskiy,
310569,RU,51,Navashino,
310570,RU,61,Gukovo,
310571,RU,56,Gubkino,
310572,RU,30,Urgal,
310573,RU,67,Neftyanoy,
310574,RU,9,Kulakov,
310575,RU,34,Usinsk,
310576,RU,39,Strelka,
310577,RU,76,Rumyantsev,
310578,RU,51,Satis,
310579,RU,56,Degtyarnyy,
310580,RU,83,Murom,
310581,RU,21,Puchezh,
310582,RU,84,Frank,
310583,RU,30,Bogorodskaya,
310584,RU,86,Sverdlov,
310585,RU,37,Metallist,
310586,RU,51,Gorky,
310587,RU,65,Bogatyr,
310588,RU,51,Pavlovo,
310589,RU,59,Pokrovka,
310590,RU,8,Ishimbay,
310591,RU,49,Stroiteley,
310592,RU,34,Trakt,
310593,RU,69,Gagarin,
310594,RU,11,Ugolnaya,
310595,RU,JA,Kurilsk,
310596,RU,75,Turgeneva,
310597,RU,42,Gorchakovo,
310598,RU,13,Bulygin,
310599,RU,62,Bolshaya Sadovaya,
310600,RU,32,Megion,
310601,RU,61,Paliy,
310602,RU,59,Donskaya,
310603,RU,81,Izmaylovo,
310604,RU,33,Metrostroy,
310605,RU,42,Ladoga,
310606,RU,39,Kansk,
310607,RU,38,Oazis,
310608,RU,20,Kuda,
310609,RU,85,Dorozhnyy,
310610,RU,47,Tagankovo,
310611,RU,34,Viktor,
310612,RU,70,Ippolitov,
310613,RU,69,Durova,
310614,RU,16,Ekonom,
310615,RU,38,Otradnaya,
310616,RU,64,Slava,
310617,RU,70,Rot Front,
310618,RU,38,Lopatina,
310619,RU,39,Divnogorsk,
310620,RU,4,Nagornyy,
310621,RU,61,Aksay,
310622,RU,81,Dimitrovgrad,
310623,RU,52,Goncharova,
310624,RU,56,Komsomol,
310625,RU,56,Marin,
310626,RU,59,Valentin,
310627,RU,47,Bolshëvo,
310628,RU,69,Oreshki,
310629,RU,70,Pereverzev,
310630,RU,67,Volsk,
310631,RU,8,Neftekamsk,
310632,RU,52,Gertsena,
310633,RU,61,Kalinin,
310634,RU,53,Danilovskiy,
310635,RU,59,Popova,
310636,RU,55,Shabolovka,
310637,RU,51,Zavolzhye,
310638,RU,77,Tsentralny,
310639,RU,47,Aprelevka,
310640,RU,47,Zhukovskogo,
310641,RU,42,Prosveshcheniye,
310642,RU,52,Pererva,
310643,RU,59,Konda,
310644,RU,67,Zhdanov,
310645,RU,39,Kodinsk,
310646,RU,86,Obolenskiy,
310647,RU,53,Spiridonova,
310648,RU,JA,Morozko,
310649,RU,85,Sokol,
310650,RU,52,Rekon,
310651,RU,86,Kalmyk,
310652,RU,38,Zhukov,
310653,RU,84,Ilicha,
310654,RU,61,Kucherenko,
310655,RU,84,Sëmin,
310656,RU,71,Novouralsk,
310657,RU,47,Fruktovaya,
310658,RU,25,Splav,
310659,RU,73,Malaya Polyanka,
310660,RU,40,Neftyanikov,
310661,RU,47,Noginsk,
310662,RU,32,Nizhnevartovsk,
310663,RU,67,Novyy,
310664,RU,42,Repina,
310665,RU,84,Pronin,
310666,RU,75,Bulvar,
310667,RU,1,Michurina,
310668,RU,77,Serova,
310669,RU,23,Krasnolesye,
310670,RU,38,Anapa,
310671,RU,71,Istok,
310672,RU,28,Molodaya Gvardiya,
310673,RU,61,Gerasimov,
310674,RU,62,Pervo,
310675,RU,53,Valovaya,
310676,RU,35,Danilova,
310677,RU,84,Kotovo,
310678,RU,69,Yanovo,
310679,RU,68,Beslan,
310680,RU,74,Ilya,
310681,RU,64,Belokamennaya,
310682,RU,64,Poly,
310683,RU,69,Tishkovo,
310684,RU,14,Starik,
310685,RU,34,Maksim,
310686,RU,47,Bronnitsy,
310687,RU,52,Parad,
310688,RU,84,Preobrazhenskaya,
310689,RU,71,Platina,
310690,RU,61,Sovet,
310691,RU,70,Baltiyskiy,
310692,RU,59,Shmakovka,
310693,RU,59,Nevskaya,
310694,RU,52,Chudovo,
310695,RU,67,Ryazanka,
310696,RU,46,Aksel,
310697,RU,39,Sosnovoborsk,
310698,RU,47,Voskresensk,
310699,RU,38,Ekonomicheskiy,
310700,RU,23,Kuntsëvo,
310701,RU,48,Kapotnya,
310702,RU,74,Kargo,
310703,RU,10,Rozonov,
310704,RU,35,Kalinina,
310705,RU,84,Lapin,
310706,RU,42,Myasokombinat,
310707,RU,67,Shefer,
310708,RU,75,Beloborodova,
310709,RU,48,Vostochnyy,
310710,RU,69,Pesochnaya,
310711,RU,49,Titan,
310712,RU,71,Raskat,
310713,RU,20,Mariya,
310714,RU,36,Kooperativ,
310715,RU,41,Nartova,
310716,RU,20,Zima,
310717,RU,39,Elita,
310718,RU,47,Shatura,
310719,RU,35,Baranova,
310720,RU,86,Ekaterinovka,
310721,RU,61,Novocherkask,
310722,RU,77,Desna,
310723,RU,63,Aldan,
310724,RU,17,Ismail,
310725,RU,13,Varshavskiy,
310726,RU,52,Russkaya,
310727,RU,34,Akis,
310728,RU,8,Kamnya,
310729,RU,38,Yaroslavskaya,
310730,RU,38,Ovsyannikov,
310731,RU,28,Idel,
310732,RU,47,Sinitsy,
310733,RU,71,Monetny,
310734,RU,8,Ladon,
310735,RU,38,Tuapse,
310736,RU,14,Chara,
310737,RU,69,Prudok,
310738,RU,29,Belovo,
310739,RU,87,Noyabrsk,
310740,RU,78,Tobolsk,
310741,RU,41,Organizatsiya,
310742,RU,58,Ryabinovaya,
310743,RU,84,Devyatkin,
310744,RU,84,Tumanov,
310745,RU,53,Karasuk,
310746,RU,67,Novaya Zhizn,
310747,RU,30,Gran,
310748,RU,14,Kuanda,
310749,RU,69,Rodionova,
310750,RU,53,Vyatskaya,
310751,RU,51,Gorodets,
310752,RU,70,Georgievsk,
310753,RU,61,Nesvetay,
310754,RU,10,Sevsk,
310755,RU,67,Vozrozhdeniye,
310756,RU,85,Nizhnyaya,
310757,RU,67,Lider,
310758,RU,43,Pokrovskoe,
310759,RU,8,Kameya,
310760,RU,69,Ramenka,
310761,RU,88,Vesna,
310762,RU,CI,Grozny,
310763,RU,67,Krivoy,
310764,RU,84,Denisov,
310765,RU,61,Azov,
310766,RU,39,Maslennikova,
310767,RU,47,Odintsovo,
310768,RU,63,Kompakt,
310769,RU,52,Volot,
310770,RU,25,Naumova,
310771,RU,38,Utro,
310772,RU,85,Borovaya,
310773,RU,70,Lermontovskiy,
310774,RU,47,Kolomna,
310775,RU,58,Krasnokamsk,
310776,RU,41,Pilyugina,
310777,RU,67,Stal,
310778,RU,38,Parkovyy,
310779,RU,29,Centralny,
310780,RU,32,Altay,
310781,RU,69,Belka,
310782,RU,40,Sirenevyy,
310783,RU,47,Dzerzhinskiy,
310784,RU,65,Vinogradov,
310785,RU,71,Kalinovka,
310786,RU,28,Mikon,
310787,RU,82,Ideal,
310788,RU,11,Nadezhdinskiy,
310789,RU,41,Kauchuk,
310790,RU,86,Narodnaya,
310791,RU,23,Pravdinsk,
310792,RU,85,Markov,
310793,RU,84,Ignatov,
310794,RU,84,Sinitsyn,
310795,RU,84,Grachev,
310796,RU,61,Kominterna,
310797,RU,57,Tochka,
310798,RU,71,Kirillova,
310799,RU,35,Tarasova,
310800,RU,33,Shina,
310801,RU,63,Tiksi,
310802,RU,29,Myski,
310803,RU,47,Volokolamsk,
310804,RU,38,Poltavskaya,
310805,RU,52,Krug,
310806,RU,58,Blinova,
310807,RU,23,Krasnogorskoe,
310808,RU,59,Lesozavodsk,
310809,RU,84,Malakhov,
310810,RU,40,Rynki,
310811,RU,86,Sadovoe,
310812,RU,53,Nizhegorodskiy,
310813,RU,63,Roman,
310814,RU,38,Kurgannaya,
310815,RU,55,Petrovski,
310816,RU,61,Abramenko,
310817,RU,69,Ivanova,
310818,RU,85,Rostovskaya,
310819,RU,85,Malaya,
310820,RU,30,Delfin,
310821,RU,53,Granit,
310822,RU,84,Ushinka,
310823,RU,23,Divnoe,
310824,RU,6,Butyrskaya,
310825,RU,8,Varshavka,
310826,RU,85,Raduga,
310827,RU,35,Melnikova,
310828,RU,53,Nagornoye,
310829,RU,4,Tishinskiy,
310830,RU,83,Alexandrov,
310831,RU,62,Metallurg,
310832,RU,61,Zaikin,
310833,RU,70,Budënnovsk,
310834,RU,32,Sovetskiy,
310835,RU,70,Lermontov,
310836,RU,69,Vasilyeva,
310837,RU,67,Uspenskiy,
310838,RU,84,Markin,
310839,RU,35,Titova,
310840,RU,84,Firsov,
310841,RU,10,Korosteleva,
310842,RU,38,Marchenko,
310843,RU,42,Voronina,
310844,RU,84,Kozlov,
310845,RU,44,Sportivnyy,
310846,RU,84,Chirkov,
310847,RU,59,Uliss,
310848,RU,38,Kado,
310849,RU,33,Guli,
310850,RU,42,Mäki,
310851,RU,84,Opyt,
310852,RU,61,Ponomarëv,
310853,RU,67,Sakko,
310854,RU,41,Ivanovskoe,
310855,RU,77,Davidova,
310856,RU,47,Druzhba,
310857,RU,61,Nizhniy Novgorod,
310858,RU,59,Vityaz,
310859,RU,20,Vikhorevka,
310860,RU,38,Neftyanaya,
310861,RU,61,Klimenko,
310862,RU,61,Yanov,
310863,RU,4,Zarinsk,
310864,RU,63,Khleb,
310865,RU,38,Kravchenko,
310866,RU,64,Vulkan,
310867,RU,82,Ishin,
310868,RU,38,Pavlovskaya,
310869,RU,67,Semenovskiy,
310870,RU,81,Silikatnyy,
310871,RU,84,Linëvo,
310872,RU,25,Mamonovskiy,
310873,RU,75,Usachëva,
310874,RU,67,Federativnyy,
310875,RU,35,Kasatkina,
310876,RU,47,Lëdovo,
310877,RU,71,Arti,
310878,RU,61,Novoshakhtinsk,
310879,RU,59,Vozdvizhenka,
310880,RU,55,Prechistenka,
310881,RU,74,Makarova,
310882,RU,20,Filipovskiy,
310883,RU,61,Aleynikov,
310884,RU,67,Komintern,
310885,RU,65,Spiridonovka,
310886,RU,33,Internatsional,
310887,RU,52,Loseva,
310888,RU,60,Severa,
310889,RU,70,Nevinnomyssk,
310890,RU,14,Saman,
310891,RU,51,Burevestnik,
310892,RU,88,Rybinsk,
310893,RU,25,Puchkovo,
310894,RU,61,Lobachëv,
310895,RU,88,Uglich,
310896,RU,38,Vladimirskaya,
310897,RU,71,Izumrud,
310898,RU,30,Lazarev,
310899,RU,84,Komarov,
310900,RU,25,Balabanovo,
310901,RU,85,Baza,
310902,RU,47,Zvenigorod,
310903,RU,13,Gribanovka,
310904,RU,86,Boguchar,
310905,RU,51,Balakhna,
310906,RU,73,Chistopol,
310907,RU,48,Nagatino,
310908,RU,85,Pavlov,
310909,RU,67,Skat,
310910,RU,5,Talakan,
310911,RU,39,Svetlogorsk,
310912,RU,9,Golubtsov,
310913,RU,13,Kopeysk,
310914,RU,61,Svetoch,
310915,RU,72,Viktoriya,
310916,RU,70,Ipatovo,
310917,RU,61,Bataysk,
310918,RU,84,Nazarov,
310919,RU,84,Semënov,
310920,RU,63,Nagorny,
310921,RU,84,Shapovalov,
310922,RU,84,Kiselëv,
310923,RU,61,Zernograd,
310924,RU,78,Ishim,
310925,RU,40,Chistoprudnyy,
310926,RU,CI,Zolotarev,
310927,RU,39,Uyar,
310928,RU,59,Novopokrovka,
310929,RU,47,Demikhovo,
310930,RU,20,Nizhneudinsk,
310931,RU,69,Novikova,
310932,RU,42,Proba,
310933,RU,61,Vyazovskiy,
310934,RU,53,Kazanka,
310935,RU,78,Uporovo,
310936,RU,71,Tavda,
310937,RU,78,Uvat,
310938,RU,66,Lomonosov,
310939,RU,51,Uren,
310940,RU,77,Volgo,
310941,RU,70,Zheleznovodsk,
310942,RU,33,Khimik,
310943,RU,63,Korund,
310944,RU,84,Skvortsov,
310945,RU,10,Strazh,
310946,RU,70,Bogomolov,
310947,RU,49,Livana,
310948,RU,28,Häme,
310949,RU,78,Yalutorovsk,
310950,RU,30,Vanino,
310951,RU,34,Vavilov,
310952,RU,38,Slavyanskiy,
310953,RU,58,Berezniki,
310954,RU,42,Koshkina,
310955,RU,77,Belyy,
310956,RU,58,Krasoty,
310957,RU,24,Santa,
310958,RU,85,Kirillov,
310959,RU,84,Parkhomenko,
310960,RU,39,Potanina,
310961,RU,46,Temnikov,
310962,RU,86,Povorino,
310963,RU,69,Merkuriy,
310964,RU,49,Kola,
310965,RU,58,Cherdyn,
310966,RU,21,Savino,
310967,RU,58,Shnyrova,
310968,RU,17,Assa,
310969,RU,67,Atkarsk,
310970,RU,59,Nahodka,
310971,RU,43,Motor,
310972,RU,54,Ogorodny,
310973,RU,77,Trud,
310974,RU,70,Novopavlovsk,
310975,RU,25,Gorlovka,
310976,RU,11,Alan,
310977,RU,28,Parola,
310978,RU,58,Ocher,
310979,RU,51,Vyksa,
310980,RU,52,Usadba,
310981,RU,51,Bogorodsk,
310982,RU,42,Staraya,
310983,RU,58,Gremyachinsk,
310984,RU,71,Sysert,
310985,RU,7,Taran,
310986,RU,38,Belorusskiy,
310987,RU,38,Chernov,
310988,RU,67,Znamenskiy,
310989,RU,78,Zavodoukovsk,
310990,RU,78,Golyshmanovo,
310991,RU,67,Konnyy,
310992,RU,9,Bankovskiy,
310993,RU,47,Kashira,
310994,RU,49,Nikel,
310995,RU,61,Smolin,
310996,RU,49,Molochnyy,
310997,RU,14,Novaya Chara,
310998,RU,86,Bobrov,
310999,RU,72,Kirsanov,
311000,RU,56,Taldykina,
311001,RU,78,Sladkovo,
311002,RU,78,Aromashevo,
311003,RU,78,Vikulovo,
311004,RU,38,Slavyanskaya,
311005,RU,71,Kachkanar,
311006,RU,47,Klimovsk,
311007,RU,58,Solikamsk,
311008,RU,38,Stavropolskaya,
311009,RU,38,Partizanskiy,
311010,RU,6,Varvarskaya,
311011,RU,47,Otdykh,
311012,RU,11,China,
311013,RU,51,Khabarovskaya,
311014,RU,JA,Okeanskiy,
311015,RU,38,Dneprovskaya,
311016,RU,38,Nekrasovskaya,
311017,RU,10,Troyan,
311018,RU,4,Bestuzheva,
311019,RU,59,Tigrovaya,
311020,RU,39,Pogranichnaya,
311021,RU,71,Sharapova,
311022,RU,84,Kovalenko,
311023,RU,47,Lugovaya,
311024,RU,69,Podlipki,
311025,RU,69,Devyataya,
311026,RU,83,Shishkina,
311027,RU,71,Zarechnaya,
311028,RU,74,Vostochnaya,
311029,RU,17,Sanatoriy,
311030,RU,77,Gribova,
311031,RU,84,Subbotin,
311032,RU,47,Stupino,
311033,RU,69,Rudneva,
311034,RU,84,Pankin,
311035,RU,71,Kedr,
311036,RU,84,Olenev,
311037,RU,33,Gubich,
311038,RU,84,Dinamo,
311039,RU,60,Tyurikovo,
311040,RU,72,Rosa,
311041,RU,38,Borodinskaya,
311042,RU,61,Latyshëv,
311043,RU,84,Vorobyëv,
311044,RU,84,Novikov,
311045,RU,39,Shoshina,
311046,RU,27,Rodnik,
311047,RU,7,Piskunov,
311048,RU,59,Ovchinnikova,
311049,RU,28,Segezha,
311050,RU,39,Tatarskaya,
311051,RU,35,Davydova,
311052,RU,75,Androsova,
311053,RU,88,Prigorodnaya,
311054,RU,85,Stary,
311055,RU,38,Korolenko,
311056,RU,84,Tsarëv,
311057,RU,39,Berëzovaya,
311058,RU,38,Vostochny,
311059,RU,28,Dubova,
311060,RU,71,Samotsvet,
311061,RU,76,Prichal,
311062,RU,84,Amelin,
311063,RU,77,Radchenko,
311064,RU,89,Topolevaya,
311065,RU,79,Alik,
311066,RU,84,Popov,
311067,RU,84,Kuznetsov,
311068,RU,60,Ladygina,
311069,RU,70,Nadezhda,
311070,RU,38,Borisenko,
311071,RU,63,Nikiforova,
311072,RU,33,Beregovaya,
311073,RU,35,Fokina,
311074,RU,59,Ussuri,
311075,RU,84,Kalmykov,
311076,RU,38,Ivanovskaya,
311077,RU,69,Mishina,
311078,RU,38,Novoivanovskaya,
311079,RU,47,Marfino,
311080,RU,61,Velikiy,
311081,RU,84,Golubaya,
311082,RU,52,Osko,
311083,RU,84,Tkachëv,
311084,RU,53,Sibirtseva,
311085,RU,42,Vorota,
311086,RU,CI,Pari,
311087,RU,38,Nekrasov,
311088,RU,67,Privet,
311089,RU,56,Babikova,
311090,RU,62,Galina,
311091,RU,26,Kluchi,
311092,RU,59,Terney,
311093,RU,53,Krasnoobsk,
311094,RU,61,Lvov,
311095,RU,35,Yagodina,
311096,RU,57,Chasy,
311097,RU,28,Zapadnaya,
311098,RU,61,Lagutin,
311099,RU,34,Golovin,
311100,RU,69,Bogdanov,
311101,RU,25,Stanki,
311102,RU,10,Lozovy,
311103,RU,70,Kursavka,
311104,RU,69,Yurina,
311105,RU,70,Voronov,
311106,RU,60,Artemy,
311107,RU,39,Lazareva,
311108,RU,57,Sura,
311109,RU,76,Serebryany,
311110,RU,38,Kubanskaya,
311111,RU,71,Nadezhdinsk,
311112,RU,64,Shakhtersk,
311113,RU,70,Arzgir,
311114,RU,16,Lipovaya,
311115,RU,58,Sivkova,
311116,RU,27,Krasnogorskaya,
311117,RU,20,Ust-kut,
311118,RU,38,Grazhdanskiy,
311119,RU,84,Nikolaevsk,
311120,RU,42,Gavan,
311121,RU,30,Amursk,
311122,RU,30,Bikin,
311123,RU,30,Chegdomyn,
311124,RU,30,Okhotsk,
311125,RU,5,Troitskoe,
311126,RU,30,Ayan,
311127,RU,30,Elban,
311128,RU,30,Khurba,
311129,RU,45,Kirin,
311130,RU,10,Desnitsa,
311131,RU,47,Severyanin,
311132,RU,33,Lodeyno,
311133,RU,54,Forpost,
311134,RU,58,Chernushka,
311135,RU,58,Aleksandrovsk,
311136,RU,71,Chistyy,
311137,RU,47,Ramenskoye,
311138,RU,84,Sumskoy,
311139,RU,62,Zmeinka,
311140,RU,8,Babich,
311141,RU,55,Rybin,
311142,RU,38,Kuzmin,
311143,RU,7,Konovalova,
311144,RU,62,Cherus,
311145,RU,47,Klinskiy,
311146,RU,77,Sopot,
311147,RU,69,Kraski,
311148,RU,70,Korotkov,
311149,RU,47,Elektrostal,
311150,RU,85,Gora,
311151,RU,38,Yupiter,
311152,RU,71,Krasnoturinsk,
311153,RU,71,Talitsa,
311154,RU,14,Moron,
311155,RU,71,Revda,
311156,RU,69,Lomonosova,
311157,RU,33,Chernaya Rechka,
311158,RU,38,Suzdalskaya,
311159,RU,77,Polevaya,
311160,RU,8,Krasnaya Gorka,
311161,RU,42,Potok,
311162,RU,71,Krasnogvardeyskiy,
311163,RU,84,Berëzovskaya,
311164,RU,23,Krasnoznamensk,
311165,RU,83,Kolchugino,
311166,RU,61,Blagoveshenskiy,
311167,RU,65,Okean,
311168,RU,67,Tretiy,
311169,RU,47,Peredelkino,
311170,RU,42,Vsevolozhsk,
311171,RU,77,Stan,
311172,RU,86,Tolstoy,
311173,RU,55,Elektrozavodskoy,
311174,RU,47,Rostokino,
311175,RU,69,Anokhina,
311176,RU,71,Bogdanovich,
311177,RU,52,Vitebskaya,
311178,RU,53,Moshkovo,
311179,RU,53,Maslyanino,
311180,RU,53,Cherepanovo,
311181,RU,53,Suzun,
311182,RU,53,Kochenëvo,
311183,RU,86,Buturlinovskiy,
311184,RU,71,Borisovo,
311185,RU,85,Chayka,
311186,RU,25,Zyuzino,
311187,RU,88,Perovo,
311188,RU,CI,Ataki,
311189,RU,47,Zheleznodorozhny,
311190,RU,28,Alanga,
311191,RU,47,Klyazma,
311192,RU,85,Mostovaya,
311193,RU,61,Skachkov,
311194,RU,33,Kryukovo,
311195,RU,26,Preobrazhenskoe,
311196,RU,69,Bibirevo,
311197,RU,7,Akhtubinsk,
311198,RU,5,Aktay,
311199,RU,48,Biryulëvo,
311200,RU,35,Trifonova,
311201,RU,48,Lianozovo,
311202,RU,13,Satka,
311203,RU,31,Abaza,
311204,RU,64,Nota,
311205,RU,61,Komissarov,
311206,RU,42,Matushkino,
311207,RU,35,Mitino,
311208,RU,13,Asha,
311209,RU,58,Laki,
311210,RU,50,Shoina,
311211,RU,25,Dmitrovskiy,
311212,RU,85,Pozhara,
311213,RU,11,Narin,
311214,RU,33,Spasskaya,
311215,RU,53,Chernova,
311216,RU,35,Borisova,
311217,RU,35,Kosa,
311218,RU,60,Lebedeva,
311219,RU,59,Yaroslavskiy,
311220,RU,34,Severnyy,
311221,RU,61,Krylov,
311222,RU,73,Kotlovka,
311223,RU,21,Novoye,
311224,RU,63,Vernyy,
311225,RU,61,Nevskiy,
311226,RU,55,Elektrozavod,
311227,RU,53,Irkutskiy,
311228,RU,22,Soldatskaya,
311229,RU,38,Alexandrovsk,
311230,RU,48,Troparëvo,
311231,RU,65,Neftegorsk,
311232,RU,23,Gusev,
311233,RU,84,Nizhniy,
311234,RU,13,Ust-katav,
311235,RU,71,Bogoslovskiy,
311236,RU,84,Bogoyavlenskiy,
311237,RU,48,Strogino,
311238,RU,43,Solidarnost,
311239,RU,38,Timashevsk,
311240,RU,64,Soni,
311241,RU,5,Sivak,
311242,RU,25,Kashino,
311243,RU,52,Georgiy,
311244,RU,23,Brandenburg,
311245,RU,52,Krupa,
311246,RU,71,Maslovo,
311247,RU,30,De-kastri,
311248,RU,47,Vatutinki,
311249,RU,83,Suzdal,
311250,RU,47,Sudakova,
311251,RU,53,Voykovskiy,
311252,RU,61,Tapilin,
311253,RU,47,Nemchinovka,
311254,RU,70,Keramik,
311255,RU,21,Novinka,
311256,RU,84,Filin,
311257,RU,45,Tair,
311258,RU,84,Kozlovskiy,
311259,RU,33,Rubtsovo,
311260,RU,61,Berezka,
311261,RU,25,Tolmacheva,
311262,RU,5,Skovorodino,
311263,RU,28,Valaam,
311264,RU,61,Minaev,
311265,RU,71,Aziatskaya,
311266,RU,61,Novocherkasskiy,
311267,RU,32,Kommunisticheskiy,
311268,RU,80,Ozon,
311269,RU,77,Laykovo,
311270,RU,42,Fabrichnaya,
311271,RU,86,Zorkiy,
311272,RU,10,Zemlya,
311273,RU,CI,Lipatov,
311274,RU,5,Belogore,
311275,RU,85,Trio,
311276,RU,84,Koltso,
311277,RU,10,Dubrovka,
311278,RU,35,Odin,
311279,RU,77,Znamya,
311280,RU,45,Volzhsk,
311281,RU,16,Samolët,
311282,RU,38,Mikoyan,
311283,RU,8,Ryaz,
311284,RU,28,Niemi,
311285,RU,84,Safronov,
311286,RU,84,Sokolov,
311287,RU,47,Dedenevo,
311288,RU,38,Zorin,
311289,RU,70,Mineralnye,
311290,RU,77,Besedy,
311291,RU,7,Dushin,
311292,RU,39,Tuba,
311293,RU,7,Babkin,
311294,RU,39,Sotnikova,
311295,RU,7,Kotov,
311296,RU,84,Frolov,
311297,RU,61,Andronov,
311298,RU,25,Shishkov,
311299,RU,53,Inder,
311300,RU,56,Nagornay,
311301,RU,76,Zhizn,
311302,RU,83,Gruzdeva,
311303,RU,10,Opten,
311304,RU,46,Maydan,
311305,RU,61,Likhaya,
311306,RU,17,Kizlyar,
311307,RU,76,Zubovskiy,
311308,RU,47,Naro-fominsk,
311309,RU,25,Akulovo,
311310,RU,6,Yartsevskaya,
311311,RU,4,Yuzhnyy,
311312,RU,69,Zaytseva,
311313,RU,61,Staropetrovskiy,
311314,RU,23,Sadovo,
311315,RU,62,Polyany,
311316,RU,28,Sortavala,
311317,RU,55,Prechistenskaya,
311318,RU,87,Drovyanoy,
311319,RU,81,Osoka,
311320,RU,33,Kotelnich,
311321,RU,33,Luza,
311322,RU,33,Slobodskoy,
311323,RU,33,Omutninsk,
311324,RU,33,Yaransk,
311325,RU,83,Korsak,
311326,RU,53,Voznesenskiy,
311327,RU,47,Putilkovo,
311328,RU,27,Teply,
311329,RU,87,Purpe,
311330,RU,58,Barda,
311331,RU,58,Kizel,
311332,RU,58,Gornozavodsk,
311333,RU,58,Kungur,
311334,RU,58,Chusovoy,
311335,RU,58,Nytva,
311336,RU,58,Kueda,
311337,RU,37,Voch,
311338,RU,55,Luna,
311339,RU,83,Krylova,
311340,RU,69,Kovaleva,
311341,RU,37,Viga,
311342,RU,74,Marka,
311343,RU,56,Mayaki,
311344,RU,23,Neman,
311345,RU,33,Nolinsk,
311346,RU,33,Kirs,
311347,RU,23,Sovetsk,
311348,RU,33,Urzhum,
311349,RU,33,Murashi,
311350,RU,33,Malmyzh,
311351,RU,7,Solyanka,
311352,RU,6,Pervomayskiy,
311353,RU,64,Kirpichnaya,
311354,RU,9,Prioskolye,
311355,RU,67,Bauer,
311356,RU,69,Mariupol,
311357,RU,38,Ogorodnyy,
311358,RU,83,Klyuchëvo,
311359,RU,53,Novopeschanaya,
311360,RU,67,Borki,
311361,RU,62,Levin,
311362,RU,63,Maksima,
311363,RU,9,Semeynyy,
311364,RU,4,Ogni,
311365,RU,38,Rekord,
311366,RU,38,Vtoroy,
311367,RU,67,Privolzhskiy,
311368,RU,59,Valentina,
311369,RU,23,Veseloe,
311370,RU,7,Vladimirov,
311371,RU,62,Tsentralnaya,
311372,RU,70,Kista,
311373,RU,71,Oktyabrski,
311374,RU,83,Pleskovo,
311375,RU,57,Vodoley,
311376,RU,32,Lugovoy,
311377,RU,28,Chkalovskiy,
311378,RU,46,Komsomolskiy,
311379,RU,55,Konus,
311380,RU,64,Inso,
311381,RU,59,Vvedenskaya,
311382,RU,57,Mais,
311383,RU,37,Kalinka,
311384,RU,71,Lechebnyy,
311385,RU,85,Igmas,
311386,RU,66,Petrodvorets,
311387,RU,67,Popovka,
311388,RU,52,Bryanskaya,
311389,RU,53,Inskaya,
311390,RU,69,Poluyanova,
311391,RU,47,Solnechnogorskiy,
311392,RU,49,Rosta,
311393,RU,44,Dukat,
311394,RU,52,Podol,
311395,RU,44,Pishchekombinat,
311396,RU,29,Tayga,
311397,RU,35,Yakusheva,
311398,RU,58,Kolchug,
311399,RU,39,Borodino,
311400,RU,61,Dvoynoy,
311401,RU,58,Triumf,
311402,RU,69,Vishnyaki,
311403,RU,29,Taiga,
311404,RU,25,Sevastopol,
311405,RU,47,Volokolamskiy,
311406,RU,15,Petushkova,
311407,RU,4,Sorokino,
311408,RU,78,Turtas,
311409,RU,33,Orichi,
311410,RU,33,Zuevka,
311411,RU,25,Bardina,
311412,RU,84,Borisovskiy,
311413,RU,59,Stark,
311414,RU,71,Zhuravlëva,
311415,RU,67,Krasnoarmeysk,
311416,RU,89,Dezhneva,
311417,RU,28,Chupa,
311418,RU,38,Fedorenko,
311419,RU,84,Veshki,
311420,RU,86,Talovaya,
311421,RU,53,Karetnyy,
311422,RU,39,Batov,
311423,RU,55,Saraktash,
311424,RU,14,Borzya,
311425,RU,80,Fakel,
311426,RU,70,Shturm,
311427,RU,17,Dubki,
311428,RU,6,Shasta,
311429,RU,39,Sharypovo,
311430,RU,25,Roshcha,
311431,RU,54,Shukhova,
311432,RU,38,Milyutinskiy,
311433,RU,52,Artëmovskoye,
311434,RU,71,Ozërnaya,
311435,RU,55,Karaganda,
311436,RU,52,Dorozhnaya,
311437,RU,47,Lyubertsy,
311438,RU,38,Vnukovskiy,
311439,RU,84,Kravtsov,
311440,RU,67,Bogorodskiy,
311441,RU,75,Leskova,
311442,RU,86,Buturlinovka,
311443,RU,34,Zheleznodorozhnyy,
311444,RU,84,Kamennoy,
311445,RU,77,Rokotova,
311446,RU,86,Panino,
311447,RU,52,Opochno,
311448,RU,83,Baykova,
311449,RU,71,Mikhaylovskiy,
311450,RU,58,Tëplaya,
311451,RU,57,Marat,
311452,RU,7,Alga,
311453,RU,84,Potapovskiy,
311454,RU,84,Samarskiy,
311455,RU,46,Lespromkhoz,
311456,RU,34,Promyshlennyy,
311457,RU,13,Mini,
311458,RU,9,Kalitva,
311459,RU,70,Orlovka,
311460,RU,61,Salsk,
311461,RU,38,Armyanskiy,
311462,RU,13,Timiryazevskiy,
311463,RU,23,Yantarnyy,
311464,RU,35,Berëzovskiy,
311465,RU,33,Korovino,
311466,RU,70,Zimin,
311467,RU,47,Larevo,
311468,RU,25,Klën,
311469,RU,47,Sverdlovskiy,
311470,RU,69,Ogonek,
311471,RU,59,Peschanaya,
311472,RU,23,Olhovatka,
311473,RU,38,Kapustin,
311474,RU,38,Osenniy,
311475,RU,61,Artëmov,
311476,RU,84,Fomin,
311477,RU,71,Pyshminskaya,
311478,RU,47,Elektrogorsk,
311479,RU,38,Krymskaya,
311480,RU,38,Zubkov,
311481,RU,34,Respublika,
311482,RU,84,Bogatyrëv,
311483,RU,38,Azovskaya,
311484,RU,9,Pskovskaya,
311485,RU,39,Belorusskaya,
311486,RU,1,Koshelëv,
311487,RU,70,Ivancha,
311488,RU,70,Kondratenko,
311489,RU,38,Sorokin,
311490,RU,84,Tarasov,
311491,RU,61,Ryabov,
311492,RU,76,Suvorov,
311493,RU,52,Chernyshova,
311494,RU,52,Sofiya,
311495,RU,10,Ratnaya,
311496,RU,38,Trofimov,
311497,RU,53,Sretenskaya,
311498,RU,84,Kargin,
311499,RU,84,Grishin,
311500,RU,84,Gavrilin,
311501,RU,84,Plotnikov,
311502,RU,47,Selyatino,
311503,RU,55,Kostyukovskiy,
311504,RU,53,Teterinskiy,
311505,RU,42,Krasina,
311506,RU,57,Kotël,
311507,RU,68,Iran,
311508,RU,84,Suchkov,
311509,RU,67,Pokrovskiy,
311510,RU,59,Fridman,
311511,RU,38,Voronezhskaya,
311512,RU,42,Nikulinskaya,
311513,RU,35,Maksimova,
311514,RU,11,Kargina,
311515,RU,71,Chernoistochinsk,
311516,RU,47,Kubinka,
311517,RU,87,Tazovskiy,
311518,RU,30,Solnechnyy,
311519,RU,35,Nikitina,
311520,RU,78,Irtyshskiy,
311521,RU,84,Savin,
311522,RU,70,Muratov,
311523,RU,11,Boyarskiy,
311524,RU,71,Posol,
311525,RU,11,Severobaykalsk,
311526,RU,30,Irkutskaya,
311527,RU,67,Polyana,
311528,RU,76,Donskoy,
311529,RU,51,Lukoyanov,
311530,RU,39,Mana,
311531,RU,47,Kraskovo,
311532,RU,69,Klimova,
311533,RU,67,Posëlok,
311534,RU,13,Osipov,
311535,RU,84,Ogarkov,
311536,RU,53,Kaluzhskiy,
311537,RU,83,Aleksandrov,
311538,RU,11,Nizhneangarsk,
311539,RU,72,Lyubov,
311540,RU,21,Novinki,
311541,RU,84,Pugachëvskaya,
311542,RU,52,Burakova,
311543,RU,58,Balashova,
311544,RU,63,Petrova,
311545,RU,5,Tolmachev,
311546,RU,84,Potapov,
311547,RU,15,Anadyrskiy,
311548,RU,85,Sidorova,
311549,RU,20,Ovchinnikovskiy,
311550,RU,10,Blagovest,
311551,RU,1,Sultanov,
311552,RU,87,Polyarnaya,
311553,RU,84,Titov,
311554,RU,63,Uday,
311555,RU,84,Cherkasskiy,
311556,RU,59,Snezhnaya,
311557,RU,9,Safonov,
311558,RU,53,Sokolova,
311559,RU,84,Sychev,
311560,RU,39,Parshina,
311561,RU,31,Yuliya,
311562,RU,86,Bogdan,
311563,RU,63,Mustafa,
311564,RU,39,Kruglova,
311565,RU,84,Poperechnyy,
311566,RU,84,Golenkov,
311567,RU,6,Storona,
311568,RU,35,Savina,
311569,RU,9,Davydkin,
311570,RU,68,Dzhizi,
311571,RU,42,Krivko,
311572,RU,86,Danila,
311573,RU,84,Lomakin,
311574,RU,25,Rostovskiy,
311575,RU,13,Krasnogorskiy,
311576,RU,47,Pavlovskiy Posad,
311577,RU,47,Turist,
311578,RU,38,Lukin,
311579,RU,38,Fokin,
311580,RU,53,Razumovskiy,
311581,RU,27,Zhako,
311582,RU,63,Koryakin,
311583,RU,63,Doma,
311584,RU,86,Kolodeznyy,
311585,RU,61,Ushakov,
311586,RU,35,Kozlova,
311587,RU,38,Rudnev,
311588,RU,39,Kova,
311589,RU,69,Semenova,
311590,RU,84,Shestakov,
311591,RU,38,Voznesenskaya,
311592,RU,38,Novopetrovskaya,
311593,RU,84,Ostrovskiy,
311594,RU,38,Izmaylov,
311595,RU,17,Kina,
311596,RU,86,Zolotarëva,
311597,RU,71,Polyakova,
311598,RU,59,Permskaya,
311599,RU,71,Smagina,
311600,RU,7,Konovalov,
311601,RU,69,Leonova,
311602,RU,70,Smykov,
311603,RU,58,Almas,
311604,RU,63,Shestakova,
311605,RU,61,Mironov,
311606,RU,30,Gera,
311607,RU,61,Kurnosov,
311608,RU,84,Simonov,
311609,RU,25,Sosenskiy,
311610,RU,69,Denisova,
311611,RU,42,Aptekarskiy,
311612,RU,38,Ordzhonikidze,
311613,RU,84,Morozov,
311614,RU,38,Kolosov,
311615,RU,38,Berezhnoy,
311616,RU,25,Zabelin,
311617,RU,53,Nazarova,
311618,RU,69,Osipova,
311619,RU,42,Sobol,
311620,RU,72,Moroz,
311621,RU,61,Alifanov,
311622,RU,85,Mitinskaya,
311623,RU,53,Chik,
311624,RU,58,Utës,
311625,RU,38,Grazhdanskaya,
311626,RU,25,Riga,
311627,RU,47,Kokoshkino,
311628,RU,47,Cherkizovo,
311629,RU,76,Stupinskiy,
311630,RU,47,Ruza,
311631,RU,85,Davydkovo,
311632,RU,63,Chay,
311633,RU,47,Staraya Kupavna,
311634,RU,11,Vesely,
311635,RU,58,Rudak,
311636,RU,17,Imeni,
311637,RU,31,Chernogorsk,
311638,RU,78,Melioratorov,
311639,RU,20,Telma,
311640,RU,63,Otto,
311641,RU,83,Entuziast,
311642,RU,84,Blok,
311643,RU,52,Pirogova,
311644,RU,69,Kazino,
311645,RU,17,Sulak,
311646,RU,42,Rodina,
311647,RU,58,Ferma,
311648,RU,25,Luch,
311649,RU,80,Lokteva,
311650,RU,52,Zakaznik,
311651,RU,60,Lukovka,
311652,RU,86,Ostrovskogo,
311653,RU,84,Vasin,
311654,RU,44,Arman,
311655,RU,69,Venera,
311656,RU,7,Nachalo,
311657,RU,71,Menshikova,
311658,RU,13,Temir,
311659,RU,62,Malikov,
311660,RU,29,Toropova,
311661,RU,47,Taldom,
311662,RU,25,Panov,
311663,RU,29,Orton,
311664,RU,78,Tjumen,
311665,RU,10,Stroganov,
311666,RU,33,Novik,
311667,RU,13,Zapovednik,
311668,RU,47,Malino,
311669,RU,62,Charus,
311670,RU,29,Pioner,
311671,RU,76,Ruka,
311672,RU,20,Palati,
311673,RU,52,Krest,
311674,RU,30,Poni,
311675,RU,61,Baptistov,
311676,RU,34,Soveta,
311677,RU,69,Volodina,
311678,RU,10,Korma,
311679,RU,1,Kolganov,
311680,RU,36,Dana,
311681,RU,59,Romashka,
311682,RU,1,Bratstvo,
311683,RU,67,Glarus,
311684,RU,67,Radost,
311685,RU,8,Satra,
311686,RU,88,Suvorova,
311687,RU,64,Tonnel,
311688,RU,38,Vperëd,
311689,RU,51,Anda,
311690,RU,80,Buran,
311691,RU,52,Medved,
311692,RU,4,Razvedka,
311693,RU,67,Kultura,
311694,RU,61,Bani,
311695,RU,61,Melnikov,
311696,RU,40,Redut,
311697,RU,39,Medvedeva,
311698,RU,67,Preobrazhenka,
311699,RU,42,Senno,
311700,RU,10,Mechta,
311701,RU,6,Strazha,
311702,RU,77,Fialka,
311703,RU,56,Glazunova,
311704,RU,53,Balta,
311705,RU,68,Kosta,
311706,RU,8,Rada,
311707,RU,42,Balandina,
311708,RU,58,Vels,
311709,RU,47,Kolchuga,
311710,RU,50,Kononov,
311711,RU,77,Kanat,
311712,RU,69,Kalita,
311713,RU,20,Mama,
311714,RU,7,Russk,
311715,RU,34,Dzhel,
311716,RU,25,Lapina,
311717,RU,35,Fedotova,
311718,RU,13,Zotova,
311719,RU,47,Vasilev,
311720,RU,32,Solka,
311721,RU,52,Dorozhno,
311722,RU,56,Litva,
311723,RU,71,Dinas,
311724,RU,33,Kosino,
311725,RU,75,Smena,
311726,RU,17,Nita,
311727,RU,88,Rechnaya,
311728,RU,42,Fominskaya,
311729,RU,67,Korovin,
311730,RU,58,Chaykovskiy,
311731,RU,51,Linda,
311732,RU,51,Gorbatov,
311733,RU,42,Prudi,
311734,RU,20,Baikal,
311735,RU,53,Artamonova,
311736,RU,58,Sova,
311737,RU,47,Ionova,
311738,RU,84,Ryzhov,
311739,RU,84,Reutovskiy,
311740,RU,33,Darovskoy,
311741,RU,33,Kumeny,
311742,RU,33,Sanchursk,
311743,RU,38,Kars,
311744,RU,83,Chasha,
311745,RU,84,Sedov,
311746,RU,84,Medvedev,
311747,RU,38,Kolesnikov,
311748,RU,74,Dudinka,
311749,RU,39,Tulskaya,
311750,RU,87,Muravlenko,
311751,RU,38,Oktyabrskaya,
311752,RU,44,Vodopyanova,
311753,RU,83,Shipilova,
311754,RU,51,Sergach,
311755,RU,30,Alekseevka,
311756,RU,38,Stepnaya,
311757,RU,69,Selo,
311758,RU,25,Mosur,
311759,RU,85,Zolotova,
311760,RU,25,Kurbatova,
311761,RU,65,Duplin,
311762,RU,9,Shebekino,
311763,RU,7,Kurort,
311764,RU,84,Vodstroy,
311765,RU,42,Kukol,
311766,RU,43,Zerno,
311767,RU,61,Ilin,
311768,RU,47,Stolbovaya,
311769,RU,84,Chebotarëv,
311770,RU,20,Perfilyeva,
311771,RU,53,Dubrava,
311772,RU,75,Rozhdestvenskaya,
311773,RU,77,Pyatnitskaya,
311774,RU,61,Sulin,
311775,RU,42,Gorka,
311776,RU,42,Sosnovyy Bor,
311777,RU,61,Zimovniki,
311778,RU,17,Inko,
311779,RU,84,Shustov,
311780,RU,89,Amurzet,
311781,RU,64,Promyslovaya,
311782,RU,33,Dubrovskiy,
311783,RU,13,Kopeisk,
311784,RU,84,Kulikov,
311785,RU,27,Kavkazskiy,
311786,RU,55,Veselye,
311787,RU,47,Vysokovsk,
311788,RU,61,Sevastopolskiy,
311789,RU,42,Derevnya,
311790,RU,47,Mozhaisk,
311791,RU,53,Stepana Razina,
311792,RU,52,Vladykino,
311793,RU,10,Makarena,
311794,RU,61,Klimovskiy,
311795,RU,69,Uspensk,
311796,RU,68,Zavodskoi,
311797,RU,48,Veshnyaki,
311798,RU,29,Sheregesh,
311799,RU,55,Pershin,
311800,RU,58,Gubakha,
311801,RU,84,Kommuny,
311802,RU,84,Korolevskiy,
311803,RU,53,Rozhdestvenskiy,
311804,RU,71,Grishina,
311805,RU,61,Gavrilov,
311806,RU,84,Miller,
311807,RU,77,Shuvalov,
311808,RU,8,Zara,
311809,RU,22,Uchebnyy,
311810,RU,61,Pichugin,
311811,RU,84,Voroshilova,
311812,RU,70,Solnechnodolsk,
311813,RU,84,Yagodnaya,
311814,RU,71,Kushva,
311815,RU,18,Noginskiy,
311816,RU,71,Kopyrina,
311817,RU,53,Rozhdestvenka,
311818,RU,32,Supra,
311819,RU,73,Isakov,
311820,RU,13,Zlatoust,
311821,RU,69,Krasnyy,
311822,RU,47,Podushkino,
311823,RU,84,Goncharov,
311824,RU,73,Observatoriya,
311825,RU,76,Novomoskovsk,
311826,RU,47,Povarovo,
311827,RU,4,Lozhkin,
311828,RU,47,Marushkino,
311829,RU,70,Novoaleksandrovsk,
311830,RU,9,Ivnya,
311831,RU,43,Usman,
311832,RU,51,Rakita,
311833,RU,61,Parshin,
311834,RU,52,Pola,
311835,RU,38,Lukashëv,
311836,RU,77,Kashin,
311837,RU,23,Svetlyy,
311838,RU,14,Gagarinski,
311839,RU,80,Pirogovo,
311840,RU,43,Zeleny,
311841,RU,4,Lopareva,
311842,RU,70,Suvorovskaya,
311843,RU,68,Lats,
311844,RU,84,Nosov,
311845,RU,71,Polevskoy,
311846,RU,58,Vereshchagino,
311847,RU,63,Khaty,
311848,RU,54,Gudok,
311849,RU,10,Borschev,
311850,RU,41,Domra,
311851,RU,86,Pankov,
311852,RU,29,Anzhero-sudzhensk,
311853,RU,61,Kosov,
311854,RU,86,Tsentral,
311855,RU,69,Vyazma,
311856,RU,68,Lars,
311857,RU,70,Zolotoy Rodnik,
311858,RU,64,Krasnoy,
311859,RU,25,Dary,
311860,RU,41,Lisitsyn,
311861,RU,72,Tsyganok,
311862,RU,39,Beret,
311863,RU,47,Mytishchi,
311864,RU,17,Urma,
311865,RU,65,Kazakov,
311866,RU,82,Bard,
311867,RU,42,Sestra,
311868,RU,75,Cherkasova,
311869,RU,10,Alen,
311870,RU,63,Yermolova,
311871,RU,20,Burman,
311872,RU,35,Kiselëva,
311873,RU,84,Dëmin,
311874,RU,39,Zaliv,
311875,RU,61,Serebryanyy,
311876,RU,58,Soya,
311877,RU,54,Myasnikova,
311878,RU,61,Shipilov,
311879,RU,71,Batrakova,
311880,RU,1,Skvortsova,
311881,RU,69,Dubinina,
311882,RU,61,Balabanov,
311883,RU,67,Ovchinnikov,
311884,RU,61,Pogorelov,
311885,RU,61,Getmanov,
311886,RU,69,Kurakina,
311887,RU,61,Anikin,
311888,RU,59,Korsakovka,
311889,RU,9,Borisovka,
311890,RU,59,Galenki,
311891,RU,33,Baranovo,
311892,RU,59,Boguslavka,
311893,RU,59,Zharikovo,
311894,RU,59,Astrakhanka,
311895,RU,59,Novonikolsk,
311896,RU,59,Zolotaya Dolina,
311897,RU,59,Uglekamensk,
311898,RU,59,Peretino,
311899,RU,59,Volchanets,
311900,RU,59,Novolitovsk,
311901,RU,61,Martynov,
311902,RU,9,Nina,
311903,RU,55,Miroshkin,
311904,RU,64,Gastello,
311905,RU,5,Yakutskaya,
311906,RU,55,Portnov,
311907,RU,84,Galkin,
311908,RU,84,Babenko,
311909,RU,67,Mechetka,
311910,RU,8,Bakalinskiy,
311911,RU,71,Krasnouralsk,
311912,RU,25,Maloyaroslavets,
311913,RU,65,Vodny,
311914,RU,84,Rodionov,
311915,RU,38,Petrovskaya,
311916,RU,53,Chelyabinskiy,
311917,RU,73,Kuybyshev,
311918,RU,35,Krasnoyar,
311919,RU,16,Molniya,
311920,RU,38,Istomin,
311921,RU,61,Surov,
311922,RU,61,Kulik,
311923,RU,59,Grodekovo,
311924,RU,43,Lev Tolstoy,
311925,RU,88,Vesennyaya,
311926,RU,60,Mashkova,
311927,RU,JA,Yuzhno-kurilsk,
311928,RU,67,Nikolskaya,
311929,RU,47,Krasnozavodsk,
311930,RU,8,Uchaly,
311931,RU,8,Serëgin,
311932,RU,53,Pika,
311933,RU,5,Magdagachi,
311934,RU,17,Samur,
311935,RU,84,Volzhskiy,
311936,RU,32,Salym,
311937,RU,24,Lunev,
311938,RU,69,Malkova,
311939,RU,84,Poltavskiy,
311940,RU,25,Morozova,
311941,RU,84,Abramov,
311942,RU,61,Pukhlyakov,
311943,RU,84,Kryuchkov,
311944,RU,63,Nera,
311945,RU,38,Golovko,
311946,RU,14,Arta,
311947,RU,84,Kalashnikov,
311948,RU,78,Kinder,
311949,RU,27,Itkol,
311950,RU,84,Krasnov,
311951,RU,53,Barsukova,
311952,RU,9,Belozerov,
311953,RU,35,Abramova,
311954,RU,7,Gromov,
311955,RU,40,Maslyanaya,
311956,RU,36,Rusakov,
311957,RU,48,Losinoostrovskaya,
311958,RU,53,Semënovich,
311959,RU,47,Sofrino,
311960,RU,69,Shëlkovo,
311961,RU,73,Aktanysh,
311962,RU,5,Shimanovsk,
311963,RU,33,Vyatskiy,
311964,RU,29,Ibragimov,
311965,RU,83,Rodionovo,
311966,RU,24,Belozerskaya,
311967,RU,24,Magna,
311968,RU,40,Mokrushina,
311969,RU,54,Reneva,
311970,RU,61,Zadonskiy,
311971,RU,69,Bogdanova,
311972,RU,25,Petelino,
311973,RU,69,Bekasovo,
311974,RU,57,Sannikova,
311975,RU,38,Chuykova,
311976,RU,69,Demidov,
311977,RU,49,Lesnoi,
311978,RU,61,Tamarovskiy,
311979,RU,24,Medintsev,
311980,RU,33,Koshel,
311981,RU,61,Arbuzov,
311982,RU,35,Monastyr,
311983,RU,67,Ozërskiy,
311984,RU,13,Karmanov,
311985,RU,53,Mokhovaya,
311986,RU,56,Zhiguli,
311987,RU,76,Lvova,
311988,RU,56,Shumova,
311989,RU,30,Kabel,
311990,RU,58,Krasnovishersk,
311991,RU,20,Taishet,
311992,RU,20,Maral,
311993,RU,86,Degtyarny,
311994,RU,17,Geba,
311995,RU,34,Kozlovskaya,
311996,RU,4,Sibirskiy,
311997,RU,71,Tomskaya,
311998,RU,47,Chashnikovo,
311999,RU,42,Cherno,
312000,RU,42,Sherbinka,
312001,RU,86,Pushino,
312002,RU,38,Ryazanskaya,
312003,RU,69,Pechatniki,
312004,RU,39,Tayninskaya,
312005,RU,69,Rusanova,
312006,RU,42,Smolnaya,
312007,RU,66,Pargolovo,
312008,RU,52,Kudrovo,
312009,RU,64,Sadovniki,
312010,RU,6,Argunovskaya,
312011,RU,17,Aral,
312012,RU,68,Nart,
312013,RU,76,Pestovskiy,
312014,RU,47,Golyevo,
312015,RU,38,Petropavlovskaya,
312016,RU,28,Sergievo,
312017,RU,69,Krasnoe,
312018,RU,77,Industriya,
312019,RU,47,Ostrovtsy,
312020,RU,64,Forel,
312021,RU,8,Tuimazy,
312022,RU,6,Irta,
312023,RU,55,Sarzhan,
312024,RU,84,Vershinin,
312025,RU,8,Sibay,
312026,RU,8,Birsk,
312027,RU,21,Fedyakovo,
312028,RU,8,Belebey,
312029,RU,71,Aramil,
312030,RU,25,Bolotnaya,
312031,RU,8,Meleuz,
312032,RU,86,Ruda,
312033,RU,69,Petrovichi,
312034,RU,83,Litvinova,
312035,RU,54,Isilkul,
312036,RU,54,Kalachinsk,
312037,RU,54,Pavlogradka,
312038,RU,54,Tara,
312039,RU,60,Podvorye,
312040,RU,68,Moska,
312041,RU,39,Serebryakova,
312042,RU,33,Usad,
312043,RU,1,Medovyy,
312044,RU,53,Petrogradskiy,
312045,RU,84,Kudinov,
312046,RU,28,Meriya,
312047,RU,84,Timoshenko,
312048,RU,75,Surova,
312049,RU,7,Kononenko,
312050,RU,6,Losevskaya,
312051,RU,61,Shmat,
312052,RU,30,Karamzina,
312053,RU,69,Karacharovo,
312054,RU,30,Katen,
312055,RU,52,Transportnyy,
312056,RU,77,Klevtsova,
312057,RU,83,Delovo,
312058,RU,58,Pavlovskiy,
312059,RU,56,Znamenka,
312060,RU,71,Nagibina,
312061,RU,38,Krupskaya,
312062,RU,83,Simonova,
312063,RU,55,Chkalov,
312064,RU,84,Kalach,
312065,RU,65,Podstepki,
312066,RU,70,Balka,
312067,RU,39,Melnichnaya,
312068,RU,83,Tolstova,
312069,RU,13,Postnikova,
312070,RU,77,Bolnitsa,
312071,RU,85,Loza,
312072,RU,84,Kovalëv,
312073,RU,52,Tokareva,
312074,RU,33,Karaseva,
312075,RU,85,Michkova,
312076,RU,86,Zibrov,
312077,RU,47,Perlovka,
312078,RU,53,Spasskiy,
312079,RU,37,Samet,
312080,RU,7,Mashkin,
312081,RU,84,Bondarenko,
312082,RU,38,Zinchenko,
312083,RU,38,Kirpichniy,
312084,RU,44,Vozdushnaya,
312085,RU,85,Starkovo,
312086,RU,85,Safonovskaya,
312087,RU,35,Stepanova,
312088,RU,6,Novodvinsk,
312089,RU,83,Kovrov,
312090,RU,28,Saha,
312091,RU,48,Zyablikovo,
312092,RU,15,Shmidta,
312093,RU,20,Bayer,
312094,RU,84,Voskresenskiy,
312095,RU,42,Lukinskaya,
312096,RU,52,Podolskaya,
312097,RU,40,Gvardeyskaya,
312098,RU,84,Shilin,
312099,RU,CI,Gent,
312100,RU,86,Tovarnaya,
312101,RU,8,Vavilovo,
312102,RU,84,Bolshoi,
312103,RU,85,Tekhnika,
312104,RU,9,Stary Oskol,
312105,RU,61,Konstantinovsk,
312106,RU,41,Zhadina,
312107,RU,64,Severo-kurilsk,
312108,RU,60,Shumilova,
312109,RU,53,Sibiryak,
312110,RU,69,Sivkovo,
312111,RU,80,Izbushka,
312112,RU,52,Vasilëva,
312113,RU,33,Vershiny,
312114,RU,86,Ryzhkov,
312115,RU,18,Tura,
312116,RU,18,Baykit,
312117,RU,18,Vanavara,
312118,RU,61,Luchinskiy,
312119,RU,38,Khutorskaya,
312120,RU,67,Sestry,
312121,RU,8,Saitova,
312122,RU,21,Petrovskiy,
312123,RU,61,Kagalnik,
312124,RU,38,Malko,
312125,RU,8,Sharan,
312126,RU,9,Valuyki,
312127,RU,53,Saratovskiy,
312128,RU,47,Kutuzova,
312129,RU,46,Izvest,
312130,RU,35,Aleksandrova,
312131,RU,7,Gromova,
312132,RU,53,Barskiy,
312133,RU,38,Slavyansk-na-kubani,
312134,RU,55,Sharlyk,
312135,RU,24,Sosta,
312136,RU,70,Krymskiy,
312137,RU,64,Bras,
312138,RU,83,Ryzhikova,
312139,RU,58,Proryv,
312140,RU,63,Grishko,
312141,RU,71,Kuzina,
312142,RU,33,Zayats,
312143,RU,69,Grekovo,
312144,RU,49,Iona,
312145,RU,70,Svetlograd,
312146,RU,53,Zaozërnaya,
312147,RU,34,Syktywkar,
312148,RU,38,Pomorskiy,
312149,RU,61,Proletarsk,
312150,RU,84,Borodin,
312151,RU,38,Chernikov,
312152,RU,32,Pava,
312153,RU,11,Altan,
312154,RU,53,Buranova,
312155,RU,60,Demyana Bednogo,
312156,RU,31,Bait,
312157,RU,13,Gribanov,
312158,RU,82,Tarasa,
312159,RU,61,Orlovskiy,
312160,RU,52,Sady,
312161,RU,52,Valday,
312162,RU,62,Malaya Lubyanka,
312163,RU,24,Utta,
312164,RU,28,Rinda,
312165,RU,5,Amurskiy,
312166,RU,71,Degtyarsk,
312167,RU,38,Pereyaslavskaya,
312168,RU,17,Maran,
312169,RU,17,Derbent,
312170,RU,38,Rudakov,
312171,RU,28,Kondopoga,
312172,RU,84,Selivanov,
312173,RU,67,Bulatov,
312174,RU,61,Knyazev,
312175,RU,67,Kozhin,
312176,RU,17,Kare,
312177,RU,37,Darina,
312178,RU,1,Sidorov,
312179,RU,67,Smorodinka,
312180,RU,10,Deryugina,
312181,RU,25,Levshina,
312182,RU,61,Mosolov,
312183,RU,38,Levchenko,
312184,RU,70,Krivonosov,
312185,RU,82,Kalashnikova,
312186,RU,84,Kachalin,
312187,RU,84,Nikulin,
312188,RU,84,Rogovoy,
312189,RU,38,Umanskiy,
312190,RU,75,Feoktistova,
312191,RU,60,Spitsyna,
312192,RU,64,Seishi,
312193,RU,61,Zverevo,
312194,RU,38,Lesogorskaya,
312195,RU,88,Prechistenskiy,
312196,RU,84,Revenko,
312197,RU,83,Korobovo,
312198,RU,85,Klimovskaya,
312199,RU,69,Vystavka,
312200,RU,38,Semenyuk,
312201,RU,30,Kruglov,
312202,RU,13,Sobolev,
312203,RU,84,Yurlov,
312204,RU,61,Sirotkin,
312205,RU,85,Vorobeva,
312206,RU,63,Baykalov,
312207,RU,69,Saburova,
312208,RU,61,Shaposhnikova,
312209,RU,25,Golovanov,
312210,RU,61,Vishnyakov,
312211,RU,38,Rogacheva,
312212,RU,84,Romashkin,
312213,RU,28,Kalgan,
312214,RU,61,Nedvigovka,
312215,RU,38,Belikov,
312216,RU,81,Sushchevka,
312217,RU,43,Valova,
312218,RU,34,Ivanchik,
312219,RU,60,Tochki,
312220,RU,61,Trifonov,
312221,RU,30,Aviagorodok,
312222,RU,4,Koreneva,
312223,RU,84,Ilovlya,
312224,RU,47,Novopodrezkovo,
312225,RU,6,Tegra,
312226,RU,23,Primorskoe,
312227,RU,35,Larina,
312228,RU,63,Vitim,
312229,RU,38,Lunacharskiy,
312230,RU,59,Lubyanka,
312231,RU,13,Leontyev,
312232,RU,83,Gorokhovets,
312233,RU,83,Vyazniki,
312234,RU,54,Beregovoy,
312235,RU,8,Yanaul,
312236,RU,86,Ternovka,
312237,RU,30,Akon,
312238,RU,47,Tuchkovo,
312239,RU,14,Smolenka,
312240,RU,35,Kiselevo,
312241,RU,59,Alexandrovka,
312242,RU,61,Aparinskiy,
312243,RU,84,Tishanskaya,
312244,RU,67,Mysin,
312245,RU,61,Peshkovo,
312246,RU,61,Semibalki,
312247,RU,70,Novomirskiy,
312248,RU,35,Potapova,
312249,RU,67,Petrovo,
312250,RU,49,Severomorsk,
312251,RU,49,Kirovsk,
312252,RU,47,Fryanovo,
312253,RU,59,Posyet,
312254,RU,8,Ufa,
312255,RU,25,Detchino,
312256,RU,80,Pychas,
312257,RU,38,Chernomorskiy,
312258,RU,65,Zolnoye,
312259,RU,28,Pryazha,
312260,RU,10,Unecha,
312261,RU,70,Kugulta,
312262,RU,47,Nekrasovskiy,
312263,RU,47,Iksha,
312264,RU,37,Volgorechensk,
312265,RU,45,Suslonger,
312266,RU,45,Medvedevo,
312267,RU,86,Orlovo,
312268,RU,47,Proletarskiy,
312269,RU,47,Shcherbinka,
312270,RU,84,Novonikolskoe,
312271,RU,47,Davydovo,
312272,RU,47,Rodniki,
312273,RU,72,Komsomolets,
312274,RU,49,Olenegorsk,
312275,RU,28,Kostomuksha,
312276,RU,85,Chebsara,
312277,RU,47,Drezna,
312278,RU,51,Gorbatovka,
312279,RU,85,Sheksna,
312280,RU,47,Snegiri,
312281,RU,42,Tosno,
312282,RU,42,Yelizavetino,
312283,RU,71,Reftinskiy,
312284,RU,47,Chërnoye,
312285,RU,61,Bolshoy Log,
312286,RU,42,Imeni Sverdlova,
312287,RU,21,Kokhma,
312288,RU,63,Ust-nera,
312289,RU,86,Pervoye Maya,
312290,RU,86,Nikolskoye,
312291,RU,21,Pistsovo,
312292,RU,57,Bogoslovka,
312293,RU,80,Uva,
312294,RU,CI,Shaami-yurt,
312295,RU,65,Mezhdurechensk,
312296,RU,47,Yakhroma,
312297,RU,66,Aleksandrovskaya,
312298,RU,77,Redkino,
312299,RU,38,Arkhipo-osipovka,
312300,RU,47,Kommunarka,
312301,RU,47,Alabino,
312302,RU,9,Razumnoye,
312303,RU,59,Tavrichanka,
312304,RU,42,Krasnoye Selo,
312305,RU,71,Verkhnyaya Salda,
312306,RU,71,Tsementnyy,
312307,RU,71,Nevyansk,
312308,RU,75,Bogashevo,
312309,RU,64,Toyohara,
312310,RU,47,Dedovsk,
312311,RU,47,Pervomayskiy,
312312,RU,51,Bor,
312313,RU,51,Vacha,
312314,RU,55,Prigorodnyy,
312315,RU,40,Shadrinsk,
312316,RU,40,Kargapolye,
312317,RU,8,Davlekanovo,
312318,RU,47,Yam,
312319,RU,47,Firsanovka,
312320,RU,58,Overyata,
312321,RU,81,Cherdakly,
312322,RU,9,Staryy Oskol,
312323,RU,9,Korocha,
312324,RU,38,Verkhnebakanskiy,
312325,RU,38,Anapskaya,
312326,RU,38,Saratovskaya,
312327,RU,38,Goryachiy Klyuch,
312328,RU,84,Zhirnovsk,
312329,RU,38,Dzhubga,
312330,RU,42,Annino,
312331,RU,73,Bugulma,
312332,RU,73,Sarmanovo,
312333,RU,73,Levashëvo,
312334,RU,73,Rybnaya Sloboda,
312335,RU,73,Lebedino,
312336,RU,73,Laishevo,
312337,RU,52,Velikiy Novgorod,
312338,RU,52,Staraya Russa,
312339,RU,71,Nikolo-pavlovskoye,
312340,RU,71,Volchansk,
312341,RU,77,Kimry,
312342,RU,83,Kosterevo,
312343,RU,83,Anopino,
312344,RU,70,Yessentukskaya,
312345,RU,70,Soluno-dmitriyevskoye,
312346,RU,88,Nekrasovskoye,
312347,RU,13,Karabash,
312348,RU,55,Oktyabrskoye,
312349,RU,73,Leninogorsk,
312350,RU,57,Mokshan,
312351,RU,57,Tamala,
312352,RU,83,Andreyevo,
312353,RU,60,Pytalovo,
312354,RU,60,Novorzhev,
312355,RU,26,Petropavlovsk-kamchatskiy,
312356,RU,5,Konstantinovka,
312357,RU,71,Kedrovoye,
312358,RU,47,Barvikha,
312359,RU,46,Tatarskaya Pishlya,
312360,RU,46,Nikolayevka,
312361,RU,59,Trudovoye,
312362,RU,20,Meget,
312363,RU,71,Ayat,
312364,RU,76,Shvartsevskiy,
312365,RU,64,Troitskoye,
312366,RU,13,Yemanzhelinka,
312367,RU,13,Zauralskiy,
312368,RU,13,Pervomayskiy,
312369,RU,13,Koyelga,
312370,RU,70,Tatarka,
312371,RU,86,Sredniy Ikorets,
312372,RU,86,Davydovka,
312373,RU,47,Zaprudnya,
312374,RU,16,Shumerlya,
312375,RU,16,Tsivilsk,
312376,RU,16,Krasnoarmeyskoye,
312377,RU,42,Taytsy,
312378,RU,48,Kuzminki,
312379,RU,58,Kukushtan,
312380,RU,58,Komarikhinskiy,
312381,RU,58,Sylva,
312382,RU,42,Lyuban,
312383,RU,42,Drachevo,
312384,RU,42,Yanino,
312385,RU,42,Naziya,
312386,RU,42,Mga,
312387,RU,78,Bogandinskiy,
312388,RU,42,Gorbunki,
312389,RU,33,Strizhi,
312390,RU,87,Labytnangi,
312391,RU,40,Krasnyy Oktyabr,
312392,RU,40,Ikovka,
312393,RU,58,Lobanovo,
312394,RU,58,Chermoz,
312395,RU,71,Severka,
312396,RU,58,Polazna,
312397,RU,58,Verkhnechusovskiye Gorodki,
312398,RU,53,Novolugovoye,
312399,RU,63,Khatassy,
312400,RU,66,Petro-slavyanka,
312401,RU,47,Golitsyno,
312402,RU,4,Zonalnoye,
312403,RU,42,Otradnoye,
312404,RU,81,Sengiley,
312405,RU,16,Mariinskiy Posad,
312406,RU,47,Vishnyakovskiye Dachi,
312407,RU,47,Opalikha,
312408,RU,47,Abramtsevo,
312409,RU,47,Barybino,
312410,RU,47,Belyye Stolby,
312411,RU,13,Chelyabinsk-70,
312412,RU,13,Kasli,
312413,RU,13,Novogornyy,
312414,RU,13,Uyskoye,
312415,RU,42,Gostilitsy,
312416,RU,42,Russko-vysotskoye,
312417,RU,42,Begunitsy,
312418,RU,71,Severouralsk,
312419,RU,71,Krasnoufimsk,
312420,RU,71,Staropyshminsk,
312421,RU,71,Klyuchevsk,
312422,RU,42,Kipen,
312423,RU,47,Malakhovka,
312424,RU,13,Kulukayeva,
312425,RU,42,Kamenka,
312426,RU,42,Voyskovitsy,
312427,RU,77,Konakovo,
312428,RU,38,Severskaya,
312429,RU,38,Mingrelskaya,
312430,RU,72,Dmitriyevka,
312431,RU,47,Zhitnevo,
312432,RU,66,Komarovo,
312433,RU,85,Irdomatka,
312434,RU,29,Yashkino,
312435,RU,61,Sinyavskoye,
312436,RU,16,Novocheboksarsk,
312437,RU,25,Borovsk,
312438,RU,61,Bataisk,
312439,RU,67,Krasnyy Yar,
312440,RU,45,Krasnogorskiy,
312441,RU,29,Krasnobrodskiy,
312442,RU,29,Inskoy,
312443,RU,29,Plotnikovo,
312444,RU,73,Kamskiye Polyany,
312445,RU,71,Neyvo-rudyanka,
312446,RU,47,Razvilka,
312447,RU,23,Polessk,
312448,RU,23,Znamensk,
312449,RU,47,Orekhovo-zuevo,
312450,RU,73,Vasilyevo,
312451,RU,65,Khryashchevka,
312452,RU,71,Dvornikova,
312453,RU,89,Leninskoe,
312454,RU,84,Opytnyy,
312455,RU,11,Barykina,
312456,RU,14,Vershino-darasunskiy,
312457,RU,70,Grankin,
312458,RU,85,Novgorodskaya,
312459,RU,39,Merkulova,
312460,RU,46,Lady,
312461,RU,25,Ozero,
312462,RU,13,Bekhtereva,
312463,RU,46,Ruzaevka,
312464,RU,20,Sludyanka,
312465,RU,38,Belorechensk,
312466,RU,61,Velikanov,
312467,RU,CI,Zony,
312468,RU,77,Podarki,
312469,RU,46,Staryy Gorod,
312470,RU,66,Kupchino,
312471,RU,66,Avtovo,
312472,RU,4,Ozerki,
312473,RU,67,Kalininskiy,
312474,RU,56,Lgovskiy,
312475,RU,20,Nikishina,
312476,RU,67,Otrada,
312477,RU,61,Gukova,
312478,RU,58,Gromovoy,
312479,RU,85,Mariinskaya,
312480,RU,6,Yakovlevskiy,
312481,RU,84,Rybnyy,
312482,RU,47,Manezh,
312483,RU,8,Oktyabrskiy,
312484,RU,59,Ayaks,
312485,RU,47,Dorogomilovo,
312486,RU,39,Pereyaslavka,
312487,RU,89,Smidovich,
312488,RU,71,Kamyshlov,
312489,RU,30,Sovetskaya Gavan,
312490,RU,4,Bazhova,
312491,RU,71,Ivdel,
312492,RU,71,Irbit,
312493,RU,39,Artemovski,
312494,RU,58,Uralskiy,
312495,RU,71,Kirovgrad,
312496,RU,71,Nizhnyaya Tura,
312497,RU,11,Berezovski,
312498,RU,49,Roslyakovo,
312499,RU,77,Emmauss,
312500,RU,25,Kudinovo,
312501,RU,47,Elektrougli,
312502,RU,88,Krasnyye Tkachi,
312503,RU,47,Pokrovka,
312504,RU,34,Synyanyrd,
312505,RU,47,Nakhabino,
312506,RU,41,Solntsevo,
312507,RU,71,Rudnichnyy,
312508,RU,66,Sapernyy,
312509,RU,66,Levashovo,
312510,RU,49,Pechenga,
312511,RU,71,Sarapulka,
312512,RU,8,Zirgan,
312513,RU,47,Lvovskiy,
312514,RU,38,Kropotkin,
312515,RU,38,Novokorsunskaya,
312516,RU,38,Medvedovskaya,
312517,RU,1,Dondukovskaya,
312518,RU,38,Vityazevo,
312519,RU,73,Aktyubinskiy,
312520,RU,73,Zainsk,
312521,RU,73,Dzhalil,
312522,RU,83,Petushki,
312523,RU,83,Zolotkovo,
312524,RU,70,Yessentuki,
312525,RU,88,Tutayev,
312526,RU,55,Gay,
312527,RU,83,Orgtrud,
312528,RU,84,Olkhovka,
312529,RU,59,Yekaterinovka,
312530,RU,73,Vysokaya Gora,
312531,RU,87,Pangody,
312532,RU,70,Grazhdanskoye Pervoye,
312533,RU,47,Monino,
312534,RU,66,Shushary,
312535,RU,25,Nikolskoe,
312536,RU,78,Borovskiy,
312537,RU,32,Lyantor,
312538,RU,41,Zolotukhino,
312539,RU,73,Tatarskiye Sarsasy,
312540,RU,47,Vidnoye,
312541,RU,42,Roshchino,
312542,RU,4,Troitskoye,
312543,RU,47,Pavlovskaya Sloboda,
312544,RU,42,Maloye Verevo,
312545,RU,71,Kalinovo,
312546,RU,38,Kholmskaya,
312547,RU,47,Sheremetyevskiy,
312548,RU,88,Konstantinovskiy,
312549,RU,75,Aleksandrovskoye,
312550,RU,53,Kupino,
312551,RU,53,Prokudskoye,
312552,RU,47,Zagoryanskiy,
312553,RU,39,Boguchany,
312554,RU,67,Svetlyy,
312555,RU,47,Lyubuchany,
312556,RU,84,Borovkov,
312557,RU,61,Tarasovskiy,
312558,RU,33,Bumazhnyy,
312559,RU,61,Klyuev,
312560,RU,76,Yalta,
312561,RU,71,Karpinsk,
312562,RU,71,Beloyarskiy,
312563,RU,61,Kotova,
312564,RU,39,Lesosibirsk,
312565,RU,85,Frolovskoe,
312566,RU,47,Konstantinovo,
312567,RU,10,Timoshkin,
312568,RU,25,Zhukovo,
312569,RU,71,Novaya Lyalya,
312570,RU,71,Pelym,
312571,RU,71,Lobva,
312572,RU,71,Butka,
312573,RU,56,Students,
312574,RU,43,Myagkaya,
312575,RU,69,Devino,
312576,RU,84,Fomichev,
312577,RU,13,Yuzhnouralsk,
312578,RU,62,Mikhaylov,
312579,RU,77,Ryady,
312580,RU,25,Klyuch,
312581,RU,67,Krasnaya Zvezda,
312582,RU,49,Kildinstroy,
312583,RU,38,Ust-labinsk,
312584,RU,38,Kiyevskoye,
312585,RU,1,Giaginskaya,
312586,RU,59,Volno-nadezhdinskoye,
312587,RU,86,Novaya Usman,
312588,RU,47,Imeni Tsyurupy,
312589,RU,34,Sosnogorsk,
312590,RU,47,Pravdinskiy,
312591,RU,71,Levikha,
312592,RU,21,Bogorodskoye,
312593,RU,78,Miyagi,
312594,RU,86,Pavlovsk,
312595,RU,17,Kaspiysk,
312596,RU,53,Koltsovo,
312597,RU,60,Pechory,
312598,RU,70,Arkhangelskoye,
312599,RU,70,Starodubskoye,
312600,RU,71,Petrokamenskoye,
312601,RU,8,Sterlibashevo,
312602,RU,38,Khadyzhensk,
312603,RU,38,Rayevskaya,
312604,RU,1,Adygeysk,
312605,RU,84,Petrov Val,
312606,RU,73,Yelabuga,
312607,RU,47,Zhavoronki,
312608,RU,88,Dubki,
312609,RU,38,Akhtyrskiy,
312610,RU,26,Yelizovo,
312611,RU,29,Khorosheborka,
312612,RU,29,Leninsk-kuznetskiy,
312613,RU,29,Ust-khmelëvka,
312614,RU,71,Iset,
312615,RU,64,Mitsrevka,
312616,RU,67,Krasnyy Tekstilshchik,
312617,RU,13,Fershampenuaz,
312618,RU,87,Faktoriya Tanlovo,
312619,RU,21,Rodniki,
312620,RU,71,Kamensk-uralskiy,
312621,RU,47,Prudno,
312622,RU,16,Vurnary,
312623,RU,49,Afrikanda,
312624,RU,23,Baltiysk,
312625,RU,23,Nesterov,
312626,RU,42,Ulyanovka,
312627,RU,42,Nurma,
312628,RU,78,Iska-chebakova,
312629,RU,47,Tekstilshchik,
312630,RU,32,Uray,
312631,RU,58,Novyye Lyady,
312632,RU,39,Krasnoyarsk-66,
312633,RU,66,Sestroretsk,
312634,RU,66,Ushkovo,
312635,RU,66,Lisiy Nos,
312636,RU,6,Vychegodskiy,
312637,RU,6,Kotlas,
312638,RU,15,Bilibino,
312639,RU,20,Shelekhov,
312640,RU,86,Semiluki,
312641,RU,76,Novogurovskiy,
312642,RU,76,Bolokhovo,
312643,RU,32,Igrim,
312644,RU,55,Novotroitsk,
312645,RU,53,Ob,
312646,RU,47,Oktyabrskiy,
312647,RU,61,Kirovskaya,
312648,RU,73,Tigan-bulyak,
312649,RU,85,Dolgovo,
312650,RU,53,Respublikanskiy,
312651,RU,85,Vesëlaya,
312652,RU,8,Amir,
312653,RU,85,Malina,
312654,RU,67,Savushkin,
312655,RU,33,Lena,
312656,RU,25,Rzhëvka,
312657,RU,38,Belousov,
312658,RU,87,Gubkinskiy,
312659,RU,59,Uborka,
312660,RU,26,Dyakonova,
312661,RU,38,Kazanskaya,
312662,RU,9,Kazachya,
312663,RU,42,Summa,
312664,RU,57,Kera,
312665,RU,35,Mironova,
312666,RU,84,Fetisov,
312667,RU,38,Naumenko,
312668,RU,66,Izhorski,
312669,RU,9,Shramkov,
312670,RU,10,Bubnov,
312671,RU,56,Murav,
312672,RU,84,Ternovoe,
312673,RU,17,Giba,
312674,RU,69,Yartsevo,
312675,RU,53,Belova,
312676,RU,77,Perova,
312677,RU,70,Moskovskoye,
312678,RU,59,Zavodskoy,
312679,RU,11,Selenga,
312680,RU,25,Rosha,
312681,RU,14,Olovyannaya,
312682,RU,84,Zotov,
312683,RU,84,Polevoy,
312684,RU,70,Kozhevnikov,
312685,RU,38,Armavir,
312686,RU,38,Kanevskaya,
312687,RU,38,Novotitarovskaya,
312688,RU,47,Troitsk,
312689,RU,80,Mozhga,
312690,RU,42,Volosovo,
312691,RU,77,Udomlya,
312692,RU,86,Drakino,
312693,RU,51,Volodarsk,
312694,RU,88,Pereslavl-zalesskiy,
312695,RU,8,Askarovo,
312696,RU,14,Krasnokamensk,
312697,RU,38,Yeysk,
312698,RU,38,Afipskiy,
312699,RU,38,Kurganinsk,
312700,RU,38,Labinsk,
312701,RU,1,Enem,
312702,RU,73,Kamskoye Ustye,
312703,RU,10,Klintsy,
312704,RU,38,Ilskiy,
312705,RU,42,Ivangorod,
312706,RU,29,Prokopyevsk,
312707,RU,42,Garbolovo,
312708,RU,42,Sinyavino,
312709,RU,42,Schlüsselburg,
312710,RU,58,Ashap,
312711,RU,53,Dorogino,
312712,RU,66,Aleksandrovskaya,
312713,RU,6,Koryazhma,
312714,RU,71,Zarechnyy,
312715,RU,71,Verkhnyaya Pyshma,
312716,RU,42,Kingisepp,
312717,RU,38,Novoukrainskiy,
312718,RU,55,Mednogorsk,
312719,RU,65,Otradnyy,
312720,RU,75,Kolpashevo,
312721,RU,47,Kolyubakino,
312722,RU,88,Bolshoye Selo,
312723,RU,64,Oleniy,
312724,RU,28,Letnaya,
312725,RU,20,Bodaibo,
312726,RU,73,Brezhnev,
312727,RU,34,Martyushev,
312728,RU,63,Cheremnykh,
312729,RU,39,Klyuchik,
312730,RU,67,Pochtovyy,
312731,RU,63,Neryungri,
312732,RU,53,Doronina,
312733,RU,47,Nemchinovo,
312734,RU,34,Klimov,
312735,RU,CI,Groznyi,
312736,RU,61,Remizov,
312737,RU,61,Morozovsk,
312738,RU,85,Strakhovo,
312739,RU,59,Granat,
312740,RU,53,Surkova,
312741,RU,84,Karpovskiy,
312742,RU,71,Bannaya,
312743,RU,69,Nikonova,
312744,RU,89,Teploozërsk,
312745,RU,39,Suchkova,
312746,RU,42,Loginova,
312747,RU,13,Karabanov,
312748,RU,71,Sosva,
312749,RU,71,Achit,
312750,RU,71,Visim,
312751,RU,69,Timoshina,
312752,RU,38,Vasilchenko,
312753,RU,38,Streltsov,
312754,RU,25,Glinki,
312755,RU,38,Skobelevskaya,
312756,RU,61,Voloshina,
312757,RU,59,Nazarenko,
312758,RU,83,Voskresenskaya,
312759,RU,34,Nikita,
312760,RU,15,Bering,
312761,RU,61,Denisovskiy,
312762,RU,71,Turinsk,
312763,RU,83,Bulanova,
312764,RU,42,Ganina,
312765,RU,38,Panchenko,
312766,RU,38,Chereshnya,
312767,RU,85,Nasonova,
312768,RU,21,Sidorovo,
312769,RU,39,Svobodnaya,
312770,RU,84,Repin,
312771,RU,58,Ksenofontova,
312772,RU,34,Zagorskaya,
312773,RU,71,Bisert,
312774,RU,71,Kuri,
312775,RU,42,Novoye Devyatkino,
312776,RU,49,Kovdor,
312777,RU,1,Beloye,
312778,RU,65,Povolzhskiy,
312779,RU,84,Nov,
312780,RU,38,Korenovsk,
312781,RU,73,Shugurovo,
312782,RU,70,Aleksandrovskoye,
312783,RU,1,Takhtamukay,
312784,RU,33,Sosnovka,
312785,RU,13,Korkino,
312786,RU,13,Argayash,
312787,RU,73,Alekseyevskoye,
312788,RU,13,Kunashak,
312789,RU,71,Berëzovskiy,
312790,RU,60,Loknya,
312791,RU,38,Troitskaya,
312792,RU,37,Torino,
312793,RU,71,Druzhinino,
312794,RU,63,Choron,
312795,RU,69,Safronova,
312796,RU,71,Staroutkinsk,
312797,RU,71,Baykalovo,
312798,RU,71,Gari,
312799,RU,71,Tugulym,
312800,RU,74,Baykalovsk,
312801,RU,71,Zonalnaya,
312802,RU,75,Pozdnyakova,
312803,RU,71,Turinskaya Sloboda,
312804,RU,71,Natalinsk,
312805,RU,23,Pionerskiy,
312806,RU,71,Pervouralskiy,
312807,RU,71,Nizhnyaya Salda,
312808,RU,61,Serikov,
312809,RU,4,Beloyarsk,
312810,RU,84,Druzhinina,
312811,RU,71,Pridannikovo,
312812,RU,59,Aleksandrovskoe,
312813,RU,30,Vyazemskiy,
312814,RU,73,Arbor,
312815,RU,43,Kirilova,
312816,RU,38,Krasnoselskiy,
312817,RU,63,Svetly,
312818,RU,52,Grineva,
312819,RU,42,Perun,
312820,RU,69,Desnogorsk,
312821,RU,13,Kartaly,
312822,RU,25,Sorok Let Oktyabrya,
312823,RU,51,Shakhunya,
312824,RU,84,Zhuravlëv,
312825,RU,49,Inga,
312826,RU,16,Kanash,
312827,RU,35,Pronina,
312828,RU,71,Porechye,
312829,RU,59,Fabrichnyy,
312830,RU,59,Arsenyev,
312831,RU,47,Peski,
312832,RU,8,Nikolo-berëzovka,
312833,RU,34,Inta,
312834,RU,80,Balezino,
312835,RU,51,Vorsma,
312836,RU,61,Donetsk,
312837,RU,8,Alekseyevka,
312838,RU,55,Svetlyy,
312839,RU,10,Dyatkovo,
312840,RU,47,Lesnoy Gorodok,
312841,RU,5,Seryshevo,
312842,RU,59,Vladimiro-aleksandrovskoye,
312843,RU,65,Vinnovka,
312844,RU,49,Snezhnogorsk,
312845,RU,23,Zelenogradsk,
312846,RU,6,Onega,
312847,RU,47,Pirogovskiy,
312848,RU,31,Bograd,
312849,RU,52,Borovichi,
312850,RU,59,Velikiy Novgorod,
312851,RU,6,Volskaya,
312852,RU,62,Pogorel,
312853,RU,61,Malinin,
312854,RU,61,Mitrofanov,
312855,RU,30,Alkan,
312856,RU,74,Dikson,
312857,RU,39,Popkova,
312858,RU,62,Kayman,
312859,RU,50,Velt,
312860,RU,78,Pospelova,
312861,RU,84,Orekhov,
312862,RU,38,Losev,
312863,RU,33,Dolmatovo,
312864,RU,24,Bora,
312865,RU,38,Chigrina,
312866,RU,84,Grechushkin,
312867,RU,40,Bulygina,
312868,RU,1,Lesnichestvo,
312869,RU,84,Kazachiy,
312870,RU,28,Pitkyaranta,
312871,RU,4,Aleysk,
312872,RU,47,Khotkovo,
312873,RU,59,Ruzhino,
312874,RU,71,Nizhnii Tagil,
312875,RU,47,Podrezkovo,
312876,RU,58,Satina,
312877,RU,69,Kononova,
312878,RU,38,Bely,
312879,RU,38,Tavricheskiy,
312880,RU,9,Chibisov,
312881,RU,85,Antonovskaya,
312882,RU,38,Kavkazskaya,
312883,RU,65,Novokuybyshevsk,
312884,RU,71,Vysotinka,
312885,RU,8,Chekmagush,
312886,RU,38,Morëvka,
312887,RU,38,Krymsk,
312888,RU,60,Palkino,
312889,RU,42,Pavlovo,
312890,RU,13,Varna,
312891,RU,53,Iskitim,
312892,RU,76,Gritsovskiy,
312893,RU,71,Bulanash,
312894,RU,38,Vasyurinskaya,
312895,RU,40,Dubravnaya,
312896,RU,62,Priokskiy,
312897,RU,84,Voronin,
312898,RU,77,Gudkova,
312899,RU,14,Turov,
312900,RU,25,Guseva,
312901,RU,33,Obukhovo,
312902,RU,63,Moro,
312903,RU,67,Nesterovo,
312904,RU,77,Skryabina,
312905,RU,74,Kamen,
312906,RU,77,Vygoda,
312907,RU,7,Kazennyy,
312908,RU,85,Levoberezhnyy,
312909,RU,84,Maslov,
312910,RU,53,Sretenskiy,
312911,RU,65,Morevskiy,
312912,RU,84,Ilovlinskaya,
312913,RU,85,Rogachëvo,
312914,RU,59,Shkotovo-22,
312915,RU,13,Chebarkul,
312916,RU,13,Turgoyak,
312917,RU,13,Kuramshina,
312918,RU,5,Zavitinsk,
312919,RU,40,Dalmatovo,
312920,RU,21,Ilinskoye-khovanskoye,
312921,RU,39,Surikova,
312922,RU,44,Sudar,
312923,RU,43,Chaplygina,
312924,RU,81,Rumyantsevo,
312925,RU,20,Chuna,
312926,RU,65,Molochny,
312927,RU,77,Okolitsa,
312928,RU,70,Kuba,
312929,RU,75,Rabochiy,
312930,RU,59,Serebryanaya,
312931,RU,21,Kurochkina,
312932,RU,52,Kryuchkova,
312933,RU,83,Esino,
312934,RU,86,Lavrov,
312935,RU,64,Dalnaya,
312936,RU,8,Yunost,
312937,RU,85,Garazh,
312938,RU,84,Rynok,
312939,RU,64,Raisya,
312940,RU,60,Kalinkina,
312941,RU,11,Babushkin,
312942,RU,84,Gudkov,
312943,RU,84,Suvorovskiy,
312944,RU,61,Kolodezny,
312945,RU,65,Leningradka,
312946,RU,81,Krasnaya Sosna,
312947,RU,85,Irma,
312948,RU,77,Torzhok,
312949,RU,53,Lisina,
312950,RU,4,Dobry,
312951,RU,60,Rogova,
312952,RU,56,Naumov,
312953,RU,56,Gerasimova,
312954,RU,53,Anikina,
312955,RU,14,Byakin,
312956,RU,39,Bryanka,
312957,RU,59,Sanatornaya,
312958,RU,83,Sima,
312959,RU,16,Sespel,
312960,RU,50,Varnek,
312961,RU,52,Udino,
312962,RU,20,Lesogorsk,
312963,RU,52,Mednikovo,
312964,RU,77,Spirkovo,
312965,RU,82,Komy,
312966,RU,6,Leshukonskoe,
312967,RU,47,Tashirovo,
312968,RU,47,Ognikovo,
312969,RU,42,Yamburg,
312970,RU,47,Oboldino,
312971,RU,20,Chistinskoe,
312972,RU,70,Kurskaya,
312973,RU,8,Baltika,
312974,RU,6,Kuloy,
312975,RU,53,Bespalova,
312976,RU,25,Kosheleva,
312977,RU,84,Simonovskiy,
312978,RU,47,Ashitkovo,
312979,RU,20,Tayshet,
312980,RU,11,Kolobki,
312981,RU,61,Pchëlkin,
312982,RU,30,Arka,
312983,RU,52,Bratskaya,
312984,RU,53,Buksir,
312985,RU,38,Ladozhskaya,
312986,RU,88,Volnaya,
312987,RU,41,Pronskaya,
312988,RU,59,Spassk-dalniy,
312989,RU,47,Mamontovka,
312990,RU,58,Okhansk,
312991,RU,39,Chernenko,
312992,RU,62,Kasimov,
312993,RU,69,Safonovo,
312994,RU,41,Lgov,
312995,RU,72,Domino,
312996,RU,11,Katun,
312997,RU,33,Sushi,
312998,RU,42,Slantsy,
312999,RU,23,Lank,
313000,RU,61,Konkov,
313001,RU,85,Kuchino,
313002,RU,11,Dzhida,
313003,RU,5,Zeya,
313004,RU,33,Kulikovo,
313005,RU,65,Ogorodnik,
313006,RU,CI,Goryachevodsk,
313007,RU,7,Liman,
313008,RU,84,Zavolzhskiy,
313009,RU,88,Soli,
313010,RU,35,Afonina,
313011,RU,70,Pyatigorskiy,
313012,RU,84,Serafimovich,
313013,RU,47,Chepelëvo,
313014,RU,61,Kostylev,
313015,RU,81,Butyrskiy,
313016,RU,69,Komyagina,
313017,RU,69,Gavrilova,
313018,RU,84,Frolovo,
313019,RU,84,Popkov,
313020,RU,17,Antil,
313021,RU,8,Persidskiy,
313022,RU,25,Nemetskiy,
313023,RU,84,Razdory,
313024,RU,77,Kuvshinova,
313025,RU,25,Imeni Lva Tolstogo,
313026,RU,25,Kremenki,
313027,RU,45,Zvenigovo,
313028,RU,47,Likino-dulevo,
313029,RU,34,Mikun,
313030,RU,52,Shimsk,
313031,RU,16,Yadrin,
313032,RU,39,Kayerkan,
313033,RU,20,Bolshoy Lug,
313034,RU,47,Vereya,
313035,RU,49,Murmashi,
313036,RU,52,Russa,
313037,RU,47,Shakhovskaya,
313038,RU,9,Neznamovo,
313039,RU,47,Losino-petrovskiy,
313040,RU,67,Ozinki,
313041,RU,25,Iznoski,
313042,RU,47,Lukhovitsy,
313043,RU,83,Kirzhach,
313044,RU,70,Mineralnyye Vody,
313045,RU,38,Abinsk,
313046,RU,60,Pustoshka,
313047,RU,33,Kiknur,
313048,RU,29,Yurga,
313049,RU,46,Potma,
313050,RU,65,Oktyabrsk,
313051,RU,13,Uvelka,
313052,RU,13,Kusa,
313053,RU,5,Tambovka,
313054,RU,56,Livny,
313055,RU,42,Priozërsk,
313056,RU,42,Murino,
313057,RU,23,Gvardeysk,
313058,RU,33,Kugunur,
313059,RU,73,Menzelinsk,
313060,RU,44,Palatka,
313061,RU,76,Uzlovaya,
313062,RU,63,Amga,
313063,RU,42,Nikolskoye,
313064,RU,76,Schekino,
313065,RU,69,Kety,
313066,RU,69,Pochinok,
313067,RU,61,Persianovskiy,
313068,RU,76,Chekalin,
313069,RU,35,Pozh,
313070,RU,67,Sosny,
313071,RU,85,Danilovskaya,
313072,RU,69,Dedova,
313073,RU,47,Radonezh,
313074,RU,71,Bobrovskiy,
313075,RU,14,Zabaykalsk,
313076,RU,77,Savëlovo,
313077,RU,52,Antipova,
313078,RU,85,Monza,
313079,RU,4,Seliverstova,
313080,RU,39,Khokhlovskiy,
313081,RU,67,Kamenskiy,
313082,RU,49,Vaenga,
313083,RU,26,Vilyuchinsk,
313084,RU,69,Lush,
313085,RU,8,Novokurkino,
313086,RU,63,Osnova,
313087,RU,51,Parizhskoy Kommuny,
313088,RU,53,Demidovskiy,
313089,RU,1,Sevastopolskaya,
313090,RU,69,Dyatlova,
313091,RU,4,Dolzhenko,
313092,RU,45,Orshanka,
313093,RU,8,Kuyanovo,
313094,RU,23,Mamonovo,
313095,RU,53,Kolyvan,
313096,RU,9,Rovenki,
313097,RU,29,Osinniki,
313098,RU,13,Bredy,
313099,RU,42,Staraya Ladoga,
313100,RU,31,Ust-abakan,
313101,RU,53,Barabinsk,
313102,RU,63,Mayya,
313103,RU,20,Tulun,
313104,RU,25,Kozelsk,
313105,RU,29,Kiselëvsk,
313106,RU,25,Kondrovo,
313107,RU,32,Poykovskiy,
313108,RU,77,Vasyunino,
313109,RU,10,Kulneva,
313110,RU,17,Telmana,
313111,RU,58,Chukur,
313112,RU,69,Uvarova,
313113,RU,25,Zharikova,
313114,RU,73,Kareva,
313115,RU,13,Filimonova,
313116,RU,84,Zotkin,
313117,RU,86,Chumak,
313118,RU,38,Kubanskiy,
313119,RU,38,Artemenko,
313120,RU,80,Devyatova,
313121,RU,41,Trubetskaya,
313122,RU,84,Kirovo,
313123,RU,35,Konina,
313124,RU,71,Verkhneivinsk,
313125,RU,60,Agafonova,
313126,RU,11,Krasny Yar,
313127,RU,85,Mozhayskoye,
313128,RU,38,Lunin,
313129,RU,35,Zimina,
313130,RU,15,Neten,
313131,RU,76,Koloniya,
313132,RU,71,Kolmogorova,
313133,RU,38,Dagomys,
313134,RU,10,Ryzhikov,
313135,RU,58,Morgunova,
313136,RU,1,Zapadnyy,
313137,RU,84,Dubovka,
313138,RU,39,Vladimirskiy,
313139,RU,6,Lomonosovskaya,
313140,RU,86,Piramida,
313141,RU,55,Konnov,
313142,RU,78,Bukina,
313143,RU,84,Yaroshenko,
313144,RU,52,Soboleva,
313145,RU,60,Play,
313146,RU,55,Abdulino,
313147,RU,38,Penzenskaya,
313148,RU,11,Armak,
313149,RU,61,Koshkin,
313150,RU,8,Irek,
313151,RU,83,Bliznetsy,
313152,RU,6,Volta,
313153,RU,69,Gorlova,
313154,RU,42,Sakharova,
313155,RU,30,Selen,
313156,RU,23,Zori,
313157,RU,52,Okulovka,
313158,RU,80,Kizner,
313159,RU,77,Ozëry,
313160,RU,77,Rzhev,
313161,RU,68,Mozdok,
313162,RU,13,Nizhniy Ufaley,
313163,RU,8,Karmaskaly,
313164,RU,83,Lakinsk,
313165,RU,76,Aleksin,
313166,RU,47,Medvezhi Ozera,
313167,RU,87,Novyy Urengoy,
313168,RU,16,Ibresi,
313169,RU,73,Agryz,
313170,RU,73,Buinsk,
313171,RU,3,Sema,
313172,RU,77,Utkina,
313173,RU,51,Selema,
313174,RU,33,Nagorsk,
313175,RU,45,Konyshev,
313176,RU,70,Arkhangelskoe,
313177,RU,52,Pikalëvo,
313178,RU,47,Peshki,
313179,RU,67,Sennoy,
313180,RU,38,Volny,
313181,RU,70,Aleksandriya,
313182,RU,13,Sary,
313183,RU,38,Dolmen,
313184,RU,86,Kritskiy,
313185,RU,35,Demidovo,
313186,RU,8,Bogacheva,
313187,RU,8,Uralsk,
313188,RU,73,Mikhailovskiy,
313189,RU,34,Novozhilov,
313190,RU,71,Monetnaya,
313191,RU,39,Brad,
313192,RU,84,Pimenov,
313193,RU,71,Molva,
313194,RU,42,Joensuu,
313195,RU,11,Arbuzovo,
313196,RU,17,Gruzinskiy,
313197,RU,84,Tersa,
313198,RU,61,Kapustino,
313199,RU,71,Nizhniye Sergi,
313200,RU,24,Tolochko,
313201,RU,67,Berëzovo,
313202,RU,49,Umba,
313203,RU,25,Tovarkovo,
313204,RU,47,Uvarovka,
313205,RU,34,Vizinga,
313206,RU,28,Pudozh,
313207,RU,11,Ivolginsk,
313208,RU,69,Volochëk,
313209,RU,42,Snegirëvka,
313210,RU,42,Sosnovo,
313211,RU,55,Akbulak,
313212,RU,57,Kamenka,
313213,RU,42,Novaya Ladoga,
313214,RU,47,Rechitsy,
313215,RU,62,Skopin,
313216,RU,83,Kurlovo,
313217,RU,13,Chelyabinsk-40,
313218,RU,77,Rameshki,
313219,RU,38,Temryuk,
313220,RU,61,Veshenskaya,
313221,RU,63,Berdigestyakh,
313222,RU,61,Tselina,
313223,RU,67,Bolshoy Melik,
313224,RU,66,Strelna,
313225,RU,4,Altayskoye,
313226,RU,47,Roshal,
313227,RU,20,Biryusinsk,
313228,RU,83,Sobinka,
313229,RU,52,Ostov,
313230,RU,CI,Bake,
313231,RU,28,Golysheva,
313232,RU,48,Butova,
313233,RU,84,Buzulukskiy,
313234,RU,59,Rybalka,
313235,RU,21,Furmanov,
313236,RU,73,Bima,
313237,RU,69,Fomina,
313238,RU,84,Kalinkin,
313239,RU,38,Rozy Lyuksemburg,
313240,RU,39,Roslyakova,
313241,RU,67,Pugachev,
313242,RU,84,Shirokinskiy,
313243,RU,37,Vasilevskaya,
313244,RU,13,Forshtadt,
313245,RU,10,Poznan,
313246,RU,72,Kaverin,
313247,RU,76,Zharov,
313248,RU,71,Chechulina,
313249,RU,40,Grachëva,
313250,RU,69,Kryukova,
313251,RU,39,Zhdanova,
313252,RU,84,Besov,
313253,RU,68,Farn,
313254,RU,60,Ovechkina,
313255,RU,52,Ilova,
313256,RU,42,Sala,
313257,RU,84,Samoylov,
313258,RU,25,Ozërskaya,
313259,RU,41,Balakirev,
313260,RU,70,Marinskaya,
313261,RU,38,Adler,
313262,RU,86,Yasenevo,
313263,RU,70,Neftekumsk,
313264,RU,70,Aristov,
313265,RU,84,Kudinovskiy,
313266,RU,83,Likino,
313267,RU,38,Ukrainskaya,
313268,RU,13,Gladkova,
313269,RU,77,Ivleva,
313270,RU,58,Redikor,
313271,RU,60,Sysova,
313272,RU,52,Novosël,
313273,RU,47,Solnechnogorski,
313274,RU,53,Pushkareva,
313275,RU,11,Taksimo,
313276,RU,63,Markha,
313277,RU,21,Arkhangel,
313278,RU,65,Kinelskiy,
313279,RU,38,Dinskaya,
313280,RU,81,Chamzinka,
313281,RU,58,Osa,
313282,RU,73,Arsk,
313283,RU,8,Rayevskiy,
313284,RU,84,Korolev,
313285,RU,69,Koroleva,
313286,RU,53,Tolmachevo,
313287,RU,51,Teplyy Stan,
313288,RU,56,Orel,
313289,RU,59,Artemovskiy,
313290,RU,59,Artem,
313291,RU,35,Demina,
313292,RU,33,Cheremushki,
313293,RU,59,Zvezdochka,
313294,RU,42,Ozera,
313295,RU,77,Zelenaya,
313296,RU,56,Mikhnevo,
313297,RU,84,Bondarev,
313298,RU,47,Bolshevo,
313299,RU,84,Semin,
313300,RU,70,Budennovsk,
313301,RU,42,Maki,
313302,RU,61,Ponomarev,
313303,RU,84,Linevo,
313304,RU,47,Ledovo,
313305,RU,61,Lobachev,
313306,RU,84,Semenov,
313307,RU,84,Kiselev,
313308,RU,23,Kuntsevo,
313309,RU,28,Hame,
313310,RU,61,Latyshev,
313311,RU,84,Tsarev,
313312,RU,39,Berezovaya,
313313,RU,84,Tkachev,
313314,RU,84,Berezovskaya,
313315,RU,48,Biryulevo,
313316,RU,16,Samolet,
313317,RU,83,Klyuchevo,
313318,RU,35,Berezovskiy,
313319,RU,75,Usacheva,
313320,RU,71,Zhuravleva,
313321,RU,52,Artemovskoye,
313322,RU,71,Ozernaya,
313323,RU,58,Teplaya,
313324,RU,25,Klen,
313325,RU,61,Artemov,
313326,RU,84,Bogatyrev,
313327,RU,57,Kotel,
313328,RU,67,Poselok,
313329,RU,84,Pugachevskaya,
313330,RU,86,Zolotareva,
313331,RU,67,Zelenyy,
313332,RU,58,Utes,
313333,RU,38,Vpered,
313334,RU,84,Chebotarev,
313335,RU,35,Kiseleva,
313336,RU,84,Demin,
313337,RU,8,Seregin,
313338,RU,1,Dagestanskaya,
313339,RU,53,Semenovich,
313340,RU,69,Shelkovo,
313341,RU,84,Kovalev,
313342,RU,52,Vasileva,
313343,RU,53,Zaozernaya,
313344,RU,85,Veselaya,
313345,RU,25,Rzhevka,
313346,RU,89,Teploozersk,
313347,RU,84,Zhuravlev,
313348,RU,38,Lukashev,
313349,RU,76,Kurkino,
313350,RU,61,Pchelkin,
313351,RU,47,Chepelevo,
313352,RU,77,Savelovo,
313353,RU,52,Pikalevo,
313354,RU,40,Gracheva,
313355,RU,25,Ozerskaya,
313356,RU,52,Novosel,
313357,RU,84,Zelenovskiy,
313358,RU,8,Amirova,
313359,RU,61,Ignatenko,
313360,RU,35,Korzina,
313361,RU,47,Borovkova,
313362,RU,CI,Alpatov,
313363,RU,77,Zhuk,
313364,RU,20,Markova,
313365,RU,13,Parizhskiy,
313366,RU,60,Shamina,
313367,RU,25,Frolova,
313368,RU,63,Lensk,
313369,RU,67,Rozenfeld,
313370,RU,60,Belyakova,
313371,RU,20,Igirma,
313372,RU,61,Chernyshov,
313373,RU,5,Adam,
313374,RU,32,Polnovat,
313375,RU,11,Goryachiy,
313376,RU,47,Zheleznodorozhnyy,
313377,RU,59,Shkotovo,
313378,RU,47,Korolev,
313379,RU,8,Tuymazy,
313380,RU,34,Kortkeros,
313381,RU,80,Kambarka,
313382,RU,47,Zaraysk,
313383,RU,47,Ozery,
313384,RU,47,Sudislovo,
313385,RU,29,Berezovskiy,
313386,RU,40,Barnaul,
313387,RU,42,Poselok,
313388,RU,39,Devyatka,
313389,RU,69,Volochek,
313390,RU,42,Vyritsa,
313391,RU,83,Melenki,
313392,RU,86,Krasnodar,
313393,RU,38,Apsheronsk,
313394,RU,47,Skhodnya,
313395,RU,5,Svobodnyy,
313396,RU,13,Yuryuzan,
313397,RU,87,Kharp,
313398,RU,51,Semenov,
313399,RU,42,Kirovsk,
313400,RU,47,Krasnoarmeysk,
313401,RU,32,Bolchary,
313402,RU,29,Topki,
313403,RU,39,Ilanskiy,
313404,RU,84,Kalach-na-donu,
313405,RU,32,Yugan,
313406,RU,22,Dolinsk,
313407,RU,83,Zarechye,
313408,RU,85,Gryazovets,
313409,RU,8,Nikolo-berezovka,
313410,RU,8,Chishmy,
313411,RU,51,Chkalovsk,
313412,RU,71,Berezovskiy,
313413,RU,47,Ryazan,
313414,RU,62,Rybnoye,
313415,RU,4,Novoaltaysk,
313416,RU,29,Kiselevsk,
313417,RU,42,Priozersk,
313418,RU,65,Kurumoch,
313419,RU,29,Mariinsk,
313420,RU,53,Velikiy Novgorod,
313421,RU,66,Leningrad,
313422,RU,37,Piter,
313423,RU,48,Moskva,
313424,RU,71,Kamensk,
313425,RU,54,Bolshoy,
313426,RU,52,Gorodok,
313427,RU,56,Niva,
313428,RU,47,Gorki,
313429,RU,10,Vorovskogo,
313430,RU,53,Sadovaya,
313431,RU,77,Zhukov,
313432,RU,5,Tinda,
313433,RU,46,Lesnaya,
313434,RU,4,Irkutskaya,
313435,RU,43,Tulskaya,
313436,RU,25,Poselok,
313437,RU,77,Selo,
313438,RU,47,Shelkovo,
313439,RU,10,Svetly,
313440,RU,37,Kirovo,
313441,RU,69,Solna,
313442,RU,1,Rybalko,
313443,RU,48,Troparevo,
313444,RU,69,Zilovo,
313445,RU,28,Sumskaya,
313446,RU,81,Kezmino,
313447,RU,53,Barskaya,
313448,RU,25,Lyady,
313449,RU,69,Elna,
313450,RU,20,Bodaybo,
313451,RU,47,Ubory,
313452,RU,83,Pokrov,
313453,RU,13,Vyazovaya,
313454,RU,59,Knevichi,
313455,RU,69,Ryabinki,
313456,RU,42,Schlusselburg,
313457,RU,42,Agalatovo,
313458,RU,65,Musorka,
313459,RU,68,Alagir,
313460,RU,10,Starodub,
313461,RU,65,Kinel-cherkassy,
313462,RU,38,Starominskaya,
313463,RU,71,Bolshoy Istok,
313464,RU,65,Bezenchuk,
313465,RU,51,Perevoz,
313466,RU,73,Zelenodolsk,
313467,RU,10,Ulyanovsk,
313468,RU,8,Kyzyl,
313469,RU,51,Bolshoye Murashkino,
313470,RU,8,Mrakovo,
313471,RU,72,Cheboksary,
313472,RU,39,Igarka,
313473,RU,51,Kulebaki,
313474,RU,55,Buguruslan,
313475,RU,83,Strunino,
313476,RU,86,Berezovo,
313477,RU,32,Mortka,
313478,RU,32,Zelenoborsk,
313479,RU,25,Kirov,
313480,RU,42,Bugry,
313481,RU,47,Kudinovo,
313482,RU,47,Likino,
313483,RU,23,Primorsk,
313484,RU,17,Izberbash,
313485,RU,42,Leskolovo,
313486,RU,59,Kamenka,
313487,RU,77,Vyazma,
313488,RU,23,Svetlogorsk,
313489,RU,38,Tikhoretsk,
313490,RU,10,Novozybkov,
313491,RU,84,Krasnoslobodsk,
313492,RU,25,Tarusa,
313493,RU,26,Kozyrevsk,
313494,RU,23,Chernyakhovsk,
313495,RU,67,Berezovo,
313496,RU,37,Galich,
313497,RU,11,Angoya,
313498,RU,53,Kochenevo,
313499,RU,50,Naryan-mar,
313500,RU,84,Pallasovka,
313501,RU,63,Batagay,
313502,RU,39,Krasnoyarsk-45,
313503,RU,47,Bogorodsk,
313504,RU,42,Voskresensk,
313505,RU,58,Ilinskiy,
313506,RU,76,Belev,
313507,RU,8,Agidel,
313508,RU,56,Mtsensk,
313509,RU,31,Askiz,
313510,RU,49,Zaozersk,
313511,RU,23,Slavsk,
313512,RU,46,Krasnoznamensk,
313513,RU,4,Mamontovo,
313514,RU,43,Gryazi,
313515,RU,44,Ola,
313516,RU,15,Pevek,
313517,RU,58,Kondratovo,
313518,RU,75,Asino,
313519,RU,20,Kirensk,
313520,RU,35,Panina,
313521,RU,21,Dominka,
313522,RU,61,Geraskin,
313523,RU,73,Ibra,
313524,RU,84,Golovkov,
313525,RU,53,Kolbasa,
313526,RU,38,Ilinskaya,
313527,RU,51,Smolino,
313528,RU,71,Krasnova,
313529,RU,83,Blagoveshchensk,
313530,RU,37,Sharya,
313531,RU,38,Lazarevskaya,
313532,RU,56,Kromy,
313533,RU,52,Nov,
313534,RU,57,Nikolsk,
313535,RU,81,Isheyevka,
313536,RU,77,Nelidovo,
313537,RU,13,Vishnevogorsk,
313538,RU,16,Kugesi,
313539,RU,77,Zarya,
313540,RU,30,Nevelskoy,
313541,RU,CI,Meshi,
313542,RU,40,Keramzit,
313543,RU,67,Langenfeld,
313544,RU,6,Larionova,
313545,RU,67,Burdin,
313546,RU,25,Uspekh,
313547,RU,60,Yamkino,
313548,RU,14,Shilka,
313549,RU,43,Lipezk,
313550,RU,65,Privolzhye,
313551,RU,15,Amen,
313552,RU,73,Uyut,
313553,RU,34,Ipatovka,
313554,RU,71,Ilim,
313555,RU,42,Lakhta,
313556,RU,40,Sumki,
313557,RU,89,Bashmak,
313558,RU,52,Shelon,
313559,RU,48,Zhukovskiy,
313560,RU,76,Kurgan,
313561,RU,47,Staraya Ruza,
313562,RU,61,Kamensk-shakhtinskiy,
313563,RU,78,Ivanovo,
313564,RU,73,Nurlat,
313565,RU,73,Kukmor,
313566,RU,47,Konakovo,
313567,RU,56,Dudinka,
313568,RU,31,Sorsk,
313569,RU,8,Suuk-chishma,
313570,RU,83,Gus-khrustalnyy,
313571,RU,22,Baksan,
313572,RU,28,Parikka,
313573,RU,57,Sursk,
313574,RU,1,Gabukay,
313575,RU,52,Rakitno,
313576,RU,73,Alabakul,
313577,RU,85,Rogachevo,
313578,RU,77,Ozery,
313579,RU,42,Snegirevka,
313580,RU,77,Gogol,
313581,RU,50,Mitrofan,
313582,RU,64,Tsvetochnaya,
313583,RU,CI,Troitskaya,
313584,RU,30,Uchastok,
313585,RU,39,Nazarovo,
313586,RU,39,Lodochnaya,
313587,RU,47,Rzhavki,
313588,RU,78,Chelyuskintsev,
313589,RU,14,Kachalova,
313590,RU,5,Norsk,
313591,RU,64,Poronaysk,
313592,RU,38,Kostromskaya,
313593,RU,35,Vershinina,
313594,RU,71,Dvinskaya,
313595,RU,83,Ryazanovo,
313596,RU,76,Krestyanskaya,
313597,RU,69,Rudaki,
313598,RU,26,Elizovo,
313599,RU,55,Svetliy,
313600,RU,28,Medvezhegorsk,
313601,RU,38,Mazepa,
313602,RU,47,Bisserovo,
313603,RU,33,Stulovo,
313604,RU,67,Vysokiy,
313605,RU,7,Shchelkunov,
313606,RU,26,Milkovo,
313607,RU,36,Ossora,
313608,RU,36,Tigil,
313609,RU,7,Bashkov,
313610,RU,61,Marchenkov,
313611,RU,61,Savchenko,
313612,RU,17,Urala,
313613,RU,58,Kisel,
313614,RU,47,Zaraisk,
313615,RU,26,Ust-bolsheretsk,
313616,RU,36,Palana,
313617,RU,36,Ivashka,
313618,RU,83,Kalman,
313619,RU,26,Ust-kamchatsk,
313620,RU,36,Tilichiki,
313621,RU,26,Sobolevo,
313622,RU,42,Villa,
313623,RU,51,Ardatov,
313624,RU,76,Sovetsk,
313625,RU,5,Amursk,
313626,RU,72,Mozdok,
313627,RU,11,Turuntaevo,
313628,RU,21,Pupki,
313629,RU,33,Korshik,
313630,RU,42,Kamennogorsk,
313631,RU,2,Aginskoye,
313632,RU,20,Pionersk,
313633,RU,77,Okha,
313634,RU,52,Poselok Volot,
313635,RU,25,Babynino,
313636,RU,30,Dada,
313637,RU,38,Poltava,
313638,RU,84,Zhirkov,
313639,RU,52,Luki,
313640,RU,16,Polyarnaya Zvezda,
313641,RU,54,Atak,
313642,RU,59,Kronshtadskaya,
313643,RU,57,Ramzay,
313644,RU,84,Grekov,
313645,RU,86,Martin,
313646,RU,67,Chikin,
313647,RU,43,Kashirka,
313648,RU,69,Grekova,
313649,RU,40,Vishnevaya,
313650,RU,37,Sorozh,
313651,RU,34,Maja,
313652,RU,61,Samsonov,
313653,RU,40,Zevakina,
313654,RU,67,Akhtuba,
313655,RU,84,Sarepta,
313656,RU,23,Polesye,
313657,RU,13,Kasargi,
313658,RU,70,Etoka,
313659,RU,69,Gzhatsk,
313660,RU,51,Mulino,
313661,RU,76,Yasnogorsk,
313662,RU,55,Adamovka,
313663,RU,71,Baranchinskiy,
313664,RU,10,Trubchevsk,
313665,RU,75,Samus,
313666,RU,44,Omsukchan,
313667,RU,59,Okraina,
313668,RU,52,Gruzovo,
313669,RU,1,Kochkin,
313670,RU,63,Minor,
313671,RU,77,Korneva,
313672,RU,3,Talon,
313673,RU,84,Annenskiy,
313674,RU,56,Khoroshevskiy,
313675,RU,77,Ostashkov,
313676,RU,29,Malyugina,
313677,RU,67,Basel,
313678,RU,55,Kherson,
313679,RU,21,Vysokogo,
313680,RU,60,Besedina,
313681,RU,39,Ostrovnaya,
313682,RU,88,Korovinskoye,
313683,RU,67,Koleno,
313684,RU,8,Frantsuzskiy,
313685,RU,58,Plastinina,
313686,RU,67,Ukrainka,
313687,RU,56,Kshen,
313688,RU,56,Prechistinka,
313689,RU,88,Gavrilov-yam,
313690,RU,18,Agata,
313691,RU,77,Gorny,
313692,RU,71,Asbestovskiy,
313693,RU,43,Chaplygin,
313694,RU,51,Shatki,
313695,RU,84,Golubinskaya,
313696,RU,33,Podbor,
313697,RU,63,Gorelova,
313698,RU,CI,Tanty,
313699,RU,10,Kolpa,
313700,RU,53,Patrusheva,
313701,RU,55,Shutov,
313702,RU,8,Atik,
313703,RU,56,Voin,
313704,RU,47,Nudol,
313705,RU,53,Yarovoy,
313706,RU,60,Novosokolniki,
313707,RU,21,Balakhna,
313708,RU,63,Cherskiy,
313709,RU,61,Kamenolomni,
313710,RU,56,Bolkhov,
313711,RU,84,Ilmen,
313712,RU,84,Krasnoarmeisk,
313713,RU,47,Yartsevo,
313714,RU,29,Kaltan,
313715,RU,11,Selenginsk,
313716,RU,47,Salarevo,
313717,RU,65,Ilmen,
313718,RU,33,Raduzhnyy,
313719,RU,57,Bessonovka,
313720,RU,76,Kimovsk,
313721,RU,76,Senevo,
313722,RU,61,Mokrosarmatka,
313723,RU,56,Zmievka,
313724,RU,42,Tumazy,
313725,RU,11,Sotnikovo,
313726,RU,25,Dobrino,
313727,RU,61,Aleksandrovka,
313728,RU,37,Barak,
313729,RU,85,Dikaya,
313730,RU,6,Tyva,
313731,RU,52,Knyazhaya,
313732,RU,56,Dvory,
313733,RU,39,Avda,
313734,RU,85,Rubezh,
313735,RU,84,Dyakonov,
313736,RU,33,Ilinskoye,
313737,RU,63,Muna,
313738,RU,51,Razgulyay,
313739,RU,85,Sudoverf,
313740,RU,55,Elshanka,
313741,RU,38,Neftepromysel,
313742,RU,63,Golikova,
313743,RU,8,Slavnaya,
313744,RU,84,Valter,
313745,RU,52,Dereva,
313746,RU,84,Ionov,
313747,RU,84,Voroshilovskiy,
313748,RU,42,Svetogorsk,
313749,RU,38,Yaroslavskoye,
313750,RU,43,Treugolnik,
313751,RU,69,Ushakova,
313752,RU,11,Kolesova,
313753,RU,84,Chumakova,
313754,RU,71,Lyapunova,
313755,RU,53,Korshunova,
313756,RU,56,Krasnaya Zarya,
313757,RU,38,Yeisk,
313758,RU,5,Solovyova,
313759,RU,65,Bereza,
313760,RU,71,Mezhevaya,
313761,RU,88,Myshkin,
313762,RU,45,Kozmodemyansk,
313763,RU,60,Nevel,
313764,RU,34,Aykino,
313765,RU,80,Malaya Purga,
313766,RU,39,Talnakh,
313767,RU,CI,Avtury,
313768,RU,11,Beloozersk,
313769,RU,CI,Gudermes,
313770,RU,54,Cherlak,
313771,RU,68,Ardon,
313772,RU,16,Alikovo,
313773,RU,28,Suoyarvi,
313774,RU,3,Mayma,
313775,RU,28,Yanishpole,
313776,RU,76,Venev,
313777,RU,13,Katav-ivanovsk,
313778,RU,8,Buzdyak,
313779,RU,77,Klintsy,
313780,RU,61,Varenovka,
313781,RU,43,Zadonsk,
313782,RU,14,Dauriya,
313783,RU,52,Kazan,
313784,RU,61,Krym,
313785,RU,6,Nyandoma,
313786,RU,4,Orel,
313787,RU,66,Peterhof,
313788,RU,59,Khorol,
313789,RU,25,Shemyakino,
313790,RU,13,Berdyaush,
313791,RU,38,Stavropolskiy,
313792,RU,27,Bari,
313793,RU,77,Filippy,
313794,RU,73,Banki,
313795,RU,39,Eniseisk,
313796,RU,63,Nagornoe,
313797,RU,53,Ryazansk,
313798,RU,81,Lava,
313799,RU,67,Marino,
313800,RU,53,Sartakova,
313801,RU,7,Churkin,
313802,RU,39,Bogotol,
313803,RU,53,Olovo,
313804,RU,61,Artema,
313805,RU,84,Karasev,
313806,RU,52,Okhta,
313807,RU,38,Pletnev,
313808,RU,84,Strakhov,
313809,RU,77,Kokoshkino,
313810,RU,59,Livadiya,
313811,RU,5,Fevralsk,
313812,RU,5,Raychikhinsk,
313813,RU,51,Ilinogorsk,
313814,RU,61,Krasnyy Sulin,
313815,RU,83,Krasnaya Gorbatka,
313816,RU,38,Aleksandrovskoe,
313817,RU,22,Yanikoy,
313818,RU,47,Frolovo,
313819,RU,38,Gulkevichi,
313820,RU,55,Kuvandyk,
313821,RU,16,Petropavlovsk,
313822,RU,16,Morgaushi,
313823,RU,42,Lisino-korpus,
313824,RU,33,Belaya Kholunitsa,
313825,RU,32,Beloyarskiy,
313826,RU,53,Ubinskoye,
313827,RU,13,Bakal,
313828,RU,73,Bolgar,
313829,RU,11,Gusinoozersk,
313830,RU,54,Starodubka,
313831,RU,29,Salair,
313832,RU,47,Shchelkovo,
313833,RU,51,Arya,
313834,RU,77,Toropets,
313835,RU,43,Dolgorukovo,
313836,RU,34,Zheshart,
313837,RU,47,Ozherelye,
313838,RU,16,Yantikovo,
313839,RU,39,Kursk,
313840,RU,8,Sharipovo,
313841,RU,47,Belyaninovo,
313842,RU,86,Ostrogozhsk,
313843,RU,61,Rostov-on-don,
313844,RU,54,Larga,
313845,RU,25,Gukov,
313846,RU,69,Chizhov,
313847,RU,55,Yasnyy,
313848,RU,55,Energetik,
313849,RU,84,Oleynikov,
313850,RU,3,Argut,
313851,RU,69,Nivy,
313852,RU,58,Verein,
313853,RU,53,Ploshchadka,
313854,RU,8,Mokrousova,
313855,RU,61,Batayskiy,
313856,RU,65,Prize,
313857,RU,84,Belorechenskiy,
313858,RU,45,Sernur,
313859,RU,88,Ivanovo,
313860,RU,72,Rasskazovo,
313861,RU,73,Bavly,
313862,RU,73,Urussu,
313863,RU,63,Tom,
313864,RU,28,Nadvoitsy,
313865,RU,52,Pankovka,
313866,RU,41,Oboyan,
313867,RU,70,Zelenokumsk,
313868,RU,38,Rogovskaya,
313869,RU,38,Kurinskaya,
313870,RU,38,Staroshcherbinovskaya,
313871,RU,81,Novaya Mayna,
313872,RU,11,Novoilinsk,
313873,RU,47,Chastsy,
313874,RU,25,Zhukovka,
313875,RU,62,Sasovo,
313876,RU,39,Krasnokamensk,
313877,RU,34,Yarega,
313878,RU,9,Volokonovka,
313879,RU,16,Kozlovka,
313880,RU,58,Yayva,
313881,RU,71,Verkhniy Tagil,
313882,RU,8,Kushnarenkovo,
313883,RU,42,Koltushi,
313884,RU,21,Vichuga,
313885,RU,83,Balakirevo,
313886,RU,83,Kameshkovo,
313887,RU,13,Sim,
313888,RU,72,Tatanovo,
313889,RU,20,Chunskiy,
313890,RU,69,Khoroshevo,
313891,RU,38,Zaporozhye,
313892,RU,70,Pjatigorsk,
313893,RU,13,Peschano,
313894,RU,73,Abdi,
313895,RU,77,Komarno,
313896,RU,11,Sagan,
313897,RU,67,Troynoy,
313898,RU,39,Uralskaya,
313899,RU,77,Mosty,
313900,RU,40,Shumikha,
313901,RU,27,Sparta,
313902,RU,61,Adamov,
313903,RU,63,Berkakit,
313904,RU,60,Krasnogorodsk,
313905,RU,63,Nyurba,
313906,RU,38,Krasnodarskiy,
313907,RU,52,Sharya,
313908,RU,38,Ordynskiy,
313909,RU,53,Leninsk,
313910,RU,4,Pavlovsk,
313911,RU,87,Yar-sale,
313912,RU,38,Kabardinka,
313913,RU,73,Yanaul,
313914,RU,60,Dubovo,
313915,RU,49,Polyarnyy,
313916,RU,73,Mamadysh,
313917,RU,58,Rassolenki,
313918,RU,32,Priobye,
313919,RU,35,Vaskino,
313920,RU,20,Sayansk,
313921,RU,52,Kam,
313922,RU,38,Dimitrova,
313923,RU,35,Chernaya,
313924,RU,52,Mikhal,
313925,RU,20,Bur,
313926,RU,45,Mus,
313927,RU,84,Sadki,
313928,RU,84,Podsosenskiy,
313929,RU,85,Klenovyy,
313930,RU,57,Rudnevka,
313931,RU,53,Severnoye,
313932,RU,44,Beringa,
313933,RU,74,Sosnovaya,
313934,RU,76,Korchma,
313935,RU,85,Fedorovskaya,
313936,RU,47,Fryazevo,
313937,RU,67,Lugansk,
313938,RU,1,Litvinov,
313939,RU,84,Kolobrodov,
313940,RU,84,Shabanov,
313941,RU,84,Umet,
313942,RU,84,Zhuravka,
313943,RU,85,Suhareva,
313944,RU,71,Troitskiy,
313945,RU,39,Yaga,
313946,RU,59,Rettikhovka,
313947,RU,63,Mota,
313948,RU,52,Govorovo,
313949,RU,15,Loren,
313950,RU,25,Rudnaya,
313951,RU,37,Pechenga,
313952,RU,47,Zhukovskiy,
313953,RU,38,Primorsko-akhtarsk,
313954,RU,47,Gora,
313955,RU,69,Orel,
313956,RU,59,Novoshakhtinskiy,
313957,RU,59,Sibirtsevo,
313958,RU,61,Rossosh,
313959,RU,86,Kalach,
313960,RU,38,Oktyabrskiy,
313961,RU,17,Stalskoye,
313962,RU,73,Bogatyye Saby,
313963,RU,57,Mamadysh,
313964,RU,75,Yarovoy,
313965,RU,42,Toksovo,
313966,RU,47,Ryabinki,
313967,RU,20,Usolye-sibirskoye,
313968,RU,63,Vilyuysk,
313969,RU,8,Novoural,
313970,RU,88,Voskresenskiy,
313971,RU,1,Yablonovskiy,
313972,RU,77,Kesova Gora,
313973,RU,53,Berezovskiy,
313974,RU,63,Bor,
313975,RU,39,Volzhskiy,
313976,RU,7,Kamyzyak,
313977,RU,43,Ivanovo,
313978,RU,CI,Grozni,
313979,RU,51,Palana,
313980,RU,20,Ust-uda,
313981,RU,73,Chita,
313982,RU,30,Gavan,
313983,RU,64,Aleksandrovsk-sakhalinskiy,
313984,RU,85,Velikiy Ustyug,
313985,RU,16,Urmary,
313986,RU,65,Kolyvan,
313987,RU,42,Tolmachevo,
313988,RU,33,Demyanovo,
313989,RU,33,Pasegovo,
313990,RU,32,Berezovo,
313991,RU,13,Raduzhnyy,
313992,RU,52,Aleksandrovka,
313993,RU,71,Artemovskiy,
313994,RU,47,Kaliningrad,
313995,RU,51,Volzhskiy,
313996,RU,39,Uzhur,
313997,RU,39,Shushenskoye,
313998,RU,4,Berezovka,
313999,RU,53,Kuybyshev,
314000,RU,75,Parabel,
314001,RU,8,Iglino,
314002,RU,6,Balakhna,
314003,RU,86,Shukovka,
314004,RU,62,Spassk-ryazanskiy,
314005,RU,76,Lipki,
314006,RU,4,Irba,
314007,RU,20,Leninsk,
314008,RU,42,Boksitogorsk,
314009,RU,85,Belozersk,
314010,RU,33,Vladimirskaya,
314011,RU,51,Alatyr,
314012,RU,46,Lyambir,
314013,RU,88,Petrovskoye,
314014,RU,51,Reshetikha,
314015,RU,54,Kaluga,
314016,RU,71,Verkh-neyvinskiy,
314017,RU,47,Balabanovo,
314018,RU,47,Vaskino,
314019,RU,47,Novo,
314020,RU,65,Poselok Komsomolskiy,
314021,RU,39,Polskiy,
314022,RU,49,Safonovo,
314023,RU,75,Stepanovka,
314024,RU,42,Sanino,
314025,RU,38,Kievskiy,
314026,RU,76,Gritchino,
314027,RU,72,Morshansk,
314028,RU,68,Digora,
314029,RU,8,Tirlyan,
314030,RU,67,Volga,
314031,RU,84,Uryupinsk,
314032,RU,10,Klimovo,
314033,RU,84,Bereslavka,
314034,RU,84,Reshetov,
314035,RU,55,Meteor,
314036,RU,69,Orekhova,
314037,RU,63,Maya,
314038,RU,56,Kobzeva,
314039,RU,39,Alban,
314040,RU,35,Bulycheva,
314041,RU,17,Khasavyurt,
314042,RU,45,Mari-turek,
314043,RU,CI,Karabulak,
314044,RU,63,Sangar,
314045,RU,52,Volkhov,
314046,RU,47,Zverevo,
314047,RU,41,Rylsk,
314048,RU,13,Agapovka,
314049,RU,65,Usinsk,
314050,RU,88,Semibratovo,
314051,RU,42,Sortavala,
314052,RU,21,Vasilevskoe,
314053,RU,29,Guryevsk,
314054,RU,16,Yalchiki,
314055,RU,51,Pyra,
314056,RU,13,Mezhozernyy,
314057,RU,71,Gornouralskiy,
314058,RU,47,Verbilki,
314059,RU,73,Tura,
314060,RU,84,Gmelinka,
314061,RU,66,Beloostrov,
314062,RU,26,Esso,
314063,RU,88,Maksimka,
314064,RU,52,Zhar,
314065,RU,69,Rudakova,
314066,RU,70,Charikov,
314067,RU,39,Kopeyka,
314068,RU,60,Pechka,
314069,RU,69,Savkina,
314070,RU,86,Shiryaeva,
314071,RU,23,Karben,
314072,RU,48,Businovo,
314073,RU,69,Opolye,
314074,RU,71,Dvurechensk,
314075,RU,84,Danilovka,
314076,RU,70,Nezlobnaya,
314077,RU,10,Karachev,
314078,RU,38,Ubezhenskaya,
314079,RU,72,Zherdevka,
314080,RU,23,Bagrationovsk,
314081,RU,55,Novoorsk,
314082,RU,47,Galchino,
314083,RU,13,Nyazepetrovsk,
314084,RU,76,Ista,
314085,RU,47,Rudiny,
314086,RU,30,Enken,
314087,RU,60,Veska,
314088,RU,76,Krainka,
314089,RU,5,Romashenko,
314090,RU,14,Zola,
314091,RU,61,Krasnoarmeyskiy,
314092,RU,35,Novozhilova,
314093,RU,85,Polovina,
314094,RU,49,Toros,
314095,RU,8,Rublevka,
314096,RU,69,Shilova,
314097,RU,59,Lyalichi,
314098,RU,67,Petraki,
314099,RU,25,Golovinka,
314100,RU,38,Sharapov,
314101,RU,69,Blagodatnaya,
314102,RU,53,Serebrennikova,
314103,RU,53,Voskhod,
314104,RU,84,Nikolaevka,
314105,RU,59,Ilinskii,
314106,RU,68,Gizel,
314107,RU,54,Kormilovka,
314108,RU,53,Toguchin,
314109,RU,52,Faustovo,
314110,RU,6,Katunino,
314111,RU,4,Topolnoye,
314112,RU,25,Bor,
314113,RU,61,Mechetinskaya,
314114,RU,51,Gidrotorf,
314115,RU,8,Nugush,
314116,RU,34,Odes,
314117,RU,7,Kapustin Yar-1,
314118,RU,25,Kurilovo,
314119,RU,4,Klyuchi,
314120,RU,87,Tolka,
314121,RU,80,Selty,
314122,RU,14,Chernyshevsk,
314123,RU,62,Pupki,
314124,RU,8,Kabakovo,
314125,RU,38,Grusha,
314126,RU,74,Mironovskaya,
314127,RU,37,Slonova,
314128,RU,85,Noginskaya,
314129,RU,33,Karachi,
314130,RU,58,Aspa,
314131,RU,83,Kondrakova,
314132,RU,86,Volya,
314133,RU,4,Varshava,
314134,RU,63,Tank,
314135,RU,34,Vodnyy,
314136,RU,63,Chulman,
314137,RU,30,Chuy,
314138,RU,17,Karbuk,
314139,RU,84,Kotelnikov,
314140,RU,79,Krasnij,
314141,RU,38,Taman,
314142,RU,45,Arda,
314143,RU,23,Goldberg,
314144,RU,56,Radom,
314145,RU,67,Ivanovskiy,
314146,RU,10,Shepelev,
314147,RU,84,Rogachev,
314148,RU,38,Severin,
314149,RU,38,Uglovoy,
314150,RU,83,Mostostroy,
314151,RU,38,Ustinov,
314152,RU,67,Karpovka,
314153,RU,29,Krasnoznamennaya,
314154,RU,53,Nowosibirsk,
314155,RU,61,Nikishin,
314156,RU,62,Agrokultura,
314157,RU,32,Seul,
314158,RU,66,Sosnovo,
314159,RU,5,Poyarkovo,
314160,RU,44,Susuman,
314161,RU,67,Andreevka,
314162,RU,52,Parfino,
314163,RU,76,Zaokskiy,
314164,RU,CI,Grosny,
314165,RU,17,Buynaksk,
314166,RU,39,Kuragino,
314167,RU,79,Bay-khaak,
314168,RU,57,Nizhniy Lomov,
314169,RU,8,Mesyagutovo,
314170,RU,80,Alnashi,
314171,RU,43,Dankov,
314172,RU,8,Kandry,
314173,RU,64,Tymovskoye,
314174,RU,39,Yemelyanovo,
314175,RU,42,Verest,
314176,RU,38,Shkolny,
314177,RU,54,Bakina,
314178,RU,59,Gvozdevo,
314179,RU,10,Yankovskiy,
314180,RU,84,Ilmenskiy,
314181,RU,69,Pyataya,
314182,RU,84,Peskovatka,
314183,RU,61,Devyaty,
314184,RU,63,Akana,
314185,RU,84,Krylovskiy,
314186,RU,70,Dubovaya Balka,
314187,RU,69,Dobraya,
314188,RU,47,Sergiyev Posad,
314189,RU,5,Taldan,
314190,RU,38,Tarasovskiy,
314191,RU,37,Sandogora,
314192,RU,7,Chernyy Yar,
314193,RU,CI,Urus-martan,
314194,RU,10,Kamensk,
314195,RU,29,Tashtagol,
314196,RU,86,Usman,
314197,RU,87,Vorkuta,
314198,RU,25,Kor,
314199,RU,85,Kaduy,
314200,RU,47,Kurovskoye,
314201,RU,51,Brilyakovo,
314202,RU,61,Fedorov,
314203,RU,84,Cherkasov,
314204,RU,52,Zaval,
314205,RU,53,Mamon,
314206,RU,75,Kenga,
314207,RU,6,Kaska,
314208,RU,29,Beket,
314209,RU,56,Lozovoy,
314210,RU,69,Ignatova,
314211,RU,69,Ostrova,
314212,RU,38,Manuylov,
314213,RU,68,Luar,
314214,RU,83,Yakimanskaya,
314215,RU,61,Naberezhny,
314216,RU,77,Derevo,
314217,RU,37,Buy,
314218,RU,8,Kalmash,
314219,RU,4,Talmenka,
314220,RU,38,Bezymyannoye,
314221,RU,CI,Argun,
314222,RU,61,Nikitovka,
314223,RU,63,Pokrovsk,
314224,RU,58,Ust-kachka,
314225,RU,53,Plotnikovo,
314226,RU,CI,Ordzhonikidzevskaya,
314227,RU,62,Korablino,
314228,RU,76,Barsuki,
314229,RU,34,Vuktyl,
314230,RU,83,Sudogda,
314231,RU,37,Nerekhta,
314232,RU,44,Seymchan,
314233,RU,38,Razdolnaya,
314234,RU,42,Ostrov,
314235,RU,57,Vadinsk,
314236,RU,59,Dunay,
314237,RU,13,Novostroy,
314238,RU,52,Veshka,
314239,RU,60,Drozdova,
314240,RU,52,Muravyeva,
314241,RU,52,Marevo,
314242,RU,42,Rayu,
314243,RU,35,Silina,
314244,RU,47,Dachi,
314245,RU,85,Korolevskaya,
314246,RU,38,Gogolevskiy,
314247,RU,84,Kotelnikovo,
314248,RU,11,Sankom,
314249,RU,24,Barun,
314250,RU,61,Zhirnov,
314251,RU,13,Kopi,
314252,RU,59,Altayskaya,
314253,RU,85,Valga,
314254,RU,84,Golubev,
314255,RU,84,Kudryavtsev,
314256,RU,78,Kirsanova,
314257,RU,61,Loktev,
314258,RU,69,Anosova,
314259,RU,67,Altayskiy,
314260,RU,10,Kirov,
314261,RU,42,Podporozhye,
314262,RU,47,Alabushevo,
314263,RU,47,Babynino,
314264,RU,46,Kovylkino,
314265,RU,13,Brodokalmak,
314266,RU,22,Shalushka,
314267,RU,46,Chamzinka,
314268,RU,14,Sherlovaya Gora,
314269,RU,70,Yutsa,
314270,RU,10,Kletnya,
314271,RU,69,Novodugino,
314272,RU,54,Azovo,
314273,RU,30,Zavety Ilicha,
314274,RU,75,Krivosheino,
314275,RU,42,Klin,
314276,RU,45,Pomary,
314277,RU,88,Shurskol,
314278,RU,9,Chernyanka,
314279,RU,10,Belgorod,
314280,RU,65,Samara,
314281,RU,52,Posad,
314282,RU,61,Vedernikov,
314283,RU,69,Lukyanova,
314284,RU,42,Siverskiy,
314285,RU,10,Malev,
314286,RU,9,Zenin,
314287,RU,70,Norton,
314288,RU,71,Borovikova,
314289,RU,10,Navlya,
314290,RU,59,Kraskino,
314291,RU,59,Zarubino,
314292,RU,59,Barabash,
314293,RU,10,Vasilek,
314294,RU,65,Skolkovo,
314295,RU,39,Schastlivyy,
314296,RU,34,Vylgort,
314297,RU,38,Tenginka,
314298,RU,28,Kem,
314299,RU,71,Verkhnyaya Tura,
314300,RU,70,Zheleznovodskiy,
314301,RU,5,Ivanovka,
314302,RU,87,Aksarka,
314303,RU,57,Kevdo-melsitovo,
314304,RU,52,Soltsy,
314305,RU,55,Sol-iletsk,
314306,RU,61,Fedorovka,
314307,RU,65,Surgut,
314308,RU,25,Medyn,
314309,RU,84,Krasnovskiy,
314310,RU,61,Savelyev,
314311,RU,5,Bureya,
314312,RU,5,Urusha,
314313,RU,25,Savenkov,
314314,RU,61,Korshunov,
314315,RU,61,Makukhin,
314316,RU,30,Vladimirova,
314317,RU,11,Nadezhnyy,
314318,RU,30,Dzhonka,
314319,RU,53,Sokur,
314320,RU,49,Zapolyarnyy,
314321,RU,47,Molzino,
314322,RU,27,Karachayevsk,
314323,RU,27,Ust-dzheguta,
314324,RU,6,Velsk,
314325,RU,25,Belousovo,
314326,RU,77,Zubtsov,
314327,RU,76,Bogoroditsk,
314328,RU,49,Imandra,
314329,RU,38,Katkova Shchel,
314330,RU,47,Gavrilkovo,
314331,RU,65,Churakayka,
314332,RU,25,Dubroye,
314333,RU,13,Novyy Put,
314334,RU,47,Staryye Bittsy,
314335,RU,47,Milino,
314336,RU,61,Kumzhenskiy,
314337,RU,61,Berkuta,
314338,RU,70,Livenskiy,
314339,RU,70,Vinsady,
314340,RU,70,Grachevskaya,
314341,RU,70,Izveshchatelnyy,
314342,RU,13,Vysokiy,
314343,RU,48,Gravornovo,
314344,RU,47,Koptevo,
314345,RU,42,Solozi,
314346,RU,42,Ivanovo,
314347,RU,61,Grushevskaya,
314348,RU,39,Ovsyanka,
314349,RU,41,Osinovy,
314350,RU,47,Salkovo,
314351,RU,61,Rogozhinskiy,
314352,RU,61,Krasyukovskaya,
314353,RU,60,Pechki,
314354,RU,17,Novokayakent,
314355,RU,21,Shizhgotovo,
314356,RU,74,Vologochan,
314357,RU,71,Tavatuy,
314358,RU,59,Tayezhnyy,
314359,RU,88,Polovinka,
314360,RU,71,Vorontsovka,
314361,RU,83,Yuryatino,
314362,RU,83,Krasnyy Bogatyr,
314363,RU,42,Sredne-rogatka,
314364,RU,26,Shankhay,
314365,RU,47,Dubki,
314366,RU,88,Ostashevo,
314367,RU,47,Mendeleyevo,
314368,RU,47,Bolshiye Dvory,
314369,RU,47,Korenevo,
314370,RU,47,Vasileva,
314371,RU,27,Udarnyy,
314372,RU,65,Kantsevka,
314373,RU,32,Romanovskaya Polovinka,
314374,RU,47,Rostckino,
314375,RU,39,Kuskun,
314376,RU,31,Smirnovka,
314377,RU,80,Bannoye,
314378,RU,5,Berezovka,
314379,RU,32,Karkatayevy,
314380,RU,51,Nadezhdino,
314381,RU,69,Kardymovo,
314382,RU,64,Armudan,
314383,RU,61,Konstantinova,
314384,RU,70,Nikolayevka,
314385,RU,47,Alekseyevko,
314386,RU,47,Khorlovo,
314387,RU,47,Lavrentyevo,
314388,RU,66,Inonniyemi,
314389,RU,42,Antolya,
314390,RU,8,Kalshali,
314391,RU,58,Ust-chusovaya,
314392,RU,42,Shelkovo,
314393,RU,39,Kubekovo,
314394,RU,13,Novaya Asanova,
314395,RU,64,Nakano,
314396,RU,42,Khandera,
314397,RU,47,Shcherbinki,
314398,RU,47,Mikhailovskoye,
314399,RU,13,Turakayeva,
314400,RU,47,Nizhnevo,
314401,RU,77,Lisitsy,
314402,RU,47,Novokuzminki,
314403,RU,35,Gayny,
314404,RU,20,Traktovaya,
314405,RU,58,Karagay,
314406,RU,58,Bolshaya Sosnova,
314407,RU,58,Nyrob,
314408,RU,35,Kochevo,
314409,RU,84,Usov,
314410,RU,85,Cherepovetz,
314411,RU,33,Lema,
314412,RU,77,Shosha,
314413,RU,42,Lopotovo,
314414,RU,52,Luzha,
314415,RU,43,Teploe,
314416,RU,58,Bershet,
314417,RU,84,Solomatin,
314418,RU,58,Usva,
314419,RU,38,Lineynaya,
314420,RU,39,Sovremennyy,
314421,RU,45,Surok,
314422,RU,73,Stolbishche,
314423,RU,76,Dubovka,
314424,RU,39,Berezovskiy,
314425,RU,53,Krivodanovka,
314426,RU,10,Ul,
314427,RU,82,Ust-ordynskiy,
314428,RU,63,Namtsy,
314429,RU,10,Seltso,
314430,RU,63,Aykhal,
314431,RU,83,Karabanovo,
314432,RU,8,Priyutovo,
314433,RU,4,Kamen-na-obi,
314434,RU,86,Bykovka,
314435,RU,47,Chernoye,
314436,RU,17,Novyy Khushet,
314437,RU,65,Smyshlyayevka,
314438,RU,70,Novozavedennoye,
314439,RU,8,Kaipkulovo,
314440,RU,8,Kashkora,
314441,RU,65,Anurovka,
314442,RU,13,Baygazina,
314443,RU,51,Laksha,
314444,RU,51,Marki,
314445,RU,64,Berezovka,
314446,RU,65,Kresty,
314447,RU,70,Lysogorskaya,
314448,RU,71,Belokamennyy,
314449,RU,13,Zheleznodorozhnyy,
314450,RU,73,Sluzhilaya Shentala,
314451,RU,47,Bavykino,
314452,RU,77,Tsaritsino,
314453,RU,25,Zakaz,
314454,RU,41,Belaja,
314455,RU,17,Almak,
314456,RU,56,Klinok,
314457,RU,48,Yurlovo,
314458,RU,68,Khod,
314459,RU,84,Kartashov,
314460,RU,61,Gigant,
314461,RU,35,Musor,
314462,RU,67,Kopylov,
314463,RU,84,Lipchenko,
314464,RU,38,Privolnaya,
314465,RU,8,Kruchinina,
314466,RU,56,Studenok,
314467,RU,38,Grecheskiy,
314468,RU,67,Orekhovo,
314469,RU,14,Amazar,
314470,RU,53,Klyuchiki,
314471,RU,CI,Bashni,
314472,RU,71,Layma,
314473,RU,69,Logi,
314474,RU,77,Konik,
314475,RU,88,Tunoshna,
314476,RU,17,Karabudakhkent,
314477,RU,38,Boykoponura,
314478,RU,47,Ashukino,
314479,RU,63,Ust-maya,
314480,RU,62,Dubrovichi,
314481,RU,47,Molokovo,
314482,RU,56,Novosil,
314483,RU,39,Kindyakovo,
314484,RU,47,Potylikha,
314485,RU,4,Funtiki,
314486,RU,47,Poselok Tekstilshchiki,
314487,RU,13,Novosineglazovskiy,
314488,RU,83,Iveshenye,
314489,RU,70,Andzhiyevskiy,
314490,RU,42,Malinovka,
314491,RU,70,Bekeshevskaya,
314492,RU,47,Pokrovskoye-streshevo,
314493,RU,42,Shipino,
314494,RU,51,Shishikino,
314495,RU,70,Goryachevodskiy,
314496,RU,48,Novyye Kuzminki,
314497,RU,25,Smakhtino,
314498,RU,47,Mishchukovo,
314499,RU,47,Arkhangelsk,
314500,RU,28,Belomorsk,
314501,RU,30,Sita,
314502,RU,42,Viborg,
314503,RU,77,Levoberezhnaya,
314504,RU,64,Kotik,
314505,RU,76,Sitko,
314506,RU,38,Betta,
314507,RU,11,Kichera,
314508,RU,84,Mikhaylovka,
314509,RU,70,Niny,
314510,RU,35,Kuzmina,
314511,RU,42,Soloni,
314512,RU,82,Kutulik,
314513,RU,46,Pugachev,
314514,RU,49,Revda,
314515,RU,77,Vyshniy Volochek,
314516,RU,75,Timiryazevskoye,
314517,RU,59,Kiparisovo,
314518,RU,47,Savvinskaya Sloboda,
314519,RU,21,Staraya Vichuga,
314520,RU,17,Kizilyurt,
314521,RU,8,Bakaly,
314522,RU,30,Nikolayevsk-na-amure,
314523,RU,47,Rogachevo,
314524,RU,62,Zakharovo,
314525,RU,29,Polysayevo,
314526,RU,34,Ust-kulom,
314527,RU,4,Gornyak,
314528,RU,45,Ioshkar Ola,
314529,RU,40,Yurgamysh,
314530,RU,47,Shapovo,
314531,RU,72,Lamki,
314532,RU,49,Skalistyy,
314533,RU,75,Bakchar,
314534,RU,48,Babushkin,
314535,RU,47,Yamkino,
314536,RU,70,Podkumskiy,
314537,RU,77,Yamok,
314538,RU,29,Kutonovo,
314539,RU,13,Kharino,
314540,RU,39,Korkin,
314541,RU,51,Armanikha,
314542,RU,53,Akademgorodok,
314543,RU,84,Ogarev,
314544,RU,56,Shumakova,
314545,RU,76,Plekhanovo,
314546,RU,83,Anosino,
314547,RU,10,Kamnev,
314548,RU,24,Yusta,
314549,RU,89,Trek,
314550,RU,80,Oblastnoy,
314551,RU,56,Ochki,
314552,RU,80,Luchik,
314553,RU,85,Uyta,
314554,RU,80,Oblastnaya,
314555,RU,68,Gori,
314556,RU,35,Zakharova,
314557,RU,80,Ryabchik,
314558,RU,71,Sukhoy Log,
314559,RU,64,Dach,
314560,RU,57,Bolshaya Molchanovka,
314561,RU,59,Mikhaylovka,
314562,RU,34,Nizhniy Odes,
314563,RU,24,Kotya,
314564,RU,80,Yakshur,
314565,RU,75,Kozhevnikovo,
314566,RU,22,Dokshukino,
314567,RU,71,Atig,
314568,RU,58,Pokrovka,
314569,RU,40,Vargashi,
314570,RU,28,Kroshnozero,
314571,RU,53,Irmen,
314572,RU,4,Dobrovolets,
314573,RU,33,Nizhneivkino,
314574,RU,38,Lazarevskoye,
314575,RU,71,Losinyy,
314576,RU,87,Krasnoselkup,
314577,RU,42,Ukhta,
314578,RU,51,Afonino,
314579,RU,55,Sverdlova,
314580,RU,51,Tumbotino,
314581,RU,47,Boboshino,
314582,RU,55,Sharypovo,
314583,RU,27,Dzheguta,
314584,RU,58,Nizhnyaya Kurya,
314585,RU,83,Senga-ozero,
314586,RU,48,Derevlevo,
314587,RU,47,Malygino,
314588,RU,47,Ivonino,
314589,RU,49,Khibine,
314590,RU,71,Kurganovo,
314591,RU,74,Potapovo,
314592,RU,59,Primorets,
314593,RU,53,Kuznetskiy,
314594,RU,84,Rybnikov,
314595,RU,20,Cheremkhovo,
314596,RU,67,Aleksandrovskiy,
314597,RU,58,Turbina,
314598,RU,88,Jaroslavl,
314599,RU,83,Bakhtina,
314600,RU,61,Sevastyanov,
314601,RU,25,Neverov,
314602,RU,1,Adygei,
314603,RU,48,Moskwa,
314604,RU,8,Lomova,
314605,RU,71,Peschanyy Karyer,
314606,RU,84,Godunov,
314607,RU,69,Bogatyri,
314608,RU,54,Lubyanskiy,
314609,RU,59,Kamen-rybolov,
314610,RU,14,Mogocha,
314611,RU,75,Luchanovo,
314612,RU,14,Aksha,
314613,RU,28,Vilga,
314614,RU,CI,Shali,
314615,RU,46,Krasnoslobodsk,
314616,RU,68,Nogir,
314617,RU,8,Dyurtyuli,
314618,RU,47,Sokol,
314619,RU,39,Ustyug,
314620,RU,39,Uspenka,
314621,RU,38,Neberdzhayevskaya,
314622,RU,47,Drovino,
314623,RU,33,Vylegzhata,
314624,RU,32,Saygatiny,
314625,RU,38,Krasny,
314626,RU,64,Sinegorsk,
314627,RU,43,Manino,
314628,RU,85,Rubez,
314629,RU,52,Severnaya Zvezda,
314630,RU,84,Elton,
314631,RU,39,Omskiy,
314632,RU,50,Rudnik,
314633,RU,84,Vlasov,
314634,RU,4,Sokolovo,
314635,RU,25,Parizh,
314636,RU,84,Arzhanovskaya,
314637,RU,28,Kerst,
314638,RU,71,Veterok,
314639,RU,10,Snezhinka,
314640,RU,63,Komar,
314641,RU,84,Bezymyanka,
314642,RU,33,Zalesye,
314643,RU,4,Chaynaya,
314644,RU,86,Narodnyy,
314645,RU,1,Medovy,
314646,RU,58,Pult,
314647,RU,61,Chaltyr,
314648,RU,47,Avsyunino,
314649,RU,60,Dedovichi,
314650,RU,76,Progress,
314651,RU,68,Chikola,
314652,RU,2,Mogoytuy,
314653,RU,70,Mikhaylovsk,
314654,RU,47,Gorodok,
314655,RU,60,Yagodno,
314656,RU,20,Slyudyanka,
314657,RU,53,Zdvinsk,
314658,RU,62,Polkovo,
314659,RU,9,Bikovo,
314660,RU,39,Yeniseysk,
314661,RU,47,Beloomut,
314662,RU,47,Malaya Dubna,
314663,RU,47,Chiverevo,
314664,RU,9,Zasosna,
314665,RU,73,Aznakayevo,
314666,RU,13,Nikolayevka,
314667,RU,43,Kosyrevka,
314668,RU,32,Mega,
314669,RU,33,Varaksini,
314670,RU,86,Pereryvnyy,
314671,RU,65,Preobrazhenskoye,
314672,RU,27,Khoperskiy,
314673,RU,73,Albaba,
314674,RU,47,Zhukova,
314675,RU,47,Imeni Vorovskogo,
314676,RU,64,Midzukho,
314677,RU,47,Malakhovo,
314678,RU,64,Kami-kanekozawa,
314679,RU,49,Avvaguba,
314680,RU,70,Bazovyy,
314681,RU,28,Sana,
314682,RU,77,Pivovar,
314683,RU,51,Vaya,
314684,RU,33,Yuma,
314685,RU,60,Runovo,
314686,RU,33,Babayevskaya,
314687,RU,69,Sosna,
314688,RU,28,Konta,
314689,RU,25,Berezhki,
314690,RU,41,Kabanova,
314691,RU,67,Graf,
314692,RU,25,Minin,
314693,RU,71,Ariya,
314694,RU,17,Akti,
314695,RU,11,Bulak,
314696,RU,33,Borovskaya,
314697,RU,52,Lyubytino,
314698,RU,71,Koltsovo,
314699,RU,13,Miasskoye,
314700,RU,11,Kabansk,
314701,RU,52,Kholm,
314702,RU,69,Kostrovo,
314703,RU,9,Krasnaya Yaruga,
314704,RU,60,Viselki,
314705,RU,73,Baltasi,
314706,RU,21,Markovo,
314707,RU,64,Kami-tarannai,
314708,RU,76,Varfolomeyevo,
314709,RU,6,Pityayevo,
314710,RU,73,Karnaukhovo,
314711,RU,76,Odoyev,
314712,RU,61,Bogatirev,
314713,RU,64,Kooperativnaya,
314714,RU,41,Gorodkova,
314715,RU,47,Gzhel,
314716,RU,85,Belovskaya,
314717,RU,41,Lekta,
314718,RU,25,Mansurovo,
314719,RU,52,Skit,
314720,RU,61,Kupriyanov,
314721,RU,53,Yarkova,
314722,RU,14,Domna,
314723,RU,42,Stepanovskaya,
314724,RU,65,Frunzenskiy,
314725,RU,38,Deviz,
314726,RU,39,Lebed,
314727,RU,6,Klon,
314728,RU,55,Zykov,
314729,RU,84,Chernyavskiy,
314730,RU,38,Timashevskiy,
314731,RU,61,Kuleshovka,
314732,RU,59,Pavlo-fedorovka,
314733,RU,60,Sebezh,
314734,RU,84,Svetlyy Yar,
314735,RU,61,Daraganovka,
314736,RU,47,Shugarovo,
314737,RU,46,Bersenevka,
314738,RU,75,Moryakovskiy Zaton,
314739,RU,42,Kolbino,
314740,RU,47,Uslon,
314741,RU,38,Platnirovskaya,
314742,RU,76,Plavsk,
314743,RU,25,Muratovka,
314744,RU,47,Arkhangelskoye,
314745,RU,4,Novokopylovo,
314746,RU,52,Rabtitsa,
314747,RU,31,Domazhakov,
314748,RU,41,Krasny Kamysh,
314749,RU,71,Sloboda,
314750,RU,76,Retinovka,
314751,RU,48,Chertanovo,
314752,RU,77,Dmitrova Gora,
314753,RU,33,Afanasyevo,
314754,RU,9,Semeynaya,
314755,RU,77,Berezka,
314756,RU,63,Serebryanyy Bor,
314757,RU,34,Vann,
314758,RU,84,Fedotov,
314759,RU,51,Temta,
314760,RU,86,Mishkin,
314761,RU,88,Nekouz,
314762,RU,42,Kara,
314763,RU,32,Sakhal,
314764,RU,25,Rozhkova,
314765,RU,24,Dzhuga,
314766,RU,31,Kibik,
314767,RU,84,Serebryakov,
314768,RU,60,Fenina,
314769,RU,45,Morki,
314770,RU,86,Ramon,
314771,RU,73,Shemordan,
314772,RU,42,Kuyvozi,
314773,RU,84,Varlamov,
314774,RU,61,Manotskiy,
314775,RU,43,Dobrinka,
314776,RU,42,Glebychevo,
314777,RU,75,Perevoz,
314778,RU,16,Batyrevo,
314779,RU,63,Olekminsk,
314780,RU,13,Magnitka,
314781,RU,40,Kurtamysh,
314782,RU,87,Antipayuta,
314783,RU,71,Oktyabrskiy,
314784,RU,61,Khutor Kalinin,
314785,RU,38,Novomyshastovskaya,
314786,RU,58,Kultayevo,
314787,RU,64,Kalinino,
314788,RU,47,Sipyagino,
314789,RU,47,Staryye Psarki,
314790,RU,45,Joschkar-ola,
314791,RU,62,Spas-klepiki,
314792,RU,84,Gorodishche,
314793,RU,58,Siva,
314794,RU,15,Egvekinot,
314795,RU,29,Yaya,
314796,RU,73,Karaduvan,
314797,RU,71,Zavodouspenskoye,
314798,RU,47,Ramenka,
314799,RU,67,Shved,
314800,RU,86,Kashirskoye,
314801,RU,25,Sorokina,
314802,RU,38,Muravey,
314803,RU,85,Anisimova,
314804,RU,1,Malyy,
314805,RU,88,Borisoglebskiy,
314806,RU,70,Kondrashkin,
314807,RU,20,Kaltuk,
314808,RU,54,Stanovo,
314809,RU,55,Sakmara,
314810,RU,47,Yabedino,
314811,RU,8,Nogushi,
314812,RU,38,Dzhiginka,
314813,RU,60,Dno,
314814,RU,83,Konyayeva,
314815,RU,49,Loparskaya,
314816,RU,47,Obolyanovo,
314817,RU,73,Dubyazy,
314818,RU,33,Sovetsk,
314819,RU,67,Kalininsk,
314820,RU,51,Lukino,
314821,RU,37,Neya,
314822,RU,55,Isyangulovo,
314823,RU,55,Sorochinsk,
314824,RU,41,Fatezh,
314825,RU,37,Manturovo,
314826,RU,71,Malaya Imennaya,
314827,RU,84,Khara,
314828,RU,38,Chervyakov,
314829,RU,88,Sokolinyy,
314830,RU,60,Lukoma,
314831,RU,1,Kudryavtseva,
314832,RU,38,Samoylova,
314833,RU,11,Koren,
314834,RU,84,Perekopskiy,
314835,RU,53,Roshchinskiy,
314836,RU,63,Maar,
314837,RU,71,Korablik,
314838,RU,42,Siverskaya,
314839,RU,61,Gorbachev,
314840,RU,40,Novaya Lebyazhka,
314841,RU,59,Anuchino,
314842,RU,81,Novaya Malykla,
314843,RU,47,Novaya Kupavna,
314844,RU,4,Belokurikha,
314845,RU,47,Tunayevo,
314846,RU,55,Krym,
314847,RU,61,Bolschoi Dolshik,
314848,RU,29,Novourskiy,
314849,RU,29,Novaya Podyakova,
314850,RU,76,Zabusovo,
314851,RU,CI,Chiri-yurt,
314852,RU,69,Yaroslavl,
314853,RU,38,Samurskaya,
314854,RU,47,Chernevo,
314855,RU,51,Valki,
314856,RU,88,Grishino,
314857,RU,47,Zhirkovo,
314858,RU,40,Shatrovo,
314859,RU,61,Nosovo,
314860,RU,23,Zashchitnoye,
314861,RU,84,Kostarevo,
314862,RU,8,Bakrak,
314863,RU,22,Chegem,
314864,RU,47,Kurnikovo,
314865,RU,59,Priozernoye,
314866,RU,64,Minami-toyosakae,
314867,RU,80,Babino,
314868,RU,47,Povadino,
314869,RU,69,Lenkina,
314870,RU,40,Belyakov,
314871,RU,61,Merkulov,
314872,RU,33,Olkhovskaya,
314873,RU,63,Krestovskiy,
314874,RU,53,Shubinskiy,
314875,RU,84,Gurov,
314876,RU,68,Iriston,
314877,RU,38,Staroderevyankovskaya,
314878,RU,32,Seliyarovo,
314879,RU,10,Suzemka,
314880,RU,21,Yuryevets,
314881,RU,72,Krasnaya Kriusha,
314882,RU,47,Chulpanovo,
314883,RU,34,Palevitsa,
314884,RU,42,Podsolye,
314885,RU,43,Lubny,
314886,RU,47,Meshcherskoe,
314887,RU,73,Karabash,
314888,RU,85,Kharovsk,
314889,RU,48,Borisovo,
314890,RU,13,Marzhinbayeva,
314891,RU,64,Chaplanovo,
314892,RU,47,Gulnevo,
314893,RU,32,Nemchinovy,
314894,RU,47,Anufriyevo,
314895,RU,71,Vishera,
314896,RU,67,Studenyy,
314897,RU,84,Teplyy,
314898,RU,59,Slavyansk,
314899,RU,29,Karakan,
314900,RU,77,Dobryy,
314901,RU,29,Soldatkina,
314902,RU,45,Yatmanova,
314903,RU,84,Nikolaevskaya,
314904,RU,67,Messer,
314905,RU,28,Vartsila,
314906,RU,35,Gubanova,
314907,RU,63,Eden,
314908,RU,33,Kozha,
314909,RU,9,Tereshkin,
314910,RU,41,Zaoleshenka,
314911,RU,20,Zheleznogorsk-ilimskiy,
314912,RU,85,Nikolsk,
314913,RU,71,Bolshebrusyanskoye,
314914,RU,51,Okhotino,
314915,RU,87,Purovsk,
314916,RU,77,Kuvshinovo,
314917,RU,47,Velednikovo,
314918,RU,42,Syasstroy,
314919,RU,8,Baymak,
314920,RU,50,Iskateley,
314921,RU,29,Yasnaya Polyana,
314922,RU,38,Chelbasskaya,
314923,RU,42,Imeni Morozova,
314924,RU,58,Posad,
314925,RU,23,Vasilkovo,
314926,RU,41,Peny,
314927,RU,42,Rabochiy Poselok Nomer Pyatyy,
314928,RU,25,Vorobyevka,
314929,RU,72,Uvarovo,
314930,RU,42,Kuzmolovskiy,
314931,RU,3,Kosh-agach,
314932,RU,77,Andreapol,
314933,RU,47,Beloozerskiy,
314934,RU,58,Khristoforova,
314935,RU,55,Sara,
314936,RU,42,Poroshkino,
314937,RU,80,Kiyasovo,
314938,RU,40,Ketovo,
314939,RU,14,Atamanovka,
314940,RU,10,Ivanovo,
314941,RU,38,Starokorsunskaya,
314942,RU,17,Sergokala,
314943,RU,70,Stavka,
314944,RU,25,Grachevka,
314945,RU,47,Melkisarovo,
314946,RU,5,Grazhdanin,
314947,RU,85,Kury,
314948,RU,1,Koshelev,
314949,RU,55,Utkin,
314950,RU,84,Tarakanov,
314951,RU,76,Krekshino,
314952,RU,53,Martynova,
314953,RU,63,Dolya,
314954,RU,88,Taraskina,
314955,RU,42,Fedotovskaya,
314956,RU,60,Partizanskaya,
314957,RU,37,Tsenki,
314958,RU,76,Ploshchad,
314959,RU,38,Tbilisskaya,
314960,RU,16,Kashmashi,
314961,RU,49,Vidyayevo,
314962,RU,38,Novopokrovskaya,
314963,RU,52,Kozino,
314964,RU,42,Kikerino,
314965,RU,60,Annino,
314966,RU,8,Starosubkhangulovo,
314967,RU,53,Bugotak,
314968,RU,4,Kulunda,
314969,RU,14,Mikhailovsk,
314970,RU,66,Zarechny,
314971,RU,64,Neftegorsk,
314972,RU,46,Kadoshkino,
314973,RU,42,Ljuban,
314974,RU,36,Khailino,
314975,RU,38,Ploskiy,
314976,RU,42,Tammisuo,
314977,RU,7,Lista,
314978,RU,28,Pindushi,
314979,RU,52,Proshkovo,
314980,RU,6,Talagi,
314981,RU,69,Lomy,
314982,RU,52,Krasny Bor,
314983,RU,69,Gnezdovo,
314984,RU,17,Kostek,
314985,RU,69,Batyushkova,
314986,RU,63,Vorontsovo,
314987,RU,71,Ekaterinburg,
314988,RU,8,Knyazevo,
314989,RU,48,Nekrasovka,
314990,RU,48,Korolev,
314991,RU,16,Vurman-kibeki,
314992,RU,51,Pervomaysk,
314993,RU,63,Pavlovo,
314994,RU,71,Lyalya,
314995,RU,21,Palekh,
314996,RU,47,Ivashevo,
314997,RU,38,Maryanskaya,
314998,RU,38,Starovelichkovskaya,
314999,RU,38,Starotitarovskaya,
315000,RU,55,Saratov,
315001,RU,73,Chepchugi,
315002,RU,62,Starozhilovo,
315003,RU,70,Grigoropolisskaya,
315004,RU,47,Vitenevo,
315005,RU,13,Verkhniy Ufaley,
315006,RU,53,Kozikha,
315007,RU,81,Novoulyanovsk,
315008,RU,8,Burikazganovo,
315009,RU,69,Rudnya,
315010,RU,9,Streletskoye,
315011,RU,41,Sudzha,
315012,RU,56,Trosna,
315013,RU,64,Pugachevo,
315014,RU,43,Terbuny,
315015,RU,41,Osipovka,
315016,RU,59,Kremovo,
315017,RU,11,Novaya Bryan,
315018,RU,41,Tim,
315019,RU,80,Vavozh,
315020,RU,23,Wermten,
315021,RU,51,Vetluga,
315022,RU,13,Varvarinka,
315023,RU,81,Chufarovo,
315024,RU,8,Krasnousolskiy,
315025,RU,67,Naumovka,
315026,RU,42,Starosiverskaya,
315027,RU,23,Ladushkin,
315028,RU,86,Poselok,
315029,RU,39,Krasnoturansk,
315030,RU,53,Zhana-kurlus,
315031,RU,81,Aybashi,
315032,RU,77,Bezhetsk,
315033,RU,46,Kemlya,
315034,RU,35,Anninskiy,
315035,RU,13,Magnezit,
315036,RU,61,Titarenko,
315037,RU,85,Vytegra,
315038,RU,52,Dubovik,
315039,RU,51,Teply Stan,
315040,RU,32,Vata,
315041,RU,52,Nebolchi,
315042,RU,33,Borok,
315043,RU,35,Aleshina,
315044,RU,30,Timchenko,
315045,RU,61,Fedulov,
315046,RU,30,Pulsa,
315047,RU,37,Shaldovo,
315048,RU,73,Kasan,
315049,RU,38,Mikoyana,
315050,RU,53,Talmenskiy,
315051,RU,33,Karinka,
315052,RU,67,Chernavka,
315053,RU,61,Leninavan,
315054,RU,28,Chalna,
315055,RU,80,Kvarsa,
315056,RU,58,Zheleznodorozhnyy,
315057,RU,73,Cheremshan,
315058,RU,21,Kholuy,
315059,RU,27,Khabez,
315060,RU,69,Kirilly,
315061,RU,20,Antoshka,
315062,RU,77,Spirovo,
315063,RU,77,Firovo,
315064,RU,61,Polozov,
315065,RU,77,Selizharovo,
315066,RU,77,Peno,
315067,RU,77,Sandovo,
315068,RU,77,Olenino,
315069,RU,73,Basar,
315070,RU,47,Lotoshino,
315071,RU,51,Novosmolinskiy,
315072,RU,47,Korolëv,
315073,RU,25,Koptëvo,
315074,RU,39,Zaozërka,
315075,RU,69,Khoroshëvo,
315076,RU,84,Grachëv,
315077,RU,CI,Zolotarëv,
315078,RU,51,Semënov,
315079,RU,58,Ochër,
315080,RU,35,Chërnaya,
315081,RU,84,Ogarëv,
315082,RU,47,Shëlkovo,
315083,RU,35,Kiselëvo,
315084,RU,25,Grachëvka,
315085,RU,26,Kozyrëvsk,
315086,RU,40,Vishnëvaya,
315087,RU,56,Khoroshëvskiy,
315088,RU,65,Berëza,
315089,RU,35,Alëshina,
315090,RU,85,Fëdorovskaya,
315091,RU,84,Umët,
315092,RU,8,Rublëvka,
315093,RU,84,Rogachëv,
315094,RU,10,Malëv,
315095,RU,11,Nadëzhnyy,
315096,RU,46,Pugachëv,
315097,RU,67,Studënyy,
315098,RU,28,Värtsilä,
315099,RU,51,Tëply Stan,
315100,RU,90,Perm,
315101,RU,48,Korolëv,
315102,RU,67,Novosokolovogorskiy,
315103,RU,84,Zarechenskiy,
315104,RU,67,Zatonskiy,
315105,RU,76,Shtolnyy,
315106,RU,65,Avtozavodskiy Rayon,
315107,RU,20,Lisikha,
315108,RU,65,Kuibyschew,
315109,RU,73,Kalininskiy,
315110,RU,42,Novo-porkhovo,
315111,RU,93,Chita,
315112,RU,93,Chandacha,
315113,RU,29,Kuznetskiy Rayon,
315114,RU,83,Aleksandrow,
315115,RU,90,Berezniki,
315116,RU,90,Chaykovskiy,
315117,RU,90,Polazna,
315118,RU,90,Krasnokamsk,
315119,RU,90,Solikamsk,
315120,RU,90,Lysva,
315121,RU,78,Cherëmushki,
315122,RU,90,Kungur,
315123,RU,84,Mogutinskiy,
315124,RU,4,Prigorodnyy,
315125,RU,8,Kushnarënkovo,
315126,RU,13,Kadrovik,
315127,RU,84,Kostarëvo,
315128,RU,75,Iglakova,
315129,RU,29,Verkhniy Kaltan,
315130,RU,55,Kholmistyy,
315131,RU,53,Rechkinskiy,
315132,RU,61,Maksimovo-novogrushevskiy,
315133,RU,42,Pavlovskaya,
315134,RU,32,Berëzovo,
315135,RU,93,Mogocha,
315136,RU,84,Averin,
315137,RU,20,Kutulik,
315138,RU,45,Zvenigovskiy Zaton,
315139,RU,72,Novgorodovka,
315140,RU,73,Novyy Zay,
315141,RU,67,Wolsk,
315142,RU,49,Zaozërsk,
315143,RU,60,Krasnyye Gorki,
315144,RU,55,Okhotnichiy,
315145,RU,46,Novobogorodskiye Vyselki,
315146,RU,42,Krasnaya Sloboda,
315147,RU,42,Kapitolovo,
315148,RU,91,Norilsk,
315149,RU,71,Artëmovskiy,
315150,RU,90,Chernushka,
315151,RU,90,Chusovoy,
315152,RU,47,Rogachëvo,
315153,RU,51,Lipnya,
315154,RU,12,Chiri-yurt,
315155,RU,20,Karpova,
315156,RU,83,Imeni Vorovskogo,
315157,RU,7,Kapustin Yar,
315158,RU,33,Shchukichi,
315159,RU,25,Pnëvo,
315160,RU,51,Tsentralnyy,
315161,RU,84,Tatyanka,
315162,RU,42,Sunikkala,
315163,RU,47,Khotovo,
315164,RU,33,Savvushka,
315165,RU,11,Gusinoozërsk,
315166,RU,47,Ratmirovo,
315167,RU,25,Nelyubovka,
315168,RU,33,Slovodskoi,
315169,RU,90,Ferma,
315170,RU,64,Pugachëvo,
315171,RU,71,Butakova,
315172,RU,4,Myshkino,
315173,RU,70,Inozemtsevo,
315174,RU,90,Nytva,
315175,RU,71,Bystrinskiy,
315176,RU,90,Cherdyn,
315177,RU,90,Gubakha,
315178,RU,62,Vyselki,
315179,RU,8,Alsheyevo,
315180,RU,76,Borovkovo,
315181,RU,93,Atamanovka,
315182,RU,86,Bobrow,
315183,RU,51,Novaya Balakhna,
315184,RU,47,Ozëry,
315185,RU,57,Zarechnyy,
315186,RU,33,Staryy Kordon,
315187,RU,61,Kalinov,
315188,RU,52,Rakitino,
315189,RU,55,Prokhorovka,
315190,RU,20,Kultuk,
315191,RU,8,Starokabanovo,
315192,RU,73,Meshcheryaki,
315193,RU,73,Aktuba,
315194,RU,68,Ozagir,
315195,RU,48,Sokol,
315196,RU,77,Vyshniy Volochëk,
315197,RU,93,Mikhailovsk,
315198,RU,27,Lunnaya Polyana,
315199,RU,48,Staronikolskoye,
315200,RU,47,Chernëvo,
315201,RU,71,Posëlok Ntgres,
315202,RU,92,Khailino,
315203,RU,20,Novaya Derevnya,
315204,RU,47,Tarbeyevo,
315205,RU,90,Nizhnyaya Kurya,
315206,RU,66,Zhërnovka,
315207,RU,48,Rostckino,
315208,RU,47,Khoroshëvo-mnevniki,
315209,RU,48,Lublino,
315210,RU,47,Koptëvo,
315211,RU,65,Sukhaya Samarka,
315212,RU,33,Borovyye,
315213,RU,65,Dom Otdykha,
315214,RU,48,Ramenka,
315215,RU,39,Peschanka,
315216,RU,84,Ostrov Zelënyy,
315217,RU,42,Posëlok,
315218,RU,33,Bezbozhnik,
315219,RU,76,Belëv,
315220,RU,67,Varvarovka,
315221,RU,9,Tomarovka,
315222,RU,39,Uza,
315223,RU,13,Novovoroninskiy,
315224,RU,22,Tyrnyauz,
315225,RU,48,Marino,
315226,RU,62,Ulanova Gora,
315227,RU,61,Ssalsk,
315228,RU,69,Orël,
315229,RU,59,Narva,
315230,RU,90,Malaya,
315231,RU,73,Tatarstan,
315232,RU,90,Almaz,
315233,RU,85,Vasyunino,
315234,RU,8,Bashkortostan,
315235,RU,20,Buryat,
315236,RU,32,Sosnovy Bor,
315237,RU,39,Gagarina,
315238,RU,90,Frunze,
315239,RU,90,Kalinina,
315240,RU,47,Dmitrovskoye,
315241,RU,4,Zona,
315242,RU,33,Bashkir,
315243,RU,71,Gazeta,
315244,RU,42,Aro,
315245,RU,76,Ostankino,
315246,RU,33,Sibir,
315247,RU,53,Parus,
315248,RU,33,Bereg,
315249,RU,38,Novator,
315250,RU,30,Drofa,
315251,RU,73,Atlas,
315252,RU,30,Avan,
315253,RU,93,Vavilon,
315254,RU,11,Matrosova,
315255,RU,86,Karla-marksa,
315256,RU,93,Gagarinskiy,
315257,RU,69,Chistaya,
315258,RU,93,Kirpichnaya,
315259,RU,48,Zhulebino,
315260,RU,46,Liga,
315261,RU,11,Apatit,
315262,RU,88,Stroiteley,
315263,RU,48,Vnukovo,
315264,RU,73,Neptun,
315265,RU,20,Dorstroy,
315266,RU,67,Zvezda,
315267,RU,45,Ochakovo,
315268,RU,90,Soyuz,
315269,RU,59,Kirovka,
315270,RU,48,Sviblovo,
315271,RU,67,Protasovo,
315272,RU,38,Pushkina,
315273,RU,56,Shosse,
315274,RU,85,Novo,
315275,RU,53,Rubin,
315276,RU,29,Filial,
315277,RU,10,Strela,
315278,RU,33,Nagornaya,
315279,RU,77,Krasnaya Presnya,
315280,RU,13,Metallurgicheskiy,
315281,RU,84,Rossoshanskiy,
315282,RU,90,Aleksandrovsk,
315283,RU,11,Detskiy,
315284,RU,90,Rogozina,
315285,RU,51,Bolshaya Pokrovskaya,
315286,RU,81,Prostory,
315287,RU,71,Gres,
315288,RU,33,Zelënaya,
315289,RU,CI,Pervomajskaja,
315290,RU,33,Srednyaya,
315291,RU,90,Konstantinova,
315292,RU,92,Pervaya,
315293,RU,90,Kudymkar,
315294,RU,73,Vega,
315295,RU,90,Voronovo,
315296,RU,48,Taganskiy,
315297,RU,48,Lefortovo,
315298,RU,85,Volkova,
315299,RU,32,Komarova,
315300,RU,85,Ratibor,
315301,RU,83,Metallist,
315302,RU,83,Mekhanizatorov,
315303,RU,70,Avangard,
315304,RU,93,Step,
315305,RU,83,Zhukovskogo,
315306,RU,90,Bolshaya,
315307,RU,90,Vavilova,
315308,RU,90,Urai,
315309,RU,90,Danilova,
315310,RU,90,Vereshchagino,
315311,RU,81,Myasokombinat,
315312,RU,90,Baranova,
315313,RU,6,Birzha,
315314,RU,20,Sherbakova,
315315,RU,60,Sinitsy,
315316,RU,60,Severo,
315317,RU,90,Gayny,
315318,RU,93,Kuanda,
315319,RU,90,Kueda,
315320,RU,51,Perovskiy,
315321,RU,81,Elita,
315322,RU,90,Kondratovo,
315323,RU,90,Traktovaya,
315324,RU,90,Karagay,
315325,RU,90,Bolshaya Sosnova,
315326,RU,90,Kauchuk,
315327,RU,48,Ostankinskiy,
315328,RU,4,Zashchita,
315329,RU,25,Tarasova,
315330,RU,90,Blinova,
315331,RU,77,Duty,
315332,RU,25,Zhukova,
315333,RU,90,Dmitrovka,
315334,RU,80,Metallurg,
315335,RU,90,Titova,
315336,RU,65,Rost,
315337,RU,20,Ishin,
315338,RU,90,Kosa,
315339,RU,60,Ledovo,
315340,RU,33,Olimpiyskiy,
315341,RU,90,Nyrob,
315342,RU,90,Kochevo,
315343,RU,37,Nagatino,
315344,RU,70,Zolotarëv,
315345,RU,90,Kazanka,
315346,RU,69,Kuntsevo,
315347,RU,25,Kvan,
315348,RU,90,Krasoty,
315349,RU,20,Tamara,
315350,RU,90,Potanina,
315351,RU,13,Sistema,
315352,RU,90,Shnyrova,
315353,RU,CI,Stepnoe,
315354,RU,90,Ochër,
315355,RU,85,Ugol,
315356,RU,90,Gremyachinsk,
315357,RU,84,Zvezdnyy,
315358,RU,90,Naberezhnaya,
315359,RU,90,Russkaya,
315360,RU,62,Sanatoriy,
315361,RU,60,Lugova,
315362,RU,90,Kirova,
315363,RU,90,Tatarskaya,
315364,RU,90,Berëzovaya,
315365,RU,25,Ramenskiy,
315366,RU,25,Fokina,
315367,RU,71,Anik,
315368,RU,20,Batareynaya,
315369,RU,90,Zapadnaya,
315370,RU,11,Gavan,
315371,RU,90,Suluk,
315372,RU,92,Sever,
315373,RU,7,Forpost,
315374,RU,85,Tochka,
315375,RU,93,Ilim,
315376,RU,33,Gora,
315377,RU,34,Dav,
315378,RU,93,Moron,
315379,RU,90,Polevaya,
315380,RU,38,Pervyy,
315381,RU,48,Novo-peredelkino,
315382,RU,45,Motor,
315383,RU,59,Chayka,
315384,RU,60,Ataki,
315385,RU,21,Butovo,
315386,RU,92,Preobrazhenskoe,
315387,RU,46,Tëplyy Stan,
315388,RU,90,Trifonova,
315389,RU,60,Promkombinat,
315390,RU,90,Borovaya,
315391,RU,25,Ramenka,
315392,RU,47,Pavlino,
315393,RU,10,Vara,
315394,RU,67,Kozlovskiy,
315395,RU,12,Lipatov,
315396,RU,90,Odin,
315397,RU,60,Samolët,
315398,RU,85,Besedy,
315399,RU,61,Kotov,
315400,RU,6,Yura,
315401,RU,48,Rostokino,
315402,RU,90,Maydan,
315403,RU,33,Chërnaya,
315404,RU,71,Talisman,
315405,RU,77,Torg,
315406,RU,90,Barda,
315407,RU,90,Kizel,
315408,RU,90,Gornozavodsk,
315409,RU,69,Luna,
315410,RU,33,Istek,
315411,RU,12,Maloe,
315412,RU,20,Artel,
315413,RU,71,Kalinka,
315414,RU,90,Triumf,
315415,RU,90,Ryabinovaya,
315416,RU,71,Kalina,
315417,RU,90,Lipovaya,
315418,RU,33,Rodina,
315419,RU,62,Elektrik,
315420,RU,75,Venera,
315421,RU,51,Ideal,
315422,RU,21,Mera,
315423,RU,29,Invalidov,
315424,RU,88,Zapovednik,
315425,RU,90,Galina,
315426,RU,47,Mosrentgen,
315427,RU,69,Maksimova,
315428,RU,11,Gorkogo,
315429,RU,93,Suvorova,
315430,RU,59,Tonnel,
315431,RU,70,Vperëd,
315432,RU,55,Uran,
315433,RU,90,Medvedeva,
315434,RU,92,Baza,
315435,RU,60,Strazha,
315436,RU,11,Balta,
315437,RU,88,Tushino,
315438,RU,72,Rada,
315439,RU,90,Vels,
315440,RU,71,Chermet,
315441,RU,37,Taganka,
315442,RU,9,Stadnikov,
315443,RU,90,Fedotova,
315444,RU,57,Rostok,
315445,RU,6,Fabriki,
315446,RU,81,Banket,
315447,RU,88,Smena,
315448,RU,90,Sova,
315449,RU,84,Burov,
315450,RU,60,Moroz,
315451,RU,84,Konovalov,
315452,RU,90,Krasnaya,
315453,RU,51,Podushkino,
315454,RU,8,Bulat,
315455,RU,42,Sverdlova,
315456,RU,93,Gagarinski,
315457,RU,90,Nazarova,
315458,RU,38,Tkachëv,
315459,RU,84,Kosov,
315460,RU,77,Dary,
315461,RU,77,Kazakov,
315462,RU,60,Zavodskaya,
315463,RU,25,Davydova,
315464,RU,20,Bard,
315465,RU,90,Soya,
315466,RU,39,Prichal,
315467,RU,90,Krasnoyar,
315468,RU,46,Molniya,
315469,RU,CI,Svobodnoe,
315470,RU,90,Abramova,
315471,RU,90,Orlova,
315472,RU,21,Priliv,
315473,RU,33,Balchug,
315474,RU,60,Russki,
315475,RU,33,Gory,
315476,RU,33,Rodionovo,
315477,RU,39,Ozërnaya,
315478,RU,33,Monastyr,
315479,RU,47,Obolensk,
315480,RU,90,Mokhovaya,
315481,RU,90,Krasnovishersk,
315482,RU,59,Vinogradnaya,
315483,RU,60,Tretya,
315484,RU,92,Pushino,
315485,RU,51,Zastava,
315486,RU,59,Kanal,
315487,RU,29,Metallurgov,
315488,RU,33,Zarechnaya,
315489,RU,90,Kasatkina,
315490,RU,54,Profilaktoriy,
315491,RU,37,Akademstroy,
315492,RU,85,Veshnyaki,
315493,RU,90,Pavlovskiy,
315494,RU,90,Melnichnaya,
315495,RU,77,Gostinitsa,
315496,RU,33,Armen,
315497,RU,85,Kolokolets,
315498,RU,33,Bolnitsa,
315499,RU,90,Loza,
315500,RU,67,Kornev,
315501,RU,32,Stepanova,
315502,RU,85,Zyablikovo,
315503,RU,81,Vavilovo,
315504,RU,90,Proryv,
315505,RU,88,Ugresha,
315506,RU,30,Bain,
315507,RU,84,Marchenko,
315508,RU,67,Potapovo,
315509,RU,85,Vystavka,
315510,RU,4,Anatoliy,
315511,RU,39,Energetikov,
315512,RU,90,Romanova,
315513,RU,90,Larina,
315514,RU,84,Filatov,
315515,RU,90,Kiselëvo,
315516,RU,67,Bashnya,
315517,RU,76,Yakovlevskiy,
315518,RU,90,Kuznetsova,
315519,RU,47,Mechnikova,
315520,RU,88,Myagkaya,
315521,RU,20,Dachnaya,
315522,RU,42,Rzhevka,
315523,RU,92,Dyakonova,
315524,RU,90,Melnikova,
315525,RU,33,Fabrik,
315526,RU,25,Nekrasova,
315527,RU,52,Zagorodnaya,
315528,RU,84,Vyazovskiy,
315529,RU,93,Klyuchik,
315530,RU,56,Kremlevskiy,
315531,RU,90,Bannaya Gora,
315532,RU,90,Uralskiy,
315533,RU,90,Sidorovo,
315534,RU,43,Achkasova,
315535,RU,93,Pozdnyakova,
315536,RU,47,Novogorsk,
315537,RU,67,Ptitsefabrika,
315538,RU,90,Pronina,
315539,RU,21,Porechye,
315540,RU,90,Popkova,
315541,RU,71,Pospelova,
315542,RU,90,Nikitina,
315543,RU,85,Perovo,
315544,RU,69,Okolitsa,
315545,RU,67,Rabochiy,
315546,RU,71,Yunost,
315547,RU,90,Kolchug,
315548,RU,39,Obyedineniye,
315549,RU,69,Bryanka,
315550,RU,86,Agarkov,
315551,RU,73,Neftebaza,
315552,RU,48,Peredelkino,
315553,RU,88,Spirkovo,
315554,RU,20,Komy,
315555,RU,53,Maslovo,
315556,RU,51,Malaya Pokrovskaya,
315557,RU,90,Kuchino,
315558,RU,90,Afonina,
315559,RU,90,Bolshakova,
315560,RU,67,Grachëvka,
315561,RU,25,Peredelki,
315562,RU,33,Mitino,
315563,RU,65,Shmidt,
315564,RU,88,Savelovo,
315565,RU,21,Volzhskaya,
315566,RU,71,Zapadnyy,
315567,RU,88,Mitinskaya,
315568,RU,90,Demidovo,
315569,RU,80,Mashinostroiteley,
315570,RU,62,Dobrynya,
315571,RU,12,Bake,
315572,RU,83,Singer,
315573,RU,61,Parizhskiy,
315574,RU,48,Troparëvo-nikulino,
315575,RU,63,Dorozhnyy,
315576,RU,90,Zory,
315577,RU,5,Fart,
315578,RU,41,Yakimov,
315579,RU,30,Ever,
315580,RU,71,Larionova,
315581,RU,59,Lastochka,
315582,RU,90,Kisel,
315583,RU,61,Ogorodniy,
315584,RU,84,Denisovskiy,
315585,RU,53,Geodezicheskaya,
315586,RU,84,Rybak,
315587,RU,90,Plastinina,
315588,RU,52,Gorny,
315589,RU,4,Talina,
315590,RU,90,Grishina,
315591,RU,90,Zaural,
315592,RU,90,Slavnaya,
315593,RU,90,Mezhevaya,
315594,RU,90,Alëshina,
315595,RU,11,Ploshchadka,
315596,RU,33,Fëdorovskaya,
315597,RU,47,Presnenskiy,
315598,RU,30,Alonka,
315599,RU,83,Stroydetal,
315600,RU,90,Novozhilova,
315601,RU,60,Rublëvka,
315602,RU,56,Serebryanyy,
315603,RU,67,Voskhod,
315604,RU,84,Aeroport,
315605,RU,9,Zarechë,
315606,RU,33,Kamen,
315607,RU,7,Kamnev,
315608,RU,90,Vladimirskiy,
315609,RU,60,Rudo,
315610,RU,73,Agrokultura,
315611,RU,52,Turno,
315612,RU,90,Mironova,
315613,RU,34,Mom,
315614,RU,90,Zhilya,
315615,RU,7,Novostroy,
315616,RU,65,Ideya,
315617,RU,90,Silina,
315618,RU,77,Dachi,
315619,RU,84,Zinovyev,
315620,RU,33,Voldai,
315621,RU,21,Buday,
315622,RU,56,Vasilek,
315623,RU,60,Skolkovo,
315624,RU,7,Makukhin,
315625,RU,90,Aleksandrova,
315626,RU,90,Vershinina,
315627,RU,90,Bershet,
315628,RU,90,Usva,
315629,RU,60,Yurlovo,
315630,RU,81,Detskiy Sanatoriy,
315631,RU,90,Fedorova,
315632,RU,52,Krasota,
315633,RU,90,Musor,
315634,RU,93,Amazar,
315635,RU,90,Klyuchiki,
315636,RU,90,Yayva,
315637,RU,90,Kuzmina,
315638,RU,9,Gorbunov,
315639,RU,84,Orlënok,
315640,RU,90,Zakharova,
315641,RU,67,Kiseleva,
315642,RU,90,Turbina,
315643,RU,47,Plastmass,
315644,RU,61,Lavrov,
315645,RU,51,Prival,
315646,RU,90,Pult,
315647,RU,42,Runovo,
315648,RU,90,Belovskaya,
315649,RU,52,Krivsko,
315650,RU,93,Domna,
315651,RU,20,Moroza,
315652,RU,10,Mostok,
315653,RU,84,Pichugin,
315654,RU,81,Muravey,
315655,RU,13,Polyakova,
315656,RU,60,Grom,
315657,RU,33,Gorka,
315658,RU,60,Smyk,
315659,RU,33,Dobryy,
315660,RU,90,Gubanova,
315661,RU,48,Melkisarovo,
315662,RU,59,Stroyka,
315663,RU,76,Koptevskiy,
315664,RU,81,Utkin,
315665,RU,8,Aktau,
315666,RU,37,Fanernik,
315667,RU,73,Novospasskiy,
315668,RU,47,Chaykovskogo,
315669,RU,43,Timiryazev,
315670,RU,37,Slon,
315671,RU,77,Ploshchad,
315672,RU,37,Kosinskaya,
315673,RU,4,Indeyka,
315674,RU,21,Lomy,
315675,RU,25,Kozlova,
315676,RU,73,Belous,
315677,RU,90,Laki,
315678,RU,11,Anninskiy,
315679,RU,25,Gost,
315680,RU,92,Rusakov,
315681,RU,47,Grigorchikovo,
315682,RU,21,Shaldovo,
315683,RU,92,Mikoyana,
315684,RU,78,Uteshevskiy,
315685,RU,11,Kardon,
315686,RU,25,Losk,
315687,RU,17,Basar,
315688,RU,37,Makaryev,
315689,RU,81,Inza,
315690,RU,42,Kobralovo,
315691,RU,76,Chern,
315692,RU,61,Novopersianovka,
315693,RU,20,Sinyushina Gora,
315694,RU,42,Rusanovka,
315695,RU,50,Nikolskoe,
315696,RU,70,Podkumok,
315697,RU,61,Rodionovo-nesvetayskaya,
315698,RU,8,Pavlovka,
315699,RU,47,Krasnoznamensk,
315700,RU,72,Znamenka,
315701,RU,47,Lesnoy,
315702,RU,77,Solovki,
315703,RU,42,Oselki,
315704,RU,72,Baku,
315705,RU,30,Pivan,
315706,RU,93,Krasnokamensk,
315707,RU,67,Petrovsk,
315708,RU,71,Patrushi,
315709,RU,29,Tyazhinskiy,
315710,RU,28,Konchezero,
315711,RU,80,Pugachëvo,
315712,RU,47,Beloozërskiy,
315713,RU,53,Tatarsk,
315714,RU,86,Pavlovka,
315715,RU,51,Kirikovo,
315716,RU,55,Tashla,
315717,RU,47,Kabanovo,
315718,RU,8,Naumovka,
315719,RU,86,Ertil,
315720,RU,20,Novaya Igirma,
315721,RU,73,Apastovo,
315722,RU,43,Izmalkovo,
315723,RU,64,Sokol,
315724,RU,90,Okhansk,
315725,RU,39,Tartat,
315726,RU,CI,Magas,
315727,RU,75,Cheremoshniki,
315728,RU,48,Likhobory Nizhniye,
315729,RU,84,Rybovodnyy,
315730,RU,92,Nagornyy,
315731,RU,13,Potanino,
315732,RU,42,Kerro,
315733,RU,9,Terekhov,
315734,RU,47,Babi,
315735,RU,77,Mokshino,
315736,RU,25,Polyakov,
315737,RU,69,Lezhnëvo,
315738,RU,21,Zavolzhsk,
315739,RU,21,Privolzhsk,
315740,RU,42,Svir,
315741,RU,69,Sennaya,
315742,RU,17,Tanit,
315743,RU,9,Yurkov,
315744,RU,84,Shirokov,
315745,RU,69,Serkova,
315746,RU,84,Senichkin,
315747,RU,65,Novosemeykino,
315748,RU,57,Bashmakovo,
315749,RU,90,Permskiy,
315750,RU,47,Vitenëvo,
315751,RU,47,Shishkin Les,
315752,RU,47,Bachurino,
315753,RU,73,Kurkachi,
315754,RU,90,Ust-kachka,
315755,RU,27,Nizhniy Arkhyz,
315756,RU,91,Talnakh,
315757,RU,88,Poluektovo,
315758,RU,42,Parikanmyaki,
315759,RU,47,Mukhanki,
315760,RU,48,Chertanovo Yuzhnoye,
315761,RU,71,Shirokaya Rechka,
315762,RU,8,Ilinskiy,
315763,RU,13,Kokuy,
315764,RU,10,Yakovleva Verkhi,
315765,RU,88,Shopsha,
315766,RU,80,Bolshaya Dokya,
315767,RU,59,Tayëzhnyy,
315768,RU,90,Karasye,
315769,RU,76,Golubtsy,
315770,RU,4,Shilovo,
315771,RU,61,Grachëvaya Balka,
315772,RU,71,Novoalekseyevskoye,
315773,RU,59,Sadgorod,
315774,RU,47,Senkino-sekerino,
315775,RU,71,Klyuchevoy,
315776,RU,83,Berëzovo,
315777,RU,83,Gorodok,
315778,RU,47,Chetrikovo,
315779,RU,38,Kurdzhipskiy,
315780,RU,42,Bolshaya Yashchera,
315781,RU,40,Tverdysh,
315782,RU,33,Kokir,
315783,RU,85,Mineyka,
315784,RU,47,Vershina,
315785,RU,47,Paryshevo,
315786,RU,76,Golovenkovo,
315787,RU,32,Ust-yugan,
315788,RU,29,Zagotskot,
315789,RU,71,Fedkova,
315790,RU,42,Mustamäki,
315791,RU,64,Berëzovka,
315792,RU,49,Minkina,
315793,RU,9,Dubovaya Balka,
315794,RU,70,Sovpakhar,
315795,RU,86,Ilinovka,
315796,RU,39,Kedrovyy,
315797,RU,42,Romanovka,
315798,RU,76,Partizan,
315799,RU,77,Shishkino,
315800,RU,47,Churilkova,
315801,RU,13,Nizhniye Karasi,
315802,RU,47,Ivino,
315803,RU,25,Ferzikovo,
315804,RU,42,Tervolovo,
315805,RU,10,Lokot,
315806,RU,4,Zmeinogorsk,
315807,RU,6,Lukovetskiy,
315808,RU,90,Lobanovo,
315809,RU,93,Beryozovsky,
315810,RU,4,Golubtsovo,
315811,RU,90,Ust-chusovaya,
315812,RU,38,Beregovoye,
315813,RU,42,Pudomyagi,
315814,RU,8,Nurlino,
315815,RU,4,Saray,
315816,RU,47,Reshetnikovo,
315817,RU,65,Krasnaya Dubrava,
315818,RU,75,Kaftanchikovo,
315819,RU,76,Venëv,
315820,RU,6,Shenkursk,
315821,RU,47,Bereznetsovo,
315822,RU,81,Malayevka,
315823,RU,88,Burmosovo,
315824,RU,42,Rakhya,
315825,RU,9,Odintsov,
315826,RU,85,Fokinskaya,
315827,RU,7,Kurchenko,
315828,RU,49,Tuloma,
315829,RU,42,Shlisselburg,
315830,RU,38,Doroshenko,
315831,RU,92,Ostrovnaya,
315832,RU,86,Vasilkov,
315833,RU,38,Kryukov,
315834,RU,69,Konets,
315835,RU,8,Polyanskaya,
315836,RU,11,Nuga,
315837,RU,11,Vagzhanova,
315838,RU,41,Guberniya,
315839,RU,25,Malinki,
315840,RU,78,Ognëva,
315841,RU,71,Poroshina,
315842,RU,CI,Shalazhi,
315843,RU,93,Mogoytuy,
315844,RU,85,Ulyanovskaya,
315845,RU,80,Minderevo,
315846,RU,55,Chebenki,
315847,RU,64,Nakasawa,
315848,RU,56,Naryshkino,
315849,RU,20,Ust-ordynskiy,
315850,RU,6,Plesetsk,
315851,RU,47,Znamya Oktyabrya,
315852,RU,29,Novyy Ulus,
315853,RU,59,Yuzhnaya Liflandiya,
315854,RU,71,Mednyy,
315855,RU,71,Kormovoye,
315856,RU,90,Osa,
315857,RU,81,Mullovka,
315858,RU,3,Onguday,
315859,RU,32,Pyt-yakh,
315860,RU,47,Bolshoye Bunkovo,
315861,RU,47,Lesnyye Polyany,
315862,RU,61,Budënnovka,
315863,RU,29,Cherkasov Kamen,
315864,RU,8,Zelimovo,
315865,RU,30,Khor,
315866,RU,48,Vorontsovo,
315867,RU,83,Spas-nikolina,
315868,RU,61,Polushkin,
315869,RU,41,Zorino,
315870,RU,33,Biserovo,
315871,RU,71,Proshkina,
315872,RU,53,Kostylëvo,
315873,RU,77,Kalashnikovo,
315874,RU,12,Frunzenskaya,
315875,RU,52,Veski,
315876,RU,52,Priboy,
315877,RU,49,Liinahamari,
315878,RU,90,Kulakova,
315879,RU,52,Ostrovok,
315880,RU,59,Oleniy,
315881,RU,12,Turty,
315882,RU,33,Kovrovy,
315883,RU,24,Shin,
315884,RU,52,Babanova,
315885,RU,86,Kaplin,
315886,RU,77,Stolovaya,
315887,RU,60,Porkhov,
315888,RU,65,Sytnoye,
315889,RU,71,Studencheskiy,
315890,RU,5,Romny,
315891,RU,42,Nuiyama,
315892,RU,78,Vagay,
315893,RU,47,Povedniki,
315894,RU,31,Beya,
315895,RU,17,Botlikh,
315896,RU,13,Narovchatka,
315897,RU,67,Turki,
315898,RU,20,Svirsk,
315899,RU,88,Meltenino,
315900,RU,42,Stara,
315901,RU,27,Aksu,
315902,RU,CI,Alda,
315903,RU,47,Aparinki,
315904,RU,CI,Basa,
315905,RU,30,Garovka,
315906,RU,38,Plastunovskaya,
315907,RU,30,Gayter,
315908,RU,47,Lozhki,
315909,RU,71,Verkhnyaya Sysert,
315910,RU,8,Tolbazy,
315911,RU,17,Gurbuki,
315912,RU,88,Sarafonovo,
315913,RU,51,Kantaurovo,
315914,RU,75,Togur,
315915,RU,24,Gorodovikovsk,
315916,RU,47,Karabanovo,
315917,RU,9,Malaya Psinka,
315918,RU,32,Gornopravdinsk,
315919,RU,52,Ramushëvo,
315920,RU,59,Kondratenkovo,
315921,RU,77,Staroye Zavrazhye,
315922,RU,67,Kolos,
315923,RU,38,Udobny,
315924,RU,81,Solntse,
315925,RU,69,Panova,
315926,RU,43,Strelets,
315927,RU,88,Zabava,
315928,RU,81,Ryabina,
315929,RU,8,Absalyamova,
315930,RU,55,Kemer,
315931,RU,78,Krapiva,
315932,RU,8,Dunduk,
315933,RU,71,Ufimskiy,
315934,RU,38,Semigorye,
315935,RU,77,Belyanitsy,
315936,RU,61,Pozdnyakov,
315937,RU,61,Zelenkov,
315938,RU,42,Belenok,
315939,RU,51,Umay,
315940,RU,25,Safonova,
315941,RU,69,Vyshegor,
315942,RU,76,Proletarki,
315943,RU,33,Morozovskaya,
315944,RU,28,Rechnaya Selga,
315945,RU,33,Soz,
315946,RU,88,Pribrezhnaya,
315947,RU,90,Ilina,
315948,RU,77,Kalyazin,
315949,RU,52,Klënovo,
315950,RU,73,Korsa,
315951,RU,43,Gazoprovod,
315952,RU,53,Voskresenskiy,
315953,RU,9,Tavrovo,
315954,RU,65,Utevka,
315955,RU,83,Bavleny,
315956,RU,3,Choya,
315957,RU,73,Bolshaya Atnya,
315958,RU,55,Totskoye,
315959,RU,27,Uchkeken,
315960,RU,85,Mayskiy,
315961,RU,42,Lagolovo,
315962,RU,47,Misailovo,
315963,RU,CI,Malgobek,
315964,RU,51,Gnilitskiye Dvoriki,
315965,RU,42,Gorkovskoye,
315966,RU,53,Bagan,
315967,RU,30,Novyy Urgal,
315968,RU,77,Kvakshino,
315969,RU,38,Rozovyy,
315970,RU,90,Dzerzhinets,
315971,RU,33,Sosnovyy,
315972,RU,33,Krutaya,
315973,RU,38,Samokhvalov,
315974,RU,66,Pavlovsk,
315975,RU,8,Yermekeyevo,
315976,RU,38,Novoleninskiy,
315977,RU,38,Psebay,
315978,RU,90,Pozres,
315979,RU,20,Ust-ilim,
315980,RU,65,Avgustovka,
315981,RU,47,Yakovlevskoye,
315982,RU,38,Vorovskogo,
315983,RU,30,Orenburg,
315984,RU,47,Lubertsi,
315985,RU,54,Sargatskoye,
315986,RU,31,Shira,
315987,RU,76,Shchëkino,
315988,RU,42,Telmana,
315989,RU,90,Yelovo,
315990,RU,32,Uryevskiye,
315991,RU,32,Rynkova Ye. V.,
315992,RU,8,Novobelokatay,
315993,RU,90,Berëzovka,
315994,RU,65,Volzhskiy,
315995,RU,38,Dolgogusevskiy,
315996,RU,38,Kalininskaya,
315997,RU,37,Krasnoye-na-volge,
315998,RU,10,Imeni Fokina,
315999,RU,53,Linëvo,
316000,RU,70,Izobilnyy,
316001,RU,12,Grozny,
316002,RU,70,Kochubeyevskoye,
316003,RU,70,Ryzdvyanyy,
316004,RU,47,Ozëra,
316005,RU,47,Tatarinovo,
316006,RU,8,Milovka,
316007,RU,47,Dubrovitsy,
316008,RU,47,Ivanteyevka,
316009,RU,47,Afanasovo,
316010,RU,28,Medvezhyegorsk,
316011,RU,45,Azanovo,
316012,RU,45,Semënovka,
316013,RU,45,Sovetskiy,
316014,RU,52,Kresttsy,
316015,RU,5,Yekaterinoslavka,
316016,RU,47,Vlasikha,
316017,RU,47,Odintsovo-vakhromeyevo,
316018,RU,93,Mogoitui,
316019,RU,71,Artemovski,
316020,RU,86,Kamenka,
316021,RU,47,Udelnaya,
316022,RU,23,Sibirskoye,
316023,RU,47,Mamonovo,
316024,RU,49,Ostrovnoy,
316025,RU,33,Polyany,
316026,RU,42,Vartemyagi,
316027,RU,29,Berëzovskiy,
316028,RU,81,Novospasskoye,
316029,RU,8,Isyangulovo,
316030,RU,23,Donskoye,
316031,RU,47,Ivashkovo,
316032,RU,84,Bykovo,
316033,RU,30,Galkino,
316034,RU,47,Zhilëvo,
316035,RU,42,Pikalëvo,
316036,RU,13,Vishnëvogorsk,
316037,RU,70,Novoselitskoye,
316038,RU,45,Lazhyal,
316039,RU,16,Alatyr,
316040,RU,42,Sosnovy Bor,
316041,RU,4,Kolyvan,
316042,RU,47,Tarasovka,
316043,RU,13,Yemanzhelinsk,
316044,RU,73,Mendeleyevsk,
316045,RU,47,Mikhnëvo,
316046,RU,71,Alapayevsk,
316047,RU,93,Nerchinsk,
316048,RU,64,Gornozavodsk,
316049,RU,47,Rozhdestveno,
316050,RU,39,Berëzovka,
316051,RU,47,Khlyupino,
316052,RU,47,Voronovo,
316053,RU,51,Sosnovskoye,
316054,RU,51,Kozino,
316055,RU,47,Yunost,
316056,RU,57,Serdobsk,
316057,RU,57,Russkiy Kameshkir,
316058,RU,7,Volzhskoye,
316059,RU,76,Yefremov,
316060,RU,76,Kireyevsk,
316061,RU,8,Burayevo,
316062,RU,62,Chuchkovo,
316063,RU,8,Zilair,
316064,RU,8,Mishkino,
316065,RU,69,Bogoroditskoye,
316066,RU,32,Savkino,
316067,RU,93,Aksha,
316068,RU,29,Sheveli,
316069,RU,43,Pavlovka,
316070,RU,23,Isakovo,
316071,RU,42,Sovetskiy,
316072,RU,30,Toki,
316073,RU,47,Orekhovo,
316074,RU,47,Kostrovo,
316075,RU,16,Batyrëvo,
316076,RU,41,Glushkovo,
316077,RU,88,Borok,
316078,RU,51,Kusakovka,
316079,RU,8,Bulgakovo,
316080,RU,75,Kislovka,
316081,RU,47,Ozeretskoye,
316082,RU,9,Novyy Oskol,
316083,RU,81,Borkovka,
316084,RU,47,Rumyantsevo,
316085,RU,20,Belorechenskiy,
316086,RU,39,Pirovskoye,
316087,RU,4,Rebrikha,
316088,RU,73,Shapkino,
316089,RU,73,Polyany,
316090,RU,73,Bolshaya Shilna,
316091,RU,4,Semënovod,
316092,RU,51,Posëlok,
316093,RU,68,Lukovskaya,
316094,RU,33,Belaya,
316095,RU,55,Iriklinskiy,
316096,RU,32,Nang-yagun-pugol,
316097,RU,85,Kadnikov,
316098,RU,85,Krasavino,
316099,RU,72,Stroitel,
316100,RU,40,Mishkino,
316101,RU,77,Bologoye,
316102,RU,70,Alekseyevskoye,
316103,RU,47,Sovkhoz Novyy Byt,
316104,RU,47,Faustovo,
316105,RU,73,Kazanbash,
316106,RU,47,Egorev,
316107,RU,53,Kumysnyy,
316108,RU,37,Manylovo,
316109,RU,47,Perkhurovo,
316110,RU,41,Pryamitsyno,
316111,RU,42,Fornosovo,
316112,RU,48,Batyunina,
316113,RU,52,Vzad,
316114,RU,29,Berezovaya,
316115,RU,59,Tri Brata,
316116,RU,90,Verkhnechusovskiye Gorodki,
316117,RU,47,Pestovka,
316118,RU,39,Yermolayevskiy Zaton,
316119,RU,90,Anninsk,
316120,RU,4,Verkhne-ayskoye,
316121,RU,47,Belyayeva,
316122,RU,51,Gavrilovka,
316123,RU,13,Zhukovarov,
316124,RU,48,Nikolskiy,
316125,RU,77,Prokunino,
316126,RU,48,Mazilovo,
316127,RU,33,Kuchelapy,
316128,RU,42,Verevo,
316129,RU,25,Lyudinovo,
316130,RU,9,Novaya,
316131,RU,45,Kamenskiy,
316132,RU,59,Yevseyevka,
316133,RU,80,Sinyashur,
316134,RU,83,Stanki,
316135,RU,33,Bykovy,
316136,RU,72,Bokino,
316137,RU,42,Shëlkovo,
316138,RU,47,Kladkova,
316139,RU,47,Andreyevka,
316140,RU,47,Tatarintsevo,
316141,RU,47,Cheprino,
316142,RU,88,Tsedenevo,
316143,RU,47,Pochinki,
316144,RU,90,Piter,
316145,RU,33,Gorki,
316146,RU,71,Lesnaya,
316147,RU,93,Liski,
316148,RU,88,Stan,
316149,RU,67,Berëzovskiy,
316150,RU,85,Shëlkovo,
316151,RU,85,Selo,
316152,RU,67,Kirovo,
316153,RU,61,Berëzka,
316154,RU,92,Nikolskoe,
316155,RU,84,Platonov,
316156,RU,42,Vsevolozhskiy,
316157,RU,33,Khlynov,
316158,RU,20,Marata,
316159,RU,29,Rayskaya,
316160,RU,84,Aksënov,
316161,RU,38,Ruchka,
316162,RU,23,Obruchevo,
316163,RU,33,Yaroslavl,
316164,RU,33,Ivanovo,
316165,RU,13,Kostroma,
316166,RU,61,Rostov,
316167,RU,65,Stavropol,
316168,RU,51,Ivanovo,
316169,RU,13,Ufa,
316170,RU,13,Arkhangelsk,
316171,RU,55,Voronezh,
316172,RU,51,Nizhnii Novgorod,
316173,RU,10,Kolomna,
316174,RU,33,Kazan,
316175,RU,65,Shigony,
316176,RU,30,Komsomolsk,
316177,RU,17,Bryansk,
316178,RU,41,Kurgan,
316179,RU,13,Ufalei,
316180,RU,13,Ozërsk,
316181,RU,13,Troizk,
316182,RU,13,Ufaley,
316183,RU,29,Makurino,
316184,RU,1,Tlyustenkhabl,
316185,RU,39,Zheleznogorsk,
316186,RU,61,Krasny-sulin,
316187,RU,61,Schachty,
316188,RU,71,Nizhni Tagil,
316189,RU,90,Lesnoy,
316190,RU,83,Gus-khrustalnyi,
316191,RU,83,Gus-khrustalny,
316192,RU,51,Shatovka,
316193,RU,20,Vladimir,
316194,RU,8,Maloyaz,
316195,RU,8,Starobaltachevo,
316196,RU,70,Kirgiz,
316197,RU,8,Bizhbulyak,
316198,RU,53,Kubovo,
316199,RU,38,Moskva,
316200,RU,78,Moskva,
316201,RU,10,Komarichi,
316202,RU,9,Rossosh,
316203,RU,73,Naberezhnyye Chelny,
316204,RU,47,Pirogovo,
316205,RU,70,Belorechenskiy,
316206,RU,38,Novovelichkovskaya,
316207,RU,38,Gelendjik,
316208,RU,47,Ivanovo,
316209,RU,1,Maikop,
316210,RU,60,Moskva,
316211,RU,37,Krasnoe,
316212,RU,55,Fëdorovka,
316213,RU,65,Moskva,
316214,RU,61,Kamensk,
316215,RU,61,Semikarakorskiy,
316216,RU,90,Berëzovo,
316217,RU,39,Zelenogorsk,
316218,RU,47,Lunëvo,
316219,RU,31,Vershino-bidzha,
316220,RU,75,Topki,
316221,RU,11,Bryansk,
316222,RU,48,Khoroshëvskiy,
316223,RU,59,Spassk,
316224,RU,59,Chuguyevka,
316225,RU,59,Kamen,
316226,RU,85,Moskva,
316227,RU,16,Oktyabrskiy,
316228,RU,21,Iwanowo,
316229,RU,47,Kalininskiy,
316230,RU,84,Aksay,
316231,RU,67,Yershov,
316232,RU,52,Krestsy,
316233,RU,60,Strugi,
316234,RU,23,Komsomolsk,
316235,RU,39,Belogorskiy,
316236,RU,5,Svobodny,
316237,RU,61,Rostow,
316238,RU,67,Tatishchevo,
316239,RU,24,Burlyk,
316240,RU,47,Bogorodskoye,
316241,RU,21,Mytishchi,
316242,RU,42,Kuzmolovo,
316243,RU,86,Babka,
316244,RU,CI,Oktjabrskij,
316245,RU,61,Rostow Am Don,
316246,RU,85,Ivoylovo,
316247,RU,47,Yegoryevsk,
316248,RU,4,Sibirskoye,
316249,RU,16,Kirov,
316250,RU,61,Izobilnyy,
316251,RU,13,Kremenkul,
316252,RU,73,Pestretsy,
316253,RU,83,Bogolyubovo,
316254,RU,69,Bogatyr,
316255,RU,25,Marino,
316256,RU,47,Ulitkino,
316257,RU,90,Gorny,
316258,RU,27,Kardonikskaya,
316259,RU,70,Polskiy,
316260,RU,42,Fëdorovskoye,
316261,RU,70,Solomenskoye,
316262,RU,22,Nartkala,
316263,RU,7,Znamensk,
316264,RU,55,Gai,
316265,RU,51,Lomov,
316266,RU,47,Korenki,
316267,RU,65,Amanak,
316268,RU,12,Sovetskoe,
316269,RU,4,Altayskiy,
316270,RU,29,Gurevsk,
316271,RU,29,Leninsk-kuznetsk,
316272,RU,30,Nikolaevsk,
316273,RU,51,Tolmachëvo,
316274,RU,78,Gladilovo,
316275,RU,20,Zheleznogorsk,
316276,RU,47,Pavlovo-posad,
316277,RU,55,Trëkhgornyy,
316278,RU,60,Velikiye Luki,
316279,RU,90,Chusovaya,
316280,RU,93,Chernyshevsk,
316281,RU,53,Kuibyshev,
316282,RU,63,Mirnyy,
316283,RU,62,Riazan,
316284,RU,21,Odintsovo,
316285,RU,40,Berëzovskiy,
316286,RU,66,Petergof,
316287,RU,28,Pitkäranta,
316288,RU,52,Nikolskoye,
316289,RU,62,Derevnya,
316290,RU,4,Aleisk,
316291,RU,63,Kysyl,
316292,RU,33,Chepetsk,
316293,RU,25,Sukhinichi,
316294,RU,43,Lenin,
316295,RU,62,Rybnoe,
316296,RU,62,Spassk,
316297,RU,80,Mishkino,
316298,RU,8,Belebei,
316299,RU,64,Aleksandrovsk,
316300,RU,29,Tyazhin,
316301,RU,55,Arkhangelsk,
316302,RU,23,Svetlyj,
316303,RU,7,Aktobe,
316304,RU,55,Novosergiyevka,
316305,RU,47,Orekhovo-zuyevo,
316306,RU,48,Orekhovo,
316307,RU,47,Vinogradovo,
316308,RU,51,Nijni Novgorod,
316309,RU,16,Malyye Bikshikhi,
316310,RU,37,Selo,
316311,RU,70,Georgiyevsk,
316312,RU,70,Grachëvskiy,
316313,RU,77,Krapivino,
316314,RU,51,Lyskovo,
316315,RU,48,Ostankino,
316316,RU,42,Gromovo,
316317,RU,77,Isakovo,
316318,RU,56,Mzensk,
316319,RU,17,Buinaksk,
316320,RU,38,Pervorechenskoye,
316321,RU,4,Altaiskoe,
316322,RU,73,Muslyumovo,
316323,RU,73,Nizhnekamskiy,
316324,RU,23,Gromovo,
316325,RU,47,Respublika,
316326,RU,33,Pizhanka,
316327,RU,67,Krasnyy Kut,
316328,RU,85,Vozhega,
316329,RU,23,Baltiisk,
316330,RU,72,Pavlodar,
316331,RU,78,Petropavlovsk,
316332,RU,65,Ryazanskiy,
316333,RU,90,Berkutovo,
316334,RU,23,Baltijsk,
316335,RU,13,Suleya,
316336,RU,66,Villozi,
316337,RU,88,Gorki,
316338,RU,47,Veshki,
316339,RU,5,Yuktali,
316340,RU,53,Nekrasovka,
316341,RU,52,Luga,
316342,RU,23,Iljinskoe,
316343,RU,62,Svobodny,
316344,RU,11,Nizhnyaya Ivolga,
316345,RU,25,Mosalsk,
316346,RU,21,Plës,
316347,RU,71,Nizhnaya Tura,
316348,RU,70,Velichayevskoye,
316349,RU,25,Usty,
316350,RU,83,Klin,
316351,RU,71,Sosnovka,
316352,RU,56,Krasnaya Niva,
316353,RU,38,Olkhovskiy,
316354,RU,90,Komarikhinskiy,
316355,RU,84,Akatovka,
316356,RU,56,Magovka,
316357,RU,45,Karasyary,
316358,RU,86,Novosëlki,
316359,RU,59,Priozërnoye,
316360,RU,47,Yarkino,
316361,RU,72,Izovka,
316362,RU,72,Khokhlovka,
316363,RU,72,Novaya Lyada,
316364,RU,72,Shchepilovskiy,
316365,RU,72,Galdym,
316366,RU,28,Shuya,
316367,RU,4,Mylnikova,
316368,RU,56,Khotkovo,
316369,RU,65,Gorych,
316370,RU,77,Vysokusha,
316371,RU,74,Boganida,
316372,RU,33,Froly,
316373,RU,47,Shilovo,
316374,RU,48,Poselok Tekstilshchiki,
316375,RU,47,Karavayevo,
316376,RU,73,Kaban-bastryk,
316377,RU,13,Urtyushka,
316378,RU,93,Abagaitui,
316379,RU,53,Shadrikha,
316380,RU,39,Petrushki,
316381,RU,29,Teleutskaya,
316382,RU,29,Bobrovka,
316383,RU,53,Ostanovochnyy Punkt Pyatdesyat Vtoroy Kilometr,
316384,RU,42,Nechepert,
316385,RU,57,Borisovka,
316386,RU,21,Sorokhta,
316387,RU,29,Chusovitina,
316388,RU,55,Lysov,
316389,RU,47,Brusilovo,
316390,RU,76,Skuratovskiy,
316391,RU,52,Balozhi,
316392,RU,52,Pogost Uzhin,
316393,RU,83,Bunkovo,
316394,RU,83,Zventsovo,
316395,RU,83,Turtino,
316396,RU,83,Kiryushina,
316397,RU,83,Saryyevo,
316398,RU,70,Komsomolets,
316399,RU,9,Luchki,
316400,RU,49,Ura-guba,
316401,RU,73,Naumovo,
316402,RU,68,Mikhaylovskoye,
316403,RU,60,Shkarino,
316404,RU,60,Sanino,
316405,RU,71,Kozlovskiy,
316406,RU,76,Shulginskiy,
316407,RU,47,Turbaza Krasnyy Mayak,
316408,RU,13,Kugaly,
316409,RU,71,Serebryanka,
316410,RU,71,Matveyeva,
316411,RU,48,Kolomenskoye,
316412,RU,CI,Verkhniye Achaluki,
316413,RU,32,Mysovaya Mega,
316414,RU,52,Myasnoy Bor,
316415,RU,47,Nikolo-vsekhsvyatskoye,
316416,RU,52,Kapustno,
316417,RU,60,Pskow,
316418,RU,38,Korzhevskiy,
316419,RU,70,Krasnodarskiy,
316420,RU,43,Zarechnoye,
316421,RU,57,Zolotarëvka,
316422,RU,51,Pochinki,
316423,RU,52,Pestovo,
316424,RU,41,Podolkhi,
316425,RU,51,Diveyevo,
316426,RU,53,Tulinskiy,
316427,RU,47,Goluboye,
316428,RU,48,Polyany,
316429,RU,46,Rasskazovo,
316430,RU,61,Krasnodarskiy,
316431,RU,76,Dubna,
316432,RU,81,Semenovka,
316433,RU,47,Petrukhino,
316434,RU,47,Meshkovo,
316435,RU,88,Ishnya,
316436,RU,47,Polezhayki,
316437,RU,83,Lykovo,
316438,RU,47,Saltykovo,
316439,RU,60,Altun,
316440,RU,61,Blagodarnaya,
316441,RU,52,Ushno,
316442,RU,90,Glebovo,
316443,RU,69,Minina,
316444,RU,40,Korotkova,
316445,RU,51,Nijnii Novgorod,
316446,RU,25,Zhiletovo,
316447,RU,10,Pochëp,
316448,RU,47,Trubino,
316449,RU,20,Usolye,
316450,RU,67,Petrovskiy,
316451,RU,9,Urazovo,
316452,RU,56,Zhukovskiy,
316453,RU,60,Plyussa,
316454,RU,32,Agirish,
316455,RU,83,Malaya Shuvalikha,
316456,RU,47,Manaseyevo,
316457,RU,72,Shacha Molakanskaya,
316458,RU,66,Malaya Kushelëvka,
316459,RU,16,Novyye Lapsary,
316460,RU,93,Verkhniy Kaltan,
316461,RU,47,Korenëvo,
316462,RU,57,Kosyrëvka,
316463,RU,88,Yamino,
316464,RU,16,Yelyukkasy,
316465,RU,9,Bekhteyevka,
316466,RU,42,Krasny Bor,
316467,RU,10,Gorodok,
316468,RU,52,Volochok,
316469,RU,70,Kruglolesskoye,
316470,RU,53,Tula,
316471,RU,66,Kronstadt,
316472,RU,40,Petukhovo,
316473,RU,42,Sapernoye,
316474,RU,47,Zhostovo,
316475,RU,93,Kyra,
316476,RU,86,Gribanovskiy,
316477,RU,73,Saby,
316478,RU,13,Sosnovskiy,
316479,RU,71,Kashina,
316480,RU,37,Ivanovo,
316481,RU,8,Pervomayskiy,
316482,RU,17,Manaskent,
316483,RU,8,Kadrekova,
316484,RU,59,Nekruglovo,
316485,RU,47,Zavety Ilicha,
316486,RU,48,Nagatino-sadovniki,
316487,RU,57,Khlebnyy,
316488,RU,16,Uleshevo,
316489,RU,69,Kharinka,
316490,RU,90,Cherepanova,
316491,RU,23,Norgau,
316492,RU,13,Kizil,
316493,RU,63,Nagorniy,
316494,RU,85,Grudinskaya,
316495,RU,7,Shaposhnikov,
316496,RU,69,Zamyatlino,
316497,RU,29,Komissarova,
316498,RU,16,Rechnikov,
316499,RU,30,Topolëvo,
316500,RU,16,Ozhenary,
316501,RU,60,Balti,
316502,RU,47,Osorgino,
316503,RU,6,Solvychegodsk,
316504,RU,33,Tyumen,
316505,RU,10,Zlynka,
316506,RU,93,Duldurga,
316507,RU,85,Myaksa,
316508,RU,52,Malaya Vishera,
316509,RU,24,Peredovoy,
316510,RU,77,Likhoslavl,
316511,RU,38,Nebug,
316512,RU,61,Tsimlyansk,
316513,RU,63,Yansk,
316514,RU,17,Mugi,
316515,RU,90,Khomyaki,
316516,RU,47,Kablukovo,
316517,RU,25,Vashutina,
316518,RU,47,Starbeyevo,
316519,RU,47,Britovo,
316520,RU,9,Zimovnoye,
316521,RU,37,Kotochigovo,
316522,RU,4,Klochki,
316523,RU,32,Redenkaya,
316524,RU,73,Rybopitomnik Sokury,
316525,RU,8,Novyy Chuganak,
316526,RU,41,Blagodatnoye,
316527,RU,55,Sirt,
316528,RU,90,Froly,
316529,RU,8,Yermolayevo,
316530,RU,72,Kurgan,
316531,RU,28,Nadvoytsy,
316532,RU,7,Narimanov,
316533,RU,57,Spassk,
316534,RU,77,Maksatikha,
316535,RU,77,Staritsa,
316536,RU,42,Lesogorskiy,
316537,RU,12,Orexovo,
316538,RU,67,Saratow,
316539,RU,51,Nishnij Nowgorod,
316540,RU,47,Plaskinino,
316541,RU,3,Respublika,
316542,RU,43,Dobroye,
316543,RU,78,Gagarino,
316544,RU,67,Dmitrievka,
316545,RU,90,Orda,
316546,RU,17,Novokuli,
316547,RU,8,Beygulovo,
316548,RU,66,Ust-izhora,
316549,RU,13,Glinka,
316550,RU,29,Podgornyy,
316551,RU,51,Sannikovo,
316552,RU,55,Krasnyy Trud,
316553,RU,41,Dalnaya Gatka,
316554,RU,73,Klyuch,
316555,RU,8,Ashit,
316556,RU,33,Chirkovskiy Zavod,
316557,RU,73,Ulakly-chishma,
316558,RU,42,Rabochiy Posëlok Nomer Pyatyy,
316559,RU,69,Luginovo,
316560,RU,48,Shepilovo,
316561,RU,48,Plyushchëvo,
316562,RU,80,Kuzma,
316563,RU,28,Mitro,
316564,RU,20,Shumskiy,
316565,RU,84,Bocharov,
316566,RU,63,Krab,
316567,RU,17,Almalo,
316568,RU,8,Aksakovo,
316569,RU,34,Ropcha,
316570,RU,60,Gankino,
316571,RU,92,Yary,
316572,RU,11,Orlik,
316573,RU,88,Bashkino,
316574,RU,61,Rozhok,
316575,RU,11,Turka,
316576,RU,33,Limonovo,
316577,RU,CI,Komsomolskoe,
316578,RU,13,Bobrovka,
316579,RU,45,Karay,
316580,RU,56,Belousovka,
316581,RU,3,Souzga,
316582,RU,71,Blagodat,
316583,RU,86,Yasyrki,
316584,RU,69,Deryabkino,
316585,RU,25,Sivkovo,
316586,RU,61,Savdya,
316587,RU,11,Kyren,
316588,RU,11,Barguzin,
316589,RU,83,Koloksha,
316590,RU,11,Kurumkan,
316591,RU,17,Kochubey,
316592,RU,12,Hankala,
316593,RU,28,Nilmoguba,
316594,RU,85,Belavino,
316595,RU,9,Kalinichenko,
316596,RU,87,Novy Port,
316597,RU,93,Kamenny,
316598,RU,34,Kozhim,
316599,RU,13,Cheremshanka,
316600,RU,34,Malaya Pera,
316601,RU,3,Chemal,
316602,RU,34,Kosyu,
316603,RU,9,Yakovlevo,
316604,RU,76,Odoev,
316605,RU,33,Zarechye,
316606,RU,11,Bagdarin,
316607,RU,69,Korotnëvo,
316608,RU,51,Ulyanovo,
316609,RU,87,Salemal,
316610,RU,8,Vesëlaya Polyana,
316611,RU,52,Russkiye,
316612,RU,34,Sivaya Maska,
316613,RU,38,Novoukrainskoye,
316614,RU,47,Bolshakovo,
316615,RU,90,Kachka,
316616,RU,53,Tashara,
316617,RU,75,Bolshaya Sarovka,
316618,RU,57,Belinskiy,
316619,RU,47,Losino,
316620,RU,8,Kuyezbashevo,
316621,RU,8,Raevka,
316622,RU,90,Aspa,
316623,RU,72,Krasnenkaya,
316624,RU,47,Prudy,
316625,RU,47,Buzhaninovo,
316626,RU,13,Sredniye Kialimskiye Ugli,
316627,RU,22,Nizhniy Kurkuzhin,
316628,RU,47,Stulovo,
316629,RU,86,Knyazevka,
316630,RU,47,Khorugvino,
316631,RU,53,Ryabchinka,
316632,RU,71,Yasva,
316633,RU,49,Kitsa,
316634,RU,54,Poltavka,
316635,RU,71,Valerianovsk,
316636,RU,61,Novobessergenovka,
316637,RU,8,Askino,
316638,RU,8,Otradovka,
316639,RU,CI,Mayskoe,
316640,RU,51,Yuzhnyy,
316641,RU,25,Shaykovka,
316642,RU,78,Yarkovo,
316643,RU,90,Beresniki,
316644,RU,53,Krasnozërskoye,
316645,RU,46,Roshchino,
316646,RU,25,Razdol,
316647,RU,30,Mongokhto,
316648,RU,21,Kameshkovo,
316649,RU,55,Krasni,
316650,RU,72,Pervomayskiy,
316651,RU,25,Latynino,
316652,RU,51,Babino,
316653,RU,47,Lopatinskiy,
316654,RU,43,Izlegoshcha,
316655,RU,71,Svetlaya Rechka,
316656,RU,90,Dubrovo,
316657,RU,38,Mostovskoy,
316658,RU,8,Abdullino,
316659,RU,47,Bolychevo,
316660,RU,38,Staromyshastovskaya,
316661,RU,38,Starominskiy,
316662,RU,62,Izhevskoye,
316663,RU,59,Sergeyevka,
316664,RU,59,Dalniy,
316665,RU,59,Snegurovka,
316666,RU,85,Babayevo,
316667,RU,27,Zelenchukskaya,
316668,RU,5,Svobodni,
316669,RU,47,Bronnitsi,
316670,RU,47,Pavlov-posad,
316671,RU,8,Karaidel,
316672,RU,8,Tukayevo,
316673,RU,62,Lesnoy,
316674,RU,64,Alexandrovsk,
316675,RU,39,Balakhta,
316676,RU,51,Surovatikha,
316677,RU,47,Byakontovo,
316678,RU,73,Tyulyachi,
316679,RU,55,Belyayevka,
316680,RU,85,Kichmengskiy Gorodok,
316681,RU,28,Olonets,
316682,RU,57,Gavrilovka,
316683,RU,71,Bilimbay,
316684,RU,47,Lemeshevo,
316685,RU,47,Rakitino,
316686,RU,13,Novyy Khrebet,
316687,RU,55,Repina,
316688,RU,16,Pikhtulino,
316689,RU,47,Stepygino,
316690,RU,52,Dalevo,
316691,RU,25,Bogorodskoye,
316692,RU,73,Maksabash,
316693,RU,73,Bolshiye Meretyaki,
316694,RU,73,Baskan,
316695,RU,55,Sukhoytash-mikhaylovskiy,
316696,RU,47,Cherëmushki,
316697,RU,56,Lenivka,
316698,RU,66,Mozhayskiy,
316699,RU,88,Kesova,
316700,RU,63,Togliatti,
316701,RU,84,Srednyaya Akhtuba,
316702,RU,90,Kishert,
316703,RU,10,Brjansk,
316704,RU,6,Mirnyy,
316705,RU,65,Pokhvistnevo,
316706,RU,61,Stavropol,
316707,RU,25,Spas-demensk,
316708,RU,38,Bolshaya Lopatina,
316709,RU,25,Vorotynsk,
316710,RU,47,Gorchakovo,
316711,RU,11,Kizhinga,
316712,RU,43,Zverevo,
316713,RU,13,Mezhozërnyy,
316714,RU,47,Vishnyakovo,
316715,RU,20,Ust-orda,
316716,RU,47,Demikhova,
316717,RU,62,Borki,
316718,RU,20,Baklashi,
316719,RU,33,Uni,
316720,RU,73,Aksubayevo,
316721,RU,73,Tumutuk,
316722,RU,38,Glina,
316723,RU,40,Ural,
316724,RU,66,Bolshaya Izhora,
316725,RU,71,Zarya,
316726,RU,16,Ishlei,
316727,RU,8,Kumlekulevo,
316728,RU,13,Bozovo,
316729,RU,8,Adelkino,
316730,RU,29,Krasnogorskiy,
316731,RU,5,Dukhovskoy,
316732,RU,47,Novyye Psarki,
316733,RU,47,Zalesye,
316734,RU,39,Uzhur-4,
316735,RU,29,Kurganovka,
316736,RU,73,Kubnya,
316737,RU,47,Gulyayevo,
316738,RU,9,Shmarnoye,
316739,RU,4,Zhukovka,
316740,RU,73,Kazylyary,
316741,RU,8,Baynazarovo,
316742,RU,56,Andrianovo,
316743,RU,59,Pogranichnyy,
316744,RU,45,Vilovatovo,
316745,RU,CI,Kantyshevo,
316746,RU,80,Kez,
316747,RU,47,Golitsino,
316748,RU,67,Danilovka,
316749,RU,78,Berëzovka,
316750,RU,57,Issa,
316751,RU,7,Tambovka,
316752,RU,12,Dalnee,
316753,RU,51,Murashkino,
316754,RU,51,Sharanga,
316755,RU,12,Znamenskoye,
316756,RU,8,Kabakush,
316757,RU,53,Sokolovo,
316758,RU,85,Verkh,
316759,RU,28,Ladva,
316760,RU,8,Kartutel,
316761,RU,48,Khokhlovka,
316762,RU,29,Kedrovka,
316763,RU,76,Garmonovo,
316764,RU,47,Pulikha,
316765,RU,86,Ikoretskoye,
316766,RU,47,Belyy Rast,
316767,RU,8,Danilovka,
316768,RU,13,Tukhtubayevo,
316769,RU,90,Shkaryata,
316770,RU,47,Lukovnya,
316771,RU,42,Gummolovo,
316772,RU,25,Dvorets,
316773,RU,CI,Shlyuz,
316774,RU,38,Andryushchenko,
316775,RU,85,Podol,
316776,RU,69,Yasnaya,
316777,RU,38,Agoy,
316778,RU,38,Pereyaslovskaya,
316779,RU,60,Opochka,
316780,RU,80,Zavyalovo,
316781,RU,33,Murygino,
316782,RU,33,Orlov,
316783,RU,39,Yeniseisk,
316784,RU,49,Kandalaksa,
316785,RU,57,Pachelma,
316786,RU,51,Prokoshevo,
316787,RU,51,Minino,
316788,RU,37,Yarovo,
316789,RU,73,Pospelovo,
316790,RU,1,Khanskaya,
316791,RU,61,Mityakinskaya,
316792,RU,47,Glukhovo,
316793,RU,47,Troparëvo,
316794,RU,47,Ateptsevo,
316795,RU,38,Dorozhnyy,
316796,RU,71,Ptitsefabrika,
316797,RU,83,Skryabino,
316798,RU,27,Lesnoy,
316799,RU,65,Bakhilovo,
316800,RU,47,Iovlevo,
316801,RU,57,Ragzov,
316802,RU,88,Zhiryaki,
316803,RU,8,Avdon,
316804,RU,9,Nikanborovka,
316805,RU,33,Kasatkin Perevoz,
316806,RU,60,Mezhuyevo,
316807,RU,13,Mokhirevskiy,
316808,RU,90,Rassolino,
316809,RU,31,Mayna,
316810,RU,8,Saitovskiy,
316811,RU,61,Peschanokopskoye,
316812,RU,42,Volodarskoye,
316813,RU,70,Staromaryevka,
316814,RU,90,Usolye,
316815,RU,85,Nepotyagovo,
316816,RU,77,Torshok,
316817,RU,11,Ust-barguzin,
316818,RU,75,Melnikovo,
316819,RU,90,Sylva,
316820,RU,76,Posëlok,
316821,RU,62,Shatsk,
316822,RU,11,Kyakhta,
316823,RU,42,Vysotsk,
316824,RU,55,Samorodovo,
316825,RU,8,Akyar,
316826,RU,23,Pushkarëvo,
316827,RU,47,Lenino,
316828,RU,65,Novo-aleksandrovka,
316829,RU,4,Topchikha,
316830,RU,73,Burdy,
316831,RU,34,Zelenets,
316832,RU,41,Kolesnikova,
316833,RU,86,Partizan,
316834,RU,29,Shchebzavod,
316835,RU,76,Brusyanskiy,
316836,RU,83,Kryukovo,
316837,RU,37,Golebotovo,
316838,RU,86,Chertovitskoye,
316839,RU,72,Pervyy Ozerskiy,
316840,RU,23,Ostrovskoye,
316841,RU,8,Vorotynka,
316842,RU,29,Severnyy Maganak,
316843,RU,29,Izvestkovyy,
316844,RU,55,Novosaratovskiy,
316845,RU,57,Alekseyevka Pervaya,
316846,RU,86,Udonnoye,
316847,RU,88,Yurkino,
316848,RU,47,Karacharovo,
316849,RU,34,Polyana,
316850,RU,53,Taskayevo,
316851,RU,43,Mikhaylovskoye,
316852,RU,85,Ostyunino,
316853,RU,73,Staraya Pismyanka,
316854,RU,47,Menshovo,
316855,RU,71,Promezhutok,
316856,RU,37,Kaliyevets,
316857,RU,37,Malgino,
316858,RU,59,Krasnaya Rechka,
316859,RU,59,Novosysoyevka,
316860,RU,9,Severnyy,
316861,RU,6,Golova,
316862,RU,8,Pervaya Kirillovka,
316863,RU,83,Sukovatovo,
316864,RU,10,Shibenets,
316865,RU,45,Akashevo,
316866,RU,63,Manni,
316867,RU,90,Serebryanka,
316868,RU,90,Almas,
316869,RU,4,Yedinstvo,
316870,RU,7,Zaykovskiy,
316871,RU,38,Miroshnichenko,
316872,RU,81,Azat,
316873,RU,41,Zaykin,
316874,RU,53,Vishnevskiy,
316875,RU,9,Babichev,
316876,RU,84,Devkin,
316877,RU,61,Paramonov,
316878,RU,88,Polina,
316879,RU,51,Kuznets,
316880,RU,63,Malyutka,
316881,RU,38,Agronom,
316882,RU,85,Pacha,
316883,RU,70,Ararat,
316884,RU,71,Tany,
316885,RU,60,Palki,
316886,RU,39,Eremino,
316887,RU,67,Rot-front,
316888,RU,31,Sapogov,
316889,RU,65,Chapayevsk,
316890,RU,47,Kuchino,
316891,RU,38,Golubaya Niva,
316892,RU,38,Novomalorossiyskaya,
316893,RU,37,Susanino,
316894,RU,37,Vokhma,
316895,RU,80,Kalinovka,
316896,RU,61,Leninakan,
316897,RU,27,Kyzyl-oktyabr,
316898,RU,70,Grachëvka,
316899,RU,22,Mayskiy,
316900,RU,84,Surovikino,
316901,RU,90,Pozhva,
316902,RU,77,Dmitrovo,
316903,RU,71,Kamenka,
316904,RU,56,Khotinets,
316905,RU,8,Ulkundy,
316906,RU,6,Krasnoborsk,
316907,RU,9,Sobolevka,
316908,RU,44,Orotukan,
316909,RU,77,Tverskaya,
316910,RU,3,Cherga,
316911,RU,8,Nizhneye Avryuzovo,
316912,RU,4,Zlatopol,
316913,RU,33,Staro,
316914,RU,73,Staroye Churilino,
316915,RU,45,Ronga,
316916,RU,47,Duplevo,
316917,RU,21,Gorodok,
316918,RU,8,Dorogino,
316919,RU,13,Ishalina,
316920,RU,51,Zaprudnoye,
316921,RU,47,Ploshchevo,
316922,RU,47,Yurasovo,
316923,RU,29,Yagunovskiy,
316924,RU,29,Razyezd Sto Pyatdesyat Sedmoy Kilometr,
316925,RU,29,Mazalovo,
316926,RU,76,Plësy,
316927,RU,76,Stolbova,
316928,RU,83,Aksentyevo,
316929,RU,51,Yelkhovo,
316930,RU,49,Chan-ruchey,
316931,RU,55,Derzhavino,
316932,RU,47,Panino,
316933,RU,9,Maslova Pristan,
316934,RU,1,Prikubanskiy,
316935,RU,70,Zolskaya,
316936,RU,8,Belorezk,
316937,RU,10,Novozibkov,
316938,RU,16,Churachiki,
316939,RU,83,Panfilovo,
316940,RU,22,Altud,
316941,RU,47,Churilkovo,
316942,RU,62,Tuma,
316943,RU,70,Beshpagir,
316944,RU,76,Sorochinka,
316945,RU,47,Dulevo,
316946,RU,86,Kozlovka,
316947,RU,81,Kuzovatovo,
316948,RU,23,Suhodole,
316949,RU,39,Kamarchaga,
316950,RU,71,Posëlok,
316951,RU,4,Marushka,
316952,RU,90,Sokol,
316953,RU,31,Imeni Ilicha,
316954,RU,80,Yakshur-bodya,
316955,RU,83,Kisarovo,
316956,RU,47,Belkovo,
316957,RU,67,Kirzhavka,
316958,RU,10,Belyye Berega,
316959,RU,8,Starotuymaza,
316960,RU,13,Afanasyevskiy,
316961,RU,13,Taynak,
316962,RU,21,Kaminskiy,
316963,RU,21,Novi,
316964,RU,9,Somov,
316965,RU,53,Kurganskaya,
316966,RU,85,Bereznikovskaya,
316967,RU,53,Alabuga,
316968,RU,52,Yasno,
316969,RU,64,Ebisu,
316970,RU,40,Krasnaya Niva,
316971,RU,8,Inzer,
316972,RU,8,Fëdorovka,
316973,RU,17,Akusha,
316974,RU,1,Afipsip,
316975,RU,47,Ilinsky,
316976,RU,61,Novaya,
316977,RU,70,Divnoye,
316978,RU,40,Makushino,
316979,RU,32,Barsovo,
316980,RU,4,Yarovoy,
316981,RU,93,Petrovsk,
316982,RU,51,Sokolniki,
316983,RU,51,Konstantinovo,
316984,RU,67,Dubki,
316985,RU,38,Girey,
316986,RU,11,Mukhorshibir,
316987,RU,25,Kalyga,
316988,RU,56,Gorodok,
316989,RU,4,Aya,
316990,RU,8,Amzya,
316991,RU,90,Yazva,
316992,RU,45,Chkarino,
316993,RU,40,Safakulevo,
316994,RU,93,Posyolok,
316995,RU,23,Königsberg,
316996,RU,31,Aksyrov,
316997,RU,13,Misayelga,
316998,RU,47,Khatun,
316999,RU,55,Sharypka,
317000,RU,1,Ponezhukay,
317001,RU,47,Yerëmino,
317002,RU,53,Guseletova,
317003,RU,6,Filshinka,
317004,RU,71,Serbishino,
317005,RU,54,Maryanovka,
317006,RU,61,Ust-donetskiy,
317007,RU,59,Sokolovka,
317008,RU,8,Nizhegorodskaya,
317009,RU,54,Morozovka,
317010,RU,88,Podol,
317011,RU,60,Gory,
317012,RU,51,Belasovka,
317013,RU,56,Kamyshi,
317014,RU,10,Rognedino,
317015,RU,45,Malinovka,
317016,RU,66,Puschkin,
317017,RU,29,Morozovo,
317018,RU,51,Vad,
317019,RU,8,Maginsk,
317020,RU,39,Novoselovo,
317021,RU,55,Asekeyevo,
317022,RU,67,Voskresenskoye,
317023,RU,41,Korenëvo,
317024,RU,88,Vysoko,
317025,RU,65,Shentala,
317026,RU,49,Teribërka,
317027,RU,70,Vorovskolesskaya,
317028,RU,11,Belozërsk,
317029,RU,75,Ozernyi,
317030,RU,41,Berdin,
317031,RU,31,Salbyk,
317032,RU,13,Verkhneuralsk,
317033,RU,61,Kirbitovo,
317034,RU,16,Mikhaylovka,
317035,RU,10,Staryye Umyslichi,
317036,RU,13,Priozërnyy,
317037,RU,71,Yasashnaya,
317038,RU,29,Arsentyevka,
317039,RU,56,Stany,
317040,RU,39,Berëzovyy,
317041,RU,71,Verkhoturka,
317042,RU,32,Fen-yegan,
317043,RU,67,Moscow,
317044,RU,56,Korsakovo,
317045,RU,6,Shangaly,
317046,RU,13,Kazantsev,
317047,RU,53,Keramkombinat,
317048,RU,22,Terek,
317049,RU,61,Tsvetkov,
317050,RU,52,Bystrova,
317051,RU,51,Kolesnitsa,
317052,RU,42,Varshko,
317053,RU,67,Polevoy,
317054,RU,81,Uljanowsk,
317055,RU,37,Sudislavl,
317056,RU,86,Latnaya,
317057,RU,73,Vasilevo,
317058,RU,78,Kirovskaya,
317059,RU,33,Ivkino,
317060,RU,39,Dubinino,
317061,RU,51,Okulovo,
317062,RU,47,Udino,
317063,RU,71,Berëzovka,
317064,RU,10,Suzëmka,
317065,RU,86,Malaya Privalovka,
317066,RU,47,Balaschicha,
317067,RU,8,Tuymaza,
317068,RU,20,Kirzavod,
317069,RU,78,Malinovo,
317070,RU,4,Savvushka,
317071,RU,67,Krasny Kut,
317072,RU,13,Uvelskiy,
317073,RU,39,Kozulka,
317074,RU,47,Yastebki,
317075,RU,31,Arshakov,
317076,RU,29,Rodnikovyy,
317077,RU,29,Vodokachka,
317078,RU,75,Yurty-inkiny,
317079,RU,47,Kharlamovo,
317080,RU,47,Lipki,
317081,RU,56,Semichastnoye,
317082,RU,42,Usadishche Dymi,
317083,RU,28,Novaya Vilya,
317084,RU,21,Yabuzino,
317085,RU,70,Demino,
317086,RU,13,Ayazgulova,
317087,RU,83,Makarovka,
317088,RU,8,Oktyabr,
317089,RU,47,Timokhovo,
317090,RU,41,Pristen,
317091,RU,13,Sakkulovo,
317092,RU,42,Polyany,
317093,RU,29,Kurtukovo,
317094,RU,46,Zarechnyy,
317095,RU,67,Balaschow,
317096,RU,83,Fëdorovskoye,
317097,RU,73,Oktyabrsk,
317098,RU,38,Tsibanobalka,
317099,RU,42,Nikolskiy,
317100,RU,38,Titarovskaya,
317101,RU,87,Beloyarsk,
317102,RU,32,Leushi,
317103,RU,59,Mezhgorye,
317104,RU,11,Zakamensk,
317105,RU,51,Solonskoye,
317106,RU,51,Dudenëvo,
317107,RU,73,Petrovka,
317108,RU,78,Sverdlovskaya,
317109,RU,71,Kislovskoye,
317110,RU,9,Leski,
317111,RU,55,Vishnëvka,
317112,RU,23,Dvorki,
317113,RU,64,Chaplakova,
317114,RU,57,Tyutnyar,
317115,RU,10,Sosnovskaya,
317116,RU,52,Gubarëvo,
317117,RU,90,Skalnyy,
317118,RU,8,Lebyazhiy,
317119,RU,49,Mokket,
317120,RU,8,Narat-yelga,
317121,RU,55,Voronezhskiy,
317122,RU,71,Kutyrskiy,
317123,RU,13,Baranovka,
317124,RU,42,Lezya,
317125,RU,59,Uborki,
317126,RU,85,Preobrazhenskiy,
317127,RU,90,Kustova,
317128,RU,90,Kari,
317129,RU,85,Biryulëvo,
317130,RU,5,Lazarevskiy,
317131,RU,13,Minyar,
317132,RU,84,Belogorki,
317133,RU,51,Buturlino,
317134,RU,47,Fedoskino,
317135,RU,34,Podtybok,
317136,RU,47,Podosinki,
317137,RU,73,Munayka,
317138,RU,55,Krasnyy Kommunar,
317139,RU,54,Klassino,
317140,RU,39,Krasnaya Rechka,
317141,RU,59,Pshenitsyno,
317142,RU,59,Ugodinza,
317143,RU,5,Prokhladnoye,
317144,RU,13,Yaratkulova Pervaya,
317145,RU,29,Khopkino,
317146,RU,47,Zakharikha,
317147,RU,8,Valetovo,
317148,RU,83,Volginskiy,
317149,RU,83,Martemyanovo,
317150,RU,9,Aleksandrovka Pervaya,
317151,RU,42,Voytolovka,
317152,RU,73,Tanayevka,
317153,RU,71,Krylasova,
317154,RU,38,Gelenzhik,
317155,RU,38,Starosherbinovskaya,
317156,RU,38,Abrau-dyurso,
317157,RU,47,Sereda,
317158,RU,24,Burata,
317159,RU,46,Torbeyevo,
317160,RU,86,Alexandrovka,
317161,RU,47,Novinki,
317162,RU,47,Bespyatovo,
317163,RU,56,Arsenyevo,
317164,RU,62,Kadom,
317165,RU,85,Istok,
317166,RU,49,Zelenoborskiy,
317167,RU,38,Dyadkovskaya,
317168,RU,73,Kaleykino,
317169,RU,69,Zavidovo,
317170,RU,43,Koptsevy Khutora,
317171,RU,64,Ogonki,
317172,RU,38,Tsemdolina,
