locId,country,region,city,postcode
317457,SE,,,
317458,SE,26,Stockholm,
317459,SE,16,Norrköping,
317460,SE,27,Eslöv,
317461,SE,24,Nacka,
317462,SE,27,Malmö,
317463,SE,24,Väja,
317464,SE,26,Danderyd,
317465,SE,16,Mjölby,
317466,SE,26,Sollentuna,
317467,SE,18,Eskilstuna,
317468,SE,28,Askim,
317469,SE,23,Skellefteå,
317470,SE,27,Höganäs,
317471,SE,27,Helsingborg,
317472,SE,16,Haninge,
317473,SE,26,Tumba,
317474,SE,27,Perstorp,
317475,SE,18,Nyköping,
317476,SE,26,Solna,
317477,SE,10,Orsa,
317478,SE,28,Gothenburg,
317479,SE,26,Farsta,
317480,SE,3,Söderhamn,
317481,SE,28,Lidköping,
317482,SE,23,Umeå,
317483,SE,21,Uppsala,
317484,SE,2,Mörrum,
317485,SE,28,Mölndal,
317486,SE,27,Lomma,
317487,SE,26,Sköndal,
317488,SE,26,Tyresö,
317489,SE,28,Lane,
317490,SE,8,Jönköping,
317491,SE,3,Sandviken,
317492,SE,26,Sundbyberg,
317493,SE,12,Växjö,
317494,SE,26,Södertälje,
317495,SE,26,Täby,
317496,SE,21,Nydala,
317497,SE,27,Tofta,
317498,SE,22,Karlstad,
317499,SE,28,Göteborg,
317500,SE,3,Bollnäs,
317501,SE,5,Visby,
317502,SE,27,Trelleborg,
317503,SE,15,Örebro,
317504,SE,14,Boden,
317505,SE,9,Oskarshamn,
317506,SE,10,Borlänge,
317507,SE,28,Hagalund,
317508,SE,25,Norberg,
317509,SE,28,Falköping,
317510,SE,25,Morgongåva,
317511,SE,26,Johanneshov,
317512,SE,6,Kungsbacka,
317513,SE,28,Sävedalen,
317514,SE,6,Varberg,
317515,SE,24,Kramfors,
317516,SE,28,Limmared,
317517,SE,7,Hamburg,
317518,SE,16,Linköping,
317519,SE,26,Vällingby,
317520,SE,25,Västerås,
317521,SE,14,Luleå,
317522,SE,24,Sundsvall,
317523,SE,24,Ortviken,
317524,SE,26,Botkyrka,
317525,SE,28,Trollhättan,
317526,SE,21,Karö,
317527,SE,28,Alingsås,
317528,SE,26,Älvsjö,
317529,SE,14,Kiruna,
317530,SE,27,Elmhult,
317531,SE,25,Arboga,
317532,SE,6,Halmstad,
317533,SE,8,Hjältevad,
317534,SE,28,Skåpafors,
317535,SE,26,Kista,
317536,SE,9,Kalmar,
317537,SE,18,Studsvik,
317538,SE,21,Forsmark,
317539,SE,21,Östhammar,
317540,SE,28,Skara,
317541,SE,21,Storvreta,
317542,SE,5,Tomteboda,
317543,SE,16,Motala,
317544,SE,24,Örnsköldsvik,
317545,SE,28,Vänersborg,
317546,SE,28,Borås,
317547,SE,2,Svängsta,
317548,SE,15,Hallsberg,
317549,SE,3,Bergvik,
317550,SE,10,Avesta,
317551,SE,2,Karlskrona,
317552,SE,27,Bromma,
317553,SE,9,Vimmerby,
317554,SE,24,Östrand,
317555,SE,22,Charlottenberg,
317556,SE,26,Sundyberg,
317557,SE,6,Falkenberg,
317558,SE,26,Nykvarn,
317559,SE,26,Lidingö,
317560,SE,18,Strängnäs,
317561,SE,8,Tranås,
317562,SE,7,Östersund,
317563,SE,28,Skövde,
317564,SE,7,Tandsbyn,
317565,SE,27,Lund,
317566,SE,23,Malå,
317567,SE,25,Brättberg,
317568,SE,28,Västra Frölunda,
317569,SE,10,Leksand,
317570,SE,28,Bohus,
317571,SE,26,Gustavsberg,
317572,SE,25,Heby,
317573,SE,14,Töre,
317574,SE,3,Edsbyn,
317575,SE,15,Karlskoga,
317576,SE,14,Kalix,
317577,SE,10,Malung,
317578,SE,26,Väsby,
317579,SE,8,Vaggeryd,
317580,SE,14,Arvidsjaur,
317581,SE,23,Robertsfors,
317582,SE,15,Hällefors,
317583,SE,22,Torsby,
317584,SE,26,Hägersten,
317585,SE,28,Kristineberg,
317586,SE,27,Örkelljunga,
317587,SE,25,Backa,
317588,SE,10,Vansbro,
317589,SE,18,Flen,
317590,SE,16,Vadstena,
317591,SE,28,Vårgårda,
317592,SE,9,Påskallavik,
317593,SE,26,Nynäshamn,
317594,SE,22,Hagfors,
317595,SE,25,Hammarby,
317596,SE,27,Kristianstad,
317597,SE,14,Kilberg,
317598,SE,10,Gustav,
317599,SE,28,Tranemo,
317600,SE,6,Laholm,
317601,SE,27,Grevie,
317602,SE,2,Sölvesborg,
317603,SE,14,Övertorneå,
317604,SE,14,Älvsbyn,
317605,SE,27,Spånga,
317606,SE,28,Stenungsund,
317607,SE,15,Storå,
317608,SE,3,Färila,
317609,SE,24,Sollefteå,
317610,SE,15,Lindesberg,
317611,SE,10,Falun,
317612,SE,24,Timrå,
317613,SE,28,Kungälv,
317614,SE,23,Svanström,
317615,SE,28,Henån,
317616,SE,28,Mariestad,
317617,SE,28,Billdal,
317618,SE,8,Huskvarna,
317619,SE,27,Barsebäck,
317620,SE,28,Vara,
317621,SE,25,Kungsör,
317622,SE,28,Mullsjö,
317623,SE,28,Horred,
317624,SE,27,Ystad,
317625,SE,10,Smedjebacken,
317626,SE,23,Plan,
317627,SE,28,Svenljunga,
317628,SE,27,Hässleholm,
317629,SE,26,Skärholmen,
317630,SE,14,Haparanda,
317631,SE,27,Klippan,
317632,SE,22,Säffle,
317633,SE,8,Vetlanda,
317634,SE,26,Enskede,
317635,SE,22,Skane,
317636,SE,3,Gävle,
317637,SE,26,Sigtuna,
317638,SE,25,Sala,
317639,SE,7,Sveg,
317640,SE,28,Mölnlycke,
317641,SE,2,Ronneby,
317642,SE,25,Virsbo,
317643,SE,9,Järnforsen,
317644,SE,26,Norrtälje,
317645,SE,9,Hultsfred,
317646,SE,28,Partille,
317647,SE,8,Nässjö,
317648,SE,28,Sandvik,
317649,SE,22,Rör,
317650,SE,24,Mark,
317651,SE,7,Hackås,
317652,SE,24,Härnösand,
317653,SE,12,Markaryd,
317654,SE,3,Värmland,
317655,SE,26,Sjöberg,
317656,SE,10,Hedemora,
317657,SE,26,Åkersberga,
317658,SE,28,Bollebygd,
317659,SE,21,Knivsta,
317660,SE,28,Hamn,
317661,SE,3,Hassela,
317662,SE,28,Skene,
317663,SE,26,Trångsund,
317664,SE,14,Jokkmokk,
317665,SE,9,Västervik,
317666,SE,28,Åmål,
317667,SE,14,Piteå,
317668,SE,7,Birka,
317669,SE,12,Tingsryd,
317670,SE,22,Skog,
317671,SE,8,Aneby,
317672,SE,8,Hylte,
317673,SE,18,Gnesta,
317674,SE,25,Fagersta,
317675,SE,28,Skärhamn,
317676,SE,21,Enköping,
317677,SE,9,Gunnebo,
317678,SE,28,Eckerud,
317679,SE,18,Oxelösund,
317680,SE,27,Svedala,
317681,SE,22,Kristinehamn,
317682,SE,27,Fagerhult,
317683,SE,26,Drottningholm,
317684,SE,8,Bankeryd,
317685,SE,27,Svalöf,
317686,SE,26,Uplands Väsby,
317687,SE,9,Torsås,
317688,SE,22,Årjäng,
317689,SE,26,Vaxholm,
317690,SE,3,Sand,
317691,SE,21,Berg,
317692,SE,7,Ragunda,
317693,SE,25,Tärna,
317694,SE,27,Åstorp,
317695,SE,18,Katrineholm,
317696,SE,26,Norrskog,
317697,SE,12,Älmhult,
317698,SE,27,Sösdala,
317699,SE,28,Frölunda,
317700,SE,26,Älvsby,
317701,SE,27,Ängelholm,
317702,SE,28,Kinna,
317703,SE,28,Rönnäng,
317704,SE,15,Zinkgruvan,
317705,SE,26,Söderberg,
317706,SE,24,Sund,
317707,SE,28,Lerum,
317708,SE,16,Boxholm,
317709,SE,22,Filipstad,
317710,SE,28,Goeteborg,
317711,SE,6,Lindome,
317712,SE,25,Surahammar,
317713,SE,21,Kallvik,
317714,SE,14,Porjus,
317715,SE,22,Storebro,
317716,SE,3,Fiskeby,
317717,SE,9,Orrefors,
317718,SE,28,Strand,
317719,SE,21,Hässle,
317720,SE,7,Järpen,
317721,SE,23,Sandberg,
317722,SE,21,Ersta,
317723,SE,26,Enebyberg,
317724,SE,6,Vallda,
317725,SE,10,Rättvik,
317726,SE,8,Ingatorp,
317727,SE,26,Vallentuna,
317728,SE,9,Nybro,
317729,SE,2,Olofström,
317730,SE,27,Svalöv,
317731,SE,21,Skutskär,
317732,SE,28,Fristad,
317733,SE,9,Mörbylånga,
317734,SE,28,Landvetter,
317735,SE,26,Huddinge,
317736,SE,26,Kungsängen,
317737,SE,16,Österbymo,
317738,SE,28,Gullspång,
317739,SE,12,Ljungby,
317740,SE,8,Anderstorp,
317741,SE,26,Skarpnäck,
317742,SE,25,Valla,
317743,SE,25,Hallstahammar,
317744,SE,12,Lagan,
317745,SE,28,Nossebro,
317746,SE,12,Åseda,
317747,SE,21,Årsta,
317748,SE,26,Rosersberg,
317749,SE,12,Alvesta,
317750,SE,2,Karlshamn,
317751,SE,26,Rimbo,
317752,SE,26,Järna,
317753,SE,21,Hargshamn,
317754,SE,12,Lessebo,
317755,SE,27,Dalby,
317756,SE,18,Hälleforsnäs,
317757,SE,28,Stenkullen,
317758,SE,15,Askersund,
317759,SE,26,Märsta,
317760,SE,16,Kisa,
317761,SE,16,Rimforsa,
317762,SE,25,Kolbäck,
317763,SE,3,Iggesund,
317764,SE,26,Ekerö,
317765,SE,27,Sjöbo,
317766,SE,27,Löddeköpinge,
317767,SE,7,Frösön,
317768,SE,22,Storfors,
317769,SE,26,Upplands-väsby,
317770,SE,28,Torslanda,
317771,SE,27,Skanör,
317772,SE,27,Landskrona,
317773,SE,28,Korsnäs,
317774,SE,23,Fredrika,
317775,SE,28,Medvik,
317776,SE,28,Nödinge,
317777,SE,10,Mora,
317778,SE,27,Staffanstorp,
317779,SE,28,Lysekil,
317780,SE,8,Ädelfors,
317781,SE,28,Tollered,
317782,SE,3,Gefle,
317783,SE,23,Vännäs,
317784,SE,10,Ludvika,
317785,SE,12,Hovmantorp,
317786,SE,28,Åsarp,
317787,SE,3,Hudiksvall,
317788,SE,9,Gamleby,
317789,SE,9,Mönsterås,
317790,SE,16,Valdemarsvik,
317791,SE,22,Brunnberg,
317792,SE,27,Bräcke,
317793,SE,28,Skoghem,
317794,SE,15,Kumla,
317795,SE,28,Ulricehamn,
317796,SE,9,Emmaboda,
317797,SE,28,Fritsla,
317798,SE,28,Borgstena,
317799,SE,18,Vingåker,
317800,SE,15,Kopparberg,
317801,SE,7,Hålland,
317802,SE,28,Ljungskile,
317803,SE,28,Gate,
317804,SE,28,Liden,
317805,SE,22,Skoghall,
317806,SE,16,Finspång,
317807,SE,28,Uddevalla,
317808,SE,21,Norsborg,
317809,SE,25,Köping,
317810,SE,25,Skultuna,
317811,SE,27,Rebbelberga,
317812,SE,27,Villan,
317813,SE,18,Ostra,
317814,SE,15,Sköllersta,
317815,SE,27,Bromölla,
317816,SE,26,Västerhaninge,
317817,SE,22,Hammarö,
317818,SE,28,Herrljunga,
317819,SE,25,Ramnäs,
317820,SE,28,Seglora,
317821,SE,3,Ockelbo,
317822,SE,28,Tibro,
317823,SE,27,Emmaljunga,
317824,SE,7,Kilen,
317825,SE,26,Upsala,
317826,SE,8,Värnamo,
317827,SE,16,Ring,
317828,SE,28,Salen,
317829,SE,28,Kärra,
317830,SE,24,Telge,
317831,SE,8,Gislaved,
317832,SE,27,Kävlinge,
317833,SE,23,Jämtland,
317834,SE,18,Askö,
317835,SE,22,Uddeholm,
317836,SE,27,Osby,
317837,SE,14,Arjeplog,
317838,SE,28,Ekelund,
317839,SE,26,Djursholm,
317840,SE,27,Falsterbo,
317841,SE,22,Forshaga,
317842,SE,23,Norsjö,
317843,SE,6,Hyltebruk,
317844,SE,27,Alnarp,
317845,SE,27,Bjuv,
317846,SE,28,Vallvik,
317847,SE,24,Husum,
317848,SE,28,Götene,
317849,SE,8,Fagerberg,
317850,SE,22,Björneborg,
317851,SE,8,Smålandsstenar,
317852,SE,25,Skinnskatteberg,
317853,SE,27,Åhus,
317854,SE,28,Angered,
317855,SE,8,Bredaryd,
317856,SE,12,Braås,
317857,SE,24,Mellansel,
317858,SE,28,Kinnared,
317859,SE,28,Kvänum,
317860,SE,28,Strömstad,
317861,SE,21,Film,
317862,SE,26,Älta,
317863,SE,14,Munksund,
317864,SE,23,Lycksele,
317865,SE,28,Tanum,
317866,SE,28,Kinnarp,
317867,SE,7,Småland,
317868,SE,28,Myggenäs,
317869,SE,27,Höör,
317870,SE,23,Hägglund,
317871,SE,28,Tidaholm,
317872,SE,10,Garphyttan,
317873,SE,27,Hälsingborg,
317874,SE,5,Slite,
317875,SE,6,Särö,
317876,SE,28,Hälsö,
317877,SE,28,Gullberg,
317878,SE,28,Sten,
317879,SE,14,Abisko,
317880,SE,14,Ansvar,
317881,SE,18,Högsjö,
317882,SE,2,Sturkö,
317883,SE,27,Ekeby,
317884,SE,18,Ärla,
317885,SE,23,Obbola,
317886,SE,28,Hålta,
317887,SE,15,Frövi,
317888,SE,15,Kronoberg,
317889,SE,23,Åsele,
317890,SE,26,Muskö,
317891,SE,24,Utansjö,
317892,SE,10,Skaraborg,
317893,SE,10,Stenberg,
317894,SE,27,Rönneberga,
317895,SE,26,Ågesta,
317896,SE,26,Gamla Stan,
317897,SE,27,Gullvik,
317898,SE,24,Junsele,
317899,SE,28,Skal,
317900,SE,24,Nordingrå,
317901,SE,24,Krånged,
317902,SE,24,Sandö,
317903,SE,9,Överum,
317904,SE,27,Vejby,
317905,SE,27,Hörby,
317906,SE,26,Väddö,
317907,SE,18,Åkers Styckebruk,
317908,SE,28,Dingle,
317909,SE,28,Hultafors,
317910,SE,21,Bålsta,
317911,SE,28,Blomberg,
317912,SE,27,Furulund,
317913,SE,24,Ljungaverk,
317914,SE,27,Bunkeflostrand,
317915,SE,8,Björknäs,
317916,SE,10,Björbo,
317917,SE,23,Vilhelmina,
317918,SE,10,Björken,
317919,SE,21,Hässelby,
317920,SE,28,Tingstad,
317921,SE,22,Stommen,
317922,SE,26,Granlund,
317923,SE,27,Äspenäs,
317924,SE,27,Vellinge,
317925,SE,24,Matfors,
317926,SE,28,Färgelanda,
317927,SE,6,Getinge,
317928,SE,27,Arlöv,
317929,SE,24,Håll,
317930,SE,25,Fjärdhundra,
317931,SE,28,Borg,
317932,SE,27,Flyinge,
317933,SE,23,Berglund,
317934,SE,27,Fosieby,
317935,SE,21,Halls,
317936,SE,28,Ellös,
317937,SE,2,Sölve,
317938,SE,12,Moheda,
317939,SE,18,Berlin,
317940,SE,28,Jonsered,
317941,SE,28,Emtunga,
317942,SE,22,Arvika,
317943,SE,5,Klintehamn,
317944,SE,28,Lindholmen,
317945,SE,8,Skillingaryd,
317946,SE,10,Vika,
317947,SE,26,Liseberg,
317948,SE,27,Förslöv,
317949,SE,28,Kållered,
317950,SE,14,Vitå,
317951,SE,3,Järbo,
317952,SE,22,Grums,
317953,SE,18,Arnö,
317954,SE,26,Stenhamra,
317955,SE,23,Lillå,
317956,SE,21,Friberg,
317957,SE,27,Kulleröd,
317958,SE,3,Kungsgården,
317959,SE,15,Nora,
317960,SE,28,Sjömarken,
317961,SE,18,Hölö,
317962,SE,25,Holm,
317963,SE,21,Knutby,
317964,SE,8,Eksjö,
317965,SE,26,Törnskogen,
317966,SE,28,Säve,
317967,SE,26,Barkarby,
317968,SE,26,Tullinge,
317969,SE,28,Bågen,
317970,SE,22,Ekenäs,
317971,SE,7,Bofors,
317972,SE,27,Vinslöv,
317973,SE,27,Limhamn,
317974,SE,27,Teckomatorp,
317975,SE,14,Vuollerim,
317976,SE,26,Käppala,
317977,SE,22,Sunne,
317978,SE,28,Torget,
317979,SE,28,Dalsjöfors,
317980,SE,27,Abbekås,
317981,SE,22,Åmotfors,
317982,SE,28,Velanda,
317983,SE,28,Norra Björke,
317984,SE,28,Åsaka,
317985,SE,16,Ödeshög,
317986,SE,6,Oskarström,
317987,SE,12,Ulvö,
317988,SE,24,Kubikenborg,
317989,SE,26,Steninge,
317990,SE,26,Flysta,
317991,SE,27,Viken,
317992,SE,28,Töreboda,
317993,SE,28,Munkedal,
317994,SE,25,Hede,
317995,SE,28,Kungshamn,
317996,SE,12,Valid,
317997,SE,10,Gagnef,
317998,SE,16,Grytgöl,
317999,SE,7,Kläppen,
318000,SE,26,Stocksund,
318001,SE,22,Solberg,
318002,SE,22,Ingesund,
318003,SE,22,Möre,
318004,SE,12,Lammhult,
318005,SE,16,Bona,
318006,SE,22,Nynäs,
318007,SE,22,Lunden,
318008,SE,3,Ström,
318009,SE,25,Fors,
318010,SE,26,Ösmo,
318011,SE,27,Bara,
318012,SE,14,Gällivare,
318013,SE,28,Vedum,
318014,SE,14,Hällberg,
318015,SE,24,Gärden,
318016,SE,28,Växtorp,
318017,SE,22,Halla,
318018,SE,3,Hofors,
318019,SE,8,Taberg,
318020,SE,23,Friheten,
318021,SE,14,Alla,
318022,SE,26,Kulan,
318023,SE,9,Figeholm,
318024,SE,22,Åshammar,
318025,SE,24,Domsjö,
318026,SE,15,Degerfors,
318027,SE,26,Solbacken,
318028,SE,27,Krågeholm,
318029,SE,26,Boston,
318030,SE,12,Gemla,
318031,SE,28,Järn,
318032,SE,10,Lindberg,
318033,SE,16,Söderköping,
318034,SE,16,Veta,
318035,SE,25,Tibble,
318036,SE,22,Lesjöfors,
318037,SE,24,Södergården,
318038,SE,28,Öckerö,
318039,SE,26,Värmdö,
318040,SE,27,Dala,
318041,SE,9,Norrgården,
318042,SE,28,Anneberg,
318043,SE,3,Ljusdal,
318044,SE,26,Skeppsholmen,
318045,SE,21,Danmark,
318046,SE,23,Storberget,
318047,SE,22,Liljedal,
318048,SE,28,Dalstorp,
318049,SE,28,Habo,
318050,SE,18,Trosa,
318051,SE,28,Kålvik,
318052,SE,18,Stigtomta,
318053,SE,28,Västergård,
318054,SE,23,Boliden,
318055,SE,27,Kivik,
318056,SE,27,Erikstorp,
318057,SE,27,Bulltofta,
318058,SE,25,Skansen,
318059,SE,18,Björnlunda,
318060,SE,8,Ekenässjön,
318061,SE,28,Härryda,
318062,SE,27,Bjärred,
318063,SE,27,Hjärup,
318064,SE,18,Stallarholmen,
318065,SE,16,Åtvidaberg,
318066,SE,3,Alfta,
318067,SE,6,Veinge,
318068,SE,28,Gånghester,
318069,SE,27,Tollarp,
318070,SE,22,Västra Ämtervik,
318071,SE,27,Skurup,
318072,SE,27,Ödåkra,
318073,SE,28,Sandared,
318074,SE,24,Ånge,
318075,SE,24,Vårby,
318076,SE,23,Kåge,
318077,SE,22,Gösta,
318078,SE,27,Ramlösa,
318079,SE,28,Hindås,
318080,SE,27,Skånes Fagerhult,
318081,SE,23,Bygdeå,
318082,SE,28,Åkerström,
318083,SE,6,Kullavik,
318084,SE,26,Rönninge,
318085,SE,6,Veddige,
318086,SE,23,Vindeln,
318087,SE,3,Öränge,
318088,SE,21,Husby,
318089,SE,3,Järvsö,
318090,SE,8,Hillerstorp,
318091,SE,28,Tanumshede,
318092,SE,9,Blomstermåla,
318093,SE,27,Finja,
318094,SE,28,Gårda,
318095,SE,23,Bjurholm,
318096,SE,23,Dorotea,
318097,SE,23,Nordmaling,
318098,SE,23,Sorsele,
318099,SE,7,Pilgrimstad,
318100,SE,14,Esrange,
318101,SE,6,Älvsered,
318102,SE,10,Alsbäck,
318103,SE,22,Bergsjö,
318104,SE,2,Bröms,
318105,SE,15,Åsbro,
318106,SE,27,Hammar,
318107,SE,10,Säter,
318108,SE,28,Mellerud,
318109,SE,7,Storlien,
318110,SE,23,Lajksjö,
318111,SE,28,Borga,
318112,SE,24,Risbäck,
318113,SE,7,Backe,
318114,SE,24,Jude,
318115,SE,10,Fredriksberg,
318116,SE,23,Unfors,
318117,SE,3,Valbo,
318118,SE,23,Rusksele,
318119,SE,24,Tälje,
318120,SE,16,Kimstad,
318121,SE,22,Töcksfors,
318122,SE,7,England,
318123,SE,23,Norrbyskär,
318124,SE,22,Våle,
318125,SE,24,Bergsåker,
318126,SE,10,Morgårdshammar,
318127,SE,9,Mörlunda,
318128,SE,26,Granö,
318129,SE,28,Hällnäs,
318130,SE,23,Åmsele,
318131,SE,23,Renfors,
318132,SE,23,Tvärålund,
318133,SE,26,Östermalm,
318134,SE,24,Södermalm,
318135,SE,24,Västertorp,
318136,SE,26,Högdalen,
318137,SE,14,Hedberg,
318138,SE,27,Konga,
318139,SE,8,Gnosjö,
318140,SE,27,Oxie,
318141,SE,28,Lanna,
318142,SE,9,Tråda,
318143,SE,26,Blackeberg,
318144,SE,27,Dalen,
318145,SE,23,Storuman,
318146,SE,23,Långsjöby,
318147,SE,26,Råsunda,
318148,SE,23,Stensele,
318149,SE,3,Storvik,
318150,SE,27,Valhall,
318151,SE,28,Jörlanda,
318152,SE,14,Persön,
318153,SE,28,Hestra,
318154,SE,10,Insjön,
318155,SE,28,Älvängen,
318156,SE,28,Wallhamn,
318157,SE,8,Bodafors,
318158,SE,23,Sikeå,
318159,SE,28,Åkersberg,
318160,SE,26,Rindö,
318161,SE,24,Bjästa,
318162,SE,9,Frödinge,
318163,SE,22,Branäs,
318164,SE,28,Hökerum,
318165,SE,23,Umgransele,
318166,SE,23,Hedlunda,
318167,SE,28,Bratten,
318168,SE,28,Bengtsfors,
318169,SE,25,Forsen,
318170,SE,24,Holme,
318171,SE,3,Arbrå,
318172,SE,10,Nyberg,
318173,SE,18,Mariefred,
318174,SE,28,Varvet,
318175,SE,18,Vagnhärad,
318176,SE,8,Ryssby,
318177,SE,23,Ersmark,
318178,SE,12,Väckelsång,
318179,SE,26,Skogås,
318180,SE,12,Rottne,
318181,SE,28,Nittorp,
318182,SE,27,Dalsjö,
318183,SE,23,Dikanäs,
318184,SE,23,Latikberg,
318185,SE,24,Lövliden,
318186,SE,23,Malgovik,
318187,SE,23,Nästansjö,
318188,SE,23,Vibo,
318189,SE,18,Bergbacka,
318190,SE,23,Djäkneboda,
318191,SE,23,Bure,
318192,SE,24,Birsta,
318193,SE,21,Vida,
318194,SE,23,Burträsk,
318195,SE,22,Nordmark,
318196,SE,23,Ånäset,
318197,SE,7,Rätan,
318198,SE,21,Ekebybruk,
318199,SE,23,Åkerlund,
318200,SE,23,Granholm,
318201,SE,10,Grängesberg,
318202,SE,25,Tallåsen,
318203,SE,27,Framnäs,
318204,SE,28,Marstrand,
318205,SE,23,Bastuträsk,
318206,SE,23,Svansele,
318207,SE,23,Bjurträsk,
318208,SE,23,Kvarnåsen,
318209,SE,23,Risliden,
318210,SE,23,Norsjövallen,
318211,SE,23,Åmliden,
318212,SE,23,Gumboda,
318213,SE,27,Hyllinge,
318214,SE,28,Moholm,
318215,SE,28,Munkeby,
318216,SE,9,Lönneberga,
318217,SE,14,Brändön,
318218,SE,7,Brännan,
318219,SE,24,Noraström,
318220,SE,23,Skelleftehamn,
318221,SE,27,Klågerup,
318222,SE,12,Vislanda,
318223,SE,28,Strömma,
318224,SE,27,Veberöd,
318225,SE,24,Norrland,
318226,SE,3,Delsbo,
318227,SE,10,Söderbärke,
318228,SE,21,Forsa,
318229,SE,23,Jörn,
318230,SE,28,Vargön,
318231,SE,23,Överklinten,
318232,SE,23,Flarken,
318233,SE,23,Åkullsjön,
318234,SE,21,Tierp,
318235,SE,14,Sunderbyn,
318236,SE,14,Södra Sunderbyn,
318237,SE,26,Saltsjöbaden,
318238,SE,3,Växsjö,
318239,SE,25,Strömsholm,
318240,SE,26,Österhaninge,
318241,SE,24,Svartsjö,
318242,SE,27,Båstad,
318243,SE,26,Vårsta,
318244,SE,28,Lillhagen,
318245,SE,28,Lilla Edet,
318246,SE,23,Lavsjö,
318247,SE,23,Svanabyn,
318248,SE,24,Bålsjö,
318249,SE,7,Sunnanå,
318250,SE,7,Vitvattnet,
318251,SE,28,Arendal,
318252,SE,23,Brännland,
318253,SE,3,Karlsbäck,
318254,SE,23,Näsmark,
318255,SE,23,Strömåker,
318256,SE,21,Söderfors,
318257,SE,27,Tyringe,
318258,SE,27,Tomelilla,
318259,SE,21,Börje,
318260,SE,8,Bordsjö,
318261,SE,9,Väntorp,
318262,SE,7,Hammarstrand,
318263,SE,24,Häggdånger,
318264,SE,26,Islinge,
318265,SE,23,Botsmark,
318266,SE,28,Rävlanda,
318267,SE,22,Rottneros,
318268,SE,2,Tärnö,
318269,SE,27,Sandby,
318270,SE,27,Genarp,
318271,SE,23,Innertavle,
318272,SE,24,Pengsjö,
318273,SE,23,Tväråbäck,
318274,SE,23,Vännäsby,
318275,SE,23,Tavelsjö,
318276,SE,24,Myran,
318277,SE,27,Vittsjö,
318278,SE,23,Fällfors,
318279,SE,22,Sundby,
318280,SE,23,Renholmen,
318281,SE,3,Björkberg,
318282,SE,26,Djurhamn,
318283,SE,28,Otterbäcken,
318284,SE,28,Hökedalen,
318285,SE,14,Överkalix,
318286,SE,12,Bäckaryd,
318287,SE,12,Broakulla,
318288,SE,28,Karlsborg,
318289,SE,27,Tuna,
318290,SE,28,Surte,
318291,SE,26,Vantör,
318292,SE,18,Åkers Krutbruk,
318293,SE,9,Södra Vi,
318294,SE,23,Tannsele,
318295,SE,23,Tuvträsk,
318296,SE,23,Örträsk,
318297,SE,23,Kattisavan,
318298,SE,23,Betsele,
318299,SE,18,Stjärna,
318300,SE,27,Rydebäck,
318301,SE,10,Mockfjärd,
318302,SE,27,Björkliden,
318303,SE,12,Skruv,
318304,SE,27,Hjärnarp,
318305,SE,21,Örnäs,
318306,SE,8,Gränna,
318307,SE,28,Timmersdala,
318308,SE,14,Kallax,
318309,SE,16,Linghem,
318310,SE,27,Östra Grevie,
318311,SE,2,Torhamn,
318312,SE,27,Björkhagen,
318313,SE,27,Simrishamn,
318314,SE,23,Grundfors,
318315,SE,27,Torup,
318316,SE,14,Öjebyn,
318317,SE,24,Törsta,
318318,SE,6,Tylösand,
318319,SE,26,Nockeby,
318320,SE,28,Donsö,
318321,SE,7,Torsäng,
318322,SE,25,Berga,
318323,SE,15,Laxå,
318324,SE,28,Stocken,
318325,SE,7,Söderåsen,
318326,SE,7,Krokom,
318327,SE,22,Billerud,
318328,SE,21,Lunda,
318329,SE,9,Högsby,
318330,SE,23,Bodbyn,
318331,SE,2,Gräsvik,
318332,SE,5,Tingstäde,
318333,SE,21,Frösunda,
318334,SE,9,Färjestaden,
318335,SE,27,Vejbystrand,
318336,SE,3,Sörforsa,
318337,SE,15,Hasselfors,
318338,SE,23,Avaträsk,
318339,SE,15,Fjugesta,
318340,SE,27,Åsljunga,
318341,SE,27,Eket,
318342,SE,28,Hällekis,
318343,SE,28,Fjällbacka,
318344,SE,10,Garpenberg,
318345,SE,27,Mörarp,
318346,SE,28,Kinnahult,
318347,SE,27,Bjärnum,
318348,SE,28,Floby,
318349,SE,28,Brålanda,
318350,SE,28,Skeppshult,
318351,SE,8,Burseryd,
318352,SE,8,Brännehylte,
318353,SE,8,Landeryd,
318354,SE,10,Kloster,
318355,SE,2,Rödeby,
318356,SE,10,Nusnäs,
318357,SE,9,Målilla,
318358,SE,23,Hössjö,
318359,SE,23,Sörmjöle,
318360,SE,23,Åkerbäck,
318361,SE,8,Sävsjö,
318362,SE,8,Åsenhöga,
318363,SE,22,Lundsberg,
318364,SE,10,Lindan,
318365,SE,22,Stenåsen,
318366,SE,22,Vägen,
318367,SE,8,Reftele,
318368,SE,8,Tenhult,
318369,SE,12,Stavsjö,
318370,SE,6,Ullared,
318371,SE,28,Lind,
318372,SE,27,Uppåkra,
318373,SE,23,Rickleå,
318374,SE,23,Sävar,
318375,SE,21,Örsundsbro,
318376,SE,7,Östberg,
318377,SE,8,Vittaryd,
318378,SE,28,Pixbo,
318379,SE,25,Hallsta,
318380,SE,23,Stenkulla,
318381,SE,27,Mellby,
318382,SE,21,Örbyhus,
318383,SE,22,Munkfors,
318384,SE,24,Gammelgården,
318385,SE,27,Käglinge,
318386,SE,25,Tillberga,
318387,SE,23,Bureå,
318388,SE,28,Mjöbäck,
318389,SE,28,Vreten,
318390,SE,16,Skänninge,
318391,SE,7,Nälden,
318392,SE,16,Hjulsbro,
318393,SE,14,Jävrebyn,
318394,SE,26,Storholmen,
318395,SE,5,Vall,
318396,SE,24,Eden,
318397,SE,21,Björklinge,
318398,SE,3,Kilafors,
318399,SE,18,Ruda,
318400,SE,9,Långemåla,
318401,SE,9,Fågelfors,
318402,SE,9,Allgunnen,
318403,SE,9,Virserum,
318404,SE,7,Skör,
318405,SE,6,Väröbacka,
318406,SE,27,Lilla Harrie,
318407,SE,6,Slöinge,
318408,SE,26,Norrtelje,
318409,SE,7,Stugun,
318410,SE,28,Hedared,
318411,SE,27,Haga,
318412,SE,24,Trehörningsjö,
318413,SE,15,Mosås,
318414,SE,27,Mölle,
318415,SE,24,Fröst,
318416,SE,27,Näsby,
318417,SE,15,Lokabrunn,
318418,SE,15,Vedevåg,
318419,SE,22,Björketorp,
318420,SE,6,Hishult,
318421,SE,27,Huaröd,
318422,SE,6,Frillesås,
318423,SE,7,Kall,
318424,SE,22,Hajom,
318425,SE,23,Tuvan,
318426,SE,10,Östnor,
318427,SE,7,Namn,
318428,SE,18,Malmköping,
318429,SE,15,Vintrosa,
318430,SE,15,Hjortkvarn,
318431,SE,21,Gottsunda,
318432,SE,27,Färlöv,
318433,SE,24,Stig,
318434,SE,28,Fotö,
318435,SE,21,Högby,
318436,SE,27,Knislinge,
318437,SE,15,Asker,
318438,SE,7,Strömsnäs,
318439,SE,14,Gammelstad,
318440,SE,28,Fiskebäckskil,
318441,SE,3,Holmberg,
318442,SE,6,Simlångsdalen,
318443,SE,28,Asperö,
318444,SE,7,Kösta,
318445,SE,28,Toarpsdal,
318446,SE,28,Alafors,
318447,SE,8,Nässja,
318448,SE,24,Hemmanet,
318449,SE,27,Södra Sandby,
318450,SE,3,Ilsbo,
318451,SE,28,Bovallstrand,
318452,SE,16,Skärblacka,
318453,SE,8,Äsperyd,
318454,SE,28,Sanden,
318455,SE,6,Vallberga,
318456,SE,16,Ljungsbro,
318457,SE,18,Tystberga,
318458,SE,28,Djupvik,
318459,SE,21,Björsta,
318460,SE,28,Axvall,
318461,SE,28,Ljungsarp,
318462,SE,27,Kungsbacken,
318463,SE,28,Varekil,
318464,SE,10,Tina,
318465,SE,28,Timmele,
318466,SE,25,Marbäck,
318467,SE,25,Gröndal,
318468,SE,28,Gällstad,
318469,SE,27,Säby,
318470,SE,8,Rydaholm,
318471,SE,21,Fittja,
318472,SE,27,Östra Sönnarslöv,
318473,SE,28,Eklanda,
318474,SE,26,Barkaby,
318475,SE,28,Björk,
318476,SE,23,Råberg,
318477,SE,27,Örby,
318478,SE,6,Kungsäter,
318479,SE,10,Vikmanshyttan,
318480,SE,26,Grisslehamn,
318481,SE,14,Luossavaara,
318482,SE,16,Borensberg,
318483,SE,8,Hällaryd,
318484,SE,12,Häradsbäck,
318485,SE,21,Älvkarleby,
318486,SE,22,Transtrand,
318487,SE,26,Vidbynäs,
318488,SE,27,Svenstorp,
318489,SE,27,Höja,
318490,SE,7,Hållan,
318491,SE,28,Lerbäck,
318492,SE,16,Ulrika,
318493,SE,10,Tjärna,
318494,SE,10,Jakobsgårdarna,
318495,SE,10,Domnarvet,
318496,SE,7,Sandbäcken,
318497,SE,28,Grästorp,
318498,SE,27,Åkarp,
318499,SE,25,Högsbo,
318500,SE,21,Sjölund,
318501,SE,10,Kvarnsveden,
318502,SE,25,Bjurfors,
318503,SE,26,Kvarnholmen,
318504,SE,28,Lena,
318505,SE,7,Strömsund,
318506,SE,14,Sören,
318507,SE,24,Fagervik,
318508,SE,22,Råda,
318509,SE,18,Bettna,
318510,SE,28,Rånäs,
318511,SE,22,Hulta,
318512,SE,25,Östervåla,
318513,SE,14,Pajala,
318514,SE,18,Vallhalla,
318515,SE,10,Ansta,
318516,SE,28,Korsberga,
318517,SE,25,Jordbron,
318518,SE,25,Forneby,
318519,SE,28,Koster,
318520,SE,28,Floda,
318521,SE,28,Kode,
318522,SE,27,Ljungbyhed,
318523,SE,3,Årsunda,
318524,SE,28,Gunnilse,
318525,SE,27,Hovby,
318526,SE,28,Sexdrega,
318527,SE,8,Holsbybrunn,
318528,SE,24,Genberg,
318529,SE,18,Horsholm,
318530,SE,3,Silja,
318531,SE,27,Stoby,
318532,SE,26,Västberga,
318533,SE,25,Kvistberga,
318534,SE,27,Glimåkra,
318535,SE,22,Hult,
318536,SE,24,Mäja,
318537,SE,24,Själevad,
318538,SE,21,Boda,
318539,SE,15,Skyllbergs,
318540,SE,27,Flädie,
318541,SE,28,Olsfors,
318542,SE,14,Alså,
318543,SE,21,Öregrund,
318544,SE,27,Ballingslöv,
318545,SE,8,Öland,
318546,SE,28,Hallen,
318547,SE,27,Segeltorp,
318548,SE,3,Fiskhamn,
318549,SE,27,Ugglarp,
318550,SE,8,Lekeryd,
318551,SE,3,Lindefallet,
318552,SE,22,Sanda,
318553,SE,28,Hovås,
318554,SE,27,Hököpinge,
318555,SE,27,Gessie Villastad,
318556,SE,27,Arrie,
318557,SE,28,Kommevalla,
318558,SE,27,Glostorp,
318559,SE,26,Herräng,
318560,SE,10,Gruvriset,
318561,SE,6,Vessigebro,
318562,SE,28,Skepplanda,
318563,SE,27,Klagstorp,
318564,SE,28,Hälltorp,
318565,SE,23,Hälsan,
318566,SE,10,Gustafs,
318567,SE,21,Karlholmsbruk,
318568,SE,28,Häcken,
318569,SE,24,Öden,
318570,SE,23,Kittelfjäll,
318571,SE,23,Klimpfjäll,
318572,SE,27,Bröd,
318573,SE,3,Österfärnebo,
318574,SE,27,Verum,
318575,SE,28,Linneryd,
318576,SE,3,Gysinge,
318577,SE,28,Torestorp,
318578,SE,28,Ödsmål,
318579,SE,15,Ånnäs,
318580,SE,18,Svärta,
318581,SE,22,Molkom,
318582,SE,28,Gräfsnäs,
318583,SE,27,Allerum,
318584,SE,25,Färna,
318585,SE,28,Holsljunga,
318586,SE,16,Ämtevik,
318587,SE,12,Möckeln,
318588,SE,26,Bista,
318589,SE,28,Nolvik,
318590,SE,26,Lottingelund,
318591,SE,28,Vegby,
318592,SE,28,Aspen,
318593,SE,25,Råsta,
318594,SE,21,Rosenberg,
318595,SE,16,Källhagen,
318596,SE,3,Vängsbo,
318597,SE,9,Jenny,
318598,SE,3,Lenninge,
318599,SE,7,Granbo,
318600,SE,27,Karstorp,
318601,SE,3,Rengsjö,
318602,SE,6,Ätran,
318603,SE,3,Undersvik,
318604,SE,26,Saltsjö-duvnäs,
318605,SE,26,Uttran,
318606,SE,7,Kompaniet,
318607,SE,3,Åsbo,
318608,SE,25,Holmen,
318609,SE,27,Västra Ingelstad,
318610,SE,8,Hörle,
318611,SE,8,Forsheda,
318612,SE,8,Horda,
318613,SE,23,Holmfors,
318614,SE,6,Slottsmöllan,
318615,SE,3,Stocka,
318616,SE,9,Runsten,
318617,SE,21,Uppland,
318618,SE,28,Solängen,
318619,SE,10,Turbo,
318620,SE,7,Hammerdal,
318621,SE,28,Alvhem,
318622,SE,10,Älvdalen,
318623,SE,23,Byske,
318624,SE,28,Överlida,
318625,SE,15,Finnerödja,
318626,SE,9,Meta,
318627,SE,25,Skerike,
318628,SE,28,Styrud,
318629,SE,24,Hassel,
318630,SE,22,Mossberg,
318631,SE,27,Tjörnarp,
318632,SE,16,Kolmården,
318633,SE,9,Borgholm,
318634,SE,26,Handen,
318635,SE,28,Essunga,
318636,SE,15,Pålsboda,
318637,SE,9,Bråbo,
318638,SE,21,Annö,
318639,SE,22,Väse,
318640,SE,2,Vilshult,
318641,SE,15,Guldsmedshyttan,
318642,SE,7,Minne,
318643,SE,7,Floren,
318644,SE,7,Gärde,
318645,SE,14,Paavo,
318646,SE,24,Åsta,
318647,SE,26,Kungsholmen,
318648,SE,2,Kallinge,
318649,SE,26,Norga,
318650,SE,15,Brevens Bruk,
318651,SE,25,Nordsjö,
318652,SE,18,Björklund,
318653,SE,18,Rosenholm,
318654,SE,9,Åbro,
318655,SE,28,Ljung,
318656,SE,24,Ultrå,
318657,SE,18,Sparreholm,
318658,SE,7,Undersåker,
318659,SE,7,Åsarna,
318660,SE,24,Sundsbruk,
318661,SE,28,Bäckefors,
318662,SE,6,Rydöbruk,
318663,SE,18,Rosenfors,
318664,SE,27,Revinge,
318665,SE,28,Herrestad,
318666,SE,5,Eksta,
318667,SE,26,Vega,
318668,SE,5,Stånga,
318669,SE,7,Bispgården,
318670,SE,3,Långbro,
318671,SE,22,Kronan,
318672,SE,27,Lövestad,
318673,SE,27,Tågarp,
318674,SE,27,Gladsax,
318675,SE,28,Sjötofta,
318676,SE,3,Västanhede,
318677,SE,22,Åmotsfors,
318678,SE,28,Rabbalshede,
318679,SE,14,Siikavaara,
318680,SE,28,Bjärke,
318681,SE,22,Vålberg,
318682,SE,26,Bergholm,
318683,SE,23,Vännfors,
318684,SE,28,Böle,
318685,SE,28,Åsensbruk,
318686,SE,22,Glava,
318687,SE,7,Gruvan,
318688,SE,27,Vollsjö,
318689,SE,26,Långholmen,
318690,SE,28,Hjälteby,
318691,SE,28,Rörvik,
318692,SE,28,Sätra,
318693,SE,26,Traneberg,
318694,SE,28,Krokslätt,
318695,SE,22,Grav,
318696,SE,28,Ringön,
318697,SE,28,Grimsås,
318698,SE,10,Idre,
318699,SE,9,Löttorp,
318700,SE,27,Löberöd,
318701,SE,27,Blentarp,
318702,SE,27,Kvarnby,
318703,SE,9,Smedby,
318704,SE,12,Evedal,
318705,SE,28,Tranered,
318706,SE,28,Örgryte,
318707,SE,27,Björnekulla,
318708,SE,12,Helgö,
318709,SE,28,Backadalen,
318710,SE,12,Sandsbro,
318711,SE,12,Öjaby,
318712,SE,23,Flurkmark,
318713,SE,7,Rise,
318714,SE,9,Ottenby,
318715,SE,28,Hunnebostrand,
318716,SE,8,Kättilstorp,
318717,SE,16,Örminge,
318718,SE,27,Viby,
318719,SE,27,Örenäs,
318720,SE,5,Lärbro,
318721,SE,26,Gräddö,
318722,SE,27,Önnestad,
318723,SE,27,Fosie,
318724,SE,24,Arnäsvall,
318725,SE,14,Gotthem,
318726,SE,12,Tjust,
318727,SE,6,Haverdal,
318728,SE,28,Tösse,
318729,SE,27,Lyngby,
318730,SE,27,Välinge,
318731,SE,9,Järnsida,
318732,SE,23,Höglund,
318733,SE,26,Brevik,
318734,SE,10,Born,
318735,SE,28,Björnängen,
318736,SE,24,Klampenborg,
318737,SE,28,Lyrestad,
318738,SE,10,Svärdsjö,
318739,SE,28,Fässberg,
318740,SE,15,Odensbacken,
318741,SE,28,Djurgården,
318742,SE,27,Kågeröd,
318743,SE,24,Sörberge,
318744,SE,18,Jönåker,
318745,SE,26,Albano,
318746,SE,12,Källreda,
318747,SE,25,Stenby,
318748,SE,27,Slimminge,
318749,SE,21,Skyttorp,
318750,SE,28,Gråbo,
318751,SE,6,Möllan,
318752,SE,28,Grebbestad,
318753,SE,23,Barnäs,
318754,SE,27,Felestad,
318755,SE,28,Rydboholm,
318756,SE,3,Borr,
318757,SE,26,Inverness,
318758,SE,3,Freluga,
318759,SE,25,Vallsta,
318760,SE,3,Ovanåker,
318761,SE,3,Viksjöfors,
318762,SE,3,Röste,
318763,SE,3,Runemo,
318764,SE,3,Segersta,
318765,SE,3,Lilltjära,
318766,SE,3,Flästa,
318767,SE,3,Växbo,
318768,SE,3,Bofara,
318769,SE,3,Hällbo,
318770,SE,3,Herte,
318771,SE,23,Bjurström,
318772,SE,2,Hallabro,
318773,SE,16,Hageby,
318774,SE,18,Söräng,
318775,SE,3,Lottefors,
318776,SE,3,Simeå,
318777,SE,3,Voxna,
318778,SE,10,Viborg,
318779,SE,3,Långhed,
318780,SE,3,Glössbo,
318781,SE,3,Stocksätter,
318782,SE,3,Kyan,
318783,SE,25,Heden,
318784,SE,3,Önneberg,
318785,SE,14,Linka,
318786,SE,26,Ljusterö,
318787,SE,27,Burlöv,
318788,SE,16,Rejmyre,
318789,SE,3,Håsta,
318790,SE,27,Västerstad,
318791,SE,28,Tagene,
318792,SE,9,Tigerstad,
318793,SE,15,Oppboga,
318794,SE,22,Högberg,
318795,SE,28,Ytterby,
318796,SE,10,Grangärde,
318797,SE,27,Bjärsjölagård,
318798,SE,26,Enebybergs,
318799,SE,27,Glemmingebro,
318800,SE,27,Sibbhult,
318801,SE,23,Rönnskär,
318802,SE,22,Brönäs,
318803,SE,27,Sånna,
318804,SE,26,Mörby,
318805,SE,3,Högbo,
318806,SE,10,Marken,
318807,SE,7,Vemdalen,
318808,SE,5,Jakobsberg,
318809,SE,15,Fellingsbro,
318810,SE,7,Offerdal,
318811,SE,24,Åstön,
318812,SE,14,Rolfs,
318813,SE,23,Hörnefors,
318814,SE,26,Sandhamn,
318815,SE,27,Höllviken,
318816,SE,16,Mantorp,
318817,SE,25,Muren,
318818,SE,16,Karlström,
318819,SE,28,Dals Rostock,
318820,SE,12,Liatorp,
318821,SE,25,Tärnsjö,
318822,SE,2,Lyckeby,
318823,SE,28,Långedrag,
318824,SE,3,Gnarp,
318825,SE,26,Grytnäs,
318826,SE,28,Alnäs,
318827,SE,27,Hammenhög,
318828,SE,27,Trollenäs,
318829,SE,27,Billesholm,
318830,SE,7,Sundet,
318831,SE,24,Invik,
318832,SE,28,Kville,
318833,SE,6,Årnarp,
318834,SE,7,Klövsjö,
318835,SE,28,Tråvad,
318836,SE,28,Hova,
318837,SE,28,Bäck,
318838,SE,7,Borgen,
318839,SE,27,Gärsnäs,
318840,SE,27,Vintrie,
318841,SE,8,Jäbo,
318842,SE,28,Hönö,
318843,SE,26,Ingmarsö,
318844,SE,3,Löten,
318845,SE,25,Riddarhyttan,
318846,SE,28,Gimranäs,
318847,SE,24,Täfteå,
318848,SE,12,Valeryd,
318849,SE,16,Malmen,
318850,SE,26,Blidö,
318851,SE,28,Hyssna,
318852,SE,6,Genevad,
318853,SE,7,Stampen,
318854,SE,26,Karlberg,
318855,SE,26,Hallstavik,
318856,SE,12,Boön,
318857,SE,6,Fjärås,
318858,SE,21,Grillby,
318859,SE,3,Enånger,
318860,SE,16,Äspholmen,
318861,SE,15,Resta,
318862,SE,24,Salsjö,
318863,SE,16,Klockrike,
318864,SE,27,Rönneholm,
318865,SE,15,Ställdalen,
318866,SE,27,Tygelsjö,
318867,SE,8,Kvillsfors,
318868,SE,27,Ljungagård,
318869,SE,10,Ryssa,
318870,SE,27,Kropp,
318871,SE,23,Storkågeträsk,
318872,SE,16,Norsholm,
318873,SE,27,Strö,
318874,SE,26,Nämdö,
318875,SE,27,Bollerup,
318876,SE,28,Hulu,
318877,SE,28,Varv,
318878,SE,28,Länghem,
318879,SE,27,Billinge,
318880,SE,28,Hamburgsund,
318881,SE,27,Kabusa,
318882,SE,15,Grythyttan,
318883,SE,18,Ramsta,
318884,SE,23,Holmsund,
318885,SE,28,Smögen,
318886,SE,16,Sjöholm,
318887,SE,16,Svärtinge,
318888,SE,22,Nordby,
318889,SE,2,Hoby,
318890,SE,12,Eneryda,
318891,SE,26,Möja,
318892,SE,28,Göta,
318893,SE,7,Frösö,
318894,SE,26,Råcksta,
318895,SE,10,Krylbo,
318896,SE,18,Kvicksund,
318897,SE,26,Bergendahl,
318898,SE,21,Malma,
318899,SE,5,Hammaren,
318900,SE,18,Söra,
318901,SE,10,Enviken,
318902,SE,21,Järlåsa,
318903,SE,9,Rumskulla,
318904,SE,25,Lundby,
318905,SE,28,Brämhult,
318906,SE,28,Käringön,
318907,SE,21,Gimo,
318908,SE,24,Söråker,
318909,SE,24,Långviksmon,
318910,SE,15,Vesta,
318911,SE,27,Broby,
318912,SE,28,Brastad,
318913,SE,18,Lästringe,
318914,SE,7,Hjortviken,
318915,SE,8,Ölmstad,
318916,SE,24,Västerå,
318917,SE,28,Håven,
318918,SE,28,Hjälmared,
318919,SE,24,Järved,
318920,SE,18,Vrena,
318921,SE,28,Åker,
318922,SE,23,Nylund,
318923,SE,27,Rosendal,
318924,SE,23,Klippen,
318925,SE,28,Harestad,
318926,SE,28,Fagerhults,
318927,SE,8,Lidhult,
318928,SE,26,Brottby,
318929,SE,27,Nordanå,
318930,SE,25,Olofsfors,
318931,SE,18,Elma,
318932,SE,28,Källby,
318933,SE,21,Österbybruk,
318934,SE,28,Vinninga,
318935,SE,28,Brunn,
318936,SE,28,Mustadfors,
318937,SE,3,Vålsta,
318938,SE,27,Rinkaby,
318939,SE,16,Tannefors,
318940,SE,21,Lugnet,
318941,SE,9,Totebo,
318942,SE,8,Gårö,
318943,SE,27,Nyhamn,
318944,SE,7,Krok,
318945,SE,7,Torvalla,
318946,SE,13,Oxie,23837
318947,SE,28,Munkebo,
318948,SE,28,Kyrkogårdsön,
318949,SE,10,Frostkitt,
318950,SE,10,Fageråsen,
318951,SE,10,Bråmåbo,
318952,SE,25,Ransta,
318953,SE,3,Gråsäter,
318954,SE,3,Bergby,
318955,SE,3,Hedesunda,
318956,SE,3,Lingbo,
318957,SE,28,Gebo,
318958,SE,26,Jakobsberg,
318959,SE,28,Lalleröd,
318960,SE,27,Svensköp,
318961,SE,22,Barlingshult,
318962,SE,27,Kalvskärslid,
318963,SE,6,Tönnersa,
318964,SE,26,Solhem,
318965,SE,23,Ekorrträsk,
318966,SE,12,Sjöända,
318967,SE,27,Klamby,
318968,SE,6,Kyvik,
318969,SE,8,Bogård,
318970,SE,3,Heden,
318971,SE,6,Efshult,
318972,SE,26,Boo,
318973,SE,27,Örahult,
318974,SE,27,Gyllsjö,
318975,SE,27,Röddinge,
318976,SE,7,Håkansvallen,
318977,SE,7,Oviken,
318978,SE,9,Almvik,
318979,SE,28,Dållebo,
318980,SE,28,Kåhög,
318981,SE,15,Glanshammar,
318982,SE,8,Svenstorp,
318983,SE,27,Råå,
318984,SE,9,Fulvik,
318985,SE,18,Litselby,
318986,SE,16,Greby,
318987,SE,27,Lerberget,
318988,SE,27,Östra Forestad,
318989,SE,8,Törestorp,
318990,SE,12,Tesås,
318991,SE,28,Töneröd,
318992,SE,6,Bökeberg,
318993,SE,23,Norra Bäsksjö,
318994,SE,23,Norra Båtfors,
318995,SE,6,Gullbrandstorp,
318996,SE,27,Västra Sönnarslöv,
318997,SE,26,Hässelby,
318998,SE,22,Edane,
318999,SE,22,Sågbråten,
319000,SE,22,Myringbyn,
319001,SE,22,Tollebol,
319002,SE,24,Sjöland,
319003,SE,18,Stjärnhov,
319004,SE,12,Kvenneberga,
319005,SE,8,Vrigstad,
319006,SE,21,Gundbo,
319007,SE,8,Mossaryd,
319008,SE,7,Trångsviken,
319009,SE,25,Äs,
319010,SE,3,Hånick,
319011,SE,3,Harmånger,
319012,SE,3,Gränsfors,
319013,SE,3,Västergrängsjö,
319014,SE,26,Nockebyhov,
319015,SE,14,Vidsel,
319016,SE,28,Österbyn,
319017,SE,28,Furuskog,
319018,SE,28,Hulan,
319019,SE,26,Sätra,
319020,SE,27,Sibbarp,
319021,SE,27,Filkesboda,
319022,SE,28,Mossviken,
319023,SE,12,Sänneshult,
319024,SE,5,Alby,
319025,SE,5,Romakloster,
319026,SE,5,Hemse,
319027,SE,5,Magnuse,
319028,SE,28,Skogsbolet,
319029,SE,28,Hönsa,
319030,SE,16,Svanshals,
319031,SE,16,Hygnestad,
319032,SE,27,Stolparöd,
319033,SE,2,Asarum,
319034,SE,27,Görbjörnarp,
319035,SE,2,Lilla Nyteboda,
319036,SE,27,Östanå,
319037,SE,27,Breanäs,
319038,SE,2,Norje,
319039,SE,15,Dunsjö,
319040,SE,15,Olovsberg,
319041,SE,26,Mölnbo,
319042,SE,22,Myra,
319043,SE,27,Minnesberg,
319044,SE,28,Hedetorpet,
319045,SE,26,Uppsala,
319046,SE,25,Usträngsbo,
319047,SE,9,Storebro,
319048,SE,9,Vederhult,
319049,SE,9,Kisebast,
319050,SE,15,Askersundsby,
319051,SE,26,Vårby,
319052,SE,28,Ebbarpsby,
319053,SE,28,Torhult,
319054,SE,16,Gärdala,
319055,SE,26,Bro,
319056,SE,16,Sturefors,
319057,SE,28,Grebbeshult,
319058,SE,6,Tvååker,
319059,SE,6,Skällinge,
319060,SE,3,Ede,
319061,SE,3,Tjärnelund,
319062,SE,3,Sjövesta,
319063,SE,3,Voxäng,
319064,SE,3,Strömvik,
319065,SE,28,Fagersanna,
319066,SE,28,Skäverud,
319067,SE,28,Undenäs,
319068,SE,28,Hultåsen,
319069,SE,28,Hjo,
319070,SE,27,Hulrugered,
319071,SE,27,Böskestorp,
319072,SE,27,Axelstorp,
319073,SE,28,Kärna,
319074,SE,26,Edsberg,
319075,SE,8,Forserum,
319076,SE,8,Smålands Anneberg,
319077,SE,28,Östorp,
319078,SE,28,Bäreberg,
319079,SE,28,Almetorp,
319080,SE,3,Njutånger,
319081,SE,23,Rosinedal,
319082,SE,23,Vägsele,
319083,SE,25,Kulinge,
319084,SE,25,Kolsva,
319085,SE,24,Bergeforsen,
319086,SE,3,Bjuråker,
319087,SE,21,Kyrsta,
319088,SE,3,Norrgima,
319089,SE,23,Röbäck,
319090,SE,28,Blidsberg,
319091,SE,28,Marbäck,
319092,SE,28,Stora Kilane,
319093,SE,27,Lundåkra,
319094,SE,15,Börstorp,
319095,SE,14,Arnemark,
319096,SE,8,Bottnaryd,
319097,SE,14,Blåsmark,
319098,SE,9,Kallersebo,
319099,SE,28,Upphärad,
319100,SE,14,Löfviken,
319101,SE,10,Lövberget,
319102,SE,14,Vitvattnet,
319103,SE,14,Ruona,
319104,SE,6,Kvibille,
319105,SE,14,Ryssbält,
319106,SE,28,Hovsäter,
319107,SE,28,Lur,
319108,SE,28,Karböle,
319109,SE,28,Härklätten,
319110,SE,28,Håltane,
319111,SE,8,Amfrebo,
319112,SE,6,Amböke,
319113,SE,14,Malmberget,
319114,SE,8,Vipparp,
319115,SE,23,Övre Västerås,
319116,SE,23,Harrseleforsen,
319117,SE,3,Grönviken,
319118,SE,24,Nyvik,
319119,SE,10,Öja,
319120,SE,10,Fudal,
319121,SE,28,Sannum,
319122,SE,26,Landsnora,
319123,SE,9,Borgahage,
319124,SE,21,Bälinge,
319125,SE,21,Övernuttö,
319126,SE,21,Sprötslinge,
319127,SE,14,Sockenträsk,
319128,SE,14,Keräsjänkkä,
319129,SE,14,Hedenäset,
319130,SE,14,Korpikåby,
319131,SE,24,Värns,
319132,SE,15,Tufängen,
319133,SE,10,Vintjärn,
319134,SE,10,Långfäbodarna,
319135,SE,6,Stäme,
319136,SE,26,Beckomberga,
319137,SE,27,Påarp,
319138,SE,27,Klåveröd,
319139,SE,27,Risekatslösa,
319140,SE,27,Klippebygget,
319141,SE,6,Glommen,
319142,SE,27,Norra Vram,
319143,SE,27,Rösa,
319144,SE,27,Norraby,
319145,SE,27,Glumslöv,
319146,SE,6,Västra Derome,
319147,SE,28,Öjersjö,
319148,SE,25,Huddungeby,
319149,SE,25,Tuntorpet,
319150,SE,25,Kalvänge,
319151,SE,10,Södra Tansbodarna Fäbod,
319152,SE,25,Lerkulan,
319153,SE,16,Eksund,
319154,SE,16,Falktorpet,
319155,SE,9,Rockneby,
319156,SE,9,Stugbyn,
319157,SE,9,Ålem,
319158,SE,9,Söderåkra,
319159,SE,9,Stora Vångerslät,
319160,SE,9,Påryd,
319161,SE,3,Forsån,
319162,SE,24,Binböle,
319163,SE,24,Späcksjön,
319164,SE,24,Ramsele,
319165,SE,3,Akmarsbruk,
319166,SE,24,Mjövattnet,
319167,SE,24,Resele,
319168,SE,24,Östmarkum,
319169,SE,24,Mörtsjö,
319170,SE,24,Klovsta,
319171,SE,24,Sörtjärn,
319172,SE,24,Fålasjö,
319173,SE,24,Nedansjö,
319174,SE,24,Lövsjö,
319175,SE,24,Docksta,
319176,SE,15,Håkansboda,
319177,SE,15,Gyttorp,
319178,SE,15,Västra Öskevik,
319179,SE,15,Torpa,
319180,SE,15,Norsebäck,
319181,SE,22,Randviken,
319182,SE,15,Finåker,
319183,SE,22,Gunnarsrud,
319184,SE,15,Svensboda,
319185,SE,15,Kårberg,
319186,SE,10,Södra Bergsäng,
319187,SE,3,Norrbäck,
319188,SE,16,Norrhult,
319189,SE,8,Stenhestra,
319190,SE,12,Svinaberga,
319191,SE,12,Stavhult,
319192,SE,12,Horgeboda,
319193,SE,12,Västorp,
319194,SE,28,Hornbetan,
319195,SE,10,Gäfvunda,
319196,SE,28,Lödöse,
319197,SE,28,Sjuntorp,
319198,SE,26,Utö,
319199,SE,27,Norra Vallösa,
319200,SE,27,Ullstorp,
319201,SE,6,Kårarp,
319202,SE,10,Öre Löberg,
319203,SE,10,Skäppsjöbodarna,
319204,SE,28,Getskär,
319205,SE,27,Borrby,
319206,SE,9,Halsebo,
319207,SE,9,Tingetorp,
319208,SE,9,Nabbelund,
319209,SE,14,Nilivaara,
319210,SE,10,Vesterbyn,
319211,SE,26,Hillersjö,
319212,SE,12,Äsphult,
319213,SE,8,Siggaskog,
319214,SE,18,Ärendal,
319215,SE,22,Valnäs,
319216,SE,15,Finnån,
319217,SE,15,Gräsbäcken,
319218,SE,22,Lerot,
319219,SE,28,Slommehagen,
319220,SE,28,Svanesund,
319221,SE,9,Gunnarsbo,
319222,SE,2,Ysane,
319223,SE,2,Kyrkhult,
319224,SE,27,Kiaby,
319225,SE,27,Friggatofta,
319226,SE,27,Möllehusen,
319227,SE,27,Nyteboda,
319228,SE,2,Bräkne-hoby,
319229,SE,5,Nygårds,
319230,SE,27,Östra Kalhult,
319231,SE,28,Vadened,
319232,SE,28,Lunden,
319233,SE,16,Dånhult,
319234,SE,9,Solvestad,
319235,SE,9,Väderum,
319236,SE,9,Mossända,
319237,SE,9,Loftahammar,
319238,SE,16,Bersbo,
319239,SE,18,Ålberga,
319240,SE,18,Svalsta,
319241,SE,16,Karlslund,
319242,SE,18,Nävekvarn,
319243,SE,9,Storsjö,
319244,SE,28,Ringstad,
319245,SE,28,Arnebyn,
319246,SE,28,Björkhult,
319247,SE,28,Mollaryd,
319248,SE,28,Övre Kärr,
319249,SE,28,Olofstorp,
319250,SE,14,Ale,
319251,SE,14,Salmis,
319252,SE,14,Strömfors,
319253,SE,14,Radnaure,
319254,SE,14,Sangis,
319255,SE,23,Tobacka,
319256,SE,14,Grubban,
319257,SE,23,Yttersmark,
319258,SE,14,Pålänge,
319259,SE,14,Tväråliden,
319260,SE,23,Rödålund,
319261,SE,8,Granås,
319262,SE,8,Harphult,
319263,SE,28,Tämta,
319264,SE,28,Jakobsbyn,
319265,SE,28,Grinstad,
319266,SE,28,Gullongebyn,
319267,SE,8,Södra Mosshult,
319268,SE,15,Sagersta,
319269,SE,22,Böckelshöjden,
319270,SE,10,Matsbo,
319271,SE,10,Löfåsen,
319272,SE,10,Gärdåssälen,
319273,SE,10,Norrbysjön,
319274,SE,28,Stranderäng,
319275,SE,6,Kullsgård,
319276,SE,25,Bjursjön,
319277,SE,25,Ösby,
319278,SE,15,Grimsö,
319279,SE,21,Bysätra,
319280,SE,12,Strömsnäsbruk,
319281,SE,15,Grecksåsar,
319282,SE,22,Lungstorp,
319283,SE,28,Ringestena,
319284,SE,28,Ed,
319285,SE,12,Degerön,
319286,SE,8,Hestra,
319287,SE,12,Fållen,
319288,SE,12,Virestad,
319289,SE,8,Algustorp,
319290,SE,8,Albo,
319291,SE,8,Fänestad,
319292,SE,14,Ökvattnet,
319293,SE,10,Siljansnäs,
319294,SE,9,Gällingsbo,
319295,SE,28,Svenseröd,
319296,SE,28,Slumsvik,
319297,SE,8,Hålabo,
319298,SE,8,Ekåsen,
319299,SE,22,Nässkogen,
319300,SE,22,Svartåna,
319301,SE,22,Norra Näs,
319302,SE,22,Långsta,
319303,SE,23,Tallberg,
319304,SE,10,Nyhammar,
319305,SE,10,Sollerön,
319306,SE,10,Hallen,
319307,SE,26,Lindal,
319308,SE,28,Halna,
319309,SE,10,Råbacken,
319310,SE,23,Häggås,
319311,SE,23,Strandal,
319312,SE,23,Hedvik,
319313,SE,23,Hälsinglund,
319314,SE,23,Pengsjö,
319315,SE,23,Västanå,
319316,SE,3,Älfsund,
319317,SE,24,Östanbäck,
319318,SE,3,Annsjötorp,
319319,SE,3,Kalfhaga,
319320,SE,24,Gideå,
319321,SE,24,Flugge,
319322,SE,3,Blixbo,
319323,SE,27,Kläggeröd,
319324,SE,15,Järle,
319325,SE,24,Bullerbo,
319326,SE,24,Nyhemmanet,
319327,SE,24,Bollstabruk,
319328,SE,24,Tallåsen,
319329,SE,24,Järkvissle,
319330,SE,24,Bollsta,
319331,SE,7,Kvarnbacken,
319332,SE,24,Åkroken,
319333,SE,24,Hyndtjärn,
319334,SE,27,Kräbbleboda,
319335,SE,6,Kinnared,
319336,SE,23,Åttonträsk,
319337,SE,8,Ingarp,
319338,SE,8,Våxtorp,
319339,SE,8,Mosshult,
319340,SE,21,Stora Ellringe,
319341,SE,9,Ekebo,
319342,SE,9,Lövö,
319343,SE,14,Gustavsberg,
319344,SE,14,Sodak,
319345,SE,10,Skålö,
319346,SE,10,Snöåbyn,
319347,SE,10,Dala-floda,
319348,SE,10,Sigfridstorp,
319349,SE,9,Ljungbyholm,
319350,SE,28,Strandkärr,
319351,SE,16,Skogstorpet,
319352,SE,16,Blackstad,
319353,SE,9,Sofiedal,
319354,SE,27,Signestorp,
319355,SE,28,Aplared,
319356,SE,27,Gualöv,
319357,SE,10,Nordansjö,
319358,SE,10,Bruntbo,
319359,SE,9,Ankarsrum,
319360,SE,28,Medby,
319361,SE,26,Polhem,
319362,SE,23,Nuolpen,
319363,SE,23,Gubböle,
319364,SE,23,Rökå,
319365,SE,12,Sunnerå,
319366,SE,7,Kungsböle,
319367,SE,7,Brattland,
319368,SE,24,Grista,
319369,SE,6,Mårhult,
319370,SE,6,Torared,
319371,SE,8,Granstorp,
319372,SE,22,Ransbysäter,
319373,SE,22,Stensviken,
319374,SE,14,Kainulasjärvi,
319375,SE,14,Koskullskulle,
319376,SE,14,Nattavaara,
319377,SE,28,Bleket,
319378,SE,22,Hedåsen,
319379,SE,22,Deje,
319380,SE,22,Myckengräs,
319381,SE,5,Etelhem,
319382,SE,10,Horndal,
319383,SE,15,Villboda,
319384,SE,10,Vimo,
319385,SE,22,Kallkällhult,
319386,SE,3,Långbacka,
319387,SE,3,Tomta,
319388,SE,24,Torpshammar,
319389,SE,3,Ramsjö,
319390,SE,3,Västanäng,
319391,SE,3,Björsarf,
319392,SE,3,Korpåsen,
319393,SE,27,Lilla Haberga,
319394,SE,27,Simmelsberga,
319395,SE,27,Högsma,
319396,SE,27,Duvhult,
319397,SE,27,Hästveda,
319398,SE,27,Vånga,
319399,SE,27,Ubbarp,
319400,SE,9,Stora Bölö,
319401,SE,9,Öjemåla,
319402,SE,9,Tveta,
319403,SE,18,Valhalla,
319404,SE,18,Blacksta,
319405,SE,14,Tandfors,
319406,SE,14,Hietaniemi,
319407,SE,14,Porsi,
319408,SE,9,Vassmolösa,
319409,SE,24,Käckelbäcksmon,
319410,SE,24,Österflo,
319411,SE,24,Östergraninge,
319412,SE,15,Klysna,
319413,SE,8,Mässeberg,
319414,SE,8,Norrahammar,
319415,SE,8,Flahult,
319416,SE,8,Broddhult,
319417,SE,21,Kolarmora,
319418,SE,24,Edånger,
319419,SE,24,Mädan,
319420,SE,15,Ervalla,
319421,SE,28,Lahälla,
319422,SE,28,Attorp,
319423,SE,27,Lönsboda,
319424,SE,2,Falkvik,
319425,SE,23,Melsträsk,
319426,SE,14,Risögrund,
319427,SE,14,Vuppio,
319428,SE,23,Holmliden,
319429,SE,24,Degersjö,
319430,SE,25,Högfors,
319431,SE,22,Kil,
319432,SE,22,Åleby,
319433,SE,22,Grafva,
319434,SE,22,Humsjön,
319435,SE,27,Kungstorp,
319436,SE,24,Gösunda,
319437,SE,24,Sebäng,
319438,SE,24,Gallsäter,
319439,SE,21,Tobo,
319440,SE,21,Postboda,
319441,SE,14,Ersnäs,
319442,SE,10,Våmhus,
319443,SE,23,Östanbäck,
319444,SE,24,Graninge,
319445,SE,24,Västeråsen,
319446,SE,24,Undrom,
319447,SE,14,Sudok,
319448,SE,14,Harads,
319449,SE,14,Avafors,
319450,SE,14,Bjurånäs,
319451,SE,14,Granberg,
319452,SE,6,Mellbystrand,
319453,SE,27,Marieholm,
319454,SE,27,Önnarp,
319455,SE,28,Frittorp,
319456,SE,28,Åsebro,
319457,SE,28,Stockenäs,
319458,SE,23,Lillsjö,
319459,SE,26,Dalarö,
319460,SE,25,Olsbenning,
319461,SE,10,Ekfännsberget,
319462,SE,22,Lerboda,
319463,SE,14,Vistheden,
319464,SE,7,Mårdsbodarna,
319465,SE,7,Mårdsundsbodarna,
319466,SE,21,Risby,
319467,SE,21,Kläringe,
319468,SE,21,Järlebo,
319469,SE,27,Komstad,
319470,SE,15,Binninge,
319471,SE,27,Björnås,
319472,SE,6,Plingshult,
319473,SE,6,Skogaby,
319474,SE,26,Jursta,
319475,SE,16,Liden,
319476,SE,22,Olsäter,
319477,SE,22,Gersheden,
319478,SE,22,Norra Butorp,
319479,SE,8,Kylås,
319480,SE,8,Fryebo,
319481,SE,8,Kappeled,
319482,SE,8,Tranhult,
319483,SE,28,Stora Vrem,
319484,SE,3,Baggälfve,
319485,SE,3,Skån,
319486,SE,3,Remman,
319487,SE,16,Fångö,
319488,SE,27,Havberg,
319489,SE,22,Bråsstorp,
319490,SE,28,Åsen,
319491,SE,8,Landsbro,
319492,SE,23,Kraddsele,
319493,SE,23,Lycksaberg,
319494,SE,23,Rågoliden,
319495,SE,23,Hemavan,
319496,SE,23,Slussfors,
319497,SE,23,Sappetsele,
319498,SE,23,Aronsjö,
319499,SE,23,Innifällan,
319500,SE,23,Siksjönäs,
319501,SE,23,Västra Nästansjö,
319502,SE,23,Ajaur,
319503,SE,23,Öfverklinten,
319504,SE,23,Högfors,
319505,SE,23,Östra Sjulsmark,
319506,SE,23,Lillåkällen,
319507,SE,23,Risträsk,
319508,SE,23,Forsvick,
319509,SE,23,Strömsund,
319510,SE,23,Blaikliden,
319511,SE,23,Hornsby,
319512,SE,23,Rundvik,
319513,SE,3,Söderala,
319514,SE,3,Sandarne,
319515,SE,3,Ljusne,
319516,SE,3,Stråtjära,
319517,SE,22,Sätterstad,
319518,SE,8,Nennesmo,
319519,SE,8,Köpstad,
319520,SE,8,Härestorp,
319521,SE,28,Mossebo,
319522,SE,8,Åsen,
319523,SE,8,Mjärhult,
319524,SE,8,Sännås,
319525,SE,8,Kulltorp,
319526,SE,8,Broaryd,
319527,SE,8,Väset,
319528,SE,8,Norra Törås,
319529,SE,8,Tofrida,
319530,SE,26,Södertörns Villastad,
319531,SE,8,Uppgränna,
319532,SE,26,Gällstaö,
319533,SE,23,Skataudden,
319534,SE,26,Bollmora,
319535,SE,12,Vithult,
319536,SE,28,Landboarp,
319537,SE,26,Åkerby,
319538,SE,27,Håstenslöv,
319539,SE,26,Norra Lagnö,
319540,SE,28,Nol,
319541,SE,3,Älgered,
319542,SE,24,Baggböle,
319543,SE,14,Kisträsk,
319544,SE,22,Emtervik,
319545,SE,22,Östmarken,
319546,SE,2,Tomakulla,
319547,SE,14,Jukkasjärvi,
319548,SE,14,Svappavaara,
319549,SE,14,Vittangi,
319550,SE,14,Kangos,
319551,SE,14,Tärendö,
319552,SE,14,Korpilombolo,
319553,SE,14,Masugnsbyn,
319554,SE,24,Alnö,
319555,SE,10,Skavåsen,
319556,SE,3,Södra Sandnäs,
319557,SE,28,Gryttered,
319558,SE,28,Kröserud,
319559,SE,6,Mellby,
319560,SE,28,Vinterhålet,
319561,SE,6,Bösteshult,
319562,SE,8,Stengårdshult,
319563,SE,28,Vässby,
319564,SE,28,Illesäter,
319565,SE,28,Södra Kärr,
319566,SE,28,Ölsremma,
319567,SE,28,Älfängen,
319568,SE,8,Plombo,
319569,SE,28,Holmared,
319570,SE,28,Skänstad,
319571,SE,28,Vasared,
319572,SE,27,Arkelstorp,
319573,SE,27,Rögnaröd,
319574,SE,26,Hässelby Strand,
319575,SE,27,Östra Karaby,
319576,SE,12,Vivhult,
319577,SE,27,Billeberga,
319578,SE,12,Hågeryd,
319579,SE,28,Lundsbrunn,
319580,SE,28,Tumleberg,
319581,SE,28,Sunträlje,
319582,SE,28,Jung,
319583,SE,25,Tärnaby,
319584,SE,28,Fåglevik,
319585,SE,14,Storsien,
319586,SE,22,Öfvre Ullerud,
319587,SE,22,Högåsen,
319588,SE,22,Övre Bondestad,
319589,SE,22,Tolita,
319590,SE,22,Torestad,
319591,SE,28,Nitta,
319592,SE,18,Farneby,
319593,SE,18,Olstorp,
319594,SE,23,Brattfors,
319595,SE,5,Fårösund,
319596,SE,7,Näsviken,
319597,SE,12,Blädinge,
319598,SE,3,Jättendal,
319599,SE,27,Lunnom,
319600,SE,28,Agnesberg,
319601,SE,16,Ingvaldstorp,
319602,SE,26,Hanviken,
319603,SE,26,Farstanäset,
319604,SE,9,Fröbygårda,
319605,SE,6,Eskelsbo,
319606,SE,28,Tranum,
319607,SE,21,Götbrunna,
319608,SE,28,Bogared,
319609,SE,26,Skälby,
319610,SE,24,Byberget,
319611,SE,8,Åslarp,
319612,SE,18,Sjöstugan,
319613,SE,8,Våthult,
319614,SE,28,Dannike,
319615,SE,28,Gunnarsbo,
319616,SE,28,Hajom,
319617,SE,28,Almered,
319618,SE,3,Jädraås,
319619,SE,3,Hamrångefjärden,
319620,SE,3,Axmar,
319621,SE,3,Norrsundet,
319622,SE,3,Furuvik,
319623,SE,28,Forsbacka,
319624,SE,27,Bjärhus,
319625,SE,25,Ärligbo,
319626,SE,23,Ursviken,
319627,SE,23,Lövånger,
319628,SE,23,Holmen,
319629,SE,23,Kusmark,
319630,SE,24,Skademark,
319631,SE,14,Bränntjärn,
319632,SE,14,Glommersträsk,
319633,SE,23,Gunnarn,
319634,SE,23,Nya Rusele,
319635,SE,23,Hedmark,
319636,SE,27,Fjärkulla,
319637,SE,27,Köpinge,
319638,SE,27,Troeröd,
319639,SE,24,Tunsjön,
319640,SE,24,Filitjärn,
319641,SE,14,Käktjärv,
319642,SE,14,Västanfors,
319643,SE,21,Gåvastbo,
319644,SE,14,Öfver Vojakala,
319645,SE,28,Gräshult,
319646,SE,18,Björkvik,
319647,SE,18,Rinkeby,
319648,SE,14,Vittangi Kapell,
319649,SE,28,Trålleröd,
319650,SE,18,Söderby,
319651,SE,18,Hyvena,
319652,SE,18,Snytberga,
319653,SE,6,Yngered,
319654,SE,27,Åstratorp,
319655,SE,10,Österviksfall,
319656,SE,15,Österbo,
319657,SE,10,Mossel,
319658,SE,15,Långnäs,
319659,SE,22,Lekaråsen,
319660,SE,10,Gänsen,
319661,SE,22,Slottsbron,
319662,SE,25,Solmyra,
319663,SE,22,Ransäter,
319664,SE,25,Sunnanfors,
319665,SE,15,Sjöänden,
319666,SE,25,Persgruvan,
319667,SE,25,Björkviken,
319668,SE,28,Höglunda,
319669,SE,26,Kälvesta,
319670,SE,26,Kungshatt,
319671,SE,24,Kärr,
319672,SE,24,Knäsjön,
319673,SE,9,Tuna,
319674,SE,9,Gullaskruv,
319675,SE,24,Nordanå,
319676,SE,23,Björknäs,
319677,SE,21,Hemmingsbo,
319678,SE,27,Björka,
319679,SE,27,Kumlatofta,
319680,SE,27,Dörröd,
319681,SE,27,Vämb,
319682,SE,27,Norrto,
319683,SE,27,Fogdarp,
319684,SE,27,Torsjö,
319685,SE,27,Västanbäck,
319686,SE,27,Södra Kvärrestad,
319687,SE,27,Smedstorp,
319688,SE,27,Ilstorp,
319689,SE,27,Rörum,
319690,SE,16,Vikingstad,
319691,SE,28,Ingestorp,
319692,SE,10,Högberget,
319693,SE,7,Norrby,
319694,SE,7,Tulleråsen,
319695,SE,18,Stäringe,
319696,SE,26,Backen,
319697,SE,3,Kallmyr,
319698,SE,3,Skridsvik,
319699,SE,3,Hammarn,
319700,SE,3,Alsjö,
319701,SE,12,Sunnerö,
319702,SE,3,Björnröningen,
319703,SE,3,Torsåker,
319704,SE,12,Lenhovda,
319705,SE,27,Nyagrop,
319706,SE,27,Stensma,
319707,SE,8,Eldstorp,
319708,SE,22,Norra Kvarntorp,
319709,SE,28,Lövön,
319710,SE,27,Grytet,
319711,SE,16,Ekäng,
319712,SE,25,Horn,
319713,SE,16,Örberga,
319714,SE,16,Västra Torpa,
319715,SE,16,Olstorp,
319716,SE,16,Västra Ryd,
319717,SE,16,Sjöbo,
319718,SE,9,Holmbo,
319719,SE,8,Malmbäck,
319720,SE,16,Bjälnäs,
319721,SE,16,Torpa,
319722,SE,25,Bärby,
319723,SE,23,Holmnäs,
319724,SE,24,Nora,
319725,SE,23,Ullbergsträsk,
319726,SE,9,Vissefjärda,
319727,SE,26,Gärdsvik,
319728,SE,26,Brottö,
319729,SE,12,Nottebäck,
319730,SE,7,Ås-gammelbodarna,
319731,SE,23,Lögdeå,
319732,SE,21,Skogsbo,
319733,SE,26,Rörsby,
319734,SE,26,Kallhäll,
319735,SE,28,Sörtegen,
319736,SE,28,Varekilsnäs,
319737,SE,28,Såten,
319738,SE,27,Gässie,
319739,SE,6,Rågångshuset,
319740,SE,10,Kilen,
319741,SE,28,Annestorp,
319742,SE,28,Kateryd,
319743,SE,15,Lysfalla,
319744,SE,28,Hjälmvik,
319745,SE,14,Vuotner,
319746,SE,12,Södra Vare,
319747,SE,28,Almösund,
319748,SE,28,Söderbodane,
319749,SE,28,Östra Ödetorp,
319750,SE,28,Fengersfors,
319751,SE,27,Hyltarp,
319752,SE,25,Svenbyäng,
319753,SE,27,Börringe,
319754,SE,21,Romstarbo,
319755,SE,28,Ljunga,
319756,SE,28,Äspered,
319757,SE,28,Björke,
319758,SE,10,Dala-järna,
319759,SE,9,Fåglebo,
319760,SE,12,Djuphult,
319761,SE,7,Torsborg,
319762,SE,7,Duved,
319763,SE,7,Särvsjön,
319764,SE,21,Salinge,
319765,SE,14,Mullbacka,
319766,SE,27,Åvarp,
319767,SE,28,Krogane,
319768,SE,16,Lind,
319769,SE,23,Vänjaurträsk,
319770,SE,15,Alntorp,
319771,SE,28,Remma,
319772,SE,27,Malshult,
319773,SE,9,Kvillehult,
319774,SE,23,Nybäck,
319775,SE,21,Åkra,
319776,SE,21,Vendel,
319777,SE,6,Åsa,
319778,SE,28,Fyrunga,
319779,SE,28,Karsbydalen,
319780,SE,12,Hössö,
319781,SE,12,Djuranöbbeled,
319782,SE,28,Äspelunden,
319783,SE,6,Gårdshult,
319784,SE,9,Lämmedal,
319785,SE,21,Almunge,
319786,SE,28,Röra,
319787,SE,6,Bölinge,
319788,SE,28,Ängenäs,
319789,SE,28,Dals Långed,
319790,SE,28,Södra Hagen,
319791,SE,28,Köpmannebro,
319792,SE,7,Gällö,
319793,SE,23,Lögda,
319794,SE,23,Ottonträsk,
319795,SE,23,Ölvoberg,
319796,SE,23,Strängnäs,
319797,SE,24,Långsele,
319798,SE,7,Halasjön,
319799,SE,24,Häggåsen,
319800,SE,9,Mjösebo,
319801,SE,9,Grönskåra,
319802,SE,3,Öfverälfve,
319803,SE,3,Nora,
319804,SE,3,Lillvallen,
319805,SE,3,Vakåsen,
319806,SE,26,Eldgarn,
319807,SE,15,Vretstorp,
319808,SE,8,Bondarp,
319809,SE,8,Stenberga,
319810,SE,12,Kåralycke,
319811,SE,12,Ingelstad,
319812,SE,12,Genestorp,
319813,SE,12,Norra Åreda,
319814,SE,2,Listerby,
319815,SE,2,Ekliden,
319816,SE,27,Silvåkra,
319817,SE,27,Vik,
319818,SE,23,Kamsjön,
319819,SE,28,Spekeröd,
319820,SE,28,Gräskärr,
319821,SE,27,Axeltorp,
319822,SE,24,Helgumsbodarna,
319823,SE,21,Hillebola,
319824,SE,6,Timbrilt,
319825,SE,6,Staffanstorp,
319826,SE,16,Sjösätter,
319827,SE,15,Yxe,
319828,SE,8,Brötjemark,
319829,SE,8,Gunneryd,
319830,SE,21,Sibbo,
319831,SE,21,Halvbygda,
319832,SE,28,Kockhed,
319833,SE,7,Digerberg,
319834,SE,7,Dalåsbodarna,
319835,SE,3,Acktjära,
319836,SE,15,Röfors,
319837,SE,8,Norra Svinhult,
319838,SE,10,Granbo,
319839,SE,10,Tunsnäs,
319840,SE,28,Ammarp,
319841,SE,6,Slätthall,
319842,SE,28,Kvistbäck,
319843,SE,28,Ömmesala,
319844,SE,28,Mansås,
319845,SE,7,Gräningsvallen,
319846,SE,18,Norrby,
319847,SE,18,Helgestagård,
319848,SE,18,Västerljung,
319849,SE,18,Sannerby,
319850,SE,18,Karlsro,
319851,SE,28,Hällsvik,
319852,SE,27,Stehag,
319853,SE,25,Åkerby,
319854,SE,23,Furugrund,
319855,SE,3,Nässja,
319856,SE,28,Håttorp,
319857,SE,28,Rångedala,
319858,SE,27,Svaneholm,
319859,SE,28,Kinnarumma,
319860,SE,28,Viskafors,
319861,SE,27,Sandhult,
319862,SE,28,Sparsör,
319863,SE,28,Målsryd,
319864,SE,27,Skabersjö,
319865,SE,24,Österalnö,
319866,SE,24,Kvissleby,
319867,SE,28,Årred,
319868,SE,28,Vevelhult,
319869,SE,15,Hampetorp,
319870,SE,2,Måstad,
319871,SE,7,Storselbodarna,
319872,SE,12,Norrhult,
319873,SE,27,Sankt Ibb,
319874,SE,27,Kvidinge,
319875,SE,26,Färjestaden,
319876,SE,26,Fagersjö,
319877,SE,26,Betsede,
319878,SE,27,Killeröd,
319879,SE,27,Benarp,
319880,SE,14,Lovikka,
319881,SE,14,Peräjävaara,
319882,SE,21,Solvalla,
319883,SE,8,Albåga,
319884,SE,26,Svartsjö,
319885,SE,28,Trollås,
319886,SE,28,Gilltorp,
319887,SE,28,Kolhättan,
319888,SE,15,Hässelkulla,
319889,SE,14,Kurrokvejk,
319890,SE,14,Nikkala,
319891,SE,27,Guddastad,
319892,SE,27,Klagshamn,
319893,SE,28,Blötan,
319894,SE,7,Västerhållan,
319895,SE,7,Hån,
319896,SE,7,Ytterbergsbyn,
319897,SE,7,Randsjö,
319898,SE,7,Vemhån,
319899,SE,24,Främmerveda,
319900,SE,24,Nylandsån,
319901,SE,24,Valla,
319902,SE,24,Idsjö,
319903,SE,16,Åby,
319904,SE,28,Nordals Härad,
319905,SE,15,Skrymtarboda,
319906,SE,28,Taryd,
319907,SE,24,Bjärtrå,
319908,SE,10,Holarna,
319909,SE,9,Njutemåla,
319910,SE,3,Brännan,
319911,SE,9,Äleklinta,
319912,SE,28,Bastekår,
319913,SE,14,Keräsjoki,
319914,SE,24,Storsela,
319915,SE,22,Arnstorp,
319916,SE,27,Röke,
319917,SE,22,Sunnemo,
319918,SE,7,Andåsen,
319919,SE,3,Finneby,
319920,SE,7,Ängland,
319921,SE,16,Appelby,
319922,SE,15,Stora Koviken,
319923,SE,21,Orsbo,
319924,SE,10,Djura,
319925,SE,12,Målaskog,
319926,SE,8,Svensjö,
319927,SE,27,Bjärnarp,
319928,SE,27,Anderslöv,
319929,SE,22,Klätten,
319930,SE,22,Grönäs,
319931,SE,27,Aggarp,
319932,SE,14,Kåskats,
319933,SE,14,Sadjem,
319934,SE,14,Rosvik,
319935,SE,28,Grönahög,
319936,SE,6,Harplinge,
319937,SE,28,Hedegärde,
319938,SE,27,Söndraby,
319939,SE,6,Våxtorp,
319940,SE,26,Berghem,
319941,SE,27,Lönhässle,
319942,SE,10,Vikarbyn,
319943,SE,28,Hässelås,
319944,SE,7,Orrviken,
319945,SE,7,Bränna,
319946,SE,12,Fraggahult,
319947,SE,9,Abbetorp,
319948,SE,23,Lundbäck,
319949,SE,6,Gullbranna,
319950,SE,8,Brusaholm,
319951,SE,7,Åre,
319952,SE,12,Ulvsboda,
319953,SE,15,Gräveby,
319954,SE,27,Västrarp,
319955,SE,8,Järnboda,
319956,SE,7,Krångede,
319957,SE,2,Kåraboda,
319958,SE,22,Klässbol,
319959,SE,15,Fornabohyttan,
319960,SE,12,Eke,
319961,SE,8,Knutstorp,
319962,SE,27,Östra Ljungby,
319963,SE,28,Hällesmörk,
319964,SE,6,Rävshult,
319965,SE,27,Krika,
319966,SE,7,Ytterhogdal,
319967,SE,23,Kalfträsk,
319968,SE,23,Gargnäs,
319969,SE,23,Söråsele,
319970,SE,23,Brattsbacka,
319971,SE,23,Blåvik,
319972,SE,22,Getmossen,
319973,SE,8,Visingsö,
319974,SE,21,Fiskvik,
319975,SE,28,Boatorp,
319976,SE,3,Gammelsträng,
319977,SE,27,Kullen,
319978,SE,27,Bolestad,
319979,SE,27,Hanaskog,
319980,SE,27,Farstorp,
319981,SE,27,Fjärestad,
319982,SE,28,Hjärtared,
319983,SE,8,Ingelsbo,
319984,SE,14,Manjärv,
319985,SE,16,Muggebo,
319986,SE,22,Skeverud,
319987,SE,9,Nannersbo,
319988,SE,28,Skala,
319989,SE,14,Granholmen,
319990,SE,10,Vrebro,
319991,SE,28,Kungslena,
319992,SE,6,Skipås,
319993,SE,9,Grankulla,
319994,SE,26,Alholmen,
319995,SE,18,Rabostan,
319996,SE,26,Kårsta,
319997,SE,28,Gästared,
319998,SE,22,Stenarsbol,
319999,SE,22,Önaholm,
320000,SE,28,Romsås,
320001,SE,27,Norrlia,
320002,SE,27,Önneslöv,
320003,SE,28,Kareby,
320004,SE,7,Holmsjö,
320005,SE,28,Fors,
320006,SE,6,Böshult,
320007,SE,10,Bergbacken,
320008,SE,26,Norra Ängby,
320009,SE,23,Fäbodtjälen,
320010,SE,23,Tuggensele,
320011,SE,25,Vavle,
320012,SE,28,Lågen,
320013,SE,28,Dingelvik,
320014,SE,28,Frändefors,
320015,SE,28,Kyrkås,
320016,SE,23,Långed,
320017,SE,23,Håkenäs,
320018,SE,23,Risböle,
320019,SE,23,Sörsidan,
320020,SE,23,Bjänsjöå,
320021,SE,21,Johanneslund,
320022,SE,26,Bärby,
320023,SE,21,Alunda,
320024,SE,28,Svalnäs,
320025,SE,28,Lekåsa,
320026,SE,16,Yxeltorp,
320027,SE,18,Enstaberga,
320028,SE,16,Trehörninge,
320029,SE,27,Degeberga,
320030,SE,6,Lillegård,
320031,SE,22,Gäddvik,
320032,SE,15,Tångeråsa,
320033,SE,18,Torshälla,
320034,SE,22,Norra Högsäter,
320035,SE,9,Hannäs,
320036,SE,28,Noltorp,
320037,SE,23,Klemensnäs,
320038,SE,14,Saittajärvi,
320039,SE,27,Högestad,
320040,SE,23,Selet,
320041,SE,26,Hästängsudd,
320042,SE,21,Tibble,
320043,SE,26,Österskär,
320044,SE,28,Bur,
320045,SE,22,Hångstad,
320046,SE,22,Gärsnäs,
320047,SE,22,Gjutaregården,
320048,SE,22,Hastersby,
320049,SE,26,Herrängen,
320050,SE,22,Skåltjärnshyttan,
320051,SE,22,Stöllet,
320052,SE,22,Fjäll,
320053,SE,7,Trappnäs,
320054,SE,26,Såglöt,
320055,SE,22,Bodatorp,
320056,SE,27,Hällestad,
320057,SE,21,Örviken,
320058,SE,23,Bygdsiljum,
320059,SE,23,Korssjön,
320060,SE,23,Yttervik,
320061,SE,23,Vallen,
320062,SE,23,Småbacka,
320063,SE,28,Hofås,
320064,SE,28,Älgarås,
320065,SE,16,Kilinge,
320066,SE,28,Gläshed,
320067,SE,5,Stenkyrka,
320068,SE,12,Tubbamåla,
320069,SE,28,Bystad,
320070,SE,12,Mjöhult,
320071,SE,28,Stentorp,
320072,SE,14,Fattenborg,
320073,SE,28,Apelås,
320074,SE,8,Skog,
320075,SE,12,Fälhult,
320076,SE,14,Nybruket,
320077,SE,10,Kölaråsen,
320078,SE,10,Yttermalungs,
320079,SE,23,Norrforsen,
320080,SE,25,Kärrbo,
320081,SE,26,Flisberget,
320082,SE,18,Ändebol,
320083,SE,24,Kålsta,
320084,SE,10,Bonäs,
320085,SE,10,Rostberg,
320086,SE,8,Djupedal,
320087,SE,12,Århult,
320088,SE,27,Östra Tockarp,
320089,SE,7,Florbodarna,
320090,SE,3,Söderäng,
320091,SE,3,Norrbobyn,
320092,SE,3,Ässjö,
320093,SE,26,Schebo,
320094,SE,24,Björksjön,
320095,SE,24,Stormyråsen,
320096,SE,24,Ed,
320097,SE,24,Fängsjön,
320098,SE,9,Anneberg,
320099,SE,16,Kvarnkulla,
320100,SE,21,Stora Söderby,
320101,SE,16,Målbäck,
320102,SE,3,Mörtebo,
320103,SE,28,Skåneröd,
320104,SE,27,Vällinge,
320105,SE,10,Kåtila,
320106,SE,10,Kättbo,
320107,SE,10,Fu,
320108,SE,28,Vitsten,
320109,SE,28,Jonstorp,
320110,SE,26,Eriksberg,
320111,SE,26,Fittja,
320112,SE,26,Svedmyra,
320113,SE,15,Karintorp,
320114,SE,18,Sille,
320115,SE,6,Bäckamot,
320116,SE,26,Österängby,
320117,SE,25,Virsbo Bruk,
320118,SE,10,Sifferbo,
320119,SE,10,Johannesberg,
320120,SE,8,Siggarp,
320121,SE,7,Lillåsvallen,
320122,SE,7,Lövdalen,
320123,SE,12,Lammakulla,
320124,SE,12,Ryssby,
320125,SE,28,Jolsäter,
320126,SE,28,Österod,
320127,SE,18,Tuna,
320128,SE,18,Skällsta,
320129,SE,8,Mostorp,
320130,SE,21,Ön,
320131,SE,6,Göstorp,
320132,SE,27,Stångby,
320133,SE,26,Kumla,
320134,SE,16,Ramshult,
320135,SE,26,Åby,
320136,SE,23,Tegsnäset,
320137,SE,23,Rockmyrheden,
320138,SE,14,Kaartijärvi,
320139,SE,8,Brantås,
320140,SE,2,Slottet,
320141,SE,28,Håverud,
320142,SE,27,Beddingestrand,
320143,SE,27,Gärdslöv,
320144,SE,27,Skivarp,
320145,SE,27,Skarorna,
320146,SE,24,Västerlo,
320147,SE,27,Heingetorp,
320148,SE,27,Vanstad,
320149,SE,27,Sillaröd,
320150,SE,28,Kinde,
320151,SE,12,Loftsryd,
320152,SE,26,Skå,
320153,SE,21,Gålarmora,
320154,SE,21,Källbergsbacken,
320155,SE,21,Myra,
320156,SE,21,Åstorp,
320157,SE,25,Ståltorp,
320158,SE,25,Brottgården,
320159,SE,2,Falsehult,
320160,SE,12,Agunnaryd,
320161,SE,22,Skräppvålen,
320162,SE,10,Kampfallet,
320163,SE,22,Lysvik,
320164,SE,21,Sandviken,
320165,SE,3,Hosjön,
320166,SE,26,Östra Syninge,
320167,SE,14,Niemisel,
320168,SE,28,Gåseberg,
320169,SE,24,Grätnäs,
320170,SE,2,Backaryd,
320171,SE,23,Bjännberg,
320172,SE,14,Polcirkeln,
320173,SE,14,Bodräsk,
320174,SE,7,Nor,
320175,SE,7,Stugubyn,
320176,SE,14,Gunnarsdjupträsk,
320177,SE,28,Kvisljungeby,
320178,SE,2,Björstorp,
320179,SE,8,Hjälmsänga,
320180,SE,8,Ålaryd,
320181,SE,8,Hok,
320182,SE,27,Hylhult,
320183,SE,27,Östra Genastorp,
320184,SE,25,Bjurvalla,
320185,SE,12,Hällorna,
320186,SE,27,Kattarp,
320187,SE,15,Knuthöjden,
320188,SE,27,Immein,
320189,SE,27,Oppmanna,
320190,SE,28,Mörhult,
320191,SE,15,Dimbobaden,
320192,SE,15,Järnäs,
320193,SE,15,Svenshyttan,
320194,SE,26,Tungelsta,
320195,SE,15,Sandsjöhöjden,
320196,SE,2,Sandbäck,
320197,SE,2,Gammalstorp,
320198,SE,2,Korsamo,
320199,SE,18,Blankhyttan,
320200,SE,8,Rastad,
320201,SE,28,Rya-backgården,
320202,SE,28,Mofalla,
320203,SE,8,Broddatorp,
320204,SE,8,Lökaryd,
320205,SE,12,Hisshult,
320206,SE,8,Bjärknäs,
320207,SE,25,Ingelstorp,
320208,SE,28,Dövedal,
320209,SE,8,Stigåsa,
320210,SE,28,Vägby,
320211,SE,26,Bagghusviken,
320212,SE,12,Hungerstorp,
320213,SE,28,Jättebo,
320214,SE,28,Svebråta,
320215,SE,24,Vallån,
320216,SE,27,Sånnestorp,
320217,SE,27,Stora Mörshög,
320218,SE,10,Brenäs,
320219,SE,15,Ramsberg,
320220,SE,3,Juvansbo,
320221,SE,25,Västansjö,
320222,SE,12,Silkeryd,
320223,SE,12,Aneboda,
320224,SE,27,Maglaby,
320225,SE,22,Geijersgården,
320226,SE,24,Sågmon,
320227,SE,14,Ängesträsk,
320228,SE,14,Tallberg,
320229,SE,14,Hornberg,
320230,SE,24,Kornsjö,
320231,SE,10,Färmsnäs,
320232,SE,10,Vinäs,
320233,SE,18,Stora Toltorp,
320234,SE,26,Helenelund,
320235,SE,28,Svanabo,
320236,SE,28,Lunnegården,
320237,SE,9,Stora Klo,
320238,SE,18,Grundbro,
320239,SE,10,Persbodarna,
320240,SE,27,Fastarp,
320241,SE,6,Kåphult,
320242,SE,27,Esborrarp,
320243,SE,25,Litslunda,
320244,SE,26,Bergsvik,
320245,SE,15,Gusselby,
320246,SE,8,Unnaryd,
320247,SE,21,Dannemora,
320248,SE,18,Österåker,
320249,SE,26,Djurö,
320250,SE,26,Svartsö,
320251,SE,26,Ängsvik,
320252,SE,26,Kopparmora,
320253,SE,27,Köpingebro,
320254,SE,10,Sjurby,
320255,SE,10,Färnäs,
320256,SE,10,Garsås,
320257,SE,3,Åkrarna,
320258,SE,6,Kasteberg,
320259,SE,28,Stora Åseröd,
320260,SE,8,Nödjehult,
320261,SE,6,Kammarebo,
320262,SE,6,Kvinja,
320263,SE,28,Härbjörnarp,
320264,SE,28,Rösselvik,
320265,SE,22,Elofsbyn,
320266,SE,22,Borgsviksbruk,
320267,SE,23,Bussjö,
320268,SE,27,Gålarp,
320269,SE,24,Kittelsböle,
320270,SE,28,Spethult,
320271,SE,8,Hemmersryd,
320272,SE,6,Yttre Mjäla,
320273,SE,9,Ramsefall,
320274,SE,27,Stidsvig,
320275,SE,28,Lilla Håby,
320276,SE,22,Ena,
320277,SE,24,Köpmanholmen,
320278,SE,8,Norra Ljunga,
320279,SE,8,Lämmarp,
320280,SE,8,Bjärkaryd,
320281,SE,7,Föllinge,
320282,SE,3,Östertanne,
320283,SE,28,Livelycke,
320284,SE,22,Näst,
320285,SE,27,Rolstorp,
320286,SE,27,Rumpeboda,
320287,SE,5,Hejnum,
320288,SE,5,Lickedarve,
320289,SE,18,Skeppsvik,
320290,SE,18,Buskhyttan,
320291,SE,18,Remna,
320292,SE,16,Hov,
320293,SE,2,Boafall,
320294,SE,27,Södra Rågeboda,
320295,SE,27,Lilla Björkeröd,
320296,SE,2,Lörbyskog,
320297,SE,9,Skärstad,
320298,SE,7,Hasselbacken,
320299,SE,7,Helgesjövallen,
320300,SE,28,Pålbön,
320301,SE,28,Hallersbyn,
320302,SE,28,Hällingsjö,
320303,SE,28,Prästmossa,
320304,SE,8,Klackarp,
320305,SE,25,Norbyn,
320306,SE,27,Landön,
320307,SE,28,Nasen,
320308,SE,12,Kull,
320309,SE,28,Närlunda,
320310,SE,12,Grävlingaryd,
320311,SE,23,Skålboda,
320312,SE,23,Täftebole,
320313,SE,28,Björlanda,
320314,SE,3,Hybo,
320315,SE,3,Korskrogen,
320316,SE,3,Rolfhamre,
320317,SE,3,Björsjö,
320318,SE,28,Forsvik,
320319,SE,28,Söderoset,
320320,SE,28,Mölltorp,
320321,SE,28,Vena,
320322,SE,28,Romelanda,
320323,SE,28,Vägabo,
320324,SE,8,Flisby,
320325,SE,23,Krokbäck,
320326,SE,23,Giltjaur,
320327,SE,23,Gunnismark,
320328,SE,23,Östra Stärkesmark,
320329,SE,23,Öster-storsjö,
320330,SE,23,Insjö,
320331,SE,23,Kulla,
320332,SE,23,Mettjaur,
320333,SE,22,Åna,
320334,SE,25,Nordväg,
320335,SE,26,Kungsberga,
320336,SE,28,Boarp,
320337,SE,28,Torlunda,
320338,SE,16,Ljusfallshammar,
320339,SE,9,Karsnäs,
320340,SE,28,Ramnö,
320341,SE,28,Vässingsö,
320342,SE,14,Hemmingsmark,
320343,SE,14,Säivis,
320344,SE,28,Svarteborg,
320345,SE,14,Koler,
320346,SE,27,Nedre Månstorp,
320347,SE,9,Grytön,
320348,SE,28,Kolsäter,
320349,SE,8,Betarp,
320350,SE,6,Åled,
320351,SE,27,Hädensjö,
320352,SE,23,Skurträsk,
320353,SE,10,Tammeråsen,
320354,SE,10,Ryfsäl,
320355,SE,14,Hömyrfors,
320356,SE,21,Golvsta,
320357,SE,24,Knäppa,
320358,SE,27,Gunnarstorp,
320359,SE,27,Selleberga,
320360,SE,27,Brekille,
320361,SE,25,Ramnäs Kyrkby,
320362,SE,25,Harbo,
320363,SE,28,Dalbergså,
320364,SE,10,Bastberget,
320365,SE,10,Varåsen,
320366,SE,9,Gullaboby,
320367,SE,9,Ryd,
320368,SE,24,Lillström,
320369,SE,24,Hemsjö,
320370,SE,24,Älandsbro,
320371,SE,15,Östra Löa,
320372,SE,15,Blexberg,
320373,SE,15,Bålby,
320374,SE,7,Bodsjö,
320375,SE,7,Örsviken,
320376,SE,8,Fröset,
320377,SE,8,Årset,
320378,SE,12,Vret,
320379,SE,12,Sedingehult,
320380,SE,8,Älmhult,
320381,SE,8,Mjogaryd,
320382,SE,12,Rösås,
320383,SE,28,Hällevadsholm,
320384,SE,28,Hässlebräcka,
320385,SE,6,Bögilt,
320386,SE,22,Ulvsjö,
320387,SE,28,Stora Höga,
320388,SE,28,Flögen,
320389,SE,10,Stora Skedvi,
320390,SE,26,Lanna-drevviken,
320391,SE,8,Sjögle,
320392,SE,8,Kråkebo,
320393,SE,12,Säganäs,
320394,SE,18,Åbylund,
320395,SE,15,Sållaretorp,
320396,SE,28,Sundals Härad,
320397,SE,28,Svenshögen,
320398,SE,27,Näsum,
320399,SE,27,Harastorp,
320400,SE,2,Rönås,
320401,SE,28,Djurnäs,
320402,SE,22,Gängene,
320403,SE,28,Fagerlid Station,
320404,SE,9,Ukna,
320405,SE,16,Idingstad,
320406,SE,16,Hosum,
320407,SE,9,Långbrössle,
320408,SE,16,Holmtebo,
320409,SE,18,Sandgölet,
320410,SE,16,Bäckefall,
320411,SE,16,Sjöstugan,
320412,SE,28,Tålanda,
320413,SE,28,Fåglum,
320414,SE,28,Häglared,
320415,SE,28,Fåglekärr,
320416,SE,28,Fykan,
320417,SE,14,Fällträsk,
320418,SE,23,Lidbacken,
320419,SE,14,Inibyn,
320420,SE,23,Degerträsk,
320421,SE,7,Fagerdal,
320422,SE,28,Holmåkra,
320423,SE,28,Siribyn,
320424,SE,28,Gröfva,
320425,SE,22,Lungsnäs,
320426,SE,28,Kroppetorp,
320427,SE,10,Noret,
320428,SE,6,Ulvered,
320429,SE,6,Allared,
320430,SE,21,Tarv,
320431,SE,25,Naddebo,
320432,SE,12,Mårarp,
320433,SE,3,Källsjön,
320434,SE,23,Pålstrandudden,
320435,SE,14,Torrivaara,
320436,SE,14,Kamlunge,
320437,SE,9,Åkerö,
320438,SE,8,Sandsebo,
320439,SE,28,Stillingsön,
320440,SE,22,Prästhamna,
320441,SE,22,Säljebacka,
320442,SE,22,Kringeråsen,
320443,SE,10,Idkerberget,
320444,SE,3,Ansgarii,
320445,SE,27,Olstorp,
320446,SE,24,Eldsmark,
320447,SE,23,Idvattnet,
320448,SE,23,Gamla Tväråbäck,
320449,SE,23,Högland,
320450,SE,23,Skivsjön,
320451,SE,23,Norrbyberg,
320452,SE,24,Västby,
320453,SE,3,Skärås,
320454,SE,24,Minkelberget,
320455,SE,24,Bryggtjärn,
320456,SE,7,Flomyran,
320457,SE,24,Ledinge,
320458,SE,23,Graninge,
320459,SE,7,Långsjönäset,
320460,SE,23,Videlund,
320461,SE,23,Västra Örträsk,
320462,SE,14,Kilberget,
320463,SE,14,Sakajärvi,
320464,SE,12,Lövhult,
320465,SE,10,Björnåsen,
320466,SE,10,Svedjebyn,
320467,SE,10,Lindesnäs,
320468,SE,10,Floberget Fäbodar,
320469,SE,25,Forshammar,
320470,SE,9,Pelarne,
320471,SE,27,Strövelstorp,
320472,SE,27,Lunnarp,
320473,SE,16,Sten,
320474,SE,26,Edsbro,
320475,SE,12,Åståkra,
320476,SE,25,Prästtorpet,
320477,SE,3,Tomtnäs,
320478,SE,8,Skärfhult,
320479,SE,22,Lid,
320480,SE,22,Örtenästorp,
320481,SE,14,Bjursträsk,
320482,SE,28,Stenstorp,
320483,SE,22,Bada,
320484,SE,25,Bricken,
320485,SE,10,Klockarberg Fäbod,
320486,SE,10,Jobbsarbo Fäbod,
320487,SE,10,Södra Hemulberg,
320488,SE,10,Risåsarna,
320489,SE,10,Olsnäs Fäbod,
320490,SE,3,Stormnäs,
320491,SE,3,Tomsjö,
320492,SE,27,Röstånga,
320493,SE,2,Gungvala,
320494,SE,27,Slagesnäs,
320495,SE,27,Blankhult,
320496,SE,27,Skärsnäs,
320497,SE,9,Ämmenäs,
320498,SE,9,Eriksmåla,
320499,SE,18,Råby,
320500,SE,18,Bondeby,
320501,SE,14,Sänkmyran,
320502,SE,14,Grubbnäsudden,
320503,SE,14,Adakjaure,
320504,SE,7,Selsviken,
320505,SE,24,Högmyrsvedjan,
320506,SE,8,Uppebo,
320507,SE,8,Hagstad,
320508,SE,8,Pålskog,
320509,SE,24,Skallsta,
320510,SE,24,Salteå,
320511,SE,23,Rönnholm,
320512,SE,24,Sandsvedjan,
320513,SE,28,Roasjö,
320514,SE,14,Staffans,
320515,SE,14,Halsviken,
320516,SE,24,Oppsjö,
320517,SE,22,Skrötingerud,
320518,SE,22,Bodetta,
320519,SE,22,Gunnarsbytorp,
320520,SE,22,Södra Ås,
320521,SE,24,Stor-hullsjön,
320522,SE,24,Norromängena,
320523,SE,21,Bokarby,
320524,SE,14,Ersträsk,
320525,SE,14,Kärrbäck,
320526,SE,14,Månsbyn,
320527,SE,10,Gopshus,
320528,SE,3,Oxåsen,
320529,SE,14,Bredträsk,
320530,SE,14,Tjäruträsk,
320531,SE,6,Hulegård,
320532,SE,27,Truedstorp,
320533,SE,28,Posseg,
320534,SE,14,Slagnäs,
320535,SE,14,Nyliden,
320536,SE,23,Nyås,
320537,SE,3,Norrbo,
320538,SE,27,Kärreberga,
320539,SE,22,Visteberg,
320540,SE,22,Tomten,
320541,SE,22,Markvatten,
320542,SE,14,Däppis,
320543,SE,7,Lit,
320544,SE,21,Alberga,
320545,SE,21,Älby,
320546,SE,27,Djuramåsa,
320547,SE,27,Jönstorp,
320548,SE,6,Västralt,
320549,SE,8,Karstorp,
320550,SE,22,Hällekil,
320551,SE,22,Hållsbyn,
320552,SE,27,Västra Vemmenhög,
320553,SE,28,Skistad,
320554,SE,28,Stora Hedum,
320555,SE,14,Fleviken,
320556,SE,14,Menäsvaara,
320557,SE,14,Kaptensviken,
320558,SE,3,Sörväna,
320559,SE,3,Brännås,
320560,SE,23,Forsmark,
320561,SE,23,Norrheden,
320562,SE,23,Älgsjö,
320563,SE,23,Siksjö,
320564,SE,23,Svannäs,
320565,SE,23,Kvammarnäs,
320566,SE,23,Finnäs,
320567,SE,23,Åmträsk,
320568,SE,23,Rentjärn,
320569,SE,23,Spölträsk,
320570,SE,23,Risnäset,
320571,SE,23,Eriksberg,
320572,SE,23,Strandholm,
320573,SE,23,Långåker,
320574,SE,23,Bjänfors,
320575,SE,23,Pengfors,
320576,SE,23,Boksjö,
320577,SE,23,Lubbsjö,
320578,SE,3,Norrala,
320579,SE,8,Västorp,
320580,SE,22,Norra Såneby,
320581,SE,8,Gåeryd,
320582,SE,8,Målskog,
320583,SE,8,Rannebo,
320584,SE,28,Erikstorp,
320585,SE,12,Älgaryd,
320586,SE,9,Ingebo,
320587,SE,12,Kavlatorp,
320588,SE,8,Vimmelstorp,
320589,SE,14,Öfvre Tväråselet,
320590,SE,7,Vallbo,
320591,SE,2,Hämmingsmåla,
320592,SE,2,Jämshög,
320593,SE,27,Torslehult,
320594,SE,14,Junosuando,
320595,SE,10,Klitten,
320596,SE,28,Ammundtorp,
320597,SE,8,Lönelid,
320598,SE,18,Hässelby,
320599,SE,28,Björdal,
320600,SE,8,Byarum,
320601,SE,28,Torstensered,
320602,SE,28,Låckeryd,
320603,SE,27,Månsköp,
320604,SE,12,Torstensmåla,
320605,SE,6,Veka,
320606,SE,6,Dölhult,
320607,SE,12,Härlatorp,
320608,SE,12,Villtofta,
320609,SE,25,Fallet,
320610,SE,28,Nordhalla,
320611,SE,22,Säbytorp,
320612,SE,24,Viksjö,
320613,SE,18,Hål,
320614,SE,23,Levar,
320615,SE,3,Östernäs,
320616,SE,3,Sillerbo,
320617,SE,3,Sandvik,
320618,SE,6,Ingemansbo,
320619,SE,7,Andviken,
320620,SE,3,Högbacka,
320621,SE,23,Frambyn,
320622,SE,7,Stugusjö,
320623,SE,23,Ransarluspen,
320624,SE,8,Skyttebo,
320625,SE,3,Sevalbo,
320626,SE,27,Äskeberga,
320627,SE,10,Myrvik,
320628,SE,27,Tydinge,
320629,SE,27,Sjörröd,
320630,SE,27,Barsebäckshamn,
320631,SE,23,Rödviken,
320632,SE,23,Byssträsk,
320633,SE,23,Kulbäcksliden,
320634,SE,9,Ekerumshamn,
320635,SE,27,Angshult,
320636,SE,27,Everöd,
320637,SE,28,Stora Tittebo,
320638,SE,16,Haddestad,
320639,SE,14,Granträsket,
320640,SE,26,Vidja,
320641,SE,28,Lilleby,
320642,SE,18,Karltorp,
320643,SE,18,Senesta,
320644,SE,25,Källfallet,
320645,SE,25,Erlandsbo,
320646,SE,10,Skallberget,
320647,SE,10,Bockåsen,
320648,SE,10,Ljungåsen,
320649,SE,22,Motjämshyttan,
320650,SE,22,Södra Åmberg,
320651,SE,10,Syrholen,
320652,SE,10,Kullen,
320653,SE,10,Kroktorp,
320654,SE,10,Acksjöåsen,
320655,SE,10,Abborrberg,
320656,SE,10,Gräsberget,
320657,SE,27,Mannarp,
320658,SE,28,Jonsboda,
320659,SE,26,Ramsö,
320660,SE,26,Skärvik,
320661,SE,9,Kvarnarp,
320662,SE,27,Ekestad,
320663,SE,10,Djurmo,
320664,SE,27,Sövde,
320665,SE,27,Öved,
320666,SE,27,Brantevik,
320667,SE,27,Östra Herrestad,
320668,SE,27,Stora Köpinge,
320669,SE,27,Baskemölla,
320670,SE,27,Skräddaröd,
320671,SE,16,Bjälbo,
320672,SE,10,Dalfors,
320673,SE,28,Lalabo,
320674,SE,21,Hemmingsby,
320675,SE,26,Holmgård,
320676,SE,8,Rörvik,
320677,SE,22,Gråbol,
320678,SE,16,Kottebo,
320679,SE,16,Kärr,
320680,SE,23,Småbrännorna,
320681,SE,24,Kälen,
320682,SE,24,Kärfsta,
320683,SE,2,Hunnamåla,
320684,SE,26,Hovgården,
320685,SE,28,Fjälebro,
320686,SE,28,Säckebäck,
320687,SE,28,Apelgården,
320688,SE,21,Österrike,
320689,SE,12,Piggaboda,
320690,SE,25,Paradiset,
320691,SE,8,Palsbo,
320692,SE,8,Sjöeryd,
320693,SE,10,Gropen,
320694,SE,10,Öje,
320695,SE,18,Rökärr,
320696,SE,22,Lersjön,
320697,SE,22,Södra Kvarntorp,
320698,SE,9,Lixhult,
320699,SE,9,Lilla Klobo,
320700,SE,28,Höviksnäs,
320701,SE,7,Öravattnet,
320702,SE,12,Fagereke,
320703,SE,23,Skarda,
320704,SE,15,Lejonbacken,
320705,SE,15,Bondborn,
320706,SE,28,Mastdunga,
320707,SE,28,Åstorp,
320708,SE,28,Sassarp,
320709,SE,23,Kasamark,
320710,SE,23,Ängersjö,
320711,SE,22,Käringerud,
320712,SE,12,Tjurkö,
320713,SE,9,Rälla,
320714,SE,3,Vi,
320715,SE,21,Björkkulla,
320716,SE,7,Strand,
320717,SE,14,Råneå,
320718,SE,28,Klockarstrand,
320719,SE,8,Gettersryd,
320720,SE,23,Lövås,
320721,SE,24,Dynäs,
320722,SE,24,Gåstjärnberget,
320723,SE,7,Storhögen,
320724,SE,6,Östra Derome,
320725,SE,12,Gisshult,
320726,SE,27,Bjäresjö,
320727,SE,3,Finnicka,
320728,SE,3,Strömbacka,
320729,SE,28,Årekärr,
320730,SE,24,Stormon,
320731,SE,28,Torsvik,
320732,SE,12,Tollstorp,
320733,SE,12,Bredahult,
320734,SE,12,Urshult,
320735,SE,27,Sjöholma,
320736,SE,25,Aspa,
320737,SE,15,Ribbohyttan,
320738,SE,3,Härnbo,
320739,SE,6,Håralt,
320740,SE,15,Hidingen,
320741,SE,15,Rällen,
320742,SE,8,Hultseryd,
320743,SE,28,Stora Fiskebäck,
320744,SE,3,Flaten,
320745,SE,21,Dann,
320746,SE,7,Gunnilvallen,
320747,SE,3,Kvarnböle,
320748,SE,23,Andersträsk,
320749,SE,27,Drängstorp,
320750,SE,28,Grevbäck,
320751,SE,28,Knätte,
320752,SE,10,Matshyttan,
320753,SE,10,Sandsäterbo,
320754,SE,22,Deglundsbäcken,
320755,SE,28,Säm,
320756,SE,28,Strängsered,
320757,SE,8,Tunabo,
320758,SE,7,Handogsbodarna,
320759,SE,18,Berga,
320760,SE,18,Axala,
320761,SE,21,Vättsta,
320762,SE,3,Skommarhyttan,
320763,SE,22,Tönnet,
320764,SE,9,Olofsböle,
320765,SE,28,Stora Boberg,
320766,SE,28,Tveten,
320767,SE,25,Gundbo,
320768,SE,24,Njurunda,
320769,SE,9,Frö,
320770,SE,28,Velinga,
320771,SE,15,Dyltabruk,
320772,SE,15,Käggelholm,
320773,SE,18,Strand,
320774,SE,27,Guvarp,
320775,SE,14,Pentheiki,
320776,SE,14,Morjärv,
320777,SE,27,Hårderup,
320778,SE,28,Skalhamn,
320779,SE,7,Vålvallen,
320780,SE,7,Säterberget,
320781,SE,24,Långliden,
320782,SE,24,Lillroten,
320783,SE,24,Östgranvåg,
320784,SE,28,Sallebyn,
320785,SE,28,Ekarebol,
320786,SE,15,Norra Billinge,
320787,SE,15,Hålahult,
320788,SE,7,Nyland,
320789,SE,25,Ljusbäck,
320790,SE,3,Fågelsjö,
320791,SE,22,Spässlanda,
320792,SE,14,Sangijärvi,
320793,SE,24,Bodviken,
320794,SE,27,Västra Torup,
320795,SE,27,Karsholm,
320796,SE,7,Kolsätter,
320797,SE,15,Sannerud,
320798,SE,18,Spadtorp,
320799,SE,27,Liarum,
320800,SE,27,Visseltofta,
320801,SE,28,Ambjörnarp,
320802,SE,28,Gunnerud,
320803,SE,14,Siknäs,
320804,SE,14,Övre Kuouka,
320805,SE,14,Ratukkavaaraby,
320806,SE,28,Hermanstorp,
320807,SE,12,Mästreda,
320808,SE,28,Grönsik,
320809,SE,22,Skivetorp,
320810,SE,28,Nybo,
320811,SE,10,Finngruvan,
320812,SE,28,Gillanda,
320813,SE,28,Grönkullen,
320814,SE,27,Skäralid,
320815,SE,24,Näsåker,
320816,SE,28,Raröd,
320817,SE,3,Lennsjö,
320818,SE,7,Bomsund,
320819,SE,8,Mariannelund,
320820,SE,8,Börsebo,
320821,SE,7,Böle,
320822,SE,7,Östbodarna,
320823,SE,12,Snärhult,
320824,SE,25,Sylta,
320825,SE,27,Smörmyr,
320826,SE,9,Mantebo,
320827,SE,2,Svansjömåla,
320828,SE,24,Valviken,
320829,SE,7,Hållbacken,
320830,SE,7,Såå,
320831,SE,2,Hålabäck,
320832,SE,2,Brinkamåla,
320833,SE,23,Aggnäs,
320834,SE,23,Vänjaurbäck,
320835,SE,27,Brösarp,
320836,SE,21,Skolsta,
320837,SE,9,Rydsgård,
320838,SE,24,Saxen,
320839,SE,27,Önnerup,
320840,SE,15,Kärvingeborn,
320841,SE,26,Fituna,
320842,SE,27,Rönnarp,
320843,SE,28,Botten,
320844,SE,8,Henja,
320845,SE,8,Södra Nässja,
320846,SE,14,Lillkorsträsk,
320847,SE,9,Finsjö,
320848,SE,28,Gunnarby,
320849,SE,15,Gunnarsökna,
320850,SE,28,Uggledal,
320851,SE,2,Torkö,
320852,SE,28,Duvered,
320853,SE,27,Flensma,
320854,SE,27,Ribersborg,
320855,SE,27,Häljarp,
320856,SE,27,Björnstorp,
320857,SE,27,Nyehusen,
320858,SE,15,Lunger,
320859,SE,16,Lillkyrka,
320860,SE,16,Risberga,
320861,SE,8,Bor,
320862,SE,8,Grankärr,
320863,SE,23,Karonsbo,
320864,SE,27,Brogårda,
320865,SE,27,Gnubbefälla,
320866,SE,28,Östra Sjögar,
320867,SE,22,Rållsbyn,
320868,SE,21,Bennebol,
320869,SE,28,Lersäter,
320870,SE,16,Brokind,
320871,SE,2,Eringsboda,
320872,SE,3,Näsbyn,
320873,SE,22,Långstadskogen,
320874,SE,25,Sandtorp,
320875,SE,22,Acksjöhyttan,
320876,SE,28,Eggvena,
320877,SE,22,Gränäset,
320878,SE,22,Visterud,
320879,SE,22,Rudsta,
320880,SE,18,Mellösa,
320881,SE,22,Lakene,
320882,SE,7,Ytterån,
320883,SE,22,Smedstad,
320884,SE,22,Fagerås,
320885,SE,23,Gravfors,
320886,SE,23,Gran,
320887,SE,14,Hålfjärden,
320888,SE,27,Kvärlöv,
320889,SE,14,Vallen,
320890,SE,28,Alhammar,
320891,SE,10,Gyllingsberg,
320892,SE,16,Katrinelund,
320893,SE,27,Juteboda,
320894,SE,18,Kärsta,
320895,SE,25,Gisslarbo,
320896,SE,25,Gammelby,
320897,SE,18,Glindran,
320898,SE,12,Fölshult,
320899,SE,25,Hindersbo,
320900,SE,26,Korslöt,
320901,SE,3,Norra Sandnäs,
320902,SE,3,Trogsta,
320903,SE,24,Ulfsjön,
320904,SE,28,Kåkenäs,
320905,SE,7,Nästelbodarna,
320906,SE,7,Ocke,
320907,SE,7,Grötingen,
320908,SE,23,Lännäs,
320909,SE,12,Grimslöf,
320910,SE,16,Korpklev,
320911,SE,24,Östanö,
320912,SE,10,Särna,
320913,SE,10,Skord,
320914,SE,22,Gansbyn,
320915,SE,15,Västgöthyttan,
320916,SE,18,Erikslund,
320917,SE,14,Rånön,
320918,SE,25,Hemlinge,
320919,SE,7,Brunflo,
320920,SE,14,Vistbäcken,
320921,SE,22,Gunnarsbyn,
320922,SE,14,Kiilisjärvi,
320923,SE,28,Örlanda,
320924,SE,9,Ingemåla,
320925,SE,16,Rocklösa,
320926,SE,16,Ödesjöboda,
320927,SE,16,Fagerhult,
320928,SE,16,Maspelösa,
320929,SE,23,Strömsjönäs,
320930,SE,2,Nättraby,
320931,SE,28,Gräskelid,
320932,SE,9,Fögeberg,
320933,SE,12,Tuna,
320934,SE,9,Tälleryd,
320935,SE,21,Borrlövsta,
320936,SE,21,Täby,
320937,SE,21,Gyllby,
320938,SE,25,Gräsnäs,
320939,SE,22,Kullen,
320940,SE,22,Gårdsjö Herrgård,
320941,SE,3,Västerbo,
320942,SE,14,Salmi,
320943,SE,8,Linnås,
320944,SE,18,Egelsvik,
320945,SE,24,Anundsböle,
320946,SE,3,Lindsjön,
320947,SE,24,Leringsforsen,
320948,SE,7,Borglunda,
320949,SE,7,Trusta,
320950,SE,16,Kvarnstugan,
320951,SE,12,Kvänarp,
320952,SE,12,Bredhult,
320953,SE,28,Åboland,
320954,SE,28,Bredared,
320955,SE,8,Penarp,
320956,SE,8,Bäck,
320957,SE,12,Lyngsåsa,
320958,SE,27,Hasslarp,
320959,SE,27,Stenestad,
320960,SE,28,Immestad,
320961,SE,28,Brodalen,
320962,SE,22,Mellam Och Norra Skoga,
320963,SE,28,Norra Hjälmvik,
320964,SE,28,Rödhammar,
320965,SE,10,Sjugare,
320966,SE,15,Kälkesta,
320967,SE,28,Åsared,
320968,SE,18,Åsen,
320969,SE,8,Hagafors,
320970,SE,12,Madebråten,
320971,SE,28,Ylingebol,
320972,SE,12,Björkeryd,
320973,SE,28,Kvinnestad,
320974,SE,9,Broddebo,
320975,SE,27,Krångelbygget,
320976,SE,27,Sjunkamossa,
320977,SE,10,Östra Stumsnäs,
320978,SE,10,Skedvi,
320979,SE,28,Styrsö,
320980,SE,3,Barkhyttan,
320981,SE,21,Irsta,
320982,SE,14,Strömnäs,
320983,SE,14,Pjesker,
320984,SE,8,Kallsjö,
320985,SE,15,Markebäck,
320986,SE,10,Näsberg,
320987,SE,10,Björnsaberg,
320988,SE,8,Broby,
320989,SE,27,Assertorp,
320990,SE,27,Harbäckshult,
320991,SE,22,Kråkåsen,
320992,SE,22,Nolbergsviken,
320993,SE,24,Orrvik,
320994,SE,10,Nordanby,
320995,SE,27,Penarp,
320996,SE,12,Barkhult,
320997,SE,7,Järpbyn,
320998,SE,22,Flåvik,
320999,SE,21,Moxboda,
321000,SE,16,Västanvik,
321001,SE,9,Drageryd,
321002,SE,9,Böta Kvarn,
321003,SE,28,Rönning,
321004,SE,6,Ättarp,
321005,SE,6,Tureby,
321006,SE,2,Röan,
321007,SE,22,Tången,
321008,SE,10,Lerbäcken,
321009,SE,14,Hertsön,
321010,SE,26,Hökarängen,
321011,SE,23,Doris,
321012,SE,10,Lima,
321013,SE,8,Bobacka,
321014,SE,10,Gutdalen,
321015,SE,3,Nässätter,
321016,SE,3,Åkre,
321017,SE,3,Kolforsen,
321018,SE,6,Härhult,
321019,SE,6,Glöshult,
321020,SE,28,Skyttatorp,
321021,SE,28,Nohlvik,
321022,SE,22,Råtakan,
321023,SE,15,Östra Öskevik,
321024,SE,9,Bergkvara,
321025,SE,27,Källsved,
321026,SE,7,Bräcke,
321027,SE,22,Krakstad,
321028,SE,22,Älvsätern,
321029,SE,3,Ungrik,
321030,SE,3,Lindsta,
321031,SE,14,Petbergsliden,
321032,SE,28,Broddetorp,
321033,SE,12,Fagraskog,
321034,SE,28,Ekeskog,
321035,SE,28,Farstorp,
321036,SE,9,Björkshult,
321037,SE,9,Nylinge,
321038,SE,7,Svenstavik,
321039,SE,7,Håckrenlägret,
321040,SE,10,Kolares,
321041,SE,14,Norra Sunderbyn,
321042,SE,8,Björnaryd,
321043,SE,27,Äskekärra,
321044,SE,22,Arfvidstorp,
321045,SE,22,Ängarna,
321046,SE,8,Griggatorp,
321047,SE,22,Strand,
321048,SE,28,Tomten,
321049,SE,6,Träslövsläge,
321050,SE,16,Vreta Kloster,
321051,SE,3,Los,
321052,SE,3,Rådsjö,
321053,SE,3,Ilvad,
321054,SE,3,Lillbyn,
321055,SE,28,Fiskestigen,
321056,SE,28,Böksnäs,
321057,SE,28,Sänneryd,
321058,SE,28,Flottebo,
321059,SE,28,Guddehjälm,
321060,SE,28,Magra,
321061,SE,3,Hillsta,
321062,SE,23,Brattby,
321063,SE,23,Tjärnbäck,
321064,SE,28,Nöre,
321065,SE,28,Hällunda,
321066,SE,28,Bjättlunda,
321067,SE,16,Björkö,
321068,SE,8,Häljabo,
321069,SE,28,Väby,
321070,SE,28,Råvik,
321071,SE,3,Henninge,
321072,SE,14,Kukasjärvi,
321073,SE,28,Torpane,
321074,SE,8,Götarp,
321075,SE,23,Selsberg,
321076,SE,3,Stenbäcken,
321077,SE,10,Fåsås,
321078,SE,21,Andersby,
321079,SE,12,Ugnhult,
321080,SE,16,Östra Ryd,
321081,SE,16,Dyhult,
321082,SE,16,Mossänder,
321083,SE,9,Strömby,
321084,SE,21,Erikslund,
321085,SE,15,Bredsjöhöjden,
321086,SE,15,Nyberget,
321087,SE,3,Malingen,
321088,SE,24,Leringstjärn,
321089,SE,12,Tångarna,
321090,SE,8,Marbäck,
321091,SE,12,Östad,
321092,SE,16,Stava,
321093,SE,9,Stjälkhammar,
321094,SE,28,Ödegården,
321095,SE,26,Katrineberg,
321096,SE,8,Öreryd,
321097,SE,22,Skärsmyr,
321098,SE,22,Vegerbol,
321099,SE,27,Fjälkinge,
321100,SE,16,Lemunda,
321101,SE,28,Djursätra,
321102,SE,16,Rullerum,
321103,SE,9,Kullen,
321104,SE,9,Dramstorp,
321105,SE,28,Vamben,
321106,SE,28,Svenneby,
321107,SE,28,Brunnberg,
321108,SE,14,Skäret,
321109,SE,14,Måttsund,
321110,SE,14,Pärlträsk,
321111,SE,14,Antnäs,
321112,SE,28,Kärrkilen,
321113,SE,28,Lidan,
321114,SE,6,Kragared,
321115,SE,28,Sånna,
321116,SE,21,Lilla Söderby,
321117,SE,27,Slammarp,
321118,SE,15,Vilsta,
321119,SE,22,Aplungsåsen,
321120,SE,22,Skacksjö,
321121,SE,10,Linghed,
321122,SE,7,Sunnansjö,
321123,SE,10,Yttre Heden,
321124,SE,28,Sandbacka,
321125,SE,23,Hälsingborg,
321126,SE,24,Indals-liden,
321127,SE,24,Graningebruk,
321128,SE,24,Brännan,
321129,SE,27,Södra Lindhult,
321130,SE,14,Lukoträsk,
321131,SE,12,Dihult,
321132,SE,10,Grufvan,
321133,SE,10,Flen,
321134,SE,16,Svaltorp,
321135,SE,16,Österhagen,
321136,SE,9,Govik,
321137,SE,28,Lönåsen,
321138,SE,5,Kyrkby,
321139,SE,23,Långsele,
321140,SE,23,Medelås,
321141,SE,15,Kåfallstorp,
321142,SE,3,Hammarby,
321143,SE,14,Bredträskheden,
321144,SE,22,Fölsvik,
321145,SE,10,Norrskog Fäbod,
321146,SE,10,Karlsarfvet,
321147,SE,3,Källeräng,
321148,SE,3,Norrlia,
321149,SE,3,Bricka,
321150,SE,3,Ängebo,
321151,SE,27,Västra Genastorp,
321152,SE,27,Kärraboda,
321153,SE,9,Trändenäs,
321154,SE,18,Viby,
321155,SE,24,Norrledinge,
321156,SE,8,Berg,
321157,SE,8,Strängsbo,
321158,SE,24,Lakamark,
321159,SE,28,Hommedal,
321160,SE,14,Brattknabben,
321161,SE,22,Hägerud,
321162,SE,22,Ärtetan,
321163,SE,22,Pålstad,
321164,SE,24,Edebosjön,
321165,SE,14,Norra Storträsk,
321166,SE,14,Hvitåfors,
321167,SE,14,Risape,
321168,SE,28,Tillhagen,
321169,SE,23,Säter,
321170,SE,3,Sunnanåsbo,
321171,SE,22,Södra Grimstad,
321172,SE,22,Ingersbyn,
321173,SE,22,Forsnor,
321174,SE,14,Rättsel,
321175,SE,21,Burunge,
321176,SE,6,Timmerhult,
321177,SE,22,Mjönäs,
321178,SE,25,Finnbo,
321179,SE,8,Gisslaköp,
321180,SE,28,Kärr,
321181,SE,28,Södra Björke,
321182,SE,28,Frinnestad,
321183,SE,23,Gaskeluokt,
321184,SE,23,Kvarnriset,
321185,SE,23,Kvarnfors,
321186,SE,23,Bergvattnet,
321187,SE,23,Mesjö,
321188,SE,23,Bäcknäs,
321189,SE,23,Bergnäs,
321190,SE,23,Östra Strömåker,
321191,SE,23,Södra Stortjärn,
321192,SE,23,Ankarsund,
321193,SE,23,Borkan,
321194,SE,23,Strand,
321195,SE,3,Marmaverken,
321196,SE,3,Näcktjärn,
321197,SE,8,Töllstorp,
321198,SE,28,Bygärde,
321199,SE,8,Knavrabo,
321200,SE,8,Tokarp,
321201,SE,12,Klavreström,
321202,SE,9,Habbestorp,
321203,SE,28,Sollebrunn,
321204,SE,27,Halmstad,
321205,SE,27,Tåckarp,
321206,SE,14,Merasjärvi,
321207,SE,10,Vattnäs,
321208,SE,28,Anolfsbol,
321209,SE,28,Gongstorp,
321210,SE,21,Saringe,
321211,SE,28,Åkra,
321212,SE,28,Läggared,
321213,SE,27,Stivelsmossa,
321214,SE,6,Roshult,
321215,SE,23,Bullmark,
321216,SE,26,Österäng,
321217,SE,22,Bonserud,
321218,SE,3,Laxbo,
321219,SE,28,Henå,
321220,SE,23,Hallen,
321221,SE,7,Sikåskälen,
321222,SE,26,Kolarängen,
321223,SE,26,Larsboda,
321224,SE,23,Norra Bergfors,
321225,SE,6,Mjälahult,
321226,SE,8,Långarekull,
321227,SE,27,Forsby,
321228,SE,14,Roknäs,
321229,SE,23,Djupbäck,
321230,SE,14,Moskosel,
321231,SE,23,Öravan,
321232,SE,27,Hultaberg,
321233,SE,8,Hästhult,
321234,SE,27,Gärds Köpinge,
321235,SE,27,Linderöd,
321236,SE,24,Forsed,
321237,SE,14,Mattila,
321238,SE,8,Södra Törås,
321239,SE,18,Bärsta,
321240,SE,22,Långban,
321241,SE,10,Håfån,
321242,SE,10,Dunderberget,
321243,SE,22,Kosundet,
321244,SE,15,Stora Sten,
321245,SE,25,Gunnilboby,
321246,SE,15,Västra Löffallet,
321247,SE,25,Karmansbo,
321248,SE,15,Kloten,
321249,SE,9,Dalsebo,
321250,SE,9,Vånga,
321251,SE,26,Ekudden,
321252,SE,6,Ålstorp,
321253,SE,12,Hjärtanäs,
321254,SE,27,Harlösa,
321255,SE,27,Elestorp,
321256,SE,27,Bjärröd,
321257,SE,27,Östra Vemmelöv,
321258,SE,16,Väderstad,
321259,SE,10,Sågmyra,
321260,SE,3,Ytteryg,
321261,SE,3,Håvra,
321262,SE,3,Sundvallen,
321263,SE,12,Varshult,
321264,SE,27,Lindhaga Fritiasby,
321265,SE,22,Holmerud,
321266,SE,2,Ulvsmåla,
321267,SE,23,Häggnäs,
321268,SE,21,Uggelbo,
321269,SE,6,Stenshult,
321270,SE,28,Kollungeröd,
321271,SE,10,Djur,
321272,SE,8,Fjusnäs,
321273,SE,27,Glimminge,
321274,SE,25,Gustavsberg,
321275,SE,14,Tingvallskulle,
321276,SE,15,Eriksberg,
321277,SE,21,Hökby,
321278,SE,8,Olsbo,
321279,SE,28,Billingsfors,
321280,SE,18,Ullsta,
321281,SE,9,Gamlehult,
321282,SE,14,Rautas,
321283,SE,23,Löfberg,
321284,SE,28,Sätila,
321285,SE,27,Bröddarp,
321286,SE,23,Flakaträsk,
321287,SE,23,Alskaliden,
321288,SE,15,Lönnåsen,
321289,SE,28,Bondarp,
321290,SE,22,Karud,
321291,SE,12,Haghult,
321292,SE,27,Häggenäs,
321293,SE,27,Tosteberga,
321294,SE,9,Kristdala,
321295,SE,6,Fägrilt,
321296,SE,23,Jämteböle,
321297,SE,23,Juktnäs,
321298,SE,24,Skäljom,
321299,SE,24,Käckelbäcken,
321300,SE,3,Frisbo,
321301,SE,28,Balltorp,
321302,SE,12,Bergdala,
321303,SE,12,Uråsa,
321304,SE,12,Jät,
321305,SE,28,Flohult,
321306,SE,28,Nödinge-nol,
321307,SE,14,Tjautjas,
321308,SE,8,Hov,
321309,SE,3,Ösaren,
321310,SE,26,Fredrikslund,
321311,SE,3,Fallet,
321312,SE,8,Röpplinge,
321313,SE,15,Södra Klysna,
321314,SE,8,Yås,
321315,SE,8,Kullen,
321316,SE,22,Finserud,
321317,SE,8,Smedstorp,
321318,SE,26,Älghornsudd,
321319,SE,28,Grönhult,
321320,SE,10,Nedre Stubbersbo,
321321,SE,28,Gullered,
321322,SE,8,Norra Unnaryd,
321323,SE,10,Bispberg,
321324,SE,22,Örbäcken,
321325,SE,18,Björndalen,
321326,SE,18,Örsta,
321327,SE,18,Skinnartorp,
321328,SE,26,Ricksättra,
321329,SE,12,Knapanäs,
321330,SE,28,Gundlered,
321331,SE,23,Bredvik,
321332,SE,27,Bleckstorp,
321333,SE,12,Ramnåsa,
321334,SE,28,Ryr,
321335,SE,12,Hohult,
321336,SE,28,Öxabäck,
321337,SE,16,Björke,
321338,SE,27,Tryggaröd,
321339,SE,27,Brandsberga,
321340,SE,28,Västerlanda,
321341,SE,15,Tystinge,
321342,SE,10,Hästberg,
321343,SE,12,Diö,
321344,SE,14,Kälvfors,
321345,SE,27,Nyhamnsläge,
321346,SE,24,Träsk,
321347,SE,16,Tråstorp,
321348,SE,26,Stavsnäs,
321349,SE,27,Hönsholma,
321350,SE,27,Övre Månstorp,
321351,SE,7,Rismyr,
321352,SE,7,Nysätern,
321353,SE,21,Gällbo,
321354,SE,24,Djupröra,
321355,SE,27,Ravnarp,
321356,SE,14,Edefors,
321357,SE,14,Jämtö-avan,
321358,SE,14,Keskijärvi,
321359,SE,28,Öjelunda,
321360,SE,12,Härensås,
321361,SE,18,Läppe,
321362,SE,28,Asslebön,
321363,SE,28,Gatan,
321364,SE,26,Ulrikedal,
321365,SE,27,Munka-ljungby,
321366,SE,27,Kålema,
321367,SE,18,Hannemyra,
321368,SE,24,Djupdalsbodarna,
321369,SE,8,Ölvedal,
321370,SE,8,Idekulla,
321371,SE,28,Rydbo,
321372,SE,7,Östra Kälen,
321373,SE,26,Gladö Kvarn,
321374,SE,9,Alsarp,
321375,SE,8,Gullåkra,
321376,SE,8,Fagerslätt,
321377,SE,15,Långsmon,
321378,SE,15,Bondbyn,
321379,SE,7,Vikböle,
321380,SE,7,Björnänge,
321381,SE,2,Uggleboda,
321382,SE,23,Norrfors,
321383,SE,21,Månkarbo,
321384,SE,21,Hällby,
321385,SE,26,Björkliden,
321386,SE,15,Domvik,
321387,SE,15,Limmingen,
321388,SE,16,Rundstorp,
321389,SE,8,Börtebohult,
321390,SE,8,Torskinge,
321391,SE,6,Eldsberga,
321392,SE,26,Kärrdal,
321393,SE,25,Nibbarsbo,
321394,SE,21,Eklunda,
321395,SE,9,Höckhult,
321396,SE,26,Glömsta,
321397,SE,28,Vinköl,
321398,SE,28,Håkankila,
321399,SE,15,Bärsta,
321400,SE,2,Hasslö,
321401,SE,28,Nedre Bäck,
321402,SE,28,Trålanda,
321403,SE,27,Äspet,
321404,SE,8,Kärda,
321405,SE,10,Laggarbo,
321406,SE,10,Nyängen,
321407,SE,28,Bjärrtorp,
321408,SE,5,Lingsarve,
321409,SE,16,Kristineberg,
321410,SE,12,Asaryd,
321411,SE,28,Assarby,
321412,SE,22,Segmon,
321413,SE,22,Karsbol,
321414,SE,18,Djurgården,
321415,SE,18,Stålbåga,
321416,SE,7,Ljungdalen,
321417,SE,22,Edeby,
321418,SE,23,Storrödingsberg,
321419,SE,26,Rånäs,
321420,SE,28,Balkeröd,
321421,SE,27,Västra Kärrstorp,
321422,SE,16,Östra Stenby,
321423,SE,21,Sanda,
321424,SE,3,Kalf,
321425,SE,6,Ubbhult,
321426,SE,28,Ubbhult,
321427,SE,8,Uljeshult,
321428,SE,12,Ugglehult,
321429,SE,16,Skräpdalen,
321430,SE,12,Möklehult,
321431,SE,21,Myrby,
321432,SE,3,Moviken,
321433,SE,3,Öfverby,
321434,SE,3,Furuberg,
321435,SE,7,Klaxås-nybodarna,
321436,SE,7,Näfverede,
321437,SE,7,Fjällsta,
321438,SE,9,Gullringen,
321439,SE,16,Fröåsa,
321440,SE,5,Ganthem,
321441,SE,28,Ödstoft,
321442,SE,22,Degerbyn,
321443,SE,6,Sövdared,
321444,SE,8,Klevshult,
321445,SE,8,Österskog,
321446,SE,8,Vä,
321447,SE,6,Björkered,
321448,SE,28,Udden,
321449,SE,28,Finnekumla,
321450,SE,16,Stohagen,
321451,SE,8,Nederled,
321452,SE,23,Villanäs,
321453,SE,28,Gärdsbyn,
321454,SE,26,Björkeby,
321455,SE,27,Fylan,
321456,SE,8,Tovhult,
321457,SE,12,Kråkenäs,
321458,SE,9,Farshult,
321459,SE,12,Roen,
321460,SE,12,Österljung,
321461,SE,21,Myssinge,
321462,SE,22,Östra Löfåsen,
321463,SE,7,Midskog,
321464,SE,7,Östnår,
321465,SE,25,Granhammar,
321466,SE,8,Fifflaryd,
321467,SE,27,Snöarp,
321468,SE,27,Glimminge Plantering,
321469,SE,27,Barum,
321470,SE,15,Mårtenstorp,
321471,SE,10,Börka,
321472,SE,15,Stora Mellösa,
321473,SE,15,Häggeboda,
321474,SE,15,Porla Brunn,
321475,SE,8,Brohult,
321476,SE,28,Årebolet,
321477,SE,7,Österskucku,
321478,SE,7,Brynjegård,
321479,SE,9,Låxbo,
321480,SE,16,Björkeberg,
321481,SE,15,Höga,
321482,SE,25,Sörhörende,
321483,SE,21,Stav,
321484,SE,10,Krångdalen,
321485,SE,12,Exhult,
321486,SE,22,Bogerud,
321487,SE,14,Gullträsk,
321488,SE,6,Perstorp,
321489,SE,28,Hjortåsen,
321490,SE,26,Ölsta,
321491,SE,24,Brattås,
321492,SE,25,Sickelsjö,
321493,SE,18,Skogstorp,
321494,SE,10,Finngården,
321495,SE,27,Oderljunga,
321496,SE,28,Enebacken,
321497,SE,16,Skenäs,
321498,SE,26,Smådalarö,
321499,SE,28,Stången,
321500,SE,27,Väla,
321501,SE,8,Ljungberg,
321502,SE,27,Raus,
321503,SE,26,Årsta,
321504,SE,10,Venjan,
321505,SE,3,Koldemo,
321506,SE,3,Vallsta,
321507,SE,22,Stenslanda,
321508,SE,10,Sälen,
321509,SE,28,Galtåsen,
321510,SE,24,Sidensjö,
321511,SE,26,Nacka,
321512,SE,12,Nöbbele,
321513,SE,8,Stockaryd,
321514,SE,3,Bergsjö,
321515,SE,3,Djursta,
321516,SE,14,Granholm,
321517,SE,28,Puketorp,
321518,SE,26,Högby,
321519,SE,26,Spånga,
321520,SE,26,Bromma,
321521,SE,18,Enstorp,
321522,SE,27,Staversvad,
321523,SE,9,Brånhult,
321524,SE,7,Ljåbodarna,
321525,SE,12,Abbeshult,
321526,SE,21,Gisselbol,
321527,SE,6,Knäred,
321528,SE,6,Eskilstorp,
321529,SE,21,Knutbo,
321530,SE,28,Anrås,
321531,SE,28,Kyrkesund,
321532,SE,28,Boanäs,
321533,SE,3,Näsviken,
321534,SE,26,Norsborg,
321535,SE,23,Hjåggsjö,
321536,SE,23,Nyby,
321537,SE,3,Yckelsbo,
321538,SE,2,Ramdala,
321539,SE,28,Annestad,
321540,SE,23,Vitvattnet,
321541,SE,23,Norrvik,
321542,SE,26,Uppsala,
321543,SE,8,Nöbbele,
321544,SE,16,Hällestad,
321545,SE,14,Alter,
321546,SE,26,Segeltorp,
321547,SE,10,Smedby,
321548,SE,28,Sandhaken,
321549,SE,23,Avanäs,
321550,SE,15,Garphyttan,
321551,SE,28,Tolsered,
321552,SE,14,Harrioja,
321553,SE,12,Ottersnäs,
321554,SE,25,Runhällen,
321555,SE,10,Långshyttan,
321556,SE,9,Trekanten,
321557,SE,24,Kovland,
321558,SE,15,Svartå,
321559,SE,15,Åtorp,
321560,SE,15,Tryggeboda,
321561,SE,24,Fanbybodarna,
321562,SE,12,Möckleryd,
321563,SE,10,Hemulsjö,
321564,SE,10,Ofvanmyra,
321565,SE,26,Hölö,
321566,SE,9,Långasjö,
321567,SE,27,Hullingaröd,
321568,SE,28,Lerdala,
321569,SE,9,Edsbruk,
321570,SE,16,Tjuserum,
321571,SE,28,Töllsjö,
321572,SE,14,Sikfors,
321573,SE,28,Efnebyn,
321574,SE,12,Kosta,
321575,SE,15,Edsberg,
321576,SE,22,Munkerud,
321577,SE,28,Hjärpåsen,
321578,SE,27,Östra Vemmenhög,
321579,SE,21,Tunaby,
321580,SE,12,Grimslöv,
321581,SE,8,Barkaryd,
321582,SE,8,Häggatorp,
321583,SE,28,Humlekärr,
321584,SE,22,Bäckebron,
321585,SE,10,Sunnanäng,
321586,SE,10,Dala-husby,
321587,SE,24,Bredbyn,
321588,SE,6,Torup,
321589,SE,23,Vargträsk,
321590,SE,12,Borsna,
321591,SE,27,Gubbarp,
321592,SE,27,Mjönäs,
321593,SE,14,Seskarö,
321594,SE,22,Värmerud,
321595,SE,8,Velebo,
321596,SE,28,Medbo,
321597,SE,21,Skärplinge,
321598,SE,24,Ållsjön,
321599,SE,24,Tappäla,
321600,SE,14,Flakaberg,
321601,SE,3,Mo,
321602,SE,23,Stor-snäckhamnen,
321603,SE,27,Nyvång,
321604,SE,27,Assartorp,
321605,SE,23,Blattnicksele,
321606,SE,23,Hornberg,
321607,SE,23,Tärnaby,
321608,SE,23,Storsele,
321609,SE,23,Kristineberg,
321610,SE,23,Yttre Ultervattnet,
321611,SE,23,Lafsjö,
321612,SE,23,Holmön,
321613,SE,3,Holmsveden,
321614,SE,22,Portila,
321615,SE,8,Bosebo,
321616,SE,8,Sunnerbo,
321617,SE,28,Backa,
321618,SE,14,Vuoskojaure,
321619,SE,14,Karesuando,
321620,SE,28,Stigen,
321621,SE,28,Baltås,
321622,SE,28,Väring,
321623,SE,15,Stråssa,
321624,SE,28,Järnbrott,
321625,SE,28,Varnhem,
321626,SE,28,Hästevik,
321627,SE,22,Förby,
321628,SE,5,Fårö,
321629,SE,28,Bönered,
321630,SE,28,Rudorna,
321631,SE,23,Daikanvik,
321632,SE,16,Omberg,
321633,SE,15,Kilsmo,
321634,SE,23,Gamla Falmark,
321635,SE,16,Korsvik,
321636,SE,26,Skrubba,
321637,SE,27,Nöteboda,
321638,SE,16,Egelstad,
321639,SE,3,Måga,
321640,SE,3,Näsberg,
321641,SE,12,Linneberg,
321642,SE,16,Horn,
321643,SE,8,Nye,
321644,SE,23,Nyåker,
321645,SE,27,Räng,
321646,SE,6,Skummeslövsstrand,
321647,SE,10,Säl,
321648,SE,10,Furudal,
321649,SE,16,Lotorp,
321650,SE,15,Sjöängsfallet,
321651,SE,3,Gåsbo,
321652,SE,12,Färanäs,
321653,SE,12,Truvedstorp,
321654,SE,28,Vårdhem,
321655,SE,23,Hällnäs,
321656,SE,28,Härna,
321657,SE,24,Fränsta,
321658,SE,8,Lönholmen,
321659,SE,12,Näsbykulla,
321660,SE,12,Ledbacken,
321661,SE,12,Linneryd,
321662,SE,28,Ryd,
321663,SE,6,Lossbygget,
321664,SE,8,Asby,
321665,SE,27,Bosjökloster,
321666,SE,15,Öskebohyttan,
321667,SE,7,Så,
321668,SE,8,Karsbo,
321669,SE,12,Sävsjöström,
321670,SE,18,Fiskarbol,
321671,SE,18,Rekarne,
321672,SE,28,Tvättstugan,
321673,SE,28,Månstad,
321674,SE,28,Svaneholm,
321675,SE,26,Bergshamra,
321676,SE,26,Vendelsö,
321677,SE,27,Östentorp,
321678,SE,24,Nyland,
321679,SE,27,Ljunglyckorna,
321680,SE,22,Kroktån,
321681,SE,10,Bjursås,
321682,SE,28,Skee,
321683,SE,12,Blädingenäs,
321684,SE,14,Mattisudden,
321685,SE,14,Hakkas,
321686,SE,7,Krokvåg,
321687,SE,7,Ås,
321688,SE,10,Uppbo,
321689,SE,10,Ofvre Heden,
321690,SE,8,Möcklamo,
321691,SE,24,Indal,
321692,SE,15,Åboda,
321693,SE,28,Odla,
321694,SE,22,Nykroppa,
321695,SE,8,Korsberga,
321696,SE,25,Vinbäcken,
321697,SE,28,Nygård,
321698,SE,5,Burgsvik,
321699,SE,12,Hamneda,
321700,SE,12,Hässle,
321701,SE,14,Norrfjärden,
321702,SE,22,Koppom,
321703,SE,22,Borgvik,
321704,SE,22,Svanskog,
321705,SE,22,Frubacka,
321706,SE,27,Asmundtorp,
321707,SE,24,Överhörnäs,
321708,SE,14,Alviksträsk,
321709,SE,25,Sundänge,
321710,SE,27,Stora Isie,
321711,SE,26,Törnby,
321712,SE,3,Österstråsjö,
321713,SE,9,Alsterbro,
321714,SE,6,Bållalt,
321715,SE,28,Öja,
321716,SE,28,Klämmestorp,
321717,SE,27,Jordholmen,
321718,SE,21,Yttre,
321719,SE,24,Moliden,
321720,SE,28,Svee,
321721,SE,27,Torekov,
321722,SE,10,Grycksbo,
321723,SE,28,Lögås,
321724,SE,28,Norrkila,
321725,SE,16,Önstorp,
321726,SE,27,Västanå,
321727,SE,25,Östersäby,
321728,SE,12,Attsjö,
321729,SE,6,Kornhult,
321730,SE,15,Väla,
321731,SE,14,Risnabben,
321732,SE,6,Skälvik,
321733,SE,6,Älmhult,
321734,SE,9,Ruda,
321735,SE,9,Fagerhult,
321736,SE,27,Västra Ringarp,
321737,SE,27,Lärkesholm,
321738,SE,27,Rögle,
321739,SE,9,Korsvägen,
321740,SE,7,Björnö,
321741,SE,28,Kallhed,
321742,SE,3,Högen,
321743,SE,28,Mollsjönäs,
321744,SE,6,Menlösa,
321745,SE,6,Långås,
321746,SE,9,Marstad,
321747,SE,24,Ljustorp,
321748,SE,26,Långsjö,
321749,SE,23,Sjulsmark,
321750,SE,21,Mickelsbo,
321751,SE,12,Älmtåsa,
321752,SE,15,Mullhyttan,
321753,SE,24,Dämsta,
321754,SE,10,Högosta,
321755,SE,7,Nyby,
321756,SE,28,Bökeviken,
321757,SE,10,Dalbyn,
321758,SE,15,Bännebo,
321759,SE,25,Tullen,
321760,SE,18,Abborrtorp,
321761,SE,9,Hjorted,
321762,SE,16,Lövvik,
321763,SE,28,Dalskog,
321764,SE,27,Arild,
321765,SE,15,Lilla Mon,
321766,SE,9,Fliseryd,
321767,SE,22,Ringstad,
321768,SE,8,Månsarp,
321769,SE,18,Hallsjötorp,
321770,SE,23,Övre Nyland,
321771,SE,6,Erlandsbygget,
321772,SE,14,Nedre Storfors,
321773,SE,16,Ladumossen,
321774,SE,28,Ängås,
321775,SE,10,Van,
321776,SE,14,Dartsel,
321777,SE,22,Klanderud,
321778,SE,14,Gunnarsbyn,
321779,SE,28,Östebo,
321780,SE,7,Fåker,
321781,SE,10,Fiskarbo,
321782,SE,3,Norrljusne,
321783,SE,8,Gäddås,
321784,SE,12,Skårtaryd,
321785,SE,28,Sjötorp,
321786,SE,28,Vång,
321787,SE,27,Karlaby,
321788,SE,27,Halmstad,
321789,SE,27,Villands Vånga,
321790,SE,22,Ekshärad,
321791,SE,22,Oforsen,
321792,SE,22,Skogaängarna,
321793,SE,27,Södra Rörum,
321794,SE,10,Leksands-noret,
321795,SE,3,Tallåsen,
321796,SE,16,Bondorlunda,
321797,SE,23,Abborrträsk,
321798,SE,14,Lillpite,
321799,SE,14,Hortlax,
321800,SE,8,Rödja,
321801,SE,6,Fröslida,
321802,SE,23,Järvsjöby,
321803,SE,15,Born,
321804,SE,9,Silverdalen,
321805,SE,23,Granö,
321806,SE,6,Flammabygget,
321807,SE,6,Staffanstorp,
321808,SE,10,Sälje,
321809,SE,15,Tysslinge,
321810,SE,7,Habergsholm,
321811,SE,24,Lugnvik,
321812,SE,27,Lyckan,
321813,SE,15,Öna,
321814,SE,7,Mörsil,
321815,SE,28,Svinesund,
321816,SE,26,Bergalund,
321817,SE,28,Lindrum,
321818,SE,27,Vitaby,
321819,SE,23,Finnhällan,
321820,SE,16,Tjusentorp,
321821,SE,12,Ljunga,
321822,SE,28,Klövedal,
321823,SE,22,Ambjörby,
321824,SE,23,Kålaboda,
321825,SE,8,Skeppshult,
321826,SE,3,Anderbo,
321827,SE,24,Gålsjöbruk,
321828,SE,8,Havrida,
321829,SE,7,Ösa,
321830,SE,16,Östankärr,
321831,SE,22,Göksbol,
321832,SE,28,Grundsund,
321833,SE,9,Timmernabben,
321834,SE,12,Råsa,
321835,SE,15,Ägelsta,
321836,SE,16,Gusum,
321837,SE,8,Solkaryd,
321838,SE,28,Åhult,
321839,SE,28,Stålarp,
321840,SE,26,Fagerdala,
321841,SE,28,Flat,
321842,SE,9,Ören,
321843,SE,7,Frankrike,
321844,SE,3,Örebro,
321845,SE,22,Ransby,
321846,SE,18,Hallsborg,
321847,SE,6,Hemmeslövs Gård,
321848,SE,6,Hasslöv,
321849,SE,28,Hjärtum,
321850,SE,24,Gide,
321851,SE,15,Åmmeberg,
321852,SE,8,Rud,
321853,SE,28,Björketorp,
321854,SE,2,Kråkerum,
321855,SE,8,Grimstorp,
321856,SE,26,Anneberg,
321857,SE,8,Ormaryd,
321858,SE,21,Esarby,
321859,SE,10,Kyrkbyn,
321860,SE,16,Fillingarum,
321861,SE,9,Börsebo,
321862,SE,9,Kärnhult,
321863,SE,14,Båtskärsnäs,
321864,SE,12,Björneke,
321865,SE,6,Lya,
321866,SE,22,Dedetta,
321867,SE,28,Hedekas,
321868,SE,27,Killeberg,
321869,SE,9,Djursdala,
321870,SE,10,Sunnansjö,
321871,SE,27,Svedberga,
321872,SE,14,Kåbdalis,
321873,SE,27,Ljungsgård,
321874,SE,22,Speke,
321875,SE,14,Påläng,
321876,SE,22,Bjurtan,
321877,SE,14,Hvitträsk,
321878,SE,6,Dalshult,
321879,SE,23,Säfsjön,
321880,SE,26,Färjestaden,
321881,SE,23,Vinliden,
321882,SE,23,Björksele,
321883,SE,23,Holmträsk,
321884,SE,23,Adak,
321885,SE,8,Djupelsbo,
321886,SE,16,Gryt,
321887,SE,10,Botbenning,
321888,SE,8,Vik,
321889,SE,28,Grönlanda,
321890,SE,6,Grimmared,
321891,SE,27,Axelvold,
321892,SE,3,Backberg,
321893,SE,28,Stora Levene,
321894,SE,5,Roma,
321895,SE,26,Västerby,
321896,SE,16,Fågelsta,
321897,SE,10,Bråthöjden,
321898,SE,22,Humlen,
321899,SE,27,Stianderöd,
321900,SE,2,Hakarp,
321901,SE,27,Glemminge,
321902,SE,27,Skillinge,
321903,SE,10,Österfors,
321904,SE,7,Aspås,
321905,SE,3,Rullbo,
321906,SE,12,Kalvsvik,
321907,SE,8,Ramkvilla,
321908,SE,2,Tving,
321909,SE,14,Norra Holmnäs,
321910,SE,21,Ekolsund,
321911,SE,22,Kålsäter,
321912,SE,3,Bro,
321913,SE,6,Hällede,
321914,SE,18,Hållsta,
321915,SE,28,Runneröd,
321916,SE,28,Hillared,
321917,SE,26,Bergvik,
321918,SE,28,Lycke,
321919,SE,7,Torsgårds-gammelbodarna,
321920,SE,24,Överfälle,
321921,SE,28,Örby,
321922,SE,27,Krogstorp,
321923,SE,27,Löderup,
321924,SE,28,Nösund,
321925,SE,27,Ljungby,
321926,SE,8,Räfsebo,
321927,SE,26,Gribby,
321928,SE,25,Bysala,
321929,SE,21,Vaxmyra,
321930,SE,28,Källö,
321931,SE,7,Funäsdalen,
321932,SE,26,Gräsö,
321933,SE,8,Skriperyd,
321934,SE,28,Kongsviken,
321935,SE,9,Fågelsudden,
321936,SE,9,Ekornetorp,
321937,SE,28,Klofvarp,
321938,SE,25,Godkärra,
321939,SE,27,Sallerup,
321940,SE,27,Mattarp,
321941,SE,15,Förlunda,
321942,SE,25,Frosta,
321943,SE,5,Kneippbyn,
321944,SE,27,Stensnäs,
321945,SE,6,Rolfstorp,
321946,SE,16,Slaka,
321947,SE,28,Bestorp,
321948,SE,24,Hällås,
321949,SE,10,Stjärnsund,
321950,SE,22,Lilla Skoga,
321951,SE,18,Sköldinge,
321952,SE,23,Hummelholm,
321953,SE,23,Vormsele,
321954,SE,14,Altersbruk,
321955,SE,14,Storsund,
321956,SE,6,Åstrilt,
321957,SE,9,Ålebo,
321958,SE,6,Kyrkhult,
321959,SE,16,Karlsborg,
321960,SE,22,Magnebyn,
321961,SE,28,Ånimskog,
321962,SE,21,Vattholma,
321963,SE,28,Ekered,
321964,SE,22,Gassebol,
321965,SE,22,Edsvalla,
321966,SE,23,Sörholmsjö,
321967,SE,25,Gärdslinge,
321968,SE,12,Vedåsa,
321969,SE,28,Grind,
321970,SE,28,Härlycke,
321971,SE,7,Hallen,
321972,SE,27,Sankt Olof,
321973,SE,14,Ljusträsk,
321974,SE,28,Björkö,
321975,SE,10,Rusgården,
321976,SE,23,Ullsjöberg,
321977,SE,10,Sundborn,
321978,SE,27,Yngsjö,
321979,SE,6,Attorp,
321980,SE,22,Geijersholm,
321981,SE,27,Kvesarum,
321982,SE,27,Gnalöv,
321983,SE,3,Stråsjö,
321984,SE,2,Askunga,
321985,SE,26,Lilla Fagerdala,
321986,SE,26,Furusund,
321987,SE,7,Ringsjöhöjden,
321988,SE,15,Fåsjöhyttehäll,
321989,SE,5,Tass,
321990,SE,12,Annerstad,
321991,SE,28,Intorp,
321992,SE,10,Acktjärn,
321993,SE,7,Hoting,
321994,SE,27,Kyrkbacken,
321995,SE,14,Vuoda,
321996,SE,5,Ljugarn,
321997,SE,14,Saimovaara,
321998,SE,14,Ön,
321999,SE,28,Långsered,
322000,SE,16,Nykil,
322001,SE,24,Råmbäck,
322002,SE,22,Stenbyn,
322003,SE,15,Östansjö,
322004,SE,25,Hovgården,
322005,SE,2,Gillaruna,
322006,SE,28,Ljungby,
322007,SE,16,Spärringe,
322008,SE,27,Smygehamn,
322009,SE,12,Grythult,
322010,SE,9,Hedersrum,
322011,SE,28,Ulfserud,
322012,SE,28,Bälögat,
322013,SE,22,Lovtjärn,
322014,SE,27,Ivetofta,
322015,SE,22,Dufnäs,
322016,SE,16,Ryttartorpet,
322017,SE,27,Gringelstad,
322018,SE,28,Gårdsjö,
322019,SE,3,Rönnbacken,
322020,SE,6,Åskloster,
322021,SE,27,Gårdlösa,
322022,SE,16,Ullevi,
322023,SE,22,Lövås,
322024,SE,25,Forsbo,
322025,SE,7,Älven,
322026,SE,18,Hultstugan,
322027,SE,18,Näshulta,
322028,SE,27,Drögsperyd,
322029,SE,16,Näs,
322030,SE,2,Bränteknuva,
322031,SE,2,Jämjö,
322032,SE,18,Valla,
322033,SE,28,Trädet,
322034,SE,10,Källberget,
322035,SE,27,Bårslöv,
322036,SE,25,Vittinge,
322037,SE,15,Finnbo,
322038,SE,12,Älmeboda,
322039,SE,10,Kvarnholen,
322040,SE,28,Bremnäs,
322041,SE,15,Kårberget,
322042,SE,12,Nickalycke,
322043,SE,8,Hjärtlanda,
322044,SE,22,Lerbodatorp,
322045,SE,24,Skorped,
322046,SE,27,Bökeberga,
322047,SE,12,Ströby,
322048,SE,7,Lillsjöhögen,
322049,SE,10,Sandviken Fäbodar,
322050,SE,24,Habborn,
322051,SE,24,Rämslemon,
322052,SE,23,Råstrand,
322053,SE,21,Broddby,
322054,SE,12,Traryd,
322055,SE,18,Österby,
322056,SE,23,Skansnäs,
322057,SE,23,Harrvik,
322058,SE,23,Yttre Storbäcken,
322059,SE,8,Nissafors,
322060,SE,8,Marieholmsbruk,
322061,SE,12,Signildstorp,
322062,SE,24,Erikslund,
322063,SE,6,Skottorp,
322064,SE,12,Åryd,
322065,SE,22,Vålåsen,
322066,SE,23,Maltträsk,
322067,SE,10,Olsjön,
322068,SE,22,Ulfsby,
322069,SE,27,Hörr,
322070,SE,28,Ebbetorp,
322071,SE,21,Ingsån,
322072,SE,26,Skärmarö,
322073,SE,28,Sölvarp,
322074,SE,28,Känsbyn,
322075,SE,14,Virkamaa,
322076,SE,8,Högstorp,
322077,SE,28,Tun,
322078,SE,25,Nyhammar,
322079,SE,5,Havdhem,
322080,SE,7,Dvärsätt,
322081,SE,28,Rydal,
322082,SE,28,Dansered,
322083,SE,14,Frankkilantormä,
322084,SE,3,Glombo,
322085,SE,7,Vålådalen,
322086,SE,28,Bräckan,
322087,SE,24,Fanbyn,
322088,SE,15,Breven,
322089,SE,8,Hulu,
322090,SE,26,Länna,
322091,SE,23,Örviken,
322092,SE,21,Lågbol,
322093,SE,22,Södra Gärdsjön,
322094,SE,28,Sjövik,
322095,SE,28,Rixö,
322096,SE,28,Änet,
322097,SE,16,Östra Husby,
322098,SE,28,Håcksvik,
322099,SE,26,Stentorp,
322100,SE,3,Strömsbruk,
322101,SE,7,Lillhärdal,
322102,SE,24,Sångal,
322103,SE,27,Sörby,
322104,SE,6,Norra Skogaby,
322105,SE,27,Bökholm,
322106,SE,9,Hamra,
322107,SE,12,Kylleskruf,
322108,SE,3,Åshammar,
322109,SE,8,Öijhult,
322110,SE,18,Skämbylöt,
322111,SE,21,Exarby,
322112,SE,23,Grytsjö,
322113,SE,23,Hällaström,
322114,SE,14,Lannavaara,
322115,SE,25,Västerfärnebo,
322116,SE,10,Ulriksberg,
322117,SE,27,Torp,
322118,SE,28,Gundvarbyn,
322119,SE,28,Möne,
322120,SE,28,Broaslätt,
322121,SE,28,Lilla Bräcke,
322122,SE,18,Karlsfors,
322123,SE,22,Gårdserud,
322124,SE,28,Högsäter,
322125,SE,16,Försjö,
322126,SE,14,Allsån,
322127,SE,28,Frufällan,
322128,SE,16,Ringarum,
322129,SE,5,Kräklingbo,
322130,SE,3,Åsen,
322131,SE,27,Östad,
322132,SE,28,Värsås,
322133,SE,25,Långviken,
322134,SE,27,Lilla Bjälkabygget,
322135,SE,27,Hyllstofta,
322136,SE,22,Färjestad,
322137,SE,21,Burvik,
322138,SE,9,Nydalen,
322139,SE,3,Voxnabruk,
322140,SE,2,Trensum,
322141,SE,15,Reboda,
322142,SE,5,Katthammarsvik,
322143,SE,26,Vätö,
322144,SE,12,Lidhult,
322145,SE,27,Gantofta,
322146,SE,12,Alstermo,
322147,SE,27,Dösjebro,
322148,SE,2,Fågelmara,
322149,SE,9,Målerås,
322150,SE,27,Vallåkra,
322151,SE,28,Ucklum,
322152,SE,28,Mollösund,
322153,SE,6,Sennan,
322154,SE,2,Torsö,
322155,SE,28,Tostared,
322156,SE,7,Vänsjö,
322157,SE,27,Västra Karup,
322158,SE,27,Öllöv,
322159,SE,2,Drottningskär,
322160,SE,2,Johannishus,
322161,SE,2,Holmsjö,
322162,SE,23,Stensjön,
322163,SE,23,Borgafjäll,
322164,SE,24,Alby,
322165,SE,27,Saxtorp,
322166,SE,28,Älmestad,
322167,SE,2,Öjavad,
322168,SE,24,Edsele,
322169,SE,24,Björna,
322170,SE,10,Tällberg,
322171,SE,15,Södra Norrby,
322172,SE,27,Härslöv,
322173,SE,24,Påläng,
322174,SE,22,Gunnarskog,
322175,SE,24,Ramvik,
322176,SE,24,Storsele,
322177,SE,23,Marsfjäll,
322178,SE,27,Hofterup,
322179,SE,8,Älghult,
322180,SE,28,Vartofta,
322181,SE,28,Gudhem,
322182,SE,22,Östmark,
322183,SE,12,Lönashult,
322184,SE,12,Vederslöv,
322185,SE,12,Tävelsås,
322186,SE,3,Forsbacka,
322187,SE,27,Sönnarslöv,
322188,SE,28,Järpås,
322189,SE,16,Kårstad,
322190,SE,27,Äsperöd,
322191,SE,7,Mattmar,
322192,SE,22,Skattkärr,
322193,SE,22,Skarbol,
322194,SE,28,Slutarp,
322195,SE,16,Borghamn,
322196,SE,8,Spinkabo,
322197,SE,28,Långed,
322198,SE,6,Unnaryd,
322199,SE,24,Liden,
322200,SE,24,Stöde,
322201,SE,22,Röjdoset,
322202,SE,22,Lina,
322203,SE,12,Knihult,
322204,SE,7,Kälarne,
322205,SE,22,Sysslebäck,
322206,SE,22,Nysäter,
322207,SE,28,Skephult,
322208,SE,28,Sandhult,
322209,SE,14,Mellanström,
322210,SE,6,Holm,
322211,SE,14,Juoksengi,
322212,SE,7,Hede,
322213,SE,7,Ljusnedal,
322214,SE,7,Bruksvallarna,
322215,SE,24,Mjällom,
322216,SE,24,Lunde,
322217,SE,26,Strand,
322218,SE,9,Örsjö,
322219,SE,27,Annelöv,
322220,SE,8,Sommen,
322221,SE,9,Tyllinge,
322222,SE,25,Salbohed,
322223,SE,22,Likenäs,
322224,SE,22,Höje,
322225,SE,26,Skebobruk,
322226,SE,8,Långaryd,
322227,SE,26,Alby,
322228,SE,28,Bredbyn,
322229,SE,9,Berga,
322230,SE,18,Silinge,
322231,SE,6,Vinberg,
322232,SE,10,Långsälen,
322233,SE,16,Tjällmo,
322234,SE,9,Slättefall,
322235,SE,26,Fullersta,
322236,SE,10,Gesunda,
322237,SE,28,Kyrkeby,
322238,SE,6,Fågelsång,
322239,SE,9,Hallen,
322240,SE,28,Älmhult,
322241,SE,28,Strömsholm,
322242,SE,10,Moje,
322243,SE,9,Dalhem,
322244,SE,16,Gumhem,
322245,SE,16,Långebro,
322246,SE,28,Burhult,
322247,SE,27,Nävlinge,
322248,SE,15,Dormen,
322249,SE,7,Nederhögen,
322250,SE,24,Överturingen,
322251,SE,3,Stocksbo,
322252,SE,27,Revingehed,
322253,SE,10,Äppelbo,
322254,SE,10,Transtrand,
322255,SE,10,Bossedal,
322256,SE,8,Myresjö,
322257,SE,8,Hostro,
322258,SE,6,Bockshult,
322259,SE,28,Tidan,
322260,SE,25,Bro,
322261,SE,28,Älekulla,
322262,SE,8,Löbbo,
322263,SE,27,Raskarum,
322264,SE,12,Ör,
322265,SE,22,Elofsrud,
322266,SE,28,Aggarp,
322267,SE,22,Grundsjöhyttan,
322268,SE,27,Kviinge,
322269,SE,27,Maglehem,
322270,SE,2,Kristianopel,
322271,SE,16,Fjälla,
322272,SE,23,Mullsjö,
322273,SE,25,Danbo,
322274,SE,22,Viljamsbol,
322275,SE,7,Gransjölandet,
322276,SE,10,Kvarntäkt,
322277,SE,28,Hermansby,
322278,SE,28,Ässtorp,
322279,SE,28,Spjärr,
322280,SE,14,Laisvallsby,
322281,SE,24,Rocksjön,
322282,SE,12,Vida,
322283,SE,6,Esmared,
322284,SE,6,Ynnabo,
322285,SE,7,Norra Böle,
322286,SE,26,Jordbro,
322287,SE,28,Hisingsviken,
322288,SE,26,Ösbybro,
322289,SE,16,Gisbo,
322290,SE,28,Fröskog,
322291,SE,28,Germundebyn,
322292,SE,22,Kiltorp,
322293,SE,18,Djupkärr,
322294,SE,22,Sätered,
322295,SE,26,Ramsdalen,
322296,SE,25,Berget,
322297,SE,27,Håslöv,
322298,SE,28,Hogenäs Näs,
322299,SE,16,Söderhult,
322300,SE,28,Grimmered,
322301,SE,12,Gashult,
322302,SE,8,Bruzaholm,
322303,SE,28,Sjöviken,
322304,SE,22,Kullberg,
322305,SE,7,Vallen,
322306,SE,21,Hacksta,
322307,SE,8,Kårarp,
322308,SE,13,Oxie,
322309,SE,28,Barkerud,
322310,SE,12,Hjortsberga,
322311,SE,28,Svarte-jan,
322312,SE,8,Fredriksdal,
322313,SE,23,Sofiehem,
322314,SE,12,Torpsbruk,
322315,SE,8,Bondstorp,
322316,SE,28,Uddebo,
322317,SE,23,Vindelgransele,
322318,SE,21,Lövstabruk,
322319,SE,7,Gäddede,
322320,SE,23,Gräsmyr,
322321,SE,10,Saxdalen,
322322,SE,26,Gällnöby,
322323,SE,14,Overtorne,
322324,SE,8,Björköby,
322325,SE,7,Lugnvik,
322326,SE,14,Svensbyn,
322327,SE,7,Sörbygden,
322328,SE,8,Bolmsö,
322329,SE,8,Frinnaryd,
322330,SE,12,Eriksmåla,
322331,SE,24,Ankarsvik,
322332,SE,14,Karungi,
322333,SE,27,Tormestorp,
322334,SE,9,Odensvi,
322335,SE,28,Hyppeln,
322336,SE,9,Byxelkrok,
322337,SE,26,Mariehäll,
322338,SE,25,Österby,
322339,SE,7,Rörö,
322340,SE,3,Mackmyra,
322341,SE,2,Hanö,
322342,SE,27,Brunnby,
322343,SE,28,Brännö,
322344,SE,6,Heberg,
322345,SE,28,Gustavsfors,
322346,SE,15,Aspa,
322347,SE,16,Sankt Anna,
322348,SE,25,Danby,
322349,SE,28,Gullholmen,
322350,SE,27,Vankiva,
322351,SE,8,Näshult,
322352,SE,28,Ödeborg,
322353,SE,24,Klockestrand,
322354,SE,16,Strå,
322355,SE,10,Malungsfors,
322356,SE,28,Västra Tunhem,
322357,SE,8,Pauliström,
322358,SE,28,Fotskäl,
322359,SE,27,Vittskövle,
322360,SE,25,Ängelsberg,
322361,SE,7,Kövra,
322362,SE,26,Valla,
322363,SE,27,Hörja,
322364,SE,10,Näs,
322365,SE,18,Åltorp,
322366,SE,22,Grän,
322367,SE,28,Backer,
322368,SE,22,Viberg,
322369,SE,9,Talludden,
322370,SE,7,Bygget,
322371,SE,6,Lerkil,
322372,SE,16,Ekängen,
322373,SE,22,Torpa,
322374,SE,6,Galtabäck,
322375,SE,25,Gränby,
322376,SE,27,Brännestad,
322377,SE,16,Madrid,
322378,SE,6,Östra Karup,
322379,SE,25,Valskog,
322380,SE,3,Landa,
322381,SE,28,Sandhem,
322382,SE,10,Lomviken,
322383,SE,14,Kolari,
322384,SE,28,Åshult,
322385,SE,26,Elmsta,
322386,SE,16,Ydrefors,
322387,SE,28,Hälleviksstrand,
322388,SE,28,Havstenssund,
322389,SE,27,Stockamöllan,
322390,SE,7,Korsta,
322391,SE,28,Åstol,
322392,SE,28,Brandstorp,
322393,SE,9,Fårbo,
322394,SE,7,Billsta,
322395,SE,24,Helgum,
322396,SE,28,Skagersvik,
322397,SE,22,Åtorp,
322398,SE,25,Möklinta,
322399,SE,23,Svanavattnet,
322400,SE,28,Klädesholmen,
322401,SE,26,Duvnäs,
322402,SE,3,Hamrånge,
322403,SE,28,Sörkila,
322404,SE,28,Berghem,
322405,SE,27,Ljunghusen,
322406,SE,14,Pello,
322407,SE,24,Köpenhamn,
322408,SE,28,Brandenburg,
322409,SE,28,Östergård,
322410,SE,22,Höjden,
322411,SE,25,Hälle,
322412,SE,7,Boberg,
322413,SE,22,Getebol,
322414,SE,8,Äng,
322415,SE,28,Grimstorp,
322416,SE,12,Konga,
322417,SE,9,Gullabo,
322418,SE,25,Körtinge,
322419,SE,12,Fröseke,
322420,SE,6,Fegen,
322421,SE,22,Skoga,
322422,SE,28,Åryd,
322423,SE,3,Ringa,
322424,SE,27,Hannas,
322425,SE,10,Fors,
322426,SE,12,Ängelholm,
322427,SE,3,Forsa,
322428,SE,9,Lindås,
322429,SE,16,Säter,
322430,SE,14,Sjulsmark,
322431,SE,12,Älghult,
322432,SE,12,Ryd,
322433,SE,14,Lappträsk,
322434,SE,26,Strömsund,
322435,SE,26,Mora,
322436,SE,10,Bro,
322437,SE,23,Täfteå,
322438,SE,15,Deje,
322439,SE,21,Gräsö,
322440,SE,10,Ljusdal,
322441,SE,8,Hult,
322442,SE,27,Stockholm,
322443,SE,8,Åsa,
322444,SE,28,Björholmen,
322445,SE,24,Törna,
322446,SE,22,Nordmarkshyttan,
322447,SE,8,Tofta,
322448,SE,24,Sand,
322449,SE,24,Solberg,
322450,SE,15,Hammar,
322451,SE,28,Haga,
322452,SE,28,Hällan,
322453,SE,9,Halltorp,
322454,SE,28,Holmen,
322455,SE,21,Länna,
322456,SE,28,Rörö,
322457,SE,15,Rönne,
322458,SE,26,Ornö,
322459,SE,10,Väsa,
322460,SE,27,Grevlunda,
322461,SE,16,Valla,
322462,SE,9,Blackstad,
322463,SE,28,Hjuvik,
322464,SE,23,Lavsjön,
322465,SE,12,Lädja,
322466,SE,7,Lofsdalen,
322467,SE,25,Säter,
322468,SE,28,Tolsby,
322469,SE,14,Laisvall,
322470,SE,12,Uppsala,
322471,SE,7,Rossön,
322472,SE,21,Häggeby,
322473,SE,27,Bäckviken,
322474,SE,26,Staden,
322475,SE,9,Degerhamn,
322476,SE,26,Björkö,
322477,SE,22,Höljes,
322478,SE,23,Ammarnäs,
322479,SE,23,Håknäs,
322480,SE,28,Istorp,
322481,SE,12,Vittaryd,
322482,SE,28,Malmön,
322483,SE,8,Sunhultsbrunn,
322484,SE,9,Kärra,
322485,SE,27,Planteringen,
322486,SE,26,Skebo,
322487,SE,18,Malmby,
322488,SE,28,Elfsborg,
322489,SE,14,Ekfors,
322490,SE,7,Svedje,
322491,SE,21,Dalby,
322492,SE,9,Vickleby,
322493,SE,24,Höven,
322494,SE,22,Åmberg,
322495,SE,10,Haganäs,
322496,SE,12,Lekaryd,
322497,SE,28,Börta,
322498,SE,27,Immeln,
322499,SE,26,Stora Vika,
322500,SE,12,Läshult,
322501,SE,28,Bua,
322502,SE,16,Fornåsa,
322503,SE,25,Östa,
322504,SE,28,Köpstadsö,
322505,SE,27,Borlunda,
322506,SE,24,Sköle,
322507,SE,26,Köpmanholm,
322508,SE,27,Nyhem,
322509,SE,28,Mårdaklev,
322510,SE,27,Långebro,
322511,SE,21,Söderby,
322512,SE,25,Västanfors,
322513,SE,26,Fjällen,
322514,SE,28,Härja,
322515,SE,10,Ehret,
322516,SE,27,Fogdaröd,
322517,SE,22,Graf,
322518,SE,24,Omne,
322519,SE,26,Saltarö,
322520,SE,26,Lahäll,
322521,SE,23,Bredviken,
322522,SE,21,Gåde,
322523,SE,27,Domsten,
322524,SE,15,Mellösa,
322525,SE,28,Bäckevik,
322526,SE,27,Värmö,
322527,SE,10,Djurås,
322528,SE,23,Storseleby,
322529,SE,14,Kurravaara,
322530,SE,28,Å,
322531,SE,27,Ludvigsborg,
322532,SE,26,Hemmesta,
322533,SE,28,Halsbäck,
322534,SE,10,Skattungbyn,
322535,SE,7,Tännäs,
322536,SE,26,Gribbylund,
322537,SE,28,Larv,
322538,SE,22,Skillingmark,
322539,SE,8,Solberga,
322540,SE,28,Östra Frölunda,
322541,SE,12,Boda Glasbruk,
322542,SE,15,Närkesberg,
322543,SE,21,Hummelsta,
322544,SE,7,Stockholm,
322545,SE,28,Resö,
322546,SE,27,Gessie,
322547,SE,21,Medholma,
322548,SE,3,Vista,
322549,SE,22,Nyborg,
322550,SE,16,Värla,
322551,SE,10,Sågen,
322552,SE,7,Stavre,
322553,SE,8,Sandsjöfors,
322554,SE,28,Spekered,
322555,SE,22,Sundshagsfors,
322556,SE,9,Hornsö,
322557,SE,14,Lansjärv,
322558,SE,24,Östavall,
322559,SE,26,Älmsta,
322560,SE,26,Solhaga,
322561,SE,26,Liljeholmen,
322562,SE,26,Nyängen,
322563,SE,3,Räka,
322564,SE,18,Mesta,
322565,SE,22,Väng,
322566,SE,18,Haglund,
322567,SE,5,Västö,
322568,SE,23,Strömbäck,
322569,SE,24,Ramsjö,
322570,SE,6,Stråvalla,
322571,SE,27,Lackalänga,
322572,SE,12,Äskås,
322573,SE,25,Hagen,
322574,SE,27,Svenningstorp,
322575,SE,24,Osele,
322576,SE,27,Vallarum,
322577,SE,15,Spånga,
322578,SE,22,Skenhall,
322579,SE,7,Solberg,
322580,SE,27,Bunkeflo,
322581,SE,16,Målma,
322582,SE,6,Allberg,
322583,SE,15,Källan,
322584,SE,28,Saleby,
322585,SE,28,Nunnestad,
322586,SE,27,Björstorp,
322587,SE,15,Rönneshytta,
322588,SE,12,Åreda,
322589,SE,28,Malmö,
322590,SE,26,Oskarshamn,
322591,SE,28,Älgafall,
322592,SE,26,Stuvsta,
322593,SE,9,Värnamo,
322594,SE,7,Stora Blåsjön,
322595,SE,23,Saxnäs,
322596,SE,2,Fur,
322597,SE,27,Trä,
322598,SE,12,Tolg,
322599,SE,2,Trummenäs,
322600,SE,28,Grönnäs,
322601,SE,24,Gräfte,
322602,SE,27,Norrvidinge,
322603,SE,25,Lövsta,
322604,SE,28,Hanken,
322605,SE,28,Skogsborg,
322606,SE,28,Rostock,
322607,SE,7,Häggenås,
322608,SE,24,Västerby,
322609,SE,9,Blankaholm,
322610,SE,26,Bergvreten,
322611,SE,6,Bua,
322612,SE,7,Sandviken,
322613,SE,14,Långträsk,
322614,SE,28,Grötö,
322615,SE,25,Klinta,
322616,SE,3,Trönö,
322617,SE,14,Björkliden,
322618,SE,6,Karl Gustav,
322619,SE,8,Villstad,
322620,SE,10,Backa,
322621,SE,10,Nybro,
322622,SE,5,Lau,
322623,SE,21,Karlholm,
322624,SE,9,Malmö,
322625,SE,6,Oskarsström,
322626,SE,10,Brovallen,
322627,SE,14,Bodo,
322628,SE,21,Skönvik,
322629,SE,6,Skrea,
322630,SE,7,Dille,
322631,SE,9,Seby,
322632,SE,7,Norråker,
322633,SE,12,Skeen,
322634,SE,27,Onslunda,
322635,SE,14,Leipojärvi,
322636,SE,3,Kalv,
322637,SE,21,Gårdskär,
322638,SE,6,Mjällby,
322639,SE,24,Frånö,
322640,SE,28,Solhem,
322641,SE,22,Klockargården,
322642,SE,25,Brunnsbo,
322643,SE,28,Vrångö,
322644,SE,9,Ljungby,
322645,SE,14,Abborrträsk,
322646,SE,14,Virihaurekåtan,
322647,SE,28,Helås,
322648,SE,25,Nibble,
322649,SE,24,Viskan,
322650,SE,22,Ulvsby,
322651,SE,6,Grimeton,
322652,SE,28,Bast,
322653,SE,28,Spiken,
322654,SE,28,Hövik,
322655,SE,26,Fågelsången,
322656,SE,26,Ununge,
322657,SE,21,Finnsta,
322658,SE,26,Sonö,
322659,SE,25,By,
322660,SE,27,Lommarp,
322661,SE,14,Sattajärvi,
322662,SE,28,Slussen,
322663,SE,16,Hassla,
322664,SE,28,Vesene,
322665,SE,10,Karlbo,
322666,SE,18,Slagsta,
322667,SE,16,Ormestad,
322668,SE,22,Skillingsfors,
322669,SE,28,Ranneberg,
322670,SE,21,Hållnäs,
322671,SE,12,Lamhult,
322672,SE,7,Valsjöbyn,
322673,SE,26,Skuru,
322674,SE,26,Näsbypark,
322675,SE,27,Vallby,
322676,SE,28,Backamo,
322677,SE,28,Köleröd,
322678,SE,28,Gåre,
322679,SE,15,Koverboda,
322680,SE,26,Krigslida,
322681,SE,26,Gottröra,
322682,SE,7,Vigge,
322683,SE,3,Mora,
322684,SE,23,Norrliden,
322685,SE,10,Grönland,
322686,SE,21,Ramhäll,
322687,SE,27,Kölleröd,
322688,SE,28,Hjortsberg,
322689,SE,28,Fästa,
322690,SE,27,Västra Karaby,
322691,SE,26,Torsby,
322692,SE,7,Bispfors,
322693,SE,14,Murjek,
322694,SE,10,Norn,
322695,SE,3,Granberg,
322696,SE,12,Abborraslätt,
322697,SE,28,Beateberg,
322698,SE,26,Norrmalm,
322699,SE,26,Duvbo,
322700,SE,22,Godås,
322701,SE,27,Hov,
322702,SE,21,Brillinge,
322703,SE,25,Örlinge,
322704,SE,23,Barsele,
322705,SE,10,Leknäs,
322706,SE,27,Brödåkra,
322707,SE,28,Apleröd,
322708,SE,26,Sickla,
322709,SE,25,Hamra,
322710,SE,15,Klockartorp,
322711,SE,28,Kärrdalen,
322712,SE,28,Tjuvkil,
322713,SE,26,Pershagen,
322714,SE,23,Umnäs,
322715,SE,21,Fresta,
322716,SE,7,Vejmon,
322717,SE,28,Lackarebäck,
322718,SE,26,Berga Ö,
322719,SE,26,Farsta Gård,
322720,SE,18,Lilla Lundby,
322721,SE,27,Magleby,
322722,SE,9,Älmhult,
322723,SE,27,Nybro,
322724,SE,27,Eskilsminne,
322725,SE,26,Turinge,
322726,SE,27,Kulladal,
322727,SE,2,Gåragöl,
322728,SE,26,Djurgårdsbrunn,
322729,SE,25,Mälby,
322730,SE,28,Lund,
322731,SE,16,Skorteby,
322732,SE,9,Duvemåla,
322733,SE,27,Borstahusen,
322734,SE,18,Lagnö,
322735,SE,21,Stockby,
322736,SE,28,Långestrand,
322737,SE,26,Rocksta,
322738,SE,3,Nordmyra,
322739,SE,28,Utby,
322740,SE,28,Vävra,
322741,SE,9,Ödängla,
322742,SE,14,Bredsel,
322743,SE,28,Kilanda,
322744,SE,10,Svinö,
322745,SE,26,Stäket,
322746,SE,28,Olofsberg,
322747,SE,27,Mellersta Förstaden,
322748,SE,26,Johannesfred,
322749,SE,21,Norby,
322750,SE,9,Bockara,
322751,SE,16,Ramstad,
322752,SE,18,Greda,
322753,SE,26,Tureholm,
322754,SE,26,Hvitsand,
322755,SE,24,Fröstland,
322756,SE,18,Gräfsta,
322757,SE,3,Östanbäck,
322758,SE,28,Tådene,
322759,SE,28,Värled,
322760,SE,28,Häggesled,
322761,SE,28,Alfhem,
322762,SE,27,Norra Sandby,
322763,SE,26,Djursholms Ekeby,
322764,SE,26,Ella,
322765,SE,3,See,
322766,SE,12,Knutsmåla,
322767,SE,14,Källbomark,
322768,SE,18,Mälhaga,
322769,SE,22,Holken,
322770,SE,28,Härröd,
322771,SE,2,Tockarp,
322772,SE,3,Österbyggebo,
322773,SE,23,Forsnäsgård,
322774,SE,26,Undal,
322775,SE,3,Lönnånger,
322776,SE,8,Axlarp,
322777,SE,8,Floryd,
322778,SE,28,Väne Åsaka,
322779,SE,14,Bodön,
322780,SE,15,Ormhult,
322781,SE,18,Hedenlunda,
322782,SE,23,Sörbyn,
322783,SE,23,Tålsmark,
322784,SE,23,Heden,
322785,SE,23,Södervik,
322786,SE,23,Sörfors,
322787,SE,26,Skråmsta,
322788,SE,28,Kålsered,
322789,SE,10,Åkern,
322790,SE,21,Sundby,
322791,SE,21,Hässlinge,
322792,SE,26,Lyckebyn,
322793,SE,23,Älglund,
322794,SE,28,Skärgebo,
322795,SE,2,Gyön,
322796,SE,18,Kumla,
322797,SE,27,Norra Möinge,
322798,SE,21,Strandby,
322799,SE,10,Gisselbo,
322800,SE,15,Stråbergsmyran,
322801,SE,18,Fjällsta,
322802,SE,28,Nårunga,
322803,SE,24,Strind,
322804,SE,23,Svedum,
322805,SE,23,Bergsbyn,
322806,SE,27,Segelstorp,
322807,SE,27,Ekeröd,
322808,SE,27,Håkanstorp,
322809,SE,23,Rönnliden,
322810,SE,27,Fjälkestad,
322811,SE,27,Andersbygget,
322812,SE,18,Ekeberga,
322813,SE,28,Ornunga,
322814,SE,21,Fjälby,
322815,SE,8,Stärtebo,
322816,SE,16,Gräsberg,
322817,SE,25,Gångholmen,
322818,SE,21,Säby,
322819,SE,18,Knektbacken,
322820,SE,18,Skölby,
322821,SE,27,Bäckaskog,
322822,SE,26,Hästnäs,
322823,SE,6,Asserlund,
322824,SE,23,Smårödjningen,
322825,SE,28,Håvet,
322826,SE,10,Koppslahyttan,
322827,SE,26,Stora Ekeby,
322828,SE,27,Bässinge,
322829,SE,28,Blåhult,
322830,SE,28,Jordal,
322831,SE,28,Bollestad,
322832,SE,25,Hebron,
322833,SE,27,Häljalt,
322834,SE,28,Häljered,
322835,SE,26,Bromsten,
322836,SE,26,Rasta,
322837,SE,24,Uland,
322838,SE,18,Kilfröslunda,
322839,SE,14,Storöhamn,
322840,SE,15,Björnhammar,
322841,SE,2,Björkefall,
322842,SE,8,Kyrkotorp,
322843,SE,26,Rotebro,
322844,SE,28,Väne-ryr,
322845,SE,26,Skäl,
322846,SE,27,Kattvik,
322847,SE,26,Ådö,
322848,SE,25,Stångby,
322849,SE,23,Södra Innervik,
322850,SE,21,Sjukarby,
322851,SE,26,Källtorp,
322852,SE,27,Hässleberga,
322853,SE,26,Gunsarby,
322854,SE,26,Näshagen,
322855,SE,8,Götafors,
322856,SE,21,Lännaholm,
322857,SE,21,Vifärna,
322858,SE,25,Vedbo,
322859,SE,10,Ängarna,
322860,SE,10,Myggsjön,
322861,SE,22,Västra Berga,
322862,SE,28,Stene,
322863,SE,8,Båckebo,
322864,SE,3,Toms,
322865,SE,10,Tunsta,
322866,SE,10,Övertänger,
322867,SE,28,Havstensund,
322868,SE,26,Abborkroken,
322869,SE,18,Nöttesta,
322870,SE,28,Björboholm,
322871,SE,26,Stabby,
322872,SE,14,Jävre,
322873,SE,16,Dagsberg,
322874,SE,28,Klåddegärde,
322875,SE,26,Helgöbol,
322876,SE,3,Mom,
322877,SE,7,Högsta,
322878,SE,12,Kvisingsbo,
322879,SE,2,Spjälkö,
322880,SE,15,Blinäs,
322881,SE,21,Tjulsta,
322882,SE,2,Bökevik,
322883,SE,26,Närsta,
322884,SE,18,Vidökna,
322885,SE,18,Stav,
322886,SE,18,Nybble,
322887,SE,18,Knoppäng,
322888,SE,25,Lövnäs,
322889,SE,25,Häljeby,
322890,SE,25,Herrdal,
322891,SE,25,Månsbo,
322892,SE,25,Örbäck,
322893,SE,24,Ansmark,
322894,SE,25,Norrhårsbäck,
322895,SE,28,Granviken,
322896,SE,26,Sandvik,
322897,SE,26,Sälna,
322898,SE,21,Ölsta,
322899,SE,26,Mjölsta,
322900,SE,28,Björfjäll,
322901,SE,14,Koutojärvi,
322902,SE,25,Engarn,
322903,SE,12,Södra Emmeboda,
322904,SE,18,Aspö,
322905,SE,26,Älvnäs,
322906,SE,28,Älvås,
322907,SE,22,Resbol,
322908,SE,26,Uddeby,
322909,SE,10,Färjeby,
322910,SE,25,Emaus,
322911,SE,28,Söne,
322912,SE,23,Kvarnberget,
322913,SE,28,Borgunda,
322914,SE,15,Skyllberg,
322915,SE,26,Gåshaga,
322916,SE,28,Sörhamn,
322917,SE,27,Slagtofta,
322918,SE,28,Flämslätt,
322919,SE,28,Sandåker,
322920,SE,27,Östra Olinge,
322921,SE,3,Rökebo,
322922,SE,3,Ångsäter,
322923,SE,2,Mältan,
322924,SE,16,Sjögestad,
322925,SE,10,Altsarbyn,
322926,SE,18,Lund,
322927,SE,25,Skräddarbo,
322928,SE,27,Ljunghuset,
322929,SE,23,Norrmjöle,
322930,SE,23,Bergsboda,
322931,SE,15,Svenstorp,
322932,SE,18,Kälbro,
322933,SE,6,Näraby,
322934,SE,14,Rörbäcken,
322935,SE,18,Bökesta,
322936,SE,18,Lervik,
322937,SE,28,Inseredsos,
322938,SE,12,Sissehult,
322939,SE,9,Ävlingebo,
322940,SE,25,Kumla,
322941,SE,24,Ödsbyn,
322942,SE,2,Ronnebybrunn,
322943,SE,16,Tolskepp,
322944,SE,9,Tvärskog,
322945,SE,24,Lockeby,
322946,SE,25,Irsta,
322947,SE,3,Grubbe,
322948,SE,7,Bällsta,
322949,SE,10,Bäsna,
322950,SE,28,Skogarp,
322951,SE,5,Vallstena,
322952,SE,3,Edänge,
322953,SE,23,Ytterklinten,
322954,SE,27,Stusås,
322955,SE,8,Mågebo,
322956,SE,21,Marma,
322957,SE,18,Skogsby,
322958,SE,25,Uttersberg,
322959,SE,18,Näset,
322960,SE,25,Gullvalla,
322961,SE,26,Hästhagen,
322962,SE,25,Algryt,
322963,SE,28,Lerbäcksbo,
322964,SE,28,Grohed,
322965,SE,26,Ommesvik,
322966,SE,27,Saxtorpsskogen,
322967,SE,27,Norra Reslöv,
322968,SE,21,Vallby,
322969,SE,21,Blacksta,
322970,SE,26,Rimsjö,
322971,SE,28,Höga,
322972,SE,9,Kristinelund,
322973,SE,28,Hjällbo,
322974,SE,3,Tosätter,
322975,SE,3,Hogland,
322976,SE,27,Fleninge,
322977,SE,18,Baggetorp,
322978,SE,14,Ullatti,
322979,SE,3,Friggesund,
322980,SE,27,Skåne-tranås,
322981,SE,21,Frebro,
322982,SE,10,Junkarbo,
322983,SE,10,Sörsjön,
322984,SE,28,Kalvsund,
322985,SE,10,Åsteby,
322986,SE,3,Trödje,
322987,SE,28,Grebbaslätt,
322988,SE,23,Stenträsk,
322989,SE,16,Västerlösa,
322990,SE,15,Slyte,
322991,SE,18,Seldalen,
322992,SE,10,Hagen,
322993,SE,25,Jobsbo,
322994,SE,12,Karskruv,
322995,SE,26,Klippsta,
322996,SE,22,Bondestad,
322997,SE,28,Gälleberg,
322998,SE,28,Järane,
322999,SE,28,Björsjöhage,
323000,SE,21,Östersta,
323001,SE,8,Gohult,
323002,SE,18,Åker,
323003,SE,9,Bjärshult,
323004,SE,9,Långeruda,
323005,SE,21,Tebo,
323006,SE,23,Bäckfors,
323007,SE,27,Örtofta,
323008,SE,23,Storsjön,
323009,SE,9,Solna,
323010,SE,26,Talby,
323011,SE,8,Stockatorp,
323012,SE,27,Klippans Bruk,
323013,SE,25,Malmberga,
323014,SE,8,Stockabäck,
323015,SE,3,Västerstråsjö,
323016,SE,7,Alsen,
323017,SE,21,Elinge,
323018,SE,6,Skummeslöv,
323019,SE,18,Nya Granhed,
323020,SE,25,Grällsta,
323021,SE,24,Gullänget,
323022,SE,7,Mörsill,
323023,SE,26,Sundsvik,
323024,SE,28,Töve,
323025,SE,26,Svalnäs,
323026,SE,21,Östra Väppeby,
323027,SE,28,Åkered,
323028,SE,10,Hörnbo,
323029,SE,27,Årsjö,
323030,SE,23,Höggård,
323031,SE,10,Karlsbo,
323032,SE,16,Rogslösa,
323033,SE,16,Brenäs,
323034,SE,27,Bertilstorp,
323035,SE,28,Ramstorp,
323036,SE,12,Kränkeboda,
323037,SE,28,Kyrkobyn,
323038,SE,26,Bällsta,
323039,SE,23,Norra Bergsbyn,
323040,SE,26,Sjöhägnaden,
323041,SE,10,Sunnanhaga,
323042,SE,10,Öfvernora,
323043,SE,9,Bring,
323044,SE,28,Älvsborg,
323045,SE,28,Goteburg,
323046,SE,26,Riddarholmen,
323047,SE,3,Hamra,
323048,SE,27,Strandbaden,
323049,SE,18,Bromma,
323050,SE,28,Skärv,
323051,SE,15,Stockås,
323052,SE,21,Tensta,
323053,SE,27,Klippans Papersbruk,
323054,SE,25,Vånsjö,
323055,SE,27,Habo,
323056,SE,27,Fjärlöv,
323057,SE,26,Rosenkälla,
323058,SE,18,Grinda,
323059,SE,16,Ljugsbro,
323060,SE,23,Tavelsjön,
323061,SE,26,Sättra,
323062,SE,18,Bärby,
323063,SE,21,Önsta,
323064,SE,18,Jättna,
323065,SE,28,Resville,
323066,SE,28,Furulund,
323067,SE,10,Ramsnäs,
323068,SE,26,Gärdsnäs,
323069,SE,21,Hämringe,
323070,SE,16,Sätuna,
323071,SE,26,Herresta,
323072,SE,28,Flahult,
323073,SE,18,Husby,
323074,SE,28,Jordås,
323075,SE,28,Halsäng,
323076,SE,26,Prästnibble,
323077,SE,26,Lilla Nyckelviken,
323078,SE,26,Östorp,
323079,SE,28,Stannum,
323080,SE,14,Norra Rosvik,
323081,SE,16,Mottorp,
323082,SE,26,Hemfosa,
323083,SE,28,Husaby,
323084,SE,23,Strömfors,
323085,SE,7,Tänndalen,
323086,SE,7,Fagerland,
323087,SE,7,Bodlägden,
323088,SE,21,Altuna,
323089,SE,15,Vivalla,
323090,SE,21,Skärfältens,
323091,SE,21,Skoby,
323092,SE,14,Lantjärv,
323093,SE,26,Bredsättra,
323094,SE,25,Stabäck,
323095,SE,10,Ryggen,
323096,SE,28,Färdsle,
323097,SE,8,Fågelleken,
323098,SE,16,Göntorp,
323099,SE,28,Fagrabo,
323100,SE,18,Ramshammar,
323101,SE,15,Ålsäng,
323102,SE,10,Backen,
323103,SE,26,Norra Stutby,
323104,SE,22,Göstahult,
323105,SE,28,Sibbarp,
323106,SE,16,Harsbol,
323107,SE,8,Åhult,
323108,SE,9,Solstadström,
323109,SE,27,Tånga,
323110,SE,22,Skåre,
323111,SE,10,Toftby,
323112,SE,9,Stenåsa,
323113,SE,16,Normlösa,
323114,SE,3,Idenor,
323115,SE,27,Klippansbruk,
323116,SE,27,Stabbarps Gruva,
323117,SE,10,Baggbo,
323118,SE,26,Sockarby,
323119,SE,27,Hagestad,
323120,SE,5,Fleringe,
323121,SE,12,Hå,
323122,SE,14,Riksgränsen,
323123,SE,27,Nidingstorp,
323124,SE,3,Grinduga,
323125,SE,28,Kråkeröd,
323126,SE,28,Lefstad,
323127,SE,23,Lillarmsjö,
323128,SE,23,Sand,
323129,SE,28,Skallmeja,
323130,SE,27,Starrarp,
323131,SE,27,Sällshög,
323132,SE,16,Slästorp,
323133,SE,28,Korsviken,
323134,SE,28,Sparlösa,
323135,SE,16,Bjäsäter,
323136,SE,26,Odensala,
323137,SE,28,Hiå,
323138,SE,8,Rya,
323139,SE,6,Åmot,
323140,SE,16,Kalvsved,
323141,SE,28,Fly,
323142,SE,25,Bjuggsta,
323143,SE,26,Hallsta,
323144,SE,28,Gåshult,
323145,SE,22,Rotvik,
323146,SE,22,Bålgård,
323147,SE,25,Eriksberg,
323148,SE,28,Rålanda,
323149,SE,21,Karby,
323150,SE,28,Åstarp,
323151,SE,25,Västerby,
323152,SE,16,Skeppsgården,
323153,SE,2,Hejan,
323154,SE,9,Harby,
323155,SE,27,Ingelstorp,
323156,SE,27,Ängelholms Havsbad,
323157,SE,8,Kaxholmen,
323158,SE,27,Flenninge,
323159,SE,27,Holmeja,
323160,SE,27,Borrie,
323161,SE,25,Åsby,
323162,SE,23,Kusmarksliden,
323163,SE,23,Hällefors,
323164,SE,6,Stuv,
323165,SE,24,Knäfland,
323166,SE,28,Gölingstorp,
323167,SE,27,Andersro,
323168,SE,28,Bergstena,
323169,SE,21,Årby,
323170,SE,25,Sandviken,
323171,SE,27,Vegalt,
323172,SE,21,Håra,
323173,SE,21,Ambricka,
323174,SE,26,Kallhälls Villastad,
323175,SE,14,Puoltikasvaara,
323176,SE,27,Gärarp,
323177,SE,27,Skoglösa,
323178,SE,25,Melfallet,
323179,SE,3,Robertsholm,
323180,SE,18,Lindesberg,
323181,SE,26,Viggbyholm,
323182,SE,25,Ål,
323183,SE,21,Mehedeby,
323184,SE,26,Mörtö,
323185,SE,3,Skog,
323186,SE,28,Rycka,
323187,SE,28,Bolg,
323188,SE,27,Näraby,
323189,SE,27,Igelösa,
323190,SE,9,Averum,
323191,SE,27,Torsebro,
323192,SE,22,Åsviken,
323193,SE,26,Nybygget,
323194,SE,6,Svenstorp,
323195,SE,28,Tuve,
323196,SE,28,Bolstad,
323197,SE,25,Munktorp,
323198,SE,27,Kallstorp,
323199,SE,16,Simonstrop,
323200,SE,8,Muntarp,
323201,SE,28,Svärtan,
323202,SE,22,Stora Skärmnäs,
323203,SE,12,Väraberga,
323204,SE,23,Hörnsjö,
323205,SE,8,Stoarp,
323206,SE,21,Andersberg,
323207,SE,27,Äspinge,
323208,SE,3,Tranberg,
323209,SE,27,Hällstorp,
323210,SE,18,Ösby,
323211,SE,25,Borgby,
323212,SE,18,Tveta,
323213,SE,3,Södra Flät,
323214,SE,21,Gurresta,
323215,SE,26,Åkeshov,
323216,SE,28,Gunnared,
323217,SE,10,Helsingborn,
323218,SE,26,Lund,
323219,SE,27,Ormanäs,
323220,SE,18,Granhed,
323221,SE,24,Norrstig,
323222,SE,14,Purnu,
323223,SE,28,Munkedals Hamn,
323224,SE,25,Lagersberg,
323225,SE,28,Käringberget,
323226,SE,26,Vaxtuna,
323227,SE,16,Rösjö,
323228,SE,27,Kvärrestad,
323229,SE,14,Bränslen,
323230,SE,26,Rydbo,
323231,SE,18,Marietorp,
323232,SE,26,Edsvik,
323233,SE,26,Brista,
323234,SE,23,Yttertavle,
323235,SE,27,Nymö,
323236,SE,27,Björkholm,
323237,SE,10,Grängshammar,
323238,SE,24,Löflund,
323239,SE,25,Västersälja,
323240,SE,8,Hallhult,
323241,SE,27,Håstad,
323242,SE,22,Hulteby,
323243,SE,27,Barkåkra,
323244,SE,3,Oslättfors,
323245,SE,18,Töversta,
323246,SE,28,Slottet,
323247,SE,18,Odlaren,
323248,SE,10,Klintbo,
323249,SE,26,Greda,
323250,SE,25,Norrsylta,
323251,SE,3,Baggå,
323252,SE,25,Getänge,
323253,SE,28,Borrås,
323254,SE,25,Ellberga,
323255,SE,10,Qvarntägt,
323256,SE,10,Bensåsen,
323257,SE,10,Pålsbenning,
323258,SE,25,Sörål,
323259,SE,28,Ardala,
323260,SE,14,Pältsastugorna,
323261,SE,12,Skärsjöhult,
323262,SE,27,Hedeberga,
323263,SE,12,Almås,
323264,SE,21,Härnevi,
323265,SE,21,Kulla,
323266,SE,26,Järva,
323267,SE,6,Nösslinge,
323268,SE,24,Sodalen,
323269,SE,18,Måsta,
323270,SE,3,Bjart,
323271,SE,22,Färnsviken,
323272,SE,10,Arfslindan,
323273,SE,21,Hyttan,
323274,SE,26,Brunna,
323275,SE,18,Sandviken,
323276,SE,26,Årsta Havsbad,
323277,SE,16,Slycke,
323278,SE,18,Närsjö,
323279,SE,16,Bankeberg,
323280,SE,14,Hälleström,
323281,SE,21,Lundby,
323282,SE,28,Häckelid,
323283,SE,27,Kämpinge,
323284,SE,23,Yttersjön,
323285,SE,25,Fridnäs,
323286,SE,15,Nederby,
323287,SE,9,Algutsrum,
323288,SE,27,Månslunda,
323289,SE,18,Haga,
323290,SE,8,Gyllene Uttern,
323291,SE,15,Kåsätter,
323292,SE,26,Häggvik,
323293,SE,3,Pers,
323294,SE,26,Fagerudd,
323295,SE,25,Myrby,
323296,SE,12,Trästen,
323297,SE,16,Kolstad,
323298,SE,26,Fisksätra,
323299,SE,25,Södra Hålsbo,
323300,SE,28,Kråkeryd,
323301,SE,18,Hirtorp,
323302,SE,3,Bastfallet,
323303,SE,16,Kristinefors,
323304,SE,15,Menigasker,
323305,SE,28,Rörtången,
323306,SE,27,Norra Skrävlinge,
323307,SE,27,Selarp,
323308,SE,28,Vågerse,
323309,SE,26,Näsby Östra Park,
323310,SE,23,Viktorp,
323311,SE,25,Ire,
323312,SE,18,Edsala,
323313,SE,27,Skäret,
323314,SE,12,Odenslanda,
323315,SE,22,Bergsäng,
323316,SE,3,Ygsbo,
323317,SE,26,Mälarhöjden,
323318,SE,27,Grönahill,
323319,SE,10,Morbygge Fäbod,
323320,SE,23,Risberg,
323321,SE,25,Gryta,
323322,SE,21,Fullerö,
323323,SE,16,Tå,
323324,SE,3,Hennan,
323325,SE,24,Finsvik,
323326,SE,3,Rumsta,
323327,SE,26,Nyfors,
323328,SE,21,Fornby,
323329,SE,12,Rävemåla,
323330,SE,22,Torskbäcken,
323331,SE,22,Lilla Bårum,
323332,SE,22,Stodene,
323333,SE,22,Gatan,
323334,SE,28,Igelbäcken,
323335,SE,25,Dingtuna,
323336,SE,22,Bäcken,
323337,SE,18,Rosenlund,
323338,SE,7,Boggsjö,
323339,SE,10,Brunntjärnsåsen,
323340,SE,28,Anderstorp,
323341,SE,27,Ausås,
323342,SE,27,Östra Kärrstorp,
323343,SE,28,Diseröd,
323344,SE,28,Ubbarp,
323345,SE,28,Staby,
323346,SE,28,Tynnered,
323347,SE,23,Raggsjö,
323348,SE,22,Rolfsbol,
323349,SE,26,Arholma,
323350,SE,23,Granå,
323351,SE,9,Flerohopp,
323352,SE,23,Bäckliden,
323353,SE,16,Mörkö,
323354,SE,27,Skegrie,
323355,SE,26,Aspudden,
323356,SE,28,Tultered,
323357,SE,10,Nor,
323358,SE,28,Gerås,
323359,SE,6,Axet,
323360,SE,7,Byom,
323361,SE,7,Hedeviken,
323362,SE,23,Slipstensjön,
323363,SE,10,Ullnäsnoret,
323364,SE,24,Sandarna,
323365,SE,16,Trehörna,
323366,SE,14,Bölebyn,
323367,SE,28,Kärret,
323368,SE,16,Vistena,
323369,SE,12,Sommarsäte,
323370,SE,28,Arentorp,
323371,SE,2,Ljungryda,
323372,SE,28,Grunnebo,
323373,SE,28,Överby,
323374,SE,10,Almo,
323375,SE,14,Sunderby,
323376,SE,28,Lindome,
323377,SE,9,Broakulla,
323378,SE,3,Axmarby,
323379,SE,27,Matteröd,
323380,SE,3,Gammelboning,
323381,SE,7,Annedal,
323382,SE,14,Låktatjåkka,
323383,SE,6,Landeryd,
323384,SE,12,Dänningelanda,
323385,SE,22,Almar,
323386,SE,14,Svappavara,
323387,SE,3,Västtjär,
323388,SE,26,Vändelsö,
323389,SE,6,Fyllinge,
323390,SE,27,Tornsborg,
323391,SE,28,Nord-koster,
323392,SE,26,Norrby,
323393,SE,3,Vallvik,
323394,SE,6,Långaryd,
323395,SE,3,Malmsta,
323396,SE,21,Håningby,
323397,SE,10,Folkarbyn,
323398,SE,21,Lövstalöt,
323399,SE,7,Fyrås,
323400,SE,26,Bredsätra,
323401,SE,3,Skålsjön,
323402,SE,26,Hägernäs,
323403,SE,6,Steninge,
323404,SE,18,Råby-rekarne,
323405,SE,10,Lilla Snöån,
323406,SE,7,Bläka,
323407,SE,10,Backabro,
323408,SE,28,Ingetorp,
323409,SE,9,Jämjö,
323410,SE,3,Storbodarna,
323411,SE,27,Hallaröd,
323412,SE,27,Husie,
323413,SE,28,Hogsaters,
323414,SE,10,Fjätervålen,
323415,SE,26,Hörningshäs,
323416,SE,27,Välingetorp,
323417,SE,22,Bäckhammar,
323418,SE,10,Västermoren,
323419,SE,15,Råberga,
323420,SE,28,Björbäck,
323421,SE,16,Gottlösa,
323422,SE,10,Backanäs,
323423,SE,18,Billsbro,
323424,SE,10,Billingsnäs,
323425,SE,28,Ringby,
323426,SE,28,Håbol,
323427,SE,5,Närs,
323428,SE,22,Lindfors,
323429,SE,24,Alvik,
323430,SE,28,Smeby,
323431,SE,3,Hille,
323432,SE,21,Brunnsta,
323433,SE,6,Ugglarp,
323434,SE,28,Åby,
323435,SE,28,Norra Lundby,
323436,SE,22,Daglösen,
323437,SE,28,Lindhamn,
323438,SE,28,Stabäckehult,
323439,SE,27,Ekeberga,
323440,SE,26,Huvudsta,
323441,SE,14,Randijaur,
323442,SE,10,Holen,
323443,SE,8,Långåsa,
323444,SE,14,Sjisjka,
323445,SE,28,Vänersvik,
323446,SE,24,Gene,
323447,SE,21,Salabacke,
323448,SE,14,Niva,
323449,SE,10,Rågsveden,
323450,SE,26,Håbo,
323451,SE,26,Oskarslund,
323452,SE,18,Äsköping,
323453,SE,28,Båröd,
323454,SE,23,Degernäs,
323455,SE,16,Gammalkil,
323456,SE,28,Hökaberg,
323457,SE,26,Viby,
323458,SE,24,Johannedal,
323459,SE,6,Fjärskogen,
323460,SE,28,Utbynäs,
323461,SE,23,Sandsele,
323462,SE,15,Mobacka,
323463,SE,6,Risarp,
323464,SE,12,Hallaryd,
323465,SE,14,Skaulo,
323466,SE,14,Soppero,
323467,SE,26,Kimsta,
323468,SE,25,Sörkärrbäck,
323469,SE,3,Fällene,
323470,SE,3,Gäddvik,
323471,SE,28,Alvered,
323472,SE,28,Lilla Överön,
323473,SE,3,Åby,
323474,SE,28,Synneröd,
323475,SE,3,Norrby,
323476,SE,26,Ektorp,
323477,SE,28,Steken,
323478,SE,2,Vägga,
323479,SE,21,Strömsbro,
323480,SE,14,Byske,
323481,SE,3,Vås,
323482,SE,28,Rosendal,
323483,SE,28,Arntorp,
323484,SE,26,Varnö,
323485,SE,22,Lund,
323486,SE,21,Strömsbergs Bruk,
323487,SE,6,Hamstad,
323488,SE,23,Pellfäboda,
323489,SE,26,Mutsunda,
323490,SE,15,Källbäcken,
323491,SE,21,Björk,
323492,SE,28,Hasslerör,
323493,SE,12,Vexiö,
323494,SE,16,Tallebo,
323495,SE,24,Kvissle,
323496,SE,21,Alsike,
323497,SE,3,Bomhus,
323498,SE,12,Klint,
323499,SE,26,Bergshyddan,
323500,SE,6,Morup,
323501,SE,3,Allmänninge,
323502,SE,28,Åseby,
323503,SE,27,Lilla Hörstad,
323504,SE,27,Söndrahult,
323505,SE,2,Röaby,
323506,SE,8,Hovslätt,
323507,SE,27,Vantinge,
323508,SE,15,Nävesta,
323509,SE,6,Jonstorp,
323510,SE,28,Mälltorp,
323511,SE,28,Lilla Jungatorp,
323512,SE,6,Östra Stranden,
323513,SE,16,Mathem,
323514,SE,21,Ramby,
323515,SE,26,Räfsnäs,
323516,SE,22,Björnerud,
323517,SE,6,Fare,
323518,SE,9,Rosenfors,
323519,SE,15,Lindbacka,
323520,SE,6,Lyngåkra,
323521,SE,24,Backe,
323522,SE,8,Hillinge,
323523,SE,21,Nyfla,
323524,SE,3,Bäckan,
323525,SE,25,Dal,
323526,SE,27,Lilla Mölleberga,
323527,SE,28,Rommele,
323528,SE,27,Hålshult,
323529,SE,3,Skarftjärn,
323530,SE,27,Östra Tommarp,
323531,SE,28,Djupedal,
323532,SE,21,Lådö,
323533,SE,27,Lyckehusen,
323534,SE,28,Ranstad,
323535,SE,8,Flättinge,
323536,SE,28,Gatersered,
323537,SE,26,Höglandet,
323538,SE,27,Hovdala,
323539,SE,28,Brismene,
323540,SE,26,Näs,
323541,SE,10,Ljusterängarna,
323542,SE,10,Norra Näfde,
323543,SE,28,Häljebol,
323544,SE,16,Biskopstorp,
323545,SE,26,Hökmossen,
323546,SE,26,Närtuna,
323547,SE,27,Kyllingaröd,
323548,SE,26,Örby,
323549,SE,28,Rörvik Västergård,
323550,SE,27,Tarstad,
323551,SE,28,Alsjöområdet,
323552,SE,21,Lund,
323553,SE,27,Ganntofta,
323554,SE,12,Kvarnamåla,
323555,SE,27,Skårby,
323556,SE,9,Räpplinge,
323557,SE,28,Toröd,
323558,SE,27,Krogsjö,
323559,SE,28,Björröd,
323560,SE,26,Eklundshov,
323561,SE,18,Sjösa,
323562,SE,26,Marrehill,
323563,SE,12,Össjö,
323564,SE,22,Lilla Vänsberg,
323565,SE,28,Böja,
323566,SE,7,Kännåsen,
323567,SE,28,Trävattna,
323568,SE,16,Grebo,
