locId,country,region,city,postcode
323767,SI,,,
323768,SI,4,Slap Ob Idrijci,
323769,SI,4,Kranj,
323770,SI,4,Ljubljana,
323771,SI,4,Trzin,
323772,SI,4,Idrija,
323773,SI,9,Maribor,
323774,SI,4,Brnik,
323775,SI,9,Polje,
323776,SI,9,Celje,
323777,SI,4,Domzale,
323778,SI,4,Portoroz,
323779,SI,9,Slovenj Gradec,
323780,SI,4,Novo Mesto,
323781,SI,9,Velenje,
323782,SI,4,Skofja Loka,
323783,SI,4,Nova Gorica,
323784,SI,4,Metlika,
323785,SI,4,Semic,
323786,SI,4,Koper,
323787,SI,4,Trebnje,
323788,SI,9,Slovenska Bistrica,
323789,SI,9,Brestanica,
323790,SI,4,Radovljica,
323791,SI,9,Murska Sobota,
323792,SI,9,Krsko,
323793,SI,4,Menges,
323794,SI,4,Grosuplje,
323795,SI,4,Izlake,
323796,SI,9,Petrovce,
323797,SI,9,Ruse,
323798,SI,4,Litija,
323799,SI,9,Store,
323800,SI,4,Jesenice,
323801,SI,9,Zalec,
323802,SI,4,Zagorje,
323803,SI,4,Kropa,
323804,SI,9,Zrece,
323805,SI,9,Smarje Pri Jelsah,
323806,SI,4,Kamnik,
323807,SI,4,Izola,
323808,SI,4,Crnomelj,
323809,SI,4,Valdoltra,
323810,SI,4,Medvode,
323811,SI,9,Sladki Vrh,
323812,SI,4,Sava,
323813,SI,4,Dragatus,
323814,SI,4,Rudnik,
323815,SI,4,Piran,
323816,SI,4,Tolmin,
323817,SI,9,Lendava,
323818,SI,9,Bistrica Ob Sotli,
323819,SI,4,Dekani,
323820,SI,9,Crensovci,
323821,SI,4,Zgornje Gorje,
323822,SI,4,Bled,
323823,SI,9,Kungota,
323824,SI,9,Brezovica,
323825,SI,4,Luce,
323826,SI,9,Puconci,
323827,SI,4,Sezana,
323828,SI,9,Sveta Trojica,
323829,SI,4,Ravne,
323830,SI,9,Trbovlje,
323831,SI,9,Ptuj,
323832,SI,9,Sevnica,
323833,SI,4,Naklo,
323834,SI,4,Postojna,
323835,SI,4,Ajdovscina,
323836,SI,9,Brezice,
323837,SI,4,Cerknica,
323838,SI,4,Zagorje Ob Savi,
323839,SI,9,Vinica,
323840,SI,9,Dravograd,
323841,SI,9,Lasko,
323842,SI,9,Lenart,
323843,SI,9,Radlje Ob Dravi,
323844,SI,9,Rogaska Slatina,
323845,SI,4,Kozina,
323846,SI,4,Kocevje,
323847,SI,9,Mozirje,
323848,SI,9,Ormoz,
323849,SI,4,Trzic,
323850,SI,4,Vrhnika,
323851,SI,9,Podplat,
323852,SI,9,Radece,
323853,SI,9,Pesnica Pri Mariboru,
323854,SI,4,Sempeter,
323855,SI,9,Sentjur,
323856,SI,4,Ilirska Bistrica,
323857,SI,9,Ljutomer,
323858,SI,4,Dol Pri Ljubljani,
323859,SI,4,Ribnica,
323860,SI,4,Logatec,
323861,SI,9,Videm,
323862,SI,9,Mislinja,
323863,SI,4,Mirna,
323864,SI,9,Velika Nedelja,
323865,SI,4,Velike Brusnice,
323866,SI,9,Cerklje Ob Krki,
323867,SI,9,Leskovec,
323868,SI,9,Gornja Radgona,
323869,SI,9,Grize,
323870,SI,9,Planina,
323871,SI,4,Most Na Soci,
323872,SI,9,Skocjan,
323873,SI,4,Cerkno,
323874,SI,9,Radenci,
323875,SI,4,Materija,
323876,SI,9,Vransko,
323877,SI,9,Cerklje,
323878,SI,4,Mokronog,
323879,SI,4,Veliki Gaber,
323880,SI,9,Sentjernej,
323881,SI,4,Preddvor,
323882,SI,9,Hoce,
323883,SI,9,Braslovce,
323884,SI,4,Straza,
323885,SI,4,Gorice,
323886,SI,4,Zelezniki,
323887,SI,4,Miren,
323888,SI,4,Gorica,
323889,SI,9,Crna Na Koroskem,
323890,SI,9,Vitanje,
323891,SI,9,Vuzenica,
323892,SI,9,Prevalje,
323893,SI,9,Vojnik,
323894,SI,9,Muta,
323895,SI,9,Dol Pri Hrastniku,
323896,SI,4,Lukovica,
323897,SI,4,Smarje Pri Kopru,
323898,SI,4,Stari Trg Pri Lozu,
323899,SI,4,Bohinjska Bistrica,
323900,SI,9,Starse,
323901,SI,4,Sempas,
323902,SI,9,Senovo,
323903,SI,4,Toplice,
323904,SI,9,Hrastnik,
323905,SI,9,Tisina,
323906,SI,4,Trata,
323907,SI,9,Turnisce,
323908,SI,9,Zetale,
323909,SI,9,Podcetrtek,
323910,SI,9,Rogatec,
323911,SI,9,Limbus,
323912,SI,9,Miklavz Pri Ormozu,
323913,SI,9,Gorenja Vas,
323914,SI,9,Podgorje,
323915,SI,9,Artice,
323916,SI,4,Dolenjske Toplice,
323917,SI,9,Sentrupert,
323918,SI,9,Kidricevo,
323919,SI,9,Zavrc,
323920,SI,9,Rimske Toplice,
323921,SI,4,Smartno V Tuhinju,
323922,SI,9,Kostanjevica Na Krki,
323923,SI,9,Krmelj,
323924,SI,4,Smlednik,
323925,SI,4,Pivka,
323926,SI,4,Dobrovo,
323927,SI,4,Horjul,
323928,SI,4,Vipava,
323929,SI,4,Zuzemberk,
323930,SI,4,Sencur,
323931,SI,4,Sodrazica,
323932,SI,9,Stopice,
323933,SI,4,Mirna Pec,
323934,SI,4,Polhov Gradec,
323935,SI,4,Rence,
323936,SI,4,Zirovnica,
323937,SI,9,Prebold,
323938,SI,9,Gornji Petrovci,
323939,SI,9,Grad,
323940,SI,4,Borovnica,
323941,SI,4,Dolnja Kosana,
323942,SI,9,Oplotnica,
323943,SI,9,Sredisce Ob Dravi,
323944,SI,9,Sveti Jurij,
323945,SI,9,Krize,
323946,SI,9,Jurovski Dol,
323947,SI,9,Jursinci,
323948,SI,9,Podgrad,
323949,SI,4,Radomlje,
323950,SI,9,Pisece,
323951,SI,9,Gora,
323952,SI,9,Slovenske Konjice,
323953,SI,9,Bistrica,
323954,SI,4,Kobarid,
323955,SI,4,Bertoki,
323956,SI,9,Miklavz,
323957,SI,4,Prestranek,
323958,SI,9,Strojna,
323959,SI,4,Knezak,
323960,SI,9,Mezica,
323961,SI,4,Skofljica,
323962,SI,9,Ivanjkovci,
323963,SI,4,Golnik,
323964,SI,9,Selnica Ob Dravi,
323965,SI,9,Podvelka,
323966,SI,9,Globoko,
323967,SI,4,Skofije,
323968,SI,4,Preserje,
323969,SI,9,Poljcane,
323970,SI,4,Marezige,
323971,SI,9,Dobrna,
323972,SI,4,Ziri,
323973,SI,4,Smarje-sap,
323974,SI,4,Solkan,
323975,SI,4,Kanal,
323976,SI,4,Visnja Gora,
323977,SI,9,Dobrova,
323978,SI,4,Divaca,
323979,SI,4,Secovlje,
323980,SI,4,Planina Pri Rakeku,
323981,SI,9,Slivnica,
323982,SI,9,Dobrovnik,
323983,SI,9,Fram,
323984,SI,4,Jelsane,
323985,SI,4,Potok,
323986,SI,4,Blagovica,
323987,SI,9,Race,
323988,SI,4,Fara,
323989,SI,4,Podbrdo,
323990,SI,4,Rovte,
323991,SI,4,Stara Cerkev,
323992,SI,4,Gradac,
323993,SI,4,Zgornja Besnica,
323994,SI,4,Zabnica,
323995,SI,9,Kotlje,
323996,SI,9,Crna,
323997,SI,4,Obrov,
323998,SI,4,Lesce,
323999,SI,4,Branik,
324000,SI,4,Hrusevje,
324001,SI,9,Loke,
324002,SI,4,Velika Loka,
324003,SI,9,Loka,
324004,SI,9,Cankova,
324005,SI,4,Moravce,
324006,SI,4,Trojane,
324007,SI,4,Stahovica,
324008,SI,9,Blanca,
324009,SI,9,Fokovci,
324010,SI,4,Dvor,
324011,SI,4,Bovec,
324012,SI,9,Bogojina,
324013,SI,4,Velike Lasce,
324014,SI,4,Sentvid Pri Sticni,
324015,SI,9,Zgornja Korena,
324016,SI,4,Deskle,
324017,SI,4,Hinje,
324018,SI,4,Dobravlje,
324019,SI,9,Beltinci,
324020,SI,9,Dobje Pri Planini,
324021,SI,9,Lovrenc Na Pohorju,
324022,SI,9,Recica Ob Savinji,
324023,SI,9,Ponikva,
324024,SI,9,Cirkovce,
324025,SI,9,Verzej,
324026,SI,9,Bostanj,
324027,SI,9,Makole,
324028,SI,9,Destrnik,
324029,SI,9,Tomaz,
324030,SI,4,Poljane,
324031,SI,4,Dutovlje,
324032,SI,4,Podnanos,
324033,SI,4,Kovor,
324034,SI,9,Kozje,
324035,SI,4,Stari Trg Ob Kolpi,
324036,SI,4,Trnovo,
324037,SI,9,Cesta,
324038,SI,4,Dornberk,
324039,SI,4,Prvacina,
324040,SI,9,Hajdina,
324041,SI,9,Krizevci,
324042,SI,9,Smartno,
324043,SI,9,Kuzma,
324044,SI,4,Ankaran,
324045,SI,9,Sostanj,
324046,SI,9,Trzisce,
324047,SI,9,Dornava,
324048,SI,9,Rogasovci,
324049,SI,9,Sentilj,
324050,SI,9,Spodnji Ivanjci,
324051,SI,9,Cerkvenjak,
324052,SI,9,Benedikt,
324053,SI,9,Pragersko,
324054,SI,9,Majsperk,
324055,SI,4,Rakek,
324056,SI,9,Otocec,
324057,SI,9,Sentvid,
324058,SI,9,Podlehnik,
324059,SI,9,Sentjanz,
324060,SI,9,Dramlje,
324061,SI,9,Planina Pri Sevnici,
324062,SI,4,Komen,
324063,SI,9,Zgornja Loznica,
324064,SI,9,Polzela,
324065,SI,9,Markovci,
324066,SI,4,Draga,
324067,SI,9,Smartno Ob Paki,
324068,SI,4,Moste,
324069,SI,4,Cepovan,
324070,SI,9,Gorisnica,
324071,SI,9,Sveta Ana,
324072,SI,9,Podbocje,
324073,SI,9,Frankolovo,
324074,SI,9,Kobilje,
324075,SI,9,Prosenjakovci,
324076,SI,4,Gabrovka,
324077,SI,9,Genterovci,
324078,SI,4,Gracisce,
324079,SI,9,Salovci,
324080,SI,9,Pamece,
324081,SI,4,Breginj,
324082,SI,4,Godovic,
324083,SI,4,Vodice,
324084,SI,9,Korte,
324085,SI,4,Begunje,
324086,SI,9,Tabor,
324087,SI,9,Podgorci,
324088,SI,4,Smartno Pri Litiji,
324089,SI,9,Lipa,
324090,SI,9,Velika Polana,
324091,SI,9,Laporje,
324092,SI,4,Gornji Grad,
324093,SI,4,Ljubno Ob Savinji,
324094,SI,9,Mala Nedelja,
324095,SI,9,Nova Vas,
324096,SI,9,Zgornja Velka,
324097,SI,4,Dole Pri Litiji,
324098,SI,9,Odranci,
324099,SI,9,Bodonci,
324100,SI,9,Mackovci,
324101,SI,4,Sentviska Gora,
324102,SI,9,Cezanjevci,
324103,SI,9,Marjeta,
324104,SI,9,Raka,
324105,SI,9,Mestinje,
324106,SI,9,Loce,
324107,SI,4,Bukovica,
324108,SI,4,Mosnje,
324109,SI,4,Semedela,
324110,SI,9,Ljubecna,
324111,SI,4,Crni Vrh,
324112,SI,4,Smartno Ob Dreti,
324113,SI,4,Krtina,
324114,SI,9,Kamnica,
324115,SI,9,Grobelno,
324116,SI,4,Kranjska Gora,
324117,SI,9,Leskovec Pri Krskem,
324118,SI,9,Libelice,
324119,SI,9,Vuhred,
324120,SI,4,Senozece,
324121,SI,4,Lucija,
324122,SI,9,Rose,
324123,SI,4,Brdo,
324124,SI,4,Rozna Dolina,
324125,SI,9,Stari Trg,
324126,SI,9,Police,
324127,SI,4,Dragomelj,
324128,SI,4,Podnart,
324129,SI,4,Crnice,
324130,SI,9,Gorenje,
324131,SI,4,Hrusica,
324132,SI,4,Kromberk,
324133,SI,4,Vnanje Gorice,
324134,SI,4,Verd,
324135,SI,4,Jagodje,
324136,SI,4,Kresnice,
324137,SI,4,Vir,
324138,SI,9,Miklavz Na Dravskem Polju,
324139,SI,4,Vace,
324140,SI,9,Martjanci,
324141,SI,4,Ig,
324142,SI,4,Spodnja Idrija,
324143,SI,4,Dole Pri Krascah,
324144,SI,4,Brezovica Pri Ljubljani,
324145,SI,9,Lovrenc,
324146,SI,4,Podbrezje,
324147,SI,9,Spodnji Duplek,
324148,SI,4,Crni Kal,
324149,SI,4,Cesnjice V Tuhinju,
324150,SI,9,Rajc,
324151,SI,4,Selca,
324152,SI,4,Spodnje Jelenje,
324153,SI,4,Radgonica,
324154,SI,4,Predgrize,
324155,SI,4,Pribisje,
324156,SI,4,Visoko,
324157,SI,4,Vremski Britof,
324158,SI,9,Kapele,
324159,SI,9,Spodnje Hoce,
324160,SI,4,Grgar,
324161,SI,4,Vinje,
324162,SI,9,Smarjeta,
324163,SI,4,Podbreg,
324164,SI,4,Rasic,
324165,SI,9,Brezje,
324166,SI,9,Zgornja Kungota,
324167,SI,9,Zabukovica,
324168,SI,9,Pecarovci,
324169,SI,4,Gornji Kot,
324170,SI,4,Cerklje Na Gorenjskem,
324171,SI,4,Begunje Pri Cerknici,
324172,SI,9,Zdole,
324173,SI,4,Ivancna Gorica,
324174,SI,9,Dobeno,
324175,SI,9,Slatina,
324176,SI,4,Dragomer,
324177,SI,4,Pobegi,
324178,SI,9,Koble,
324179,SI,4,Cesnjice,
324180,SI,9,Dobova,
324181,SI,4,Stanjel,
324182,SI,4,Mojstrana,
324183,SI,9,Banovci,
324184,SI,4,Kneza,
324185,SI,9,Bizeljsko,
324186,SI,9,Mali Koren,
324187,SI,9,Gomilsko,
324188,SI,9,Bresternica,
324189,SI,4,Log Pri Brezovici,
324190,SI,4,Dob,
324191,SI,4,Vrtojba,
324192,SI,4,Blejska Dobrava,
324193,SI,9,Krizevci Pri Ljutomeru,
324194,SI,9,Rogasevci,
324195,SI,9,Jurij,
324196,SI,9,Prepolje,
324197,SI,9,Nova Cerkev,
324198,SI,4,Ljubljana-polje,
324199,SI,4,Turjak,
324200,SI,4,Gorje,
324201,SI,4,Dobrovo V Brdih,
324202,SI,4,Laze V Tuhinju,
324203,SI,9,Kapla,
324204,SI,9,Ravne Na Koroskem,
324205,SI,4,Col,
324206,SI,9,Polensak,
324207,SI,4,Gozd Martuljek,
324208,SI,4,Notranje Gorice,
324209,SI,9,Smarje,
324210,SI,9,Lokavec,
324211,SI,9,Dobje,
324212,SI,9,Moskanjci,
324213,SI,9,Apace,
324214,SI,4,Jezero,
324215,SI,9,Skofja Vas,
324216,SI,9,Tesanovci,
324217,SI,9,Pohorje,
324218,SI,9,Spodnje Tinsko,
324219,SI,9,Lovrenc Na Dravskem Polju,
324220,SI,4,Besnica,
324221,SI,9,Zgornja Polskava,
324222,SI,4,Sicciole,
324223,SI,9,Pernica,
324224,SI,9,Trnovska Vas,
324225,SI,4,Hotedrsica,
324226,SI,4,Srpenica,
324227,SI,4,Morava,
324228,SI,9,Videm Pri Ptuju,
324229,SI,9,Bic,
324230,SI,4,Zagradec,
324231,SI,4,Srednja Vas,
324232,SI,9,Gorica Pri Smartnem,
324233,SI,4,Duplje,
324234,SI,4,Tuble Di Boriano,
324235,SI,4,Mavcice,
324236,SI,4,Rakitna,
324237,SI,4,Volcja Draga,
324238,SI,4,Rocinj,
324239,SI,4,Preska,
324240,SI,0,Dolenci,
324241,SI,9,Malecnik,
324242,SI,4,Radmirje,
324243,SI,9,Radizel,
324244,SI,4,Kojsko,
324245,SI,9,Pristava,
324246,SI,4,Grahovo,
324247,SI,9,Filovci,
324248,SI,9,Buce,
324249,SI,9,Krajna,
324250,SI,4,Sovodenj,
324251,SI,4,Lokev,
324252,SI,4,Begunje Na Gorenjskem,
324253,SI,4,Crnuce,
324254,SI,9,Dankovci,
324255,SI,4,Pijava Gorica,
324256,SI,4,Kostanjevica,
324257,SI,9,Loznica,
324258,SI,9,Letus,
324259,SI,4,Sorica,
324260,SI,9,Podkraj,
324261,SI,9,Pacinje,
324262,SI,9,Morje,
324263,SI,4,Dolenja Vas,
324264,SI,9,Loka Pri Zusmu,
324265,SI,9,Levec,
324266,SI,9,Smartno Na Pohorju,
324267,SI,9,Smartno V Rozni Dolini,
324268,SI,9,Loce Pri Poljcanah,
324269,SI,4,Bohinjska Bela,
324270,SI,4,Padna,
324271,SI,9,Kompolje,
324272,SI,9,Selnica,
324273,SI,4,Raschach,
324274,SI,4,Rodine,
324275,SI,4,Kamna Gorica,
324276,SI,4,Ljubno,
324277,SI,4,Ratece,
324278,SI,9,Krska Vas,
324279,SI,9,Sveti Tomaz,
324280,SI,4,Bilje,
324281,SI,4,Sedlo,
324282,SI,9,Hlaponci,
324283,SI,4,Dobrnic,
324284,SI,9,Zabukovje,
324285,SI,4,Orlek,
324286,SI,9,Cersak,
324287,SI,9,Zidani Most,
324288,SI,9,Kalobje,
324289,SI,9,Sempeter,
324290,SI,4,Jereb,
324291,SI,4,Strunjan,
324292,SI,9,Topolsica,
324293,SI,9,Vrhole,
324294,SI,9,Smartno Pri Slovenj Gradcu,
324295,SI,9,Kal,
324296,SI,4,Zeje,
324297,SI,4,Muljava,
324298,SI,4,Motnik,
324299,SI,4,Susak,
324300,SI,9,Moravske-toplice,
324301,SI,9,Teharje,
324302,SI,4,Fleana,
324303,SI,4,Golo,
324304,SI,4,Podpec,
324305,SI,4,Dolenja Trebusa,
324306,SI,4,Prem,
324307,SI,4,Trebelno,
324308,SI,9,Sromlje,
324309,SI,9,Stranice,
324310,SI,4,Vizmarje,
324311,SI,9,Marija Reka,
324312,SI,9,Loka Pri Zidanem Mostu,
324313,SI,4,Brod,
324314,SI,4,Dobrunje,
324315,SI,9,Zgornji Leskovec,
324316,SI,9,Pristava Pri Mestinju,
324317,SI,4,Solcava,
324318,SI,4,Zalog,
324319,SI,9,Strocja Vas,
324320,SI,9,Log,
324321,SI,4,Opacchiasella,
324322,SI,4,Orehek,
324323,SI,4,Kamnje,
324324,SI,9,Vitomarci,
324325,SI,4,Kostanjevica Na Krasu,
324326,SI,9,Sentjanz Pri Dravogradu,
324327,SI,9,Otiski Vrh,
324328,SI,9,Marjeta Na Dravskem Polju,
324329,SI,4,Prevoje Pri Sentvidu,
324330,SI,9,Petrovci,
324331,SI,4,Place,
324332,SI,9,Spodnja Hajdina,
324333,SI,4,Cemsenik,
324334,SI,9,Brezno,
324335,SI,4,Nevlje,
324336,SI,9,Mali Vrh,
324337,SI,9,Kupsinci,
324338,SI,4,Neblo,
324339,SI,4,Zalog Pri Cerkljah,
324340,SI,9,Gorica Pri Slivnici,
324341,SI,9,Fala,
324342,SI,4,Dobrova,
324343,SI,4,Brezovica,
324344,SI,4,Sevnica,
324345,SI,4,Hrastnik,
324346,SI,4,Leskovec,
324347,SI,4,Sveti Jurij,
324348,SI,4,Vinica,
324349,SI,4,Cerklje,
324350,SI,4,Sentrupert,
324351,SI,4,Srednja Vas V Bohinju,
324352,SI,4,Nova Vas,
324353,SI,4,Krize,
324354,SI,4,Sentjanz,
324355,SI,4,Trnovo Pri Gorici,
324356,SI,4,Sveti Tomaz,
324357,SI,4,Koseze,
324358,SI,4,Videm,
324359,SI,4,Gorenja Vas,
324360,SI,9,Velika Dolina,
324361,SI,4,Tacen,
324362,SI,4,Podgrad,
324363,SI,4,Brezje,
324364,SI,9,Sobota,
324365,SI,4,Polsnik,
324366,SI,4,Hrpelje,
324367,SI,4,Soca,
324368,SI,9,Jurkloster,
324369,SI,9,Doklezovje,
324370,SI,4,Tabor,
324371,SI,9,Lemberg,
324372,SI,9,Kungota Pri Ptuju,
324373,SI,4,Senozeti,
324374,SI,4,Log Pod Mangartom,
324375,SI,9,Obrez,
324376,SI,9,Negova,
324377,SI,4,Smarje,
324378,SI,9,Ptujska Gora,
324379,SI,4,Bevke,
324380,SI,4,Mose,
324381,SI,4,Smartno Pod Smarno Goro,
324382,SI,9,Sveta Ana V Slovenskih Goricah,
324383,SI,9,Ribnica Na Pohorju,
324384,SI,4,Dolsko,
324385,SI,9,Kamovci,
324386,SI,9,Trbonje,
324387,SI,4,Skocjan,
324388,SI,4,Poljane Nad Skofjo Loko,
324389,SI,9,Stoperce,
324390,SI,4,Planina,
324391,SI,9,Javornik,
324392,SI,9,Spodnja Volicina,
324393,SI,4,Predmeja,
324394,SI,9,Bakovci,
324395,SI,9,Kog,
324396,SI,9,Catez,
324397,SI,9,Gedoudvar,
324398,SI,4,Prapetno Brdo,
324399,SI,9,Bucka,
324400,SI,4,Belca,
324401,SI,4,Ortnek,
324402,SI,9,Dobovec,
324403,SI,4,Kocevska Reka,
324404,SI,4,Laze,
324405,SI,4,Monfredi,
324406,SI,4,Ursna Sela,
324407,SI,4,Lukovica Pri Domzalah,
324408,SI,9,Crnci,
324409,SI,9,Krizevci V Prekmurju,
324410,SI,4,Kreplje,
324411,SI,9,Dobrovce,
324412,SI,9,Srednja Bistrica,
324413,SI,4,Dreznica,
324414,SI,9,Selce,
324415,SI,4,Zgornje Jezersko,
324416,SI,4,Podgorje,
324417,SI,4,Zadlog,
324418,SI,4,Krajna Vas,
324419,SI,9,Podsreda,
324420,SI,9,Lokovica,
324421,SI,4,Studor V Bohinju,
324422,SI,4,Locica,
324423,SI,9,Zaver,
324424,SI,4,Sostro,
324425,SI,4,Raccolico,
324426,SI,4,Cesta,
324427,SI,4,Koreno,
324428,SI,4,Krnica,
324429,SI,4,Brise,
324430,SI,4,Vrh Nad Krasnjo,
324431,SI,4,Gabrje Pod Spilkom,
324432,SI,4,Vernek,
324433,SI,4,Bresenza Di Taiano,
324434,SI,4,Pisajnovica,
324435,SI,9,Jesenih,
324436,SI,4,Podvolovljek,
324437,SI,9,Tesova,
324438,SI,4,Male Lipljene,
324439,SI,4,Kolovrat,
324440,SI,4,Lenart,
324441,SI,4,Zgornji Tuhinj,
324442,SI,9,Dobovec Pri Rogatcu,
324443,SI,4,Sink,
324444,SI,4,Predmeia,
324445,SI,9,Kamenica,
324446,SI,4,San Michael,
324447,SI,4,Macke,
324448,SI,4,Dobraule,
324449,SI,4,Vrzdenec,
324450,SI,9,Hudinja,
324451,SI,4,Golce,
324452,SI,4,Jastrebnik,
324453,SI,4,Zlato Polje,
324454,SI,9,Vrhloga,
324455,SI,4,Misji Dol,
324456,SI,4,Visnje,
324457,SI,4,Medija,
324458,SI,9,Slemensek,
324459,SI,9,Bojtina,
324460,SI,4,Jelsevica,
324461,SI,4,Male Brusnice,
324462,SI,4,Tenetise,
324463,SI,4,Veliko Ubeljsko,
324464,SI,4,Strane,
324465,SI,9,Lukanja,
324466,SI,9,Kokolajnsak,
324467,SI,4,Boriano,
324468,SI,4,Petkovec,
324469,SI,4,Pecovje,
324470,SI,9,Sodna Vas,
324471,SI,9,Kot,
324472,SI,9,Preg,
324473,SI,9,Spodnja Breznica,
324474,SI,9,Resnik,
324475,SI,9,Bolehnecici,
324476,SI,4,Rafolce,
324477,SI,4,Mali Cirnik,
324478,SI,4,Ribce,
324479,SI,4,Volavlje,
324480,SI,9,Dobrava Pri Skocjanu,
324481,SI,4,Siroka Set,
324482,SI,4,Zgornje Koseze,
324483,SI,4,Manastir Gotard,
324484,SI,4,Poljane Nad Blagovicom,
324485,SI,4,Drtija,
324486,SI,4,Spodnja Ribnica,
324487,SI,9,Cimerno,
324488,SI,4,Hrusevka,
324489,SI,4,Prevald,
324490,SI,4,Butajnova,
324491,SI,4,Benko,
324492,SI,4,Hlavce Njive,
324493,SI,4,Batuje,
324494,SI,9,Zgornja Hajdina,
324495,SI,4,Zimarice,
324496,SI,4,Loz,
324497,SI,9,Rakican,
324498,SI,9,Ozbalt,
324499,SI,9,Gomilica,
324500,SI,4,Polica,
324501,SI,4,Globel,
324502,SI,4,Mali Rakitovec,
324503,SI,4,Sobrace,
324504,SI,4,Laze Pri Dolskem,
324505,SI,4,Smiklavz,
324506,SI,4,Salilog,
324507,SI,9,Paroz,
324508,SI,9,Bukovje Pri Slivnici,
324509,SI,9,Licenca,
324510,SI,4,Ravne Pri Cerknem,
324511,SI,4,Velika Ilova Gora,
324512,SI,4,Vnajnarje,
324513,SI,9,Pajcice,
324514,SI,4,Goce,
324515,SI,4,Stopnik,
324516,SI,9,Savci,
324517,SI,4,Zapoge,
324518,SI,4,Lazec,
324519,SI,4,Cetez Pri Strugah,
324520,SI,4,Cerkljanski Vrh,
324521,SI,9,Bele Vode,
324522,SI,4,Berie,
324523,SI,4,Vrh Nad Zelimljami,
324524,SI,4,Podkum,
324525,SI,9,Smohor,
324526,SI,4,Gora Pri Pecah,
324527,SI,9,Johannisthal,
324528,SI,4,Pece,
324529,SI,9,Jablance,
324530,SI,9,Presa,
324531,SI,4,Podlanisce,
324532,SI,4,Gradisce Pri Lukovici,
324533,SI,4,Okrog Pri Motniko,
324534,SI,4,Trsevje,
324535,SI,9,Recica,
324536,SI,4,Adergas,
324537,SI,4,Slap,
324538,SI,9,Dravski Dvor,
324539,SI,4,Hotederschitz,
324540,SI,9,Jelovec,
324541,SI,4,Pusti Javor,
324542,SI,4,Saurazzt,
324543,SI,4,Gorenja Brdo,
324544,SI,9,Bajgot,
324545,SI,4,Spodnja Zadobrava,
324546,SI,4,Smrecje,
324547,SI,4,Gaber,
324548,SI,9,Kebelj,
324549,SI,4,Gabrska Gora,
324550,SI,4,Velika Vas,
324551,SI,4,Jance,
324552,SI,4,Erjavec,
324553,SI,4,Podlipa,
324554,SI,9,Ruperce,
324555,SI,9,Brezen,
324556,SI,4,Gornje Lozine,
324557,SI,4,Dolenje Brdo,
324558,SI,9,Selo,
324559,SI,4,Podhom,
324560,SI,9,Rogacovci,
324561,SI,4,Kokrica,
324562,SI,4,Sveti Trije Kralji,
324563,SI,9,Kraljevci,
324564,SI,4,Bukov Vrh,
324565,SI,9,Molak,
324566,SI,9,Jurski Vrh,
324567,SI,9,Zgornji Razbor,
324568,SI,4,Setnica,
324569,SI,9,Slatina Pri Ponikvi,
324570,SI,9,Miklavz Pri Taboru,
324571,SI,4,Baca Pri Podbrdu,
324572,SI,4,Dolenji Novi Svet,
324573,SI,4,Stiska Vas,
324574,SI,4,Jelsevec,
324575,SI,9,Zbelovo,
324576,SI,9,Stajnbrova,
324577,SI,4,Vipacco,
324578,SI,4,Borje,
324579,SI,4,Decani,
324580,SI,9,Strmec Pri Leskovcu,
324581,SI,4,Primoz Pri Ljubnem,
324582,SI,4,Okonina,
324583,SI,4,Kopriva,
324584,SI,9,Spodnja,
324585,SI,9,Lesicno,
324586,SI,9,Male Braslovce,
324587,SI,9,Catez Ob Savi,
324588,SI,4,Lese,
324589,SI,9,Zagorci,
324590,SI,9,Bistra,
324591,SI,4,Smartin Ob Dreti,
324592,SI,9,Stavesinci,
324593,SI,4,Zgonce,
324594,SI,9,Grabonoski Vrh,
324595,SI,4,Antignano,
324596,SI,4,Castel Lueghi,
324597,SI,4,Goregna Di Buciue,
324598,SI,4,Davca,
324599,SI,9,Gabernik,
324600,SI,4,Dolga Njiva,
324601,SI,4,Bistriski Dom,
324602,SI,4,Prase,
324603,SI,9,Malo Tinje,
324604,SI,4,Preska Nad Kostrevnico,
324605,SI,4,(( Temna Luza )),
324606,SI,4,Prikrnica,
324607,SI,4,Masun,
324608,SI,9,Gradisa,
324609,SI,4,Sentjurij,
324610,SI,4,Lipica,
324611,SI,9,Tropovci,
324612,SI,4,Mekinje,
324613,SI,4,Zabukovje,
324614,SI,4,Brestovica Pri Komnu,
324615,SI,4,Tirna,
324616,SI,4,Vrhovo Pri Zuzemberku,
324617,SI,4,Sveta Barbara,
324618,SI,4,Gorenja Brezovica,
324619,SI,9,Plevnik,
324620,SI,9,Luksendorf,
324621,SI,4,Podveza,
324622,SI,4,Sveti Kriz Pri Litiji,
324623,SI,4,Krekovse,
324624,SI,9,Pretrez,
324625,SI,4,Gradisce Pri Vipavi,
324626,SI,9,Bis,
324627,SI,4,Zagozd,
324628,SI,4,Dedni Dol,
324629,SI,4,Dobec,
324630,SI,4,Kanji Dol,
324631,SI,9,Smrecno,
324632,SI,4,Mali Korinj,
324633,SI,4,Knezja Vas,
324634,SI,9,Cernelavci,
324635,SI,4,Kazlje,
324636,SI,9,Berkovci,
324637,SI,4,Voklo,
324638,SI,4,Psata,
324639,SI,4,Sabonje,
324640,SI,9,Sulinci,
324641,SI,4,Homec,
324642,SI,4,Sela Pri Sumberka,
324643,SI,4,Visne,
324644,SI,4,Kitni Vrh,
324645,SI,4,Knezja Njiva,
324646,SI,4,Auremo Di Sopra,
324647,SI,9,Zitence,
324648,SI,4,Trboje,
324649,SI,4,Marzi,
324650,SI,9,Lisca,
324651,SI,4,Sentlambert,
324652,SI,9,Cadram,
324653,SI,9,Vrhole Pri Slovenskih Konjicah,
324654,SI,4,Kozjek,
324655,SI,9,Male Poljane,
324656,SI,4,Stoglej,
324657,SI,4,Billichgratz,
324658,SI,4,Trojana,
324659,SI,9,Hajns,
324660,SI,9,Zgornje Poljcane,
324661,SI,4,Vojsko,
324662,SI,9,Gotovlje,
324663,SI,4,Ihan,
324664,SI,9,Vanca Vas,
324665,SI,9,Dol,
324666,SI,9,Hrastje Pri Cerkljah,
324667,SI,4,Brezje Pri Dobrovi,
324668,SI,9,Socka,
324669,SI,4,Storie,
324670,SI,4,Giursici,
324671,SI,4,Kalisce,
324672,SI,9,Zagorje Pri Pilstanju,
324673,SI,9,Mezgovci,
324674,SI,9,Poljana,
324675,SI,9,Zabljek,
324676,SI,4,Velika Racna,
324677,SI,4,Klece Pri Dolu,
324678,SI,4,Potocco Del Confine,
324679,SI,9,Draza Vas,
324680,SI,9,Skakovci,
324681,SI,4,Loqua,
324682,SI,4,Jagersce,
324683,SI,4,Dolenja Ravan,
324684,SI,9,Zaga,
324685,SI,9,Oslusevci,
324686,SI,9,Rakovec,
324687,SI,4,Slepsek,
324688,SI,9,Bratislavci,
324689,SI,9,Stopnik,
324690,SI,4,Kloritnica,
324691,SI,4,Trebija,
324692,SI,4,Zgornje Bitnje,
324693,SI,4,Obcina,
324694,SI,9,Ljubija,
324695,SI,4,Sent Ozbald,
324696,SI,4,Tosko Celo,
324697,SI,4,Bocna,
324698,SI,9,Sestreze,
324699,SI,9,Krsinji Vrh,
324700,SI,4,Kladje Pri Krmelju,
324701,SI,9,Smartin Na Pohorju,
324702,SI,4,Kriska Vas,
324703,SI,9,Tinjska Gora,
324704,SI,9,Strazgonjca,
324705,SI,9,Kalce,
324706,SI,9,Planinska Vas,
324707,SI,4,Nova Stifta,
324708,SI,4,Podlom,
324709,SI,9,Dolnja Prekopa,
324710,SI,4,Temenica,
324711,SI,4,Venarse,
324712,SI,4,Stara Fuzina,
324713,SI,4,Voglje,
324714,SI,4,Gradence,
324715,SI,4,Sticna,
324716,SI,4,Vrhovec,
324717,SI,4,Lubiana,
324718,SI,4,Spodnje Duplje,
324719,SI,4,Prevoje,
324720,SI,9,Javorje,
324721,SI,4,Jevnica,
324722,SI,9,Pristova,
324723,SI,4,Castel Voltiano,
324724,SI,9,Reka,
324725,SI,9,Gager,
324726,SI,4,Bericevo,
324727,SI,4,Gorenja Dobrava,
324728,SI,9,Razkrizje,
324729,SI,9,Hosnica,
324730,SI,9,Breg,
324731,SI,4,Ravne Pri Smartnem,
324732,SI,9,Hudi Kot,
324733,SI,9,Rogoza,
324734,SI,4,Lahovce,
324735,SI,4,Ravne Nad Sentrupertom,
324736,SI,4,Mrzli Studenec,
324737,SI,9,Vrhole Pri Laporju,
324738,SI,4,Podslivnica,
324739,SI,4,Slatna,
324740,SI,4,Bloke,
324741,SI,9,Turiska Vas,
324742,SI,4,Mlinari,
324743,SI,4,Gorenji Cepovan,
324744,SI,4,Vitovlje,
324745,SI,4,Savina,
324746,SI,4,Spodnje Gorje,
324747,SI,4,Lubinj,
324748,SI,4,Srednje Laknice,
324749,SI,4,Vodnik,
324750,SI,4,Runarsko,
324751,SI,4,Sinkovec,
324752,SI,4,Okroglo,
324753,SI,4,Kandrse,
324754,SI,9,Loka Pri Framu,
324755,SI,4,Otosce,
324756,SI,9,Formin,
324757,SI,4,Volcji Potok,
324758,SI,4,Raunik,
324759,SI,4,Sella Del Bivio,
324760,SI,9,Gubno,
324761,SI,9,Prekopa,
324762,SI,4,Kosovelje,
324763,SI,4,Slivje,
324764,SI,4,Spitalic,
324765,SI,9,Stara Nova Vas,
324766,SI,9,Trotkova,
324767,SI,4,Zagorica Pri Dolskem,
324768,SI,4,Goricce Del Timavo,
324769,SI,4,Trenta,
324770,SI,9,Vrata,
324771,SI,4,Haudi,
324772,SI,4,Levpa,
324773,SI,4,Bukovo,
324774,SI,9,Drobtinci,
324775,SI,9,Dezno,
324776,SI,4,Cosina,
324777,SI,9,Mihovci,
324778,SI,4,Strmec,
324779,SI,9,Sladka Gora,
324780,SI,4,Opatje Selo,
324781,SI,9,Franz,
324782,SI,9,Smiklavz,
324783,SI,9,Sveti Trije Kralji,
324784,SI,9,Vodnik,
324785,SI,9,Kuljmanovi,
324786,SI,4,Auersperg,
324787,SI,9,Mihovce,
324788,SI,9,Dolenci,
324789,SI,9,Mala Strmica,
324790,SI,9,Dolenje Dole,
324791,SI,9,Kozminci,
324792,SI,9,Vratno,
324793,SI,9,Kale,
324794,SI,4,Osek,
324795,SI,9,Ravne,
324796,SI,9,Andrenci,
324797,SI,9,Zavodnje,
324798,SI,9,Koretno,
324799,SI,4,Slappe Zorzi,
324800,SI,4,Krasnja,
324801,SI,4,Luze,
324802,SI,9,Hocko Pohorje,
324803,SI,4,Rascica,
324804,SI,4,Pedrovo,
324805,SI,9,Lesane,
324806,SI,4,Dolnji Kot,
324807,SI,4,Trnovec,
324808,SI,4,Meznar,
324809,SI,9,Tomaz Pri Ormozu,
324810,SI,9,Spodnja Polskava,
324811,SI,4,Gorenje Lezece,
324812,SI,9,Remsnik,
324813,SI,4,Spodna Branica,
324814,SI,4,Gozd,
324815,SI,4,Glinje,
324816,SI,4,Ravnje,
324817,SI,9,Brdce,
324818,SI,9,Hotinja Vas,
324819,SI,9,Ivanjsevci Ob Scavnici,
324820,SI,4,Dolgi Rt,
324821,SI,4,Hrvatini,
324822,SI,4,Zirje,
324823,SI,4,Labinje,
324824,SI,9,Ogljensak,
324825,SI,9,Srednji Gasteraj,
324826,SI,9,Grabe,
324827,SI,9,Pekre,
324828,SI,4,Famlje,
324829,SI,9,Kostanj,
324830,SI,9,Piscchalz,
324831,SI,9,Jesenjak,
324832,SI,4,Planina Nad Horjulom,
324833,SI,9,Recica Ob Paki,
324834,SI,4,Rovt,
324835,SI,9,Mestni Vrh,
324836,SI,4,Log Nad Skofjo Loko,
324837,SI,9,Spodnja Kapla,
324838,SI,9,Lojen,
324839,SI,9,Kokorici,
324840,SI,4,Mali Dol,
324841,SI,4,Mrse,
324842,SI,9,Jezerce Pri Dobjem,
324843,SI,4,Goljace,
324844,SI,4,Drenov Gric,
324845,SI,4,Cepulje,
324846,SI,4,Woditz,
324847,SI,4,Prevalje,
324848,SI,9,Straza,
324849,SI,4,Sent Mihelj,
324850,SI,4,Mihovec,
324851,SI,4,Sable,
324852,SI,9,Cadraze,
324853,SI,9,Arto,
324854,SI,4,Mala Loka Pri Visnji Gori,
324855,SI,9,Moscanci,
324856,SI,9,Jegenyés,
324857,SI,9,Bucecovci,
324858,SI,9,Lapsina,
324859,SI,9,Borejci,
324860,SI,4,Dane Pri Sezani,
324861,SI,9,Zaloka,
324862,SI,4,Gaberce,
324863,SI,9,Studenice,
324864,SI,4,Kanizarica,
324865,SI,4,Dolenje,
324866,SI,4,Lipsenj,
324867,SI,9,Bisecki Vrh,
324868,SI,4,Dobje,
324869,SI,4,Pregarje,
324870,SI,4,Jakovica,
324871,SI,4,Hrast,
324872,SI,9,Logarovci,
324873,SI,9,Spodnje Hlapje,
324874,SI,9,Zbuke,
324875,SI,9,Zabukovje Nad Sevnico,
324876,SI,4,Mala Goba,
324877,SI,4,Budna,
324878,SI,4,Hotemaze,
324879,SI,9,Jernej,
324880,SI,4,Kodr,
324881,SI,4,Sveti Martin,
324882,SI,9,Lopatca,
324883,SI,9,Drusce,
324884,SI,9,Derbetici,
324885,SI,9,Zikarce,
324886,SI,9,Sredisce,
324887,SI,4,Gorjansko,
324888,SI,9,Dolnji Puzevci,
324889,SI,9,Zagojici,
324890,SI,9,Mocna,
324891,SI,4,Zalosce,
324892,SI,4,Sella,
324893,SI,4,Repnje,
324894,SI,9,Trstenik,
324895,SI,9,Királyfa,
324896,SI,4,Branica,
324897,SI,61,Ljubljana,
324898,SI,50,Koper,
324899,SI,B9,Skofja Loka,
324900,SI,52,Kranj,
324901,SI,94,Postojna,
324902,SI,B6,Sevnica,
324903,SI,J2,Maribor,
324904,SI,36,Idrija,
324905,SI,12,Brnik,
324906,SI,B7,Polje,
324907,SI,11,Celje,
324908,SI,G7,Domzale,
324909,SI,J9,Portoroz,
324910,SI,C2,Slovenj Gradec,
324911,SI,83,Nazarje,
324912,SI,J7,Novo Mesto,
324913,SI,D7,Velenje,
324914,SI,84,Nova Gorica,
324915,SI,73,Metlika,
324916,SI,B1,Semic,
324917,SI,D4,Trebnje,
324918,SI,L8,Slovenska Bistrica,
324919,SI,54,Brestanica,
324920,SI,54,Krsko,
324921,SI,72,Menges,
324922,SI,32,Grosuplje,
324923,SI,E7,Izlake,
324924,SI,L3,Ruse,
324925,SI,I5,Litija,
324926,SI,C9,Store,
324927,SI,H4,Jesenice,
324928,SI,3,Bled,
324929,SI,50,Valdoltra,
324930,SI,I5,Sava,
324931,SI,17,Dragatus,
324932,SI,61,Rudnik,
324933,SI,D2,Tolmin,
324934,SI,80,Murska Sobota,
324935,SI,A3,Radovljica,
324936,SI,50,Dekani,
324937,SI,15,Crensovci,
324938,SI,45,Kungota,
324939,SI,35,Brezovica,
324940,SI,17,Crnomelj,
324941,SI,97,Puconci,
324942,SI,B7,Sezana,
324943,SI,F6,Sveta Trojica,
324944,SI,D4,Ravne,
324945,SI,D3,Trbovlje,
324946,SI,K7,Ptuj,
324947,SI,1,Ajdovscina,
324948,SI,8,Brezice,
324949,SI,13,Cerknica,
324950,SI,25,Dravograd,
324951,SI,57,Lasko,
324952,SI,I3,Lenart,
324953,SI,A2,Radlje Ob Dravi,
324954,SI,A7,Rogaska Slatina,
324955,SI,35,Kozina,
324956,SI,H6,Kamnik,
324957,SI,H7,Kocevje,
324958,SI,79,Mozirje,
324959,SI,87,Ormoz,
324960,SI,J9,Piran,
324961,SI,E7,Zagorje Ob Savi,
324962,SI,C5,Smarje Pri Jelsah,
324963,SI,D5,Trzic,
324964,SI,E5,Vrhnika,
324965,SI,N5,Zalec,
324966,SI,L7,Sentjur,
324967,SI,40,Izola,
324968,SI,38,Ilirska Bistrica,
324969,SI,I6,Ljutomer,
324970,SI,22,Dol Pri Ljubljani,
324971,SI,L1,Ribnica,
324972,SI,64,Logatec,
324973,SI,H7,Videm,
324974,SI,82,Naklo,
324975,SI,76,Mislinja,
324976,SI,87,Velika Nedelja,
324977,SI,J7,Velike Brusnice,
324978,SI,8,Cerklje Ob Krki,
324979,SI,11,Leskovec,
324980,SI,29,Gornja Radgona,
324981,SI,D2,Most Na Soci,
324982,SI,50,Skocjan,
324983,SI,14,Cerkno,
324984,SI,8,Cerklje,
324985,SI,D4,Veliki Gaber,
324986,SI,B4,Sentjernej,
324987,SI,K5,Preddvor,
324988,SI,J5,Miren,
324989,SI,84,Gorica,
324990,SI,16,Crna Na Koroskem,
324991,SI,E2,Vitanje,
324992,SI,E6,Vuzenica,
324993,SI,F3,Zrece,
324994,SI,81,Muta,
324995,SI,34,Dol Pri Hrastniku,
324996,SI,50,Smarje Pri Kopru,
324997,SI,C8,Starse,
324998,SI,84,Sempas,
324999,SI,54,Senovo,
325000,SI,D6,Turnisce,
325001,SI,92,Podcetrtek,
325002,SI,A8,Rogatec,
325003,SI,J2,Limbus,
325004,SI,87,Miklavz Pri Ormozu,
325005,SI,27,Gorenja Vas,
325006,SI,O1,Cirkulane,
325007,SI,45,Kidricevo,
325008,SI,57,Rimske Toplice,
325009,SI,H6,Laze V Tuhinju,
325010,SI,71,Smlednik,
325011,SI,91,Pivka,
325012,SI,7,Dobrovo V Brdih,
325013,SI,E1,Vipava,
325014,SI,B2,Sencur,
325015,SI,57,Stopice,
325016,SI,B7,Grize,
325017,SI,G4,Polhov Gradec,
325018,SI,31,Gornji Petrovci,
325019,SI,5,Borovnica,
325020,SI,91,Dolnja Kosana,
325021,SI,L7,Sveti Jurij,
325022,SI,D5,Krize,
325023,SI,42,Jursinci,
325024,SI,38,Podgrad,
325025,SI,8,Pisece,
325026,SI,77,Gora,
325027,SI,B1,Planina,
325028,SI,C4,Slovenske Konjice,
325029,SI,94,Prestranek,
325030,SI,A1,Radenci,
325031,SI,38,Knezak,
325032,SI,74,Mezica,
325033,SI,C1,Skofljica,
325034,SI,87,Ivanjkovci,
325035,SI,52,Golnik,
325036,SI,50,Skofije,
325037,SI,84,Preserje,
325038,SI,50,Marezige,
325039,SI,F1,Zelezniki,
325040,SI,F2,Ziri,
325041,SI,32,Smarje-sap,
325042,SI,84,Solkan,
325043,SI,44,Kanal,
325044,SI,39,Visnja Gora,
325045,SI,A2,Dobrova,
325046,SI,19,Divaca,
325047,SI,94,Planina Pri Rakeku,
325048,SI,98,Fram,
325049,SI,38,Jelsane,
325050,SI,50,Potok,
325051,SI,98,Race,
325052,SI,D2,Podbrdo,
325053,SI,73,Gradac,
325054,SI,52,Zgornja Besnica,
325055,SI,16,Crna,
325056,SI,35,Obrov,
325057,SI,B9,Rovte,
325058,SI,84,Branik,
325059,SI,E7,Loke,
325060,SI,I5,Moravce,
325061,SI,H6,Stahovica,
325062,SI,54,Blanca,
325063,SI,78,Fokovci,
325064,SI,6,Bovec,
325065,SI,78,Bogojina,
325066,SI,D8,Velike Lasce,
325067,SI,39,Sentvid Pri Sticni,
325068,SI,44,Deskle,
325069,SI,B7,Dobravlje,
325070,SI,2,Beltinci,
325071,SI,46,Kobarid,
325072,SI,N5,Ponikva,
325073,SI,35,Poljane,
325074,SI,B7,Dutovlje,
325075,SI,17,Stari Trg Ob Kolpi,
325076,SI,84,Trnovo,
325077,SI,84,Dornberk,
325078,SI,31,Krizevci,
325079,SI,15,Srednja Bistrica,
325080,SI,C6,Smartno,
325081,SI,I2,Kuzma,
325082,SI,50,Ankaran,
325083,SI,C7,Sostanj,
325084,SI,B6,Trzisce,
325085,SI,A6,Rogasovci,
325086,SI,B3,Sentilj,
325087,SI,29,Spodnji Ivanjci,
325088,SI,L8,Pragersko,
325089,SI,J1,Majsperk,
325090,SI,13,Rakek,
325091,SI,A3,Lesce,
325092,SI,C5,Sentvid,
325093,SI,L7,Dramlje,
325094,SI,L7,Planina Pri Sevnici,
325095,SI,49,Komen,
325096,SI,66,Draga,
325097,SI,C6,Smartno Ob Paki,
325098,SI,84,Cepovan,
325099,SI,28,Gorisnica,
325100,SI,N5,Petrovce,
325101,SI,N3,Frankolovo,
325102,SI,78,Prosenjakovci,
325103,SI,I5,Gabrovka,
325104,SI,98,Loka,
325105,SI,50,Gracisce,
325106,SI,71,Medvode,
325107,SI,C2,Pamece,
325108,SI,46,Breginj,
325109,SI,46,Dreznica,
325110,SI,I5,Vodice,
325111,SI,I7,Stari Trg Pri Lozu,
325112,SI,A3,Begunje,
325113,SI,G7,Radomlje,
325114,SI,87,Podgorci,
325115,SI,J9,Secovlje,
325116,SI,F3,Lipa,
325117,SI,99,Radece,
325118,SI,L8,Laporje,
325119,SI,30,Gornji Grad,
325120,SI,32,Luce,
325121,SI,62,Ljubno Ob Savinji,
325122,SI,I6,Mala Nedelja,
325123,SI,J9,Nova Vas,
325124,SI,B3,Zgornja Velka,
325125,SI,A3,Kropa,
325126,SI,I5,Dole Pri Litiji,
325127,SI,36,Godovic,
325128,SI,86,Odranci,
325129,SI,97,Bodonci,
325130,SI,97,Mackovci,
325131,SI,D2,Sentviska Gora,
325132,SI,C8,Marjeta,
325133,SI,N3,Vojnik,
325134,SI,54,Raka,
325135,SI,C5,Mestinje,
325136,SI,89,Pesnica Pri Mariboru,
325137,SI,8,Loce,
325138,SI,38,Bukovica,
325139,SI,A3,Mosnje,
325140,SI,50,Bertoki,
325141,SI,50,Semedela,
325142,SI,50,Podgorje,
325143,SI,11,Ljubecna,
325144,SI,36,Crni Vrh,
325145,SI,34,Hrastnik,
325146,SI,68,Krtina,
325147,SI,B6,Kamnica,
325148,SI,C5,Grobelno,
325149,SI,53,Kranjska Gora,
325150,SI,54,Leskovec Pri Krskem,
325151,SI,25,Libelice,
325152,SI,A2,Vuhred,
325153,SI,19,Senozece,
325154,SI,I7,Stari Trg,
325155,SI,29,Police,
325156,SI,32,Velika Loka,
325157,SI,B7,Tabor,
325158,SI,82,Podnart,
325159,SI,1,Crnice,
325160,SI,C6,Gorenje,
325161,SI,54,Cesta,
325162,SI,E7,Zagorje,
325163,SI,19,Vremski Britof,
325164,SI,7,Dobrovo,
325165,SI,8,Bizeljsko,
325166,SI,49,Stanjel,
325167,SI,52,Zgornje Bitnje,
325168,SI,H6,Zgornji Tuhinj,
325169,SI,84,Visoko,
325170,SI,K2,Spodnja Kapla,
325171,SI,61,Besnica,
325172,SI,B7,Smarje,
325173,SI,L8,Zgornja Polskava,
325174,SI,J9,Lucija,
325175,SI,O1,Pristava,
325176,SI,8,Dobova,
325177,SI,89,Pernica,
325178,SI,D2,Grahovo,
325179,SI,F1,Sorica,
325180,SI,F1,Selca,
325181,SI,13,Begunje Pri Cerknici,
325182,SI,D7,Podkraj,
325183,SI,24,Dornava,
325184,SI,E1,Podnanos,
325185,SI,L7,Kalobje,
325186,SI,14,Jereb,
325187,SI,H6,Motnik,
325188,SI,D2,Dolenja Trebusa,
325189,SI,52,Zabnica,
325190,SI,36,Zirovnica,
325191,SI,B6,Bostanj,
325192,SI,68,Trojane,
325193,SI,I5,Polsnik,
325194,SI,B6,Krmelj,
325195,SI,8,Catez,
325196,SI,I3,Selce,
325197,SI,H5,Zgornje Jezersko,
325198,SI,N9,Apace,
325199,SI,L8,Smartno Na Pohorju,
325200,SI,I5,Vace,
325201,SI,B7,Lipica,
325202,SI,D4,Obcina,
325203,SI,39,Sticna,
325204,SI,6,Trenta,
325205,SI,25,Vrata,
325206,SI,L8,Spodnja Polskava,
325207,SI,9,Notranje Gorice,
325208,SI,94,Hrusevje,
325209,SI,61,Lubiana,
325210,SI,1,Vodice,
325211,SI,45,Lovrenc,
325212,SI,55,Zgornja Kungota,
325213,SI,H7,Kocevska Reka,
325214,SI,8,Artice,
325215,SI,37,Ig,
325216,SI,50,Pobegi,
325217,SI,L1,Dolenja Vas,
325218,SI,11,Teharje,
325219,SI,68,Lukovica,
325220,SI,B6,Sentjanz,
325221,SI,32,Dobje,
325222,SI,F3,Stranice,
325223,SI,57,Zidani Most,
325224,SI,11,Skofja Vas,
325225,SI,78,Moravske-toplice,
325226,SI,61,Volavlje,
325227,SI,7,Kojsko,
325228,SI,12,Cerklje Na Gorenjskem,
325229,SI,E7,Hrastnik,
325230,SI,51,Kozje,
325231,SI,N3,Nova Cerkev,
325232,SI,83,Smartno Ob Dreti,
325233,SI,53,Mojstrana,
325234,SI,53,Gozd Martuljek,
325235,SI,78,Martjanci,
325236,SI,A3,Begunje Na Gorenjskem,
325237,SI,J2,Malecnik,
325238,SI,N5,Grize,
325239,SI,H4,Hrusica,
325240,SI,39,Dob,
325241,SI,G4,Dobrova,
325242,SI,9,Brezovica Pri Ljubljani,
325243,SI,54,Leskovec,
325244,SI,38,Prem,
325245,SI,8,Globoko,
325246,SI,13,Grahovo,
325247,SI,49,Preserje,
325248,SI,38,Hrusica,
325249,SI,3,Blejska Dobrava,
325250,SI,13,Begunje,
325251,SI,B1,Brezje,
325252,SI,61,Crnuce,
325253,SI,71,Mavcice,
325254,SI,B9,Rovt,
325255,SI,36,Spodnja Idrija,
325256,SI,26,Spodnji Duplek,
325257,SI,J2,Bresternica,
325258,SI,A3,Kamna Gorica,
325259,SI,37,Visoko,
325260,SI,9,Jezero,
325261,SI,66,Srednja Vas,
325262,SI,39,Ivancna Gorica,
325263,SI,68,Prevoje,
325264,SI,L7,Lopatca,
325265,SI,8,Kapele,
325266,SI,L2,Ribnica Na Pohorju,
325267,SI,N2,Zgornji Leskovec,
325268,SI,45,Lovrenc Na Dravskem Polju,
325269,SI,26,Zgornja Korena,
325270,SI,N2,Videm Pri Ptuju,
325271,SI,K7,Mestni Vrh,
325272,SI,39,Gorenja Vas,
325273,SI,54,Straza,
325274,SI,L7,Gorica Pri Slivnici,
325275,SI,B6,Loka Pri Zidanem Mostu,
325276,SI,D3,Dobovec,
325277,SI,B3,Cersak,
325278,SI,11,Smartno,
325279,SI,A7,Podplat,
325280,SI,32,Brezje,
325281,SI,50,Brezovica,
325282,SI,61,Dobrunje,
325283,SI,92,Pristava Pri Mestinju,
325284,SI,J6,Mirna Pec,
325285,SI,J7,Ursna Sela,
325286,SI,C2,Smartno Pri Slovenj Gradcu,
325287,SI,H7,Stara Cerkev,
325288,SI,1,Sveti Tomaz,
325289,SI,B7,Lokev,
325290,SI,D4,Kamna Gorica,
325291,SI,39,Gabrovka,
325292,SI,E7,Cemsenik,
325293,SI,J2,Pekre,
325294,SI,H1,Pohorje,
325295,SI,G7,Dragomelj,
325296,SI,K7,Grajena,
325297,SI,E1,Col,
325298,SI,50,Smarje,
325299,SI,50,Crni Kal,
325300,SI,A3,Ljubno,
325301,SI,25,Sentjanz Pri Dravogradu,
325302,SI,E1,Duplje,
325303,SI,G7,Homec,
325304,SI,E1,Slap,
325305,SI,N5,Sempeter,
325306,SI,45,Apace,
325307,SI,97,Moscanci,
325308,SI,17,Hrast,
325309,SI,C4,Slatina,
325310,SI,8,Sromlje,
325311,SI,57,Jurkloster,
325312,SI,11,Smartno V Rozni Dolini,
325313,SI,D4,Velika Loka,
325314,SI,A6,Rogacovci,
325315,SI,C7,Topolsica,
325316,SI,84,Prvacina,
325317,SI,45,Cirkovce,
325318,SI,35,Materija,
325319,SI,54,Podbocje,
325320,SI,3,Bohinjska Bela,
325321,SI,14,Gorje,
325322,SI,49,Gorjansko,
325323,SI,31,Petrovci,
325324,SI,B7,Kreplje,
325325,SI,77,Kresnice,
325326,SI,9,Vnanje Gorice,
325327,SI,84,Kromberk,
325328,SI,61,Vnajnarje,
325329,SI,61,Sostro,
325330,SI,40,Jagodje,
325331,SI,L8,Preg,
325332,SI,L8,Strazgonjca,
325333,SI,49,Branica,
325334,SI,I5,Vodice Pri Gabrovki,
325335,SI,E3,Repnje,
325336,SI,I5,Mala Goba,
325337,SI,J6,Dolenja Vas,
325338,SI,51,Lesicno,
325339,SI,53,Ratece,
325340,SI,J1,Ptujska Gora,
325341,SI,B7,Orlek,
325342,SI,E7,Podkum,
325343,SI,B7,Dol Pri Vogljah,
325344,SI,D2,Slap,
325345,SI,D1,Sveti Jurij Ob Scavnici,
325346,SI,A8,Podplat,
325347,SI,D8,Turjak,
325348,SI,H9,Kostel,
325349,SI,16,Ludranski Vrh,
325350,SI,61,Podlipoglav,
325351,SI,C4,Koble,
325352,SI,71,Sveta Barbara,
325353,SI,52,Tenetise,
325354,SI,E3,Zapoge,
325355,SI,6,Soca,
325356,SI,64,Hotedrsica,
325357,SI,27,Sovodenj,
325358,SI,12,Grad,
325359,SI,J5,Temenica,
325360,SI,G7,Rova,
325361,SI,C8,Marjeta Na Dravskem Polju,
325362,SI,8,Velika Dolina,
325363,SI,D4,Dobrnic,
325364,SI,E5,Drenov Gric,
325365,SI,39,Vir,
325366,SI,92,Imeno,
325367,SI,9,Prevalje Pod Krimom,
325368,SI,E3,Vodice,
325369,SI,94,Strane,
325370,SI,B1,Maline,
325371,SI,G4,Crni Vrh,
325372,SI,19,Lase,
325373,SI,61,Zgornje Gameljne,
325374,SI,38,Celje,
325375,SI,9,Preserje,
325376,SI,J5,Kostanjevica Na Krasu,
325377,SI,G7,Dob,
325378,SI,D4,Sevnica,
325379,SI,A3,Brezje,
325380,SI,98,Morje,
325381,SI,89,Pesnica,
325382,SI,B2,Visoko,
325383,SI,B8,Bucka,
325384,SI,I9,Luce,
325385,SI,17,Vinica,
325386,SI,N5,Sempeter V Savinjski Dolini,
325387,SI,J2,Kamnica,
325388,SI,87,Ormob,
325389,SI,20,Videm,
325390,SI,94,Planina,
325391,SI,19,Podgrad,
325392,SI,B8,Skocjan,
325393,SI,L7,Ponikva,
325394,SI,K2,Ozbalt,
325395,SI,C4,Konjice,
325396,SI,1,Dobravlje,
325397,SI,52,Podreca,
325398,SI,D1,Sveti Jurij,
325399,SI,B7,Dane Pri Sezani,
325400,SI,61,Ljubljana-polje,
325401,SI,27,Poljane,
325402,SI,L7,Bukovje,
325403,SI,16,Jelen,
325404,SI,77,Negastern,
325405,SI,L8,Ogljensak,
325406,SI,L8,Trnovec,
325407,SI,57,Smohor,
325408,SI,G4,Brise,
325409,SI,L9,Preska Nad Kostrevnico,
325410,SI,I5,Spodnje Jelenje,
325411,SI,G4,Setnica,
325412,SI,A3,Slatna,
325413,SI,94,Stermizza Mater Dei,
325414,SI,D8,Rupe,
325415,SI,22,Dolsko,
325416,SI,L8,Preloge,
325417,SI,C2,Jesenjak,
325418,SI,J7,Dolenje Karteljevo,
325419,SI,C2,Zgornji Razbor,
325420,SI,52,Cepulje,
325421,SI,I3,Straze,
325422,SI,C8,Sankt Johann An Drau-felde,
325423,SI,B6,Breg,
325424,SI,89,Ruperce,
325425,SI,77,Moravce,
325426,SI,64,Rovte,
325427,SI,H6,Bela,
325428,SI,1,Goljace,
325429,SI,J6,Goriska Vas,
325430,SI,78,Sebeborci,
325431,SI,8,Mostec,
325432,SI,54,Zdole,
325433,SI,C7,Slemensek,
325434,SI,C8,Zatolice,
325435,SI,G6,Podstenice,
325436,SI,A3,Ovsise,
325437,SI,45,Pleterje,
325438,SI,C6,Podgora,
325439,SI,99,Svibno,
325440,SI,61,Podgrad,
325441,SI,94,Malo Ubelisko,
325442,SI,6,Srpenica,
325443,SI,61,Javor,
325444,SI,A3,Spodnja Dobrava,
325445,SI,D5,Zganja Vas,
325446,SI,11,Lancberk,
325447,SI,26,Zikarce,
325448,SI,28,Moskanjci,
325449,SI,36,Sinkovec,
325450,SI,B6,Studenec,
325451,SI,D2,Stopnik,
325452,SI,57,Rudenik,
325453,SI,H6,Kostanj,
325454,SI,L7,Podlog Pod Bohorjem,
325455,SI,94,Oblisca Grande,
325456,SI,I5,Dolgi Rt,
325457,SI,I6,Radoslavci,
325458,SI,C7,Zavodnje,
325459,SI,D2,Idrija Pri Baci,
325460,SI,47,Kobilje,
325461,SI,J5,Kostanjevica,
325462,SI,97,Andorhegy,
325463,SI,B9,Log,
325464,SI,68,Rafolce,
325465,SI,L8,Bojtina,
325466,SI,C7,Zaloka,
325467,SI,97,Pecarovci,
325468,SI,N9,Crnci,
325469,SI,32,Velika Ilova Gora,
325470,SI,68,Blagovica,
325471,SI,32,Predole,
325472,SI,B9,Bukov Vrh,
325473,SI,27,Hotavlje,
325474,SI,N2,Sela,
325475,SI,84,Zalosce,
325476,SI,B6,Zabukovje Nad Sevnico,
325477,SI,G3,Lipje,
325478,SI,1,Gustini,
325479,SI,84,Grgar,
325480,SI,L7,Loka Pri Zusmu,
325481,SI,I5,Ravne,
325482,SI,57,Male Grahovse,
325483,SI,E2,Brezen,
325484,SI,L7,Boletina,
325485,SI,27,Poljane Nad Skofjo Loko,
325486,SI,B3,Velka,
325487,SI,D1,Jurij,
325488,SI,87,Kog,
325489,SI,L3,Fala,
325490,SI,62,Lojen,
325491,SI,24,Bratislavci,
325492,SI,E5,Verd,
325493,SI,71,Trnovec,
325494,SI,J6,Malenska Vas,
325495,SI,D4,Stehanja Vas,
325496,SI,G4,Butajnova,
325497,SI,42,Grlinci,
325498,SI,L8,Pragerhof,
325499,SI,51,Gubno,
325500,SI,L8,Smartin Na Pohorju,
325501,SI,39,Leskovec,
325502,SI,52,Prase,
325503,SI,34,Podkraj,
325504,SI,I7,Loz,
325505,SI,39,Potok,
325506,SI,31,Martinje,
325507,SI,G4,Praproce,
325508,SI,B9,Vodnik,
325509,SI,C4,Zbelovo,
325510,SI,97,Vaneca,
325511,SI,36,Lome,
325512,SI,8,Krska Vas,
325513,SI,50,Brezovica Pri Gradinu,
325514,SI,97,Bodóhegy,
325515,SI,D5,Lese,
325516,SI,71,Spodnje Pirnice,
325517,SI,97,Borostyán,
325518,SI,64,Venarse,
325519,SI,G4,Pecovje,
325520,SI,92,Sedlarjevo,
325521,SI,84,Osek,
325522,SI,39,Temenica,
325523,SI,1,Hrusica,
325524,SI,19,Gaberce,
325525,SI,K7,Grajensak,
325526,SI,B8,Dobrava,
325527,SI,I3,Dolga Njive,
325528,SI,8,Gornja Pohanca,
325529,SI,G7,Brezovica Pri Dobu,
325530,SI,B7,Ravne,
325531,SI,E7,Tirna,
325532,SI,61,Tosko Celo,
325533,SI,C5,Shmare,
325534,SI,82,Zeje,
325535,SI,44,Rocinj,
325536,SI,1,Cernizza Goriziana,
325537,SI,D2,Sinkovec,
325538,SI,D2,Slap Ob Idrijci,
325539,SI,C4,Loce Pri Poljcanah,
325540,SI,I3,Lenart V Slovenskih Goricah,
325541,SI,61,Spodnja Zadobrava,
325542,SI,H7,Koprivnik,
325543,SI,B9,Bukovica,
325544,SI,E1,Podgrada,
325545,SI,80,Cernelavci,
325546,SI,50,Hrvatini,
325547,SI,39,Osredek,
325548,SI,3,Ribno,
325549,SI,52,Strmica,
325550,SI,H9,Ajbelj,
325551,SI,1,Bela,
325552,SI,54,Gazice,
325553,SI,F6,Nova Vas,
325554,SI,97,Predanovci,
