locId,country,region,city,postcode
325557,SK,,,
325558,SK,2,Bratislava,
325559,SK,6,NovÈ Mesto Nad V·hom,
325560,SK,3,NovÈ Mesto,
325561,SK,2,Lozorno,
325562,SK,1,Bansk· Bystrica,
325563,SK,8,Zilina,
325564,SK,3,Kosice,
325565,SK,6,Skalica,
325566,SK,7,Smolenice,
325567,SK,4,NovÈ Z·mky,
325568,SK,5,Rohoznik,
325569,SK,8,Ruzomberok,
325570,SK,4,Hurbanovo,
325571,SK,6,Star· Tur·,
325572,SK,6,Trencin,
325573,SK,8,Povazska Bystrica,
325574,SK,7,Piestany,
325575,SK,7,Banka,
325576,SK,7,Trnava,
325577,SK,4,Nitra,
325578,SK,8,Martin,
325579,SK,1,Prievidza,
325580,SK,1,Liptovsky Mikulas,
325581,SK,1,Zvolen,
325582,SK,5,Presov,
325583,SK,3,Michalovce,
325584,SK,5,Star· Lesn·,
325585,SK,5,Tatransk· Lomnica,
325586,SK,1,Liptovsk˝ Hr·dok,
325587,SK,6,Dubnica,
325588,SK,7,Senica,
325589,SK,2,Stupava,
325590,SK,4,Sala,
325591,SK,2,Malacky,
325592,SK,5,Poprad,
325593,SK,4,Sturovo,
325594,SK,1,Podbrezov·,
325595,SK,3,Trebisov,
325596,SK,5,Bardejov,
325597,SK,1,Ziar Nad Hronom,
325598,SK,2,Samorin,
325599,SK,8,Doln˝ KubÌn,
325600,SK,3,Strazske,
325601,SK,1,HlinÌk Nad Hronom,
325602,SK,4,Topolcany,
325603,SK,8,Cadca,
325604,SK,8,Bystrica,
325605,SK,6,Bojnice,
325606,SK,2,Dunajsk· Streda,
325607,SK,7,Bahon,
325608,SK,2,Velke Levare,
325609,SK,5,SvidnÌk,
325610,SK,7,Casta,
325611,SK,1,Brezno,
325612,SK,1,Lucenec,
325613,SK,1,Rimavsk· Sobota,
325614,SK,6,Banovce,
325615,SK,7,Galanta,
325616,SK,4,Levice,
325617,SK,1,Velky Krtis,
325618,SK,7,BlatnÈ,
325619,SK,8,N·mestovo,
325620,SK,1,Rev˙ca,
325621,SK,8,Ziar,
325622,SK,3,HumennÈ,
325623,SK,5,Kezmarok,
325624,SK,3,Roznava,
325625,SK,5,Spisska Nova Ves,
325626,SK,5,Stara Lubovna,
325627,SK,5,Vranov,
325628,SK,4,Kom·rno,
325629,SK,1,Handlov·,
325630,SK,8,P˙chov,
325631,SK,5,Krompachy,
325632,SK,1,Strbske Pleso,
325633,SK,7,Hlohovec,
325634,SK,2,Pezinok,
325635,SK,2,Velky Meder,
325636,SK,8,KysuckÈ NovÈ Mesto,
325637,SK,4,Vr·ble,
325638,SK,6,Partiz·nske,
325639,SK,1,Kremnica,
325640,SK,1,Vinica,
325641,SK,2,Sastin,
325642,SK,1,Nov· Ves,
325643,SK,8,Bytca,
325644,SK,4,Dudince,
325645,SK,2,Moravsk˝ Sv‰t˝ J·n,
325646,SK,4,Sahy,
325647,SK,1,Horn· Lehota,
325648,SK,3,Rakovec Nad Ondavou,
325649,SK,8,Doln˝ Lieskov,
325650,SK,8,Jelsava,
325651,SK,2,Senec,
325652,SK,7,Nizna,
325653,SK,3,Hencovce,
325654,SK,8,Rajec,
325655,SK,5,Batizovce,
325656,SK,1,Vyhne,
325657,SK,1,Pliesovce,
325658,SK,1,Turcianske Teplice,
325659,SK,8,Rajeck· Lesn·,
325660,SK,6,Nov· Dubnica,
325661,SK,6,Dubnica Nad V·hom,
325662,SK,1,Sliac,
325663,SK,5,Sabinov,
325664,SK,5,Svit,
325665,SK,4,NovÈ Sady,
325666,SK,4,ZlatÈ Moravce,
325667,SK,5,Giraltovce,
325668,SK,1,Tisovec,
325669,SK,7,Vieska,
325670,SK,2,K˙ty,
325671,SK,1,Polt·r,
325672,SK,1,Zarnovica,
325673,SK,6,Ilava,
325674,SK,8,Turany Nad Vahom,
325675,SK,6,Ladce,
325676,SK,3,StarÈ,
325677,SK,6,Myjava,
325678,SK,3,Moldava Nad Bodvou,
325679,SK,8,Oravsk· Lesn·,
325680,SK,7,Straze,
325681,SK,1,Detva,
325682,SK,4,Zeliezovce,
325683,SK,5,Levoca,
325684,SK,3,Secovce,
325685,SK,4,Nova Bana,
325686,SK,1,Filakovo,
325687,SK,1,Hnusta,
325688,SK,3,Sobrance,
325689,SK,3,Kralovsky Chlmec,
325690,SK,5,Stropkov,
325691,SK,2,Rovinka,
325692,SK,7,Velke Ulany,
325693,SK,8,RajeckÈ Teplice,
325694,SK,7,Jablonica,
325695,SK,1,Harmanec,
325696,SK,6,Nemsova,
325697,SK,6,Nov·ky,
325698,SK,6,DlhÈ,
325699,SK,5,Nova Lubovna,
325700,SK,2,Jelka,
325701,SK,1,Dolina,
325702,SK,8,Sucany,
325703,SK,1,Cinobana,
325704,SK,4,Imel,
325705,SK,7,Sladkovicovo,
325706,SK,2,Vinicne,
325707,SK,8,Velicna,
325708,SK,2,Modra,
325709,SK,2,Ivanka Pri Dunaji,
325710,SK,4,Tlmace,
325711,SK,1,Krizna,
325712,SK,4,KamenÌn,
325713,SK,5,Vysna Olsava,
325714,SK,3,Snina,
325715,SK,4,Pastuchov,
325716,SK,3,Slavec,
325717,SK,6,Vadovce,
325718,SK,6,Valask· Bel·,
325719,SK,1,Praha,
325720,SK,4,Bajc,
325721,SK,8,Teplicka Nad Vahom,
325722,SK,8,Turany,
325723,SK,6,Trencianska Tepla,
325724,SK,8,Oscadnica,
325725,SK,1,Halic,
325726,SK,1,Selce,
325727,SK,3,Tornala,
325728,SK,4,Dvory Nad Zitavou,
325729,SK,1,Hrinova,
325730,SK,4,Nesvady,
325731,SK,4,Tvrdosovce,
325732,SK,4,Pal·rikovo,
325733,SK,4,Luzianky,
325734,SK,1,Zvolensk· Slatina,
325735,SK,3,Prakovce,
325736,SK,3,Lemesany,
325737,SK,5,VysokÈ Tatry,
325738,SK,6,Mesto,
325739,SK,3,Velke Kapusany,
325740,SK,4,Surany,
325741,SK,1,Banska Stiavnica,
325742,SK,2,Ohrady,
325743,SK,2,Velky Biel,
325744,SK,7,Kralova,
325745,SK,8,Trsten·,
325746,SK,1,Kremnicka,
325747,SK,2,Holic,
325748,SK,2,Tomasov,
325749,SK,2,Malinovo,
325750,SK,2,Limbach,
325751,SK,5,Medzilaborce,
325752,SK,5,Lipany,
325753,SK,3,Cana,
325754,SK,5,Hanusovce Nad Toplou,
325755,SK,5,Kapusany,
325756,SK,2,Gabcikovo,
325757,SK,5,ZlatÈ,
325758,SK,2,Stvrtok Na Ostrove,
325759,SK,2,Dolny Stal,
325760,SK,6,Chynorany,
325761,SK,4,Topolcianky,
325762,SK,3,Cierna Nad Tisou,
325763,SK,7,Budmerice,
325764,SK,7,Zavar,
325765,SK,2,Chorv·tsk˝ Grob,
325766,SK,2,Na Ostrove,
325767,SK,8,Kostany Nad Turcom,
325768,SK,7,Vlckovce,
325769,SK,6,PruskÈ,
325770,SK,8,Zuberec,
325771,SK,1,Bystricka,
325772,SK,6,Kanianka,
325773,SK,8,Nitrianske Pravno,
325774,SK,1,Chrenovec,
325775,SK,8,Nedozery,
325776,SK,6,Drietoma,
325777,SK,6,Melcice,
325778,SK,8,Turzovka,
325779,SK,8,Velke Rovne,
325780,SK,8,Rabca,
325781,SK,1,Lubela,
325782,SK,6,Nitrianske Rudno,
325783,SK,7,Leopoldov,
325784,SK,1,Krupina,
325785,SK,8,Vr˙tky,
325786,SK,2,Miloslavov,
325787,SK,4,Dedinka,
325788,SK,2,Bernol·kovo,
325789,SK,2,Hamuliakovo,
325790,SK,2,Kalinkovo,
325791,SK,2,Sv‰t˝ Jur,
325792,SK,8,Bel·,
325793,SK,8,VarÌn,
325794,SK,8,SkalitÈ,
325795,SK,8,Kysuck˝ Lieskovec,
325796,SK,6,Koseca,
325797,SK,8,Rakov·,
325798,SK,8,Liptovsk· Tepl·,
325799,SK,8,Divina,
325800,SK,8,Klastor Pod Znievom,
325801,SK,8,Likavka,
325802,SK,8,Makov,
325803,SK,7,VrbovÈ,
325804,SK,7,Soporna,
325805,SK,2,Zemianska Olca,
325806,SK,4,Komjatice,
325807,SK,1,Polomka,
325808,SK,1,Z·vadka Nad Hronom,
325809,SK,1,Pohorel·,
325810,SK,1,Helpa,
325811,SK,1,Hodrusa,
325812,SK,1,Lovinobana,
325813,SK,1,Lieskovec,
325814,SK,1,Myto Pod Dumbierom,
325815,SK,7,Matuskovo,
325816,SK,5,Spisska Bela,
325817,SK,3,Tusicka Nova Ves,
325818,SK,5,Velka Lomnica,
325819,SK,5,Smizany,
325820,SK,5,Spisske Podhradie,
325821,SK,8,Lietavska Lucka,
325822,SK,6,Trencianske Teplice,
325823,SK,7,Brezov· Pod Bradlom,
325824,SK,8,Tvrdosin,
325825,SK,4,Kol·rovo,
325826,SK,3,Cecejovce,
325827,SK,3,Turna Nad Bodvou,
325828,SK,3,Zdana,
325829,SK,3,Nizny Hrabovec,
325830,SK,3,Dobsina,
325831,SK,3,Plesivec,
325832,SK,5,PodolÌnec,
325833,SK,3,Mal· Ida,
325834,SK,3,Trhoviste,
325835,SK,5,Margecany,
325836,SK,3,Gelnica,
325837,SK,5,Lubotin,
325838,SK,5,Chminianska Nov· Ves,
325839,SK,2,Senkvice,
325840,SK,8,Osada,
325841,SK,7,Brestovany,
325842,SK,7,Such· Nad Parnou,
325843,SK,7,CÌfer,
325844,SK,2,Gbely,
325845,SK,5,Lubotice,
325846,SK,4,Bosany,
325847,SK,7,Bojnicky,
325848,SK,4,HornÈ Otrokovce,
325849,SK,4,Slatina,
325850,SK,8,Z·kamennÈ,
325851,SK,6,Bolesov,
325852,SK,7,Dojc,
325853,SK,8,Staskov,
325854,SK,8,Terchov·,
325855,SK,8,Kr·sno Nad Kysucou,
325856,SK,6,LednickÈ Rovne,
325857,SK,1,Strba,
325858,SK,6,Kostoln·,
325859,SK,3,Stankovce,
325860,SK,6,Oslany,
325861,SK,3,Valaliky,
325862,SK,6,L˙ka,
325863,SK,2,Z·vod,
325864,SK,2,Studienka,
325865,SK,3,Lev·re,
325866,SK,3,Kr·snovce,
325867,SK,3,Streda Nad Bodrogom,
325868,SK,4,Koz·rovce,
325869,SK,4,Marcelov·,
325870,SK,6,HornÈ Srnie,
325871,SK,5,Kamenica,
325872,SK,6,Kamenec,
325873,SK,4,Pata,
325874,SK,6,Belusa,
325875,SK,1,Mikusovce,
325876,SK,7,Trebatice,
325877,SK,5,Star˝ Smokovec,
325878,SK,4,Tura,
325879,SK,5,Cervenica,
325880,SK,8,Pravenec,
325881,SK,6,Horna Suca,
325882,SK,1,Balaze,
325883,SK,6,Kocovce,
325884,SK,5,Jablonov,
325885,SK,5,Velky Saris,
325886,SK,3,Sena,
325887,SK,1,Horna Stubna,
325888,SK,5,Ladomirov·,
325889,SK,1,Vazec,
325890,SK,8,Star· Bystrica,
325891,SK,8,Oravsk· Polhora,
325892,SK,8,Strecno,
325893,SK,6,Dolna Suca,
325894,SK,6,Lednica,
325895,SK,8,Svinn·,
325896,SK,8,Lazany,
325897,SK,7,Cierny Brod,
325898,SK,7,Cierna Voda,
325899,SK,1,Kokava Nad Rimavicou,
325900,SK,1,Kalinovo,
325901,SK,2,Kostolany,
325902,SK,1,BadÌn,
325903,SK,3,Posa,
325904,SK,8,Drazkovce,
325905,SK,1,Mosovce,
325906,SK,8,Jasenica,
325907,SK,8,Liesek,
325908,SK,6,Biskupice,
325909,SK,3,Skaros,
325910,SK,3,TrstenÈ Pri Horn·de,
325911,SK,3,Drienovec,
325912,SK,3,Rozhanovce,
325913,SK,3,Biel,
325914,SK,5,Studenec,
325915,SK,4,Kralova Nad Vahom,
325916,SK,5,Durkov,
325917,SK,1,Klacany,
325918,SK,3,Svatuse,
325919,SK,7,DvornÌky,
325920,SK,3,Semsa,
325921,SK,3,Horovce,
325922,SK,3,Svinica,
325923,SK,3,Nizna Mysla,
325924,SK,3,BrzotÌn,
325925,SK,7,Podhradie,
325926,SK,3,Zarnov,
325927,SK,4,Diakovce,
325928,SK,3,Cestice,
325929,SK,7,Zbehy,
325930,SK,4,N·na,
325931,SK,7,Sintava,
325932,SK,1,Poloma,
325933,SK,1,Stiavnicka,
325934,SK,4,Hrkovce,
325935,SK,5,Torysa,
325936,SK,5,Kalniste,
325937,SK,5,Brezov,
325938,SK,7,Doln· Streda,
325939,SK,7,Jablonec,
325940,SK,5,Krivany,
325941,SK,8,Vysny Kubin,
325942,SK,8,Podvysok·,
325943,SK,3,Turnianska Nov· Ves,
325944,SK,8,Radola,
325945,SK,6,Cerenany,
325946,SK,8,Olesna,
325947,SK,8,Dvorec,
325948,SK,8,Dlh· Nad Oravou,
325949,SK,1,Sliace,
325950,SK,3,Cierna,
325951,SK,8,Cimhova,
325952,SK,8,Oravsk˝ Podz·mok,
325953,SK,1,V˝chodn·,
325954,SK,3,Gemersk· Horka,
325955,SK,1,Poproc,
325956,SK,3,Sacurov,
325957,SK,5,Uzovsky Salgov,
325958,SK,1,Cakanovce,
325959,SK,3,Stakcin,
325960,SK,5,Kochanovce,
325961,SK,5,HlinnÈ,
325962,SK,5,Dubovica,
325963,SK,5,Raznany,
325964,SK,5,Chotca,
325965,SK,5,Fulianka,
325966,SK,1,M˝tna,
325967,SK,5,Vysny Orlik,
325968,SK,8,Jastrabie,
325969,SK,1,Petrovce,
325970,SK,5,Svinia,
325971,SK,5,Rozkovany,
325972,SK,5,Krizova Ves,
325973,SK,5,Dacov,
325974,SK,5,Cicava,
325975,SK,5,Lada,
325976,SK,3,N·lepkovo,
325977,SK,5,Kojatice,
325978,SK,5,Michalany,
325979,SK,5,Lendak,
325980,SK,5,Lubica,
325981,SK,4,K·lna,
325982,SK,2,Cicov,
325983,SK,6,Opatovce,
325984,SK,1,Hontianske Nemce,
325985,SK,7,HornÈ Saliby,
325986,SK,5,Koskovce,
325987,SK,8,Nov· Bystrica,
325988,SK,8,Svrcinovec,
325989,SK,1,Bobrovec,
325990,SK,6,Lys· Pod Makytou,
325991,SK,6,Rybany,
325992,SK,6,Bosaca,
325993,SK,6,Zabokreky Nad Nitrou,
325994,SK,5,Poliakovce,
325995,SK,4,Pozba,
325996,SK,1,Mucin,
325997,SK,4,Preselany,
325998,SK,1,Cerovo,
325999,SK,4,Gbelce,
326000,SK,4,Radosina,
326001,SK,4,Solcany,
326002,SK,4,SvodÌn,
326003,SK,3,Davidov,
326004,SK,4,Velke Ripnany,
326005,SK,2,Sekule,
326006,SK,3,Bel· Nad Cirochou,
326007,SK,8,Z·zriv·,
326008,SK,6,Horn· Streda,
326009,SK,5,Hrabovec,
326010,SK,8,Klubina,
326011,SK,8,IstebnÈ,
326012,SK,8,Domaniza,
326013,SK,5,Bijacovce,
326014,SK,8,Novot,
326015,SK,5,Dapalovce,
326016,SK,4,Pukanec,
326017,SK,5,Turcovce,
326018,SK,3,Ochtin·,
326019,SK,5,Sarisske Dravce,
326020,SK,1,Jakubovany,
326021,SK,5,Caklov,
326022,SK,3,Nizna Slana,
326023,SK,6,Bzince Pod Javorinou,
326024,SK,7,Drahovce,
326025,SK,2,BrodskÈ,
326026,SK,7,Madunice,
326027,SK,2,Petrova Ves,
326028,SK,6,Chocholn·,
326029,SK,3,Kopcany,
326030,SK,8,Cierne,
326031,SK,8,Lazy Pod Makytou,
326032,SK,1,Krivan,
326033,SK,1,Ocova,
326034,SK,1,Viglas,
326035,SK,8,Liskov·,
326036,SK,5,Kamienka,
326037,SK,5,Letanovce,
326038,SK,5,Jakubany,
326039,SK,3,Velka Ida,
326040,SK,5,Vislanka,
326041,SK,5,Jarabina,
326042,SK,5,Haniska,
326043,SK,5,Spisska Stara Ves,
326044,SK,5,Ohradzany,
326045,SK,8,Krpelany,
326046,SK,5,BystrÈ,
326047,SK,3,SlovenskÈ NovÈ Mesto,
326048,SK,3,DlhÈ Nad Cirochou,
326049,SK,3,Vechec,
326050,SK,5,Vysny Zipov,
326051,SK,8,Lietava,
326052,SK,7,Sobotiste,
326053,SK,1,Budca,
326054,SK,7,Abrah·m,
326055,SK,4,Branc,
326056,SK,4,Moca,
326057,SK,1,Sebedrazie,
326058,SK,1,Slanec,
326059,SK,4,HornÈ Semerovce,
326060,SK,3,Bohdanovce,
326061,SK,5,Siroke,
326062,SK,4,Risnovce,
326063,SK,4,Krusovce,
326064,SK,6,Prasice,
326065,SK,6,Omsenie,
326066,SK,7,Radosovce,
326067,SK,1,Raztocno,
326068,SK,6,Bystricany,
326069,SK,1,Benus,
326070,SK,6,Nitrianske Sucany,
326071,SK,8,Gbelany,
326072,SK,6,Lubina,
326073,SK,8,Zborov Nad Bystricou,
326074,SK,8,P·rnica,
326075,SK,4,Velke Ludince,
326076,SK,4,Velky Kyr,
326077,SK,1,Lovcica,
326078,SK,2,Zlatn· Na Ostrove,
326079,SK,7,Tomasikovo,
326080,SK,7,DolnÈ Saliby,
326081,SK,7,Bucany,
326082,SK,4,Radvan Nad Dunajom,
326083,SK,1,Lutila,
326084,SK,1,Ozdany,
326085,SK,1,Radzovce,
326086,SK,1,Zelovce,
326087,SK,1,JesenskÈ,
326088,SK,4,Cabaj,
326089,SK,5,Kendice,
326090,SK,5,Kruzlov,
326091,SK,7,Kosuty,
326092,SK,5,Jarovnice,
326093,SK,5,Raslavice,
326094,SK,3,Budkovce,
326095,SK,5,Kracunovce,
326096,SK,5,Malcov,
326097,SK,3,Secovska Polianka,
326098,SK,5,Harichovce,
326099,SK,5,Kurima,
326100,SK,5,Pecovska Nova Ves,
326101,SK,5,Hazlin,
326102,SK,5,Vitaz,
326103,SK,4,Semerovo,
326104,SK,1,Slovenska Lupca,
326105,SK,1,DivÌn,
326106,SK,1,Velky Blh,
326107,SK,1,Lesenice,
326108,SK,7,Hrnciarovce,
326109,SK,1,Busince,
326110,SK,5,Kruzlova,
326111,SK,7,Moravany Nad V·hom,
326112,SK,3,PribenÌk,
326113,SK,2,Raca,
326114,SK,1,Cierny Balog,
326115,SK,4,ChotÌn,
326116,SK,5,Licartovce,
326117,SK,8,Povazsky Chlmec,
326118,SK,4,B·nov,
326119,SK,3,Rimavska Sec,
326120,SK,5,Chmelov,
326121,SK,1,KosorÌn,
326122,SK,1,Hostice,
326123,SK,5,Mnisek,
326124,SK,1,Mastinec,
326125,SK,4,Vieska Nad Zitavou,
326126,SK,4,Pana,
326127,SK,2,Slovensk˝ Grob,
326128,SK,6,Timoradza,
326129,SK,8,Certov,
326130,SK,3,Medzev,
326131,SK,4,Lehota,
326132,SK,4,B·b Majer,
326133,SK,4,Kuzmice,
326134,SK,2,Cierne Pole,
326135,SK,4,Mocenok,
326136,SK,3,Felso-valy,
326137,SK,1,P·lh·za,
326138,SK,1,Durkovce,
326139,SK,4,Cerov·,
326140,SK,1,Krtis,
326141,SK,2,Marianka,
326142,SK,4,MojmÌrovce,
326143,SK,4,Mal˝ B·b,
326144,SK,2,Borinka,
326145,SK,6,Kopanica Lackech,
326146,SK,2,Holiare,
326147,SK,5,Nov· Lesn·,
326148,SK,7,Dechtice,
326149,SK,4,Ludanice,
326150,SK,1,Malachov,
326151,SK,1,Sajba,
326152,SK,5,Sedikart,
326153,SK,1,Hrachovo,
326154,SK,3,Leles,
326155,SK,4,Salase,
326156,SK,3,Saca,
326157,SK,7,Salgocka,
326158,SK,4,Dvor Mlad˝ H·j,
326159,SK,2,Dvor Vrbina,
326160,SK,7,Majcichov,
326161,SK,7,Bohdanovce Nad Trnavou,
326162,SK,7,Koplotovce,
326163,SK,1,Jaln·,
326164,SK,3,Kysak,
326165,SK,7,HornÈ DubovÈ,
326166,SK,6,Trencianska Turna,
326167,SK,4,Bory,
326168,SK,4,Almas,
326169,SK,4,K˝r Nitriansky,
326170,SK,4,Tup·,
326171,SK,7,Stefanov,
326172,SK,1,Modry Kamen,
326173,SK,5,Plavnica,
326174,SK,4,Velky Cetin,
326175,SK,6,Castkovce,
326176,SK,3,Deregnyo,
326177,SK,4,Strekov,
326178,SK,6,Dvor JelenÈ Jamy,
326179,SK,1,Balog,
326180,SK,3,Solnicka,
326181,SK,1,Vysok·,
326182,SK,3,Ruskov,
326183,SK,4,Ivanka Pri Nitre,
326184,SK,7,Malzenice,
326185,SK,3,Trebejov,
326186,SK,3,Druzstevna Pri Hornade,
326187,SK,2,Lehnice,
326188,SK,7,Rozbehy,
326189,SK,4,Cabaj-capor,
326190,SK,7,VeselÈ,
326191,SK,4,Velke Zaluzie,
326192,SK,7,Horn· Krup·,
326193,SK,2,Tr·vnik,
326194,SK,1,Tajov,
326195,SK,7,Siladice,
326196,SK,7,Vozokany,
326197,SK,1,Pohorelska Masa,
326198,SK,6,StehlÌci,
326199,SK,7,Katlovce,
326200,SK,6,Star· Huta,
326201,SK,4,Velke Uherce,
326202,SK,7,Mostov·,
326203,SK,6,Velke Bedzany,
326204,SK,2,Eberhart,
326205,SK,8,Pruzina,
326206,SK,1,Sunava,
326207,SK,5,Javorina,
326208,SK,8,DrienovÈ,
326209,SK,5,Trnkov,
326210,SK,4,Mikula,
326211,SK,4,Brodzany,
326212,SK,5,Gregorovce,
326213,SK,3,Bol,
326214,SK,2,Rohovce,
326215,SK,7,Velke Orviste,
326216,SK,4,Jacovce,
326217,SK,2,Plavecky Stvrtok,
326218,SK,4,Hostie,
326219,SK,8,Lokca,
326220,SK,1,Hronec,
326221,SK,3,Drnava,
326222,SK,7,Doln· Krup·,
326223,SK,4,Salgovce,
326224,SK,6,MalÈ Hoste,
326225,SK,8,Besenova,
326226,SK,7,Hoste,
326227,SK,5,Kluknava,
326228,SK,2,CsicsÛ,
326229,SK,6,Tes·re,
326230,SK,5,Horn˝ Smokovec,
326231,SK,3,Borsa,
326232,SK,8,PrÌbovce,
326233,SK,3,Dlhe Klcovo,
326234,SK,8,Dolny Hricov,
326235,SK,4,Pribeta,
326236,SK,4,Telince,
326237,SK,8,SlovenskÈ Pravno,
326238,SK,4,Biskupov·,
326239,SK,3,Stitnik,
326240,SK,7,Velke Kostolany,
326241,SK,8,Brezovica,
326242,SK,7,DolnÈ Zelenice,
326243,SK,1,HÙrka,
326244,SK,3,Markusovce,
326245,SK,5,Podhorany,
326246,SK,5,Spissky Stvrtok,
326247,SK,5,Spisska Teplica,
326248,SK,8,Zborov,
326249,SK,5,Smilno,
326250,SK,8,Turie,
326251,SK,8,Rosina,
326252,SK,3,Parchovany,
326253,SK,3,Mokrance,
326254,SK,6,Tuchyna,
326255,SK,3,Spisske Bystre,
326256,SK,8,Visnove,
326257,SK,8,Precin,
326258,SK,8,Sulov,
326259,SK,1,Lucky,
326260,SK,1,Benice,
326261,SK,2,Brestovec,
326262,SK,7,Cervenik,
326263,SK,4,B·torove Kosihy,
326264,SK,7,Zelenec,
326265,SK,2,Topolniky,
326266,SK,2,Hubice,
326267,SK,2,K˙tniky,
326268,SK,2,Orechova Poton,
326269,SK,2,HornÈ M˝to,
326270,SK,2,Medvedov,
326271,SK,2,Blatn· Na Ostrove,
326272,SK,2,Doln˝ Bar,
326273,SK,2,Baka,
326274,SK,8,Pucov,
326275,SK,7,DubovÈ,
326276,SK,6,Visolaje,
326277,SK,7,HlbokÈ,
326278,SK,8,Str·nske,
326279,SK,8,Suja,
326280,SK,8,JasenovÈ,
326281,SK,8,Kunerad,
326282,SK,8,Divinka,
326283,SK,2,Letnicie,
326284,SK,2,Cakany,
326285,SK,6,Ivanovce,
326286,SK,2,Jurov·,
326287,SK,2,Velka Paka,
326288,SK,2,SmolinskÈ,
326289,SK,7,Kov·lov,
326290,SK,6,Zemianske Kostolany,
326291,SK,7,Sajdikove Humence,
326292,SK,4,Kolta,
326293,SK,4,ZemnÈ,
326294,SK,4,DolnÈ Semerovce,
326295,SK,5,Mokroluh,
326296,SK,5,Sverzov,
326297,SK,5,Kurov,
326298,SK,1,Petrov·,
326299,SK,5,Lop˙chov,
326300,SK,5,Cigelka,
326301,SK,5,Abrahamovce,
326302,SK,5,StebnÌk,
326303,SK,5,Kukov·,
326304,SK,5,Lucka,
326305,SK,3,Panovce,
326306,SK,5,Kucin,
326307,SK,4,Demandice,
326308,SK,3,Nizny Klatov,
326309,SK,3,Hylov,
326310,SK,3,Kalsa,
326311,SK,3,Beniakovce,
326312,SK,3,Vinicky,
326313,SK,3,Cicarovce,
326314,SK,3,VinnÈ,
326315,SK,3,Hatalov,
326316,SK,5,Rudlov,
326317,SK,3,Pozdisovce,
326318,SK,5,Hermanovce,
326319,SK,5,Cierne Nad Toplou,
326320,SK,3,Kladzany,
326321,SK,5,SkrabskÈ,
326322,SK,4,Pohronsk˝ Ruskov,
326323,SK,5,TovarnÈ,
326324,SK,3,Hamre,
326325,SK,5,Slovensk· Volov·,
326326,SK,5,Ondavske Matiasovce,
326327,SK,5,Vysny Hrusov,
326328,SK,7,Hrusov,
326329,SK,4,Salka,
326330,SK,1,Muran,
326331,SK,4,Muzla,
326332,SK,4,Cakajovce,
326333,SK,4,Oponice,
326334,SK,3,Kuzmice,
326335,SK,6,Tvrdomestice,
326336,SK,1,Z·vada,
326337,SK,1,Kovacova,
326338,SK,4,Sv‰toplukovo,
326339,SK,1,Dobr· Niva,
326340,SK,1,Horna Zdana,
326341,SK,1,BzovÌk,
326342,SK,1,Bulhary,
326343,SK,1,Dobroc,
326344,SK,1,Velke Zlievce,
326345,SK,1,Trebelovce,
326346,SK,1,Opatovsk· Nov· Ves,
326347,SK,1,Rapovce,
326348,SK,3,Vcelince,
326349,SK,1,Hrnciarske Zaluzany,
326350,SK,1,Cerencany,
326351,SK,1,Sirkovce,
326352,SK,1,Tepl˝ Vrch,
326353,SK,1,Medzibrod,
326354,SK,3,Uzovsk· Panica,
326355,SK,1,Vlkanov·,
326356,SK,1,Lucatin,
326357,SK,1,Priechod,
326358,SK,1,Brusno,
326359,SK,1,Hiadel,
326360,SK,1,Lubietova,
326361,SK,1,Valask·,
326362,SK,1,Nemeck·,
326363,SK,1,Pohronsk· Polhora,
326364,SK,1,Jasenie,
326365,SK,1,Predajn·,
326366,SK,5,Jakubova Vola,
326367,SK,3,Bretejovce,
326368,SK,5,Fintice,
326369,SK,5,Pusovce,
326370,SK,1,Celovce,
326371,SK,5,Drienov,
326372,SK,5,Drienovsk· Nov· Ves,
326373,SK,5,Demjata,
326374,SK,5,Fricovce,
326375,SK,5,Rusk· Nov· Ves,
326376,SK,4,Velke Lovce,
326377,SK,5,Petrovany,
326378,SK,5,Sarisska Poruba,
326379,SK,5,Hniezdne,
326380,SK,5,Nizne Ruzbachy,
326381,SK,5,Orlov,
326382,SK,5,Vrbov,
326383,SK,5,Slovensk· Ves,
326384,SK,3,Lucivna,
326385,SK,5,Zdiar,
326386,SK,3,Rudnany,
326387,SK,5,Bystrany,
326388,SK,5,Hrabusice,
326389,SK,5,Richnava,
326390,SK,1,RybnÌk,
326391,SK,5,Kalava,
326392,SK,5,Matejovce,
326393,SK,5,OdorÌn,
326394,SK,5,Spisske Vlachy,
326395,SK,5,Dlhe Straze,
326396,SK,5,Dravce,
326397,SK,5,Chmelova,
326398,SK,5,Gerlachov,
326399,SK,5,Gaboltov,
326400,SK,6,Zliechov,
326401,SK,2,Tany,
326402,SK,7,Reca,
326403,SK,6,Temes,
326404,SK,1,Hronsek,
326405,SK,5,Circ,
326406,SK,4,Trnovec Nad V·hom,
326407,SK,8,Z·biedovo,
326408,SK,7,Horne Trhoviste,
326409,SK,2,Holice,
326410,SK,3,Vlachovo,
326411,SK,4,Kovarce,
326412,SK,4,Nagyszegpuszta,
326413,SK,6,K·tov,
326414,SK,3,Velky Folkmar,
326415,SK,7,Chtelnica,
326416,SK,6,ZlatnÌky,
326417,SK,7,Dolany,
326418,SK,7,Opoj,
326419,SK,5,Mlynceky,
326420,SK,1,Trnav· Hora,
326421,SK,8,Lask·r,
326422,SK,7,J·novce,
326423,SK,1,Doln· Lehota,
326424,SK,2,Kostolne Kracany,
326425,SK,4,Slepcany,
326426,SK,3,Nizny Zipov,
326427,SK,3,Ulic,
326428,SK,5,Olka,
326429,SK,1,Liptovsk· Kokava,
326430,SK,4,Kl·tova Nov· Ves,
326431,SK,8,Zakopcie,
326432,SK,1,Liptovsk˝ J·n,
326433,SK,1,Vlachy,
326434,SK,3,Polany,
326435,SK,8,Stranavy,
326436,SK,7,Z·horie,
326437,SK,7,Krakovany,
326438,SK,8,Krusetnica,
326439,SK,8,Zubrohlava,
326440,SK,1,Cerin,
326441,SK,7,Dolne Lovcice,
326442,SK,7,Dubov·,
326443,SK,6,Kos,
326444,SK,3,Rudn·,
326445,SK,4,Santovka,
326446,SK,3,Stretavka,
326447,SK,1,Nemce,
326448,SK,1,Kr·liky,
326449,SK,4,Vlcany,
326450,SK,4,Sk˝cov,
326451,SK,2,Eliasovce,
326452,SK,8,HlinÌk,
326453,SK,3,Jaklovce,
326454,SK,4,Zirany,
326455,SK,1,Podkonice,
326456,SK,6,DolnÈ Srnie,
326457,SK,7,Boler·z,
326458,SK,2,Vojka Nad Dunajom,
326459,SK,3,D˙bravka,
326460,SK,2,Padan,
326461,SK,2,Okoc,
326462,SK,2,Hruby Sur,
326463,SK,6,DolnÈ Vestenice,
326464,SK,3,Pavlovce Nad Uhom,
326465,SK,1,Pribylina,
326466,SK,8,Rakovo,
326467,SK,1,RovnÈ,
326468,SK,5,Medzianky,
326469,SK,7,JaslovskÈ Bohunice,
326470,SK,2,Kvetoslavov,
326471,SK,4,Pavlov·,
326472,SK,6,Hr·dok,
326473,SK,8,Lubochna,
326474,SK,3,Hrhov,
326475,SK,2,Vajnory,
326476,SK,7,HarmÛnia,
326477,SK,4,Velke Vozokany,
326478,SK,4,Polny Kesov,
326479,SK,3,Hranovnica,
326480,SK,2,Hviezdoslavov,
326481,SK,7,Borovce,
326482,SK,2,Jahodn·,
326483,SK,7,Ruzindol,
326484,SK,1,Liptovsk· Osada,
326485,SK,6,MoravskÈ LieskovÈ,
326486,SK,4,DolnÈ Chlebany,
326487,SK,3,Ciz,
326488,SK,5,Z·lesie,
326489,SK,3,Hnilcik,
326490,SK,5,Tulcik,
326491,SK,8,Slovany,
326492,SK,8,Brodno,
326493,SK,4,Besenov,
326494,SK,4,HornÈ Lefantovce,
326495,SK,7,Hradiste Pod Vratnom,
326496,SK,1,Kopernica,
326497,SK,4,Chorvatice,
326498,SK,6,Dezerice,
326499,SK,5,Vysne Ruzbachy,
326500,SK,5,Vlkov·,
326501,SK,3,Rostar,
326502,SK,6,Cachtice,
326503,SK,6,Podolie,
326504,SK,6,Pravotice,
326505,SK,4,Plastovce,
326506,SK,2,Hruba Borsa,
326507,SK,5,Slatvina,
326508,SK,6,Uhrovec,
326509,SK,4,Bina,
326510,SK,1,Pavlovce,
326511,SK,1,Cebovce,
326512,SK,4,Aleksince,
326513,SK,1,Bzenica,
326514,SK,4,Ladice,
326515,SK,8,Klin,
326516,SK,2,Trsten· Na Ostrove,
326517,SK,4,Iza,
326518,SK,3,Cernochov,
326519,SK,1,SennÈ,
326520,SK,7,Surovce,
326521,SK,4,TovarnÌky,
326522,SK,7,Prasnik,
326523,SK,1,Hradiste,
326524,SK,4,Bojn·,
326525,SK,4,Cechynce,
326526,SK,4,Kralov Brod,
326527,SK,4,Jelenec,
326528,SK,2,Laksarska Nova Ves,
326529,SK,8,Kralovany,
326530,SK,8,Neslusa,
326531,SK,7,Topolnica,
326532,SK,4,Male Ripnany,
326533,SK,3,Blazice,
326534,SK,3,Slavkovce,
326535,SK,3,Rozlozna,
326536,SK,7,Ostrov,
326537,SK,8,OravskÈ VeselÈ,
326538,SK,8,Vysok· Nad Kysucou,
326539,SK,3,Jovsa,
326540,SK,8,L˙ky,
326541,SK,1,Chrenovec-brusno,
326542,SK,4,Hrusovany,
326543,SK,6,Mokr˝ H·j,
326544,SK,7,Sasinkovo,
326545,SK,4,Chl'aba,
326546,SK,8,Klacno,
326547,SK,2,Vydrany,
326548,SK,8,Predmier,
326549,SK,5,Marhan,
326550,SK,3,Ladmovce,
326551,SK,7,Velka Maca,
326552,SK,7,Smrd·ky,
326553,SK,1,Medovarce,
326554,SK,4,Karva,
326555,SK,1,Dolna Zdana,
326556,SK,4,Tr·vnica,
326557,SK,4,Vycapy-opatovce,
326558,SK,5,Kosarovce,
326559,SK,8,PlevnÌk,
326560,SK,2,Kopcany,
326561,SK,4,Ket,
326562,SK,5,Vysna Sebastova,
326563,SK,2,Dunajsk˝ Kl·tov,
326564,SK,1,Sloboda,
326565,SK,5,Granc-petrovce,
326566,SK,3,Nizne Nemecke,
326567,SK,2,Bohelov,
326568,SK,4,Lovce,
326569,SK,4,Hostovce,
326570,SK,7,Vistuk,
326571,SK,2,Duna-vajka,
326572,SK,3,Velaty,
326573,SK,6,Diviaky Nad Nitricou,
326574,SK,1,PrÌbelce,
326575,SK,1,Doln· Strehov·,
326576,SK,6,Trencianske Jastrabie,
326577,SK,2,Ivanka,
326578,SK,8,Bobrov,
326579,SK,4,Cernik,
326580,SK,2,Ton,
326581,SK,6,Diviacka Nov· Ves,
326582,SK,6,Stvrtok,
326583,SK,4,Devicany,
326584,SK,1,Blhovce,
326585,SK,3,ZatÌn,
326586,SK,2,Ekecs,
326587,SK,2,Cenkovce,
326588,SK,7,Biely Kostol,
326589,SK,3,Slovinky,
326590,SK,6,Skacany,
326591,SK,4,Nitrianske Hrnciarovce,
326592,SK,6,Doln· Poruba,
326593,SK,6,KrajnÈ,
326594,SK,5,Frickovce,
326595,SK,3,Mala Trna,
326596,SK,4,Beladice,
326597,SK,5,Lubovec,
326598,SK,7,Hrnciarovce Nad Parnou,
326599,SK,8,Rudina,
326600,SK,4,Obid,
326601,SK,4,PlavÈ Vozokany,
326602,SK,2,Balon,
326603,SK,1,Kr·sna,
326604,SK,3,Sokol,
326605,SK,4,Tesedikovo,
326606,SK,5,Iliasovce,
326607,SK,4,Modrany,
326608,SK,4,Bardonovo,
326609,SK,7,TrstÌn,
326610,SK,7,Trakovice,
326611,SK,8,Zbynov,
326612,SK,4,Nova Straz,
326613,SK,4,Tekovsk˝ Hr·dok,
326614,SK,8,Liptovsk· Sielnica,
326615,SK,5,Dulova Ves,
326616,SK,7,Sv‰t˝ Peter,
326617,SK,7,Spacince,
326618,SK,1,Sklabin·,
326619,SK,6,MalÈ Uherce,
326620,SK,1,Prochot,
326621,SK,2,Solosnica,
326622,SK,4,Kamenicna,
326623,SK,7,Velky Grob,
326624,SK,4,Kolinany,
326625,SK,1,Dolinka,
326626,SK,4,Zemberovce,
326627,SK,1,Tomasovce,
326628,SK,3,Velke Trakany,
326629,SK,4,Dlh· Nad V·hom,
326630,SK,4,Ruban,
326631,SK,3,Chlmec,
326632,SK,5,Olcnava,
326633,SK,4,Golianovo,
326634,SK,4,Andovce,
326635,SK,2,Kuklov,
326636,SK,5,Klusov,
326637,SK,3,Bracovce,
326638,SK,1,JamnÌk,
326639,SK,8,Povina,
326640,SK,4,S˙dovce,
326641,SK,4,Velky Lapas,
326642,SK,4,Slazany,
326643,SK,7,V·hovce,
326644,SK,1,Poniky,
326645,SK,7,Puste Ulany,
326646,SK,2,Ny·rasd,
326647,SK,7,Kaplna,
326648,SK,1,Nenince,
326649,SK,1,Vidin·,
326650,SK,2,Kralovicove Kracany,
326651,SK,4,Srobarova,
326652,SK,2,Velke Blahovo,
326653,SK,3,Betliar,
326654,SK,1,Sebechleby,
326655,SK,5,Stefanovce,
326656,SK,6,Luki,
326657,SK,4,Obyce,
326658,SK,4,Pohranice,
326659,SK,7,Nahac,
326660,SK,4,Cata,
326661,SK,4,Kravany Nad Dunajom,
326662,SK,6,Dulov,
326663,SK,1,PanickÈ Dravce,
326664,SK,4,Turcianky,
326665,SK,2,Bellova Ves,
326666,SK,5,Lubisa,
326667,SK,4,Kmetovo,
326668,SK,5,Hendrichovce,
326669,SK,8,Podbiel,
326670,SK,4,Dolne Trhoviste,
326671,SK,3,Velky Kamenec,
326672,SK,4,Star˝ Tekov,
326673,SK,8,Kriv·,
326674,SK,4,Radobica,
326675,SK,6,Turn·,
326676,SK,1,Mal· Lehota,
326677,SK,7,Horny Cepen,
326678,SK,6,Nadlice,
326679,SK,7,Gan,
326680,SK,4,Perbete,
326681,SK,3,Resica,
326682,SK,7,Voderady,
326683,SK,7,D˙brava,
326684,SK,1,Zavazna Poruba,
326685,SK,6,Sedmerovec,
326686,SK,6,K·lnica,
326687,SK,8,Rudinsk·,
326688,SK,1,Kosihy Nad Iplom,
326689,SK,4,DolnÈ Lefantovce,
326690,SK,4,Nitrianska Blatnica,
326691,SK,3,Sv‰t· M·ria,
326692,SK,7,Zlkovce,
326693,SK,6,Dubodiel,
326694,SK,2,Cary,
326695,SK,4,Mlynany,
326696,SK,4,Nemcice,
326697,SK,1,Radvan,
326698,SK,8,Dohnany,
326699,SK,1,Velka Calomija,
326700,SK,1,Velka Lehota,
326701,SK,5,Velky Slavkov,
326702,SK,4,Zikava,
326703,SK,3,Kom·rovce,
326704,SK,2,Narad,
326705,SK,4,Urmince,
326706,SK,5,Litmanov·,
326707,SK,4,Kostolany Pod Tribecom,
326708,SK,1,Partizanska Lupca,
326709,SK,6,Beckov,
326710,SK,1,Ruzina,
326711,SK,6,Rudnianska Lehota,
326712,SK,3,Kechnec,
326713,SK,3,Lenka,
326714,SK,7,Zvoncin,
326715,SK,1,Hronsk· D˙brava,
326716,SK,3,Lenartovce,
326717,SK,8,Rabcice,
326718,SK,8,Nizna,
326719,SK,6,Kom·rno,
326720,SK,6,HÙrka,
326721,SK,7,UnÌn,
326722,SK,4,Jelsovce,
326723,SK,2,Rohoznik,
326724,SK,4,Velka Lehota,
326725,SK,4,Celadice,
326726,SK,4,Star˝ Hr·dok,
326727,SK,7,Ratnovce,
326728,SK,3,Z·hor,
326729,SK,1,Klenovec,
326730,SK,5,JamnÌk,
326731,SK,2,Kralova,
326732,SK,8,Horn· Marikov·,
326733,SK,4,Ipelsky Sokolec,
326734,SK,4,Ulany Nad Zitavou,
326735,SK,3,Pinkovce,
326736,SK,6,Sucany,
326737,SK,4,Velka Dolina,
326738,SK,3,Nacina Ves,
326739,SK,7,Cataj,
326740,SK,7,Pavlice,
326741,SK,4,Klacany,
326742,SK,7,PÌla,
326743,SK,3,Kamenica Nad Cirochou,
326744,SK,5,Mosurov,
326745,SK,2,JablonovÈ,
326746,SK,4,Farn·,
326747,SK,8,Sneznica,
326748,SK,4,Krtovce,
326749,SK,1,Gemersk˝ Jablonec,
326750,SK,4,Sv‰t˝ Peter,
326751,SK,4,Ziharec,
326752,SK,2,Cilizska Radvan,
326753,SK,5,Siba,
326754,SK,4,Hronske Klacany,
326755,SK,7,Podbranc,
326756,SK,7,Bukov·,
326757,SK,2,MalÈ DvornÌky,
326758,SK,1,Sumiac,
326759,SK,3,Bidovce,
326760,SK,2,Okolicna Na Ostrove,
326761,SK,8,Hladovka,
326762,SK,8,Nededza,
326763,SK,5,Hrabovec Nad Laborcom,
326764,SK,5,Hozelec,
326765,SK,4,Ilava,
326766,SK,2,Trhov· Hradsk·,
326767,SK,3,SmolnÌk,
326768,SK,1,Jalovec,
326769,SK,1,Sielnica,
326770,SK,4,JesenskÈ,
326771,SK,8,MutnÈ,
326772,SK,3,Somotor,
326773,SK,3,Botany,
326774,SK,3,Jasov,
326775,SK,7,Sokolovce,
326776,SK,8,Stiavnik,
326777,SK,5,PapÌn,
326778,SK,8,Tuzina,
326779,SK,3,ZemplÌnska Teplica,
326780,SK,1,Cigel,
326781,SK,4,Radava,
326782,SK,6,Cerveny Kamen,
326783,SK,1,Liptovska Stiavnica,
326784,SK,8,Such· Hora,
326785,SK,1,Janova Lehota,
326786,SK,8,Habovka,
326787,SK,3,ZemplÌn,
326788,SK,3,Gemersk· Panica,
326789,SK,4,Komoca,
326790,SK,8,Breza,
326791,SK,7,OreskÈ,
326792,SK,5,Rak˙sy,
326793,SK,3,Vikartovce,
326794,SK,7,OsuskÈ,
326795,SK,6,Velke Bielice,
326796,SK,1,Rovnany,
326797,SK,6,L˙ky,
326798,SK,5,Kr·sna L˙ka,
326799,SK,8,Necpaly,
326800,SK,5,Kanas,
326801,SK,2,Velke Dvorniky,
326802,SK,5,Vlkovce,
326803,SK,1,VlkolÌnec,
326804,SK,4,Pal·st,
326805,SK,3,LastomÌr,
326806,SK,3,Visnov,
326807,SK,7,Horne Oresany,
326808,SK,1,DolnÈ Plachtince,
326809,SK,3,Velky Hores,
326810,SK,5,Stola,
326811,SK,5,Medzibrodie,
326812,SK,7,DolnÈ DubovÈ,
326813,SK,8,Hrustin,
326814,SK,8,BabÌn,
326815,SK,8,Vasilov,
326816,SK,8,SihelnÈ,
326817,SK,8,Chlebnice,
326818,SK,4,Kamenec,
326819,SK,5,Huncovce,
326820,SK,8,Udica,
326821,SK,7,Sulekovo,
326822,SK,8,Bytcica,
326823,SK,2,Cunovo,
326824,SK,8,Kamenn· Poruba,
326825,SK,2,PodunajskÈ Biskupice,
326826,SK,6,Chud· Lehota,
326827,SK,4,Kamanov·,
326828,SK,8,Solka,
326829,SK,3,Spisske Tomasovce,
326830,SK,2,Jarovce,
326831,SK,3,Tahanovce,
326832,SK,2,Myslenice,
326833,SK,7,HornÈ Zelenice,
326834,SK,6,Velke Chlievany,
326835,SK,4,Nova Ves Nad Zitavou,
326836,SK,8,Babkov,
326837,SK,1,Prestavlky,
326838,SK,5,Topolovka,
326839,SK,6,DucovÈ,
326840,SK,2,Vlky,
326841,SK,7,Kajal,
326842,SK,6,Lieskovec,
326843,SK,4,Machulince,
326844,SK,5,OkruhlÈ,
326845,SK,3,Z·diel,
326846,SK,4,Velke Dvorany,
326847,SK,4,Krnca,
326848,SK,1,Raksa,
326849,SK,3,Lorincik,
326850,SK,1,Zarnovicka Huta,
326851,SK,6,Kostoln· Ves,
326852,SK,4,Belince,
326853,SK,4,Tekovsk· Breznica,
326854,SK,8,Zabokreky,
326855,SK,3,Sokolany,
326856,SK,8,RadÙstka,
326857,SK,8,Brvniste,
326858,SK,8,Praznov,
326859,SK,7,Piestanoch,
326860,SK,4,TekovskÈ Nemce,
326861,SK,6,Mikusovce,
326862,SK,6,Modrov·,
326863,SK,8,Valca,
326864,SK,8,Horn˝ KalnÌk,
326865,SK,4,M˝tna Nov· Ves,
326866,SK,6,Rajcany,
326867,SK,3,Sedlisk·,
326868,SK,7,Dubovany,
326869,SK,6,Zariecie,
326870,SK,2,Horna Poton,
326871,SK,6,DolnÈ Ozorovce,
326872,SK,4,Jarok,
326873,SK,1,Michalov·,
326874,SK,2,Vrakun,
326875,SK,5,Zakovce,
326876,SK,6,Brunovce,
326877,SK,8,Upohlav,
326878,SK,2,Velke Kosihy,
326879,SK,1,Ipelske Ulany,
326880,SK,4,Cajkov,
326881,SK,1,Maly Cepcin,
326882,SK,4,Klasov,
326883,SK,7,Radimov,
326884,SK,4,Malas,
326885,SK,4,B·tovce,
326886,SK,8,Vitanov·,
326887,SK,8,Sedliacka Dubov·,
326888,SK,8,Ivachnov·,
326889,SK,4,Hontianska Vrbica,
326890,SK,4,DolnÈ Obdokovce,
326891,SK,2,D˙bravka,
326892,SK,2,Kuchyna,
326893,SK,7,Zemianske Sady,
326894,SK,5,Orkucany,
326895,SK,3,Polina,
326896,SK,3,Dubovec,
326897,SK,3,Rasice,
326898,SK,3,HucÌn,
326899,SK,4,Jedlove Kostolany,
326900,SK,8,Zaskov,
326901,SK,8,Revisne,
326902,SK,1,Doln· Trn·vka,
326903,SK,4,Chyzerovce,
326904,SK,8,Kycerka,
326905,SK,5,Baskovce,
326906,SK,1,LipnÌk,
326907,SK,4,Turovce,
326908,SK,3,LubenÌk,
326909,SK,2,Z·horsk· Bystrica,
326910,SK,8,B·nov·,
326911,SK,8,BudatÌn,
326912,SK,4,Merasice,
326913,SK,6,Sec,
326914,SK,6,HornÈ Vestenice,
326915,SK,7,Mala Maca,
326916,SK,3,Rakovnica,
326917,SK,4,Mlyn·rce,
326918,SK,8,Papradno,
326919,SK,4,Chrabrany,
326920,SK,1,Kiarov,
326921,SK,6,Brezolupy,
326922,SK,6,Modrovka,
326923,SK,6,MednÈ,
326924,SK,8,DlhÈ Pole,
326925,SK,4,Kolacno,
326926,SK,2,Kostoln· Pri Dunaji,
326927,SK,3,Trstany,
326928,SK,3,BanskÈ,
326929,SK,4,Horna Kralova,
326930,SK,4,Dvorany Nad Nitrou,
326931,SK,5,Hudcovce,
326932,SK,4,Cab,
326933,SK,7,Borov·,
326934,SK,3,Bezovce,
326935,SK,3,Bunkovce,
326936,SK,3,Hlivistia,
326937,SK,3,Strihovce,
326938,SK,3,Velka Bara,
326939,SK,1,Hodejov,
326940,SK,1,SklenÈ Teplice,
326941,SK,3,Porac,
326942,SK,5,Z·vadka,
326943,SK,3,BlatnÈ Remety,
326944,SK,1,Hrabicov,
326945,SK,5,Klcov,
326946,SK,5,Olsavica,
326947,SK,3,Mal˝ Kamenec,
326948,SK,6,Petrova Lehota,
326949,SK,3,Jablonov Nad Turnou,
326950,SK,4,Maly Lapas,
326951,SK,6,Zlatovce,
326952,SK,3,Telg·rt,
326953,SK,4,Klenany,
326954,SK,5,Buglovce,
326955,SK,5,Vlaca,
326956,SK,5,Kace,
326957,SK,8,Malatin·,
326958,SK,4,Krskany,
326959,SK,1,Litava,
326960,SK,1,BrusnÌk,
326961,SK,0,Nov· Sedlica,
326962,SK,4,Zupkov,
326963,SK,3,Kojsov,
326964,SK,3,Lieskov·,
326965,SK,5,Spisske Hanusovce,
326966,SK,4,Tehla,
326967,SK,8,Pazite,
326968,SK,4,B·b,
326969,SK,8,Fackov,
326970,SK,4,RybnÌk,
326971,SK,8,Ochodnica,
326972,SK,8,Povazska Tepla,
326973,SK,8,ProsnÈ,
326974,SK,1,SklenÈ,
326975,SK,5,Cigla,
326976,SK,1,KatarÌnska Huta,
326977,SK,4,N˝rovce,
326978,SK,4,Velke Chyndice,
326979,SK,4,Hul,
326980,SK,4,Neverice,
326981,SK,8,Kotesova,
326982,SK,3,Roznavske Bystre,
326983,SK,3,Gocovo,
326984,SK,3,Nizny Hrusov,
326985,SK,2,Rusovce,
326986,SK,4,Surianky,
326987,SK,4,MalÈ Kozm·lovce,
326988,SK,3,Svedlar,
326989,SK,6,Mnichova Lehota,
326990,SK,6,MalÈ Ostratice,
326991,SK,4,Horne Krskany,
326992,SK,1,Podrecany,
326993,SK,5,Betlanovce,
326994,SK,1,Ludrov·,
326995,SK,6,Trencianske Bohuslavice,
326996,SK,6,Male Krstenany,
326997,SK,8,Laclav·,
326998,SK,6,Potvorice,
326999,SK,6,Velusovce,
327000,SK,1,Bukovina,
327001,SK,4,Mojzesovo,
327002,SK,7,Modranka,
327003,SK,6,Otrh·nky,
327004,SK,2,Cilistov,
327005,SK,1,Maskova,
327006,SK,6,Liestany,
327007,SK,5,Danisovce,
327008,SK,4,Dolne Krskany,
327009,SK,4,Nedanovce,
327010,SK,6,Hubina,
327011,SK,6,Skalsk· Nov· Ves,
327012,SK,4,HlbokÈ,
327013,SK,3,Kr·snohorskÈ Podhradie,
327014,SK,1,Biely Potok,
327015,SK,2,Tonkovce,
327016,SK,6,Velke Krstenany,
327017,SK,6,Solcianky,
327018,SK,6,Velky Kolacin,
327019,SK,7,Selpice,
327020,SK,1,Diviaky,
327021,SK,6,Klucove,
327022,SK,8,Nimnica,
327023,SK,4,Tekovske Luzany,
327024,SK,1,Pal˙dzka,
327025,SK,7,Stefanova,
327026,SK,4,Obsolovce,
327027,SK,8,Krasnany,
327028,SK,8,Zaturcie,
327029,SK,4,Buc,
327030,SK,3,Vrbnica,
327031,SK,3,Malcice,
327032,SK,3,Markovce,
327033,SK,2,Vinohrady,
327034,SK,8,Stankovany,
327035,SK,4,Kovacova,
327036,SK,4,Mankovce,
327037,SK,4,Klizske Hradiste,
327038,SK,6,Opatovce Nad Nitrou,
327039,SK,4,Ardanovce,
327040,SK,6,⁄jazd,
327041,SK,7,Rakovice,
327042,SK,6,Tur· L˙ka,
327043,SK,3,Myslava,
327044,SK,6,Male Orviste,
327045,SK,6,Dolne Kockovce,
327046,SK,2,Mal˝ Biel,
327047,SK,8,TurÌk,
327048,SK,6,Kubrica,
327049,SK,7,Rohov,
327050,SK,1,Podzamcok,
327051,SK,6,Bobot,
327052,SK,8,Poluvsie,
327053,SK,5,Maly Saris,
327054,SK,1,StrelnÌky,
327055,SK,5,Arnutovce,
327056,SK,7,Bohunice,
327057,SK,7,Dolne Oresany,
327058,SK,1,Horny Turcek,
327059,SK,1,Podlavice,
327060,SK,6,Velka Hradna,
327061,SK,8,Komjatn·,
327062,SK,2,Turen,
327063,SK,8,Mala Bytca,
327064,SK,8,Horny Mostenec,
327065,SK,6,Zamarovce,
327066,SK,1,Svetl·,
327067,SK,3,⁄por,
327068,SK,3,Vojcice,
327069,SK,3,Cerhov,
327070,SK,1,Vitalisovce,
327071,SK,7,Binovce,
327072,SK,3,Rad,
327073,SK,2,Dobrohost,
327074,SK,3,Buzica,
327075,SK,7,Slovensk· Nov· Ves,
327076,SK,4,Melek,
327077,SK,5,Hervartov,
327078,SK,8,Dulice,
327079,SK,4,Doln˝ Ohaj,
327080,SK,5,Obisovce,
327081,SK,1,Liptovska Luzna,
327082,SK,5,Lipov·,
327083,SK,5,Spissky Hrhov,
327084,SK,3,MalÈ Ozorovce,
327085,SK,6,Prusy,
327086,SK,6,Horne Nastice,
327087,SK,8,Brezany,
327088,SK,1,StrednÈ Plachtince,
327089,SK,1,Lovca,
327090,SK,6,Velke Hoste,
327091,SK,4,Neded,
327092,SK,8,Dolny Vadicov,
327093,SK,1,Lom Nad Rimavicou,
327094,SK,4,Trstice,
327095,SK,3,JanÌk,
327096,SK,4,Rumanov·,
327097,SK,5,Minovce,
327098,SK,3,Velke Ozorovce,
327099,SK,6,Beckovsk· Vieska,
327100,SK,3,Zbince,
327101,SK,5,Bukovinka,
327102,SK,8,Hrboltov·,
327103,SK,8,Ovciarsko,
327104,SK,3,Helcmanovce,
327105,SK,3,Baska,
327106,SK,3,Ubrez,
327107,SK,3,BudimÌr,
327108,SK,4,Hostova,
327109,SK,8,Povazske Podhradie,
327110,SK,8,Sverepec,
327111,SK,4,MalÈ Chyndice,
327112,SK,8,Vydrn·,
327113,SK,4,Tekoldany,
327114,SK,7,Sterusy,
327115,SK,7,PustÈ Sady,
327116,SK,2,Trn·vka,
327117,SK,4,MedveckÈ,
327118,SK,1,Horn˝ BadÌn,
327119,SK,1,Lukovistia,
327120,SK,6,Slavnica,
327121,SK,8,Lutise,
327122,SK,8,Horny Vadicov,
327123,SK,8,Mala Cierna,
327124,SK,5,Mnisek Nad Popradom,
327125,SK,5,Hubosovce,
327126,SK,5,Holcikovce,
327127,SK,3,Besa,
327128,SK,3,Rusk·,
327129,SK,8,Benadovo,
327130,SK,4,Bruty,
327131,SK,4,Sv‰tojursk˝ Chlum,
327132,SK,1,Kovacovce,
327133,SK,1,Olov·ry,
327134,SK,8,Kol·rovice,
327135,SK,1,Hajnacka,
327136,SK,1,Husin·,
327137,SK,3,Chanava,
327138,SK,1,Breznicka,
327139,SK,4,Caka,
327140,SK,3,Figa,
327141,SK,4,Selice,
327142,SK,1,Susany,
327143,SK,3,Gemer,
327144,SK,3,Cakov,
327145,SK,3,Bysta,
327146,SK,2,Pinkove Kracany,
327147,SK,2,Bˆs,
327148,SK,4,Nov· Vieska,
327149,SK,4,Dulovce,
327150,SK,2,JanÌky,
327151,SK,2,Pernek,
327152,SK,8,Hricovske Podhradie,
327153,SK,4,Praznovce,
327154,SK,8,Tapesovo,
327155,SK,6,Star· Lehota,
327156,SK,1,Pitelov·,
327157,SK,5,Brutovce,
327158,SK,5,Kurimany,
327159,SK,4,Kynek,
327160,SK,6,Nemecky,
327161,SK,2,V·s·r˙t,
327162,SK,3,RudnÌk,
327163,SK,5,Uzovce,
327164,SK,6,Soblahov,
327165,SK,4,Volkovce,
327166,SK,1,GÙtovany,
327167,SK,5,Velopolie,
327168,SK,1,Velka Luka,
327169,SK,4,Mal· Nad Hronom,
327170,SK,7,Bukovec,
327171,SK,3,Novosad,
327172,SK,4,Nitrianska Streda,
327173,SK,1,Sv‰t˝ Anton,
327174,SK,6,Cimenn·,
327175,SK,5,Z·mutov,
327176,SK,3,Vojany,
327177,SK,2,Povoda,
327178,SK,4,HornÈ H·mre,
327179,SK,1,Jastrab·,
327180,SK,3,HnojnÈ,
327181,SK,4,S˙lovce,
327182,SK,8,Rudinka,
327183,SK,1,StarÈ Hory,
327184,SK,5,Havaj,
327185,SK,1,Petopuszta,
327186,SK,4,VÈk,
327187,SK,1,Brezov·,
327188,SK,6,Norovce,
327189,SK,6,Selec,
327190,SK,1,Liptovska Ondrasova,
327191,SK,1,Blatnica,
327192,SK,8,Priekopa,
327193,SK,3,Kunova Teplica,
327194,SK,1,S·sa,
327195,SK,5,Lechnica,
327196,SK,8,Kr·sno,
327197,SK,1,Hybe,
327198,SK,6,Horn· Poruba,
327199,SK,8,Klace,
327200,SK,8,Sadocne,
327201,SK,1,Revucka,
327202,SK,4,Branovo,
327203,SK,7,Pecenady,
327204,SK,6,Horovce,
327205,SK,3,Brehov,
327206,SK,5,Sol,
327207,SK,6,Pobedim,
327208,SK,4,Oresany,
327209,SK,4,Hokovce,
327210,SK,3,Kravany,
327211,SK,7,Bac,
327212,SK,7,Sered',
327213,SK,8,Vavrecka,
327214,SK,3,Garan,
327215,SK,8,Cicmany,
327216,SK,6,Hornany,
327217,SK,1,Kaliste,
327218,SK,3,Lek·rovce,
327219,SK,3,PalÌn,
327220,SK,4,Bajtava,
327221,SK,8,Kotrcina Lucka,
327222,SK,8,StupnÈ,
327223,SK,4,VÌtkovce,
327224,SK,5,Svabovce,
327225,SK,6,Hrachoviste,
327226,SK,8,Vrch Predmer,
327227,SK,4,HronskÈ Kosihy,
327228,SK,1,Lopaty,
327229,SK,5,VÌtkovce,
327230,SK,4,Abraham,
327231,SK,6,NovÈ Mlyny,
327232,SK,8,Krskov Laz,
327233,SK,7,Dolni Lopasov,
327234,SK,2,S·sa,
327235,SK,6,Strbkovci,
327236,SK,4,Behynce,
327237,SK,1,Klak,
327238,SK,4,Horne Sl'azany,
327239,SK,6,Cuklasovce,
327240,SK,1,Dolni Turcek,
327241,SK,4,Zdolzavina,
327242,SK,1,Durica,
327243,SK,4,Capor,
327244,SK,4,Cibajka,
327245,SK,3,Henclov·,
327246,SK,5,Machalovce,
327247,SK,8,Klacany,
327248,SK,6,Kr·sna Ves,
327249,SK,6,Podhradie,
327250,SK,4,B·dice,
327251,SK,4,Piesky,
327252,SK,8,VrÌcko,
327253,SK,8,Celkova Lehota,
327254,SK,7,Blanka,
327255,SK,6,HostÌnec Klin,
327256,SK,4,Gymes,
327257,SK,4,Dvor Strkovec,
327258,SK,4,Chrcek,
327259,SK,3,Pansk· Pusta,
327260,SK,2,Cela,
327261,SK,6,Mal· Hradn·,
327262,SK,1,Lupcianska Ulica,
327263,SK,8,Sadecne,
327264,SK,4,Dolne Risnovce,
327265,SK,8,Folkusova,
327266,SK,6,UhrovskÈ Podhradie,
327267,SK,6,P·nisie,
327268,SK,7,Bozetechovo,
327269,SK,6,Vysocany,
327270,SK,1,Obeckov,
327271,SK,8,Sulov-hradna,
327272,SK,7,Halmes,
327273,SK,4,Dvor Perkovce,
327274,SK,1,Zelezne,
327275,SK,5,Majdan,
327276,SK,8,LehÙtka,
327277,SK,1,Horn· Tureck·,
327278,SK,1,Prasnica,
327279,SK,5,DubnÌk,
327280,SK,4,Kis-cÈtÈny,
327281,SK,7,Dvor Mal˝ H·j,
327282,SK,4,Zlatno,
327283,SK,4,Ruzovy Dvor,
327284,SK,6,Kopanica Dolina,
327285,SK,6,Ksinna,
327286,SK,4,Lukacovce,
327287,SK,8,Predhorie,
327288,SK,4,Kolenany,
327289,SK,3,Moravany,
327290,SK,4,Cermany,
327291,SK,8,Domanizska Lehota,
327292,SK,1,Neresnica,
327293,SK,4,Kesov,
327294,SK,4,Gymesske Kostolany,
327295,SK,1,Korytnica,
327296,SK,6,Horn˝ Riadok,
327297,SK,4,Jeskova Ves,
327298,SK,4,Luzany,
327299,SK,2,Bruck,
327300,SK,7,DolnÈ Voderady,
327301,SK,6,Omastin·,
327302,SK,6,Pochabany,
327303,SK,6,Borcany,
327304,SK,6,Sebedruzka Mokrisarie,
327305,SK,2,Mach·za,
327306,SK,6,L·tkovce,
327307,SK,4,Brezovo,
327308,SK,8,Durd'ove,
327309,SK,6,Durisove Stale,
327310,SK,7,Dvor Lindava,
327311,SK,4,Bodianske Samoty,
327312,SK,7,Dolny Cepen,
327313,SK,8,Vrchovany,
327314,SK,6,Chalmov·,
327315,SK,7,VezekÈny,
327316,SK,1,Sasovske Podhradie,
327317,SK,1,LiptovskÈ Rev˙ce,
327318,SK,4,P·lova Pusta,
327319,SK,4,Caradice,
327320,SK,7,Igram,
327321,SK,2,Chv·lov,
327322,SK,7,Losonec,
327323,SK,4,LipovnÌk,
327324,SK,1,Donovaly,
327325,SK,7,Dlh·,
327326,SK,1,Horn˝ Harmanec,
327327,SK,3,Herlany,
327328,SK,5,Geralt,
327329,SK,7,Aggerdo Pusta,
327330,SK,8,Podbansk·,
327331,SK,7,Rozindol,
327332,SK,6,Basovce,
327333,SK,3,Dargov,
327334,SK,8,Juraskovia,
327335,SK,7,Nemeck˝ Grob,
327336,SK,4,Tardosked,
327337,SK,1,Bakta,
327338,SK,5,Domanovce,
327339,SK,8,Dunajov,
327340,SK,3,Cecehov,
327341,SK,4,Horna Sec,
327342,SK,1,Turov·,
327343,SK,3,Cejkov,
327344,SK,1,Dubakovo,
327345,SK,6,Zemianske Podhradie,
327346,SK,4,Brehy,
327347,SK,2,JanÌkov,
327348,SK,6,Velke Bierovce,
327349,SK,6,Nove Meslo,
327350,SK,3,Vlkyna,
327351,SK,6,Slatinka Nad Bebravou,
327352,SK,4,Bencleje,
327353,SK,8,Slopn·,
327354,SK,1,Tocnica,
327355,SK,4,Celadince,
327356,SK,8,Deutsch-pravno,
327357,SK,4,De·ki,
327358,SK,4,Sv‰t˝ Urban,
327359,SK,4,Istok,
327360,SK,4,Disnos,
327361,SK,1,Slask·,
327362,SK,4,Selcany,
327363,SK,4,Gest,
327364,SK,6,Ruskovce,
327365,SK,4,Male Chrastany,
327366,SK,4,Dekys,
327367,SK,1,HornÈ Opatovce,
327368,SK,7,Dec,
327369,SK,6,Sipkov,
327370,SK,1,Havrilov,
327371,SK,6,G·pel,
327372,SK,4,Horny Cizovec,
327373,SK,4,Andac,
327374,SK,7,AlsÛ Szeli,
327375,SK,6,Nedasovce,
327376,SK,4,Sok,
327377,SK,4,Barak Majer,
327378,SK,7,P·ld,
327379,SK,1,KordÌky,
327380,SK,8,Jasenovo,
327381,SK,7,Kert,
327382,SK,6,Tryznovsk˝,
327383,SK,4,Janova Ves,
327384,SK,1,Drexlerhay,
327385,SK,4,Jablonovce,
327386,SK,6,Mosovce Nad Vahom,
327387,SK,4,ParovskÈ H·je,
327388,SK,1,Horna Molca,
327389,SK,8,Sutovo,
327390,SK,5,VydrnÌk,
327391,SK,8,Janculy,
327392,SK,4,Dvor Velke Ciky,
327393,SK,7,Hidas K¸rt,
327394,SK,1,P·lfala,
327395,SK,1,Podkrivan,
327396,SK,7,Teplicky,
327397,SK,4,Babindol,
327398,SK,4,Luba,
327399,SK,3,Skeresovo,
327400,SK,4,Kamenica Nad Hronom,
327401,SK,1,Lukavica,
327402,SK,4,M˝tne Ludany,
327403,SK,7,PlaveckÈ Podhradie,
327404,SK,3,Kysta,
327405,SK,8,MalÈ Lednice,
327406,SK,7,Prievaly,
327407,SK,3,OborÌn,
327408,SK,3,Velke Raskovce,
327409,SK,1,M·linec,
327410,SK,3,Vysny Klatov,
327411,SK,1,RatkovskÈ BystrÈ,
327412,SK,3,Novy Salas,
327413,SK,5,Nagov,
327414,SK,3,Hriadky,
327415,SK,3,Vysny Medzev,
327416,SK,5,Z·hradnÈ,
327417,SK,1,Ostr· L˙ka,
327418,SK,4,Cechy,
327419,SK,5,Matiasovce,
327420,SK,4,Blesovce,
327421,SK,3,Nizna Kalosa,
327422,SK,2,Nemecky Sok,
327423,SK,7,Paderovce,
327424,SK,6,Farkaska,
327425,SK,1,Budis,
327426,SK,6,Dubnicka,
327427,SK,6,Bosianska Neporadza,
327428,SK,7,Pustatina Sva‚Äùta Chrast',
327429,SK,4,Andelek,
327430,SK,1,Oremov Laz,
327431,SK,6,Striebornica,
327432,SK,1,Budicka,
327433,SK,1,Kysel· Voda,
327434,SK,6,Jurka,
327435,SK,6,Kristofarie,
327436,SK,2,Biskupice,
327437,SK,6,Lutov,
327438,SK,2,Gomba,
327439,SK,2,BÈke,
327440,SK,4,Asakert,
327441,SK,4,HornÈ Kopince,
327442,SK,4,Felso-jatto,
327443,SK,4,Sulany,
327444,SK,6,Visnove,
327445,SK,1,Stefankov,
327446,SK,1,Glaserhay,
327447,SK,2,Felso Vamos,
327448,SK,6,Nov· Lehota,
327449,SK,4,Garam-szentgyˆrgy,
327450,SK,4,Calad,
327451,SK,5,Slovensky Zipov,
327452,SK,7,Dvor Margit,
327453,SK,3,Slancik,
327454,SK,4,Zidovska Veca,
327455,SK,1,Hanesy,
327456,SK,8,Ciernavy,
327457,SK,4,Doln˝ Vinodol,
327458,SK,7,Krizovany Nad Dudvahom,
327459,SK,1,Stozok,
327460,SK,4,Mochovce,
327461,SK,7,Kosolna,
327462,SK,4,Mal˝ Kiar,
327463,SK,4,Nov˝ Tekov,
327464,SK,6,Ockov,
327465,SK,5,Slovenska Kajna,
327466,SK,7,Ratkovce,
327467,SK,7,Dolny Lopasov,
327468,SK,5,Kolbovce,
327469,SK,8,Nolcovo,
327470,SK,6,Nozdrovice,
327471,SK,3,Kasov,
327472,SK,1,SlatinskÈ Lazy,
327473,SK,1,Bac˙ch,
327474,SK,3,Kostolany Nad Hornadom,
327475,SK,3,Abovce,
327476,SK,8,Majzel,
327477,SK,1,Pila Klak,
327478,SK,4,Dolna Stefanovicova,
327479,SK,2,Piesok,
327480,SK,1,Repiste,
327481,SK,4,Ujlak,
327482,SK,4,Pered,
327483,SK,4,Riegler Majer,
327484,SK,4,DvernÌky,
327485,SK,6,Pustatina Z·hrada,
327486,SK,6,Bezn·kovejsa,
327487,SK,4,Blazkov,
327488,SK,1,TrubÌn,
327489,SK,1,Bartosova Lehotka,
327490,SK,7,Dvor J·nosh·za,
327491,SK,2,HideghÈt,
327492,SK,4,Dvor Nandin,
327493,SK,4,Mechenice,
327494,SK,1,D˙brav,
327495,SK,4,Lok,
327496,SK,1,HalaksÌnec,
327497,SK,7,Gest,
327498,SK,6,Kopanica Malinistia,
327499,SK,6,Slatina Nad Bebravou,
327500,SK,7,Valtasur,
327501,SK,6,Kucera,
327502,SK,1,Hrochot,
327503,SK,7,Dvor Ilona,
327504,SK,4,Borisko,
327505,SK,8,Briessta,
327506,SK,1,DolnÌ Jelenec,
327507,SK,4,Kliz,
327508,SK,4,Martinov·,
327509,SK,2,Alist·l,
327510,SK,4,Kis-ker,
327511,SK,4,Dvor Ludovitov,
327512,SK,4,Sandor,
327513,SK,3,Bajany,
327514,SK,8,Dolna Tizina,
327515,SK,3,Geca,
327516,SK,6,Maly Kolacin,
327517,SK,7,Rybky,
327518,SK,6,Kubr·,
327519,SK,2,Janosikova,
327520,SK,8,Petrovice,
327521,SK,1,D˙bravica,
327522,SK,4,MalÈ Kosihy,
327523,SK,1,Madacka,
327524,SK,3,Slavosovce,
327525,SK,6,Horne Motesice,
327526,SK,1,Cabradsky Vrbovok,
327527,SK,3,Sady,
327528,SK,5,Plavec,
327529,SK,1,SebedÌn,
327530,SK,2,Horn˝ Bar,
327531,SK,1,Driencany,
327532,SK,3,Kavecany,
327533,SK,3,Einsiedel An Der Gˆllnitz,
327534,SK,1,Jarab·,
327535,SK,1,Mala Causa,
327536,SK,7,T·rnok,
327537,SK,4,Batona,
327538,SK,8,Cech,
327539,SK,1,Kopacno,
327540,SK,1,Zdiarik,
327541,SK,1,DubovÈ,
327542,SK,6,Dobrocna,
327543,SK,4,Vozokany,
327544,SK,6,Duchonka,
327545,SK,6,Hradiste,
327546,SK,2,DvornÌk,
327547,SK,4,Vycapky,
327548,SK,1,Dvor Sitno,
327549,SK,4,DolnÈ Otrokovce,
327550,SK,4,Uhlisk·,
327551,SK,4,Brezov·,
327552,SK,4,Bzince,
327553,SK,5,Zipov,
327554,SK,4,Lajos,
327555,SK,1,HornÈ Rakytovce,
327556,SK,4,Zigard,
327557,SK,4,Cifare,
327558,SK,2,Hegy-s˙r,
327559,SK,5,Krizovany,
327560,SK,3,Kosicka Nova Ves,
327561,SK,6,Strezenice,
327562,SK,8,Chvojnica,
327563,SK,1,B·torov·,
327564,SK,5,Lieskovany,
327565,SK,3,Dlh· Ves,
327566,SK,4,Velka Ves Nad Iplom,
327567,SK,8,Durcina,
327568,SK,1,Kyncelova,
327569,SK,8,Danova,
327570,SK,5,Nizna Sitnica,
327571,SK,1,Utekac,
327572,SK,4,Kamenn˝ Most,
327573,SK,5,Okruzna,
327574,SK,4,ZbrojnÌky,
327575,SK,3,Kecovo,
327576,SK,2,Pad·ny,
327577,SK,7,Pusta Sil·rd,
327578,SK,4,Javor Stal,
327579,SK,7,Jazerny Narazd,
327580,SK,6,Hloza,
327581,SK,6,Hornakova Kopanica,
327582,SK,4,S·dok,
327583,SK,1,Nizna Revuca,
327584,SK,4,Cerveny Hradok,
327585,SK,1,Nizna Boca,
327586,SK,2,Benyovski Majer,
327587,SK,6,Jur·kovce,
327588,SK,1,Horn· Trn·vka,
327589,SK,4,Pisovci,
327590,SK,4,Berencs,
327591,SK,4,Svaty Michal Nad Zitavou,
327592,SK,4,Peres Majer,
327593,SK,1,Ihrac,
327594,SK,7,Felso Szeli,
327595,SK,2,J·nostelek Majer,
327596,SK,1,Podk·nov·,
327597,SK,1,Blatnick˝ Hrad,
327598,SK,1,Slov·kov,
327599,SK,4,Horn· Malanta,
327600,SK,1,Belina,
327601,SK,1,Becov,
327602,SK,8,Hradn·,
327603,SK,8,Rudno,
327604,SK,8,Sklabina,
327605,SK,1,Cacin,
327606,SK,4,Doln˝ Pial,
327607,SK,5,Zakarovce,
327608,SK,3,ZsarnÛ,
327609,SK,3,Bociar,
327610,SK,1,Kopanice,
327611,SK,8,Doln· Marikov·,
327612,SK,1,Z·horce,
327613,SK,2,Borsk˝ Sv‰t˝ Jur,
327614,SK,5,Spissky Hrusov,
327615,SK,3,Honce,
327616,SK,4,Kuralany,
327617,SK,5,Sedlice,
327618,SK,3,Strkovec,
327619,SK,4,Calovec,
327620,SK,4,Jasov·,
327621,SK,3,Kosicke Hamre,
327622,SK,7,Nagy-m·csÈd,
327623,SK,8,Karlov·,
327624,SK,7,Mikulasov,
327625,SK,5,Hanigovce,
327626,SK,1,PovraznÌk,
327627,SK,7,Varasur,
327628,SK,6,Sramkovci,
327629,SK,4,Bastin,
327630,SK,6,Cierna Lehota,
327631,SK,4,Stampoch,
327632,SK,1,Canier,
327633,SK,1,U Potkana,
327634,SK,1,Beluj,
327635,SK,4,HornÈ Chlebany,
327636,SK,4,Bacala Majer,
327637,SK,6,Dominova Kopanica,
327638,SK,4,Ireg,
327639,SK,4,Sila,
327640,SK,4,Dvor Tlmac,
327641,SK,3,Rejdov·,
327642,SK,8,Horny Hricov,
327643,SK,4,Koniarovce,
327644,SK,4,Secianky,
327645,SK,3,Tibava,
327646,SK,3,Boliarov,
327647,SK,7,Jalsove,
327648,SK,3,Hrasovik,
327649,SK,1,Stara Kremnicka,
327650,SK,1,Morovno,
327651,SK,6,Borcice,
327652,SK,3,Laskovce,
327653,SK,1,Liptovsk˝ Ondrej,
327654,SK,5,Bajerovce,
327655,SK,1,Liptovska Teplicka,
327656,SK,1,Rimavska Bana,
327657,SK,1,Maluzina,
327658,SK,1,Stara Basta,
327659,SK,1,Nemcovo,
327660,SK,1,RimavskÈ Brezovo,
327661,SK,4,Dvor Kopanica,
327662,SK,7,Farkasin,
327663,SK,7,Klcovany,
327664,SK,4,Velke Janikovce,
327665,SK,2,Dvor Prebosek,
327666,SK,2,SedÌn,
327667,SK,6,Rozvadze,
327668,SK,2,Dvor Na Ostrove,
327669,SK,4,Nemeck· Huta,
327670,SK,4,Male Zaluzie,
327671,SK,6,Vrzavka,
327672,SK,6,Bellils,
327673,SK,4,Jelenov·,
327674,SK,5,Podspady,
327675,SK,4,Horn˝ Kerest˙r,
327676,SK,5,Kyjov,
327677,SK,7,Kocin,
327678,SK,1,Velke Teriakovce,
327679,SK,5,Spissky Stiavnik,
327680,SK,3,Slansk· Huta,
327681,SK,3,Hrcel,
327682,SK,8,Podhorie,
327683,SK,8,Valask· Dubov·,
327684,SK,1,Zelezna Breznica,
327685,SK,5,Velky Lipnik,
327686,SK,4,Ipelske Predmostie,
327687,SK,8,Oravica,
327688,SK,3,Nove Mestopod Siatrom,
327689,SK,2,Nagy-magyar,
327690,SK,3,Deresk,
327691,SK,4,Max,
327692,SK,1,Trnavy,
327693,SK,4,Debn·rov,
327694,SK,4,AlsÛ Bodok,
327695,SK,7,Dvor P·lffyho,
327696,SK,4,Szolos,
327697,SK,7,Karlubek,
327698,SK,8,Kozinsk·,
327699,SK,7,Mathilden Dvor,
327700,SK,7,Nadas,
327701,SK,3,Schmollnitzer Hutta,
327702,SK,6,DvornÌky Nad Nitricou,
327703,SK,6,Rusn·ci,
327704,SK,4,Dvor Gar·zda,
327705,SK,4,”-gutapuszta,
327706,SK,3,Belza,
327707,SK,8,Lietavsk· Svinn·,
327708,SK,3,Peder,
327709,SK,3,Vern·r,
327710,SK,8,Bitarov·,
327711,SK,3,Nizna Kamenica,
327712,SK,3,PerÌn,
327713,SK,1,Bansk· Bel·,
327714,SK,1,Glabusovce,
327715,SK,1,Sv‰t˝ Ondrej Nad Hronom,
327716,SK,4,Bohunice,
327717,SK,7,Bistava,
327718,SK,8,Gajdel,
327719,SK,2,FÈl,
327720,SK,6,LivinskÈ Opatovce,
327721,SK,6,Velke Luky,
327722,SK,2,Ujv·s·r Pusta,
327723,SK,6,Jastrabie,
327724,SK,8,Slesarovia,
327725,SK,1,Do Holuba,
327726,SK,7,BÌlkove Humence,
327727,SK,7,P·c,
327728,SK,2,KˆtÈlszer Pusta,
327729,SK,8,Klukania,
327730,SK,1,Iviny,
327731,SK,4,Skarbov Dvor,
327732,SK,2,Mih·lfai Majer,
327733,SK,8,Nezbudska Lucka,
327734,SK,3,Seniakovce,
327735,SK,3,Zemplinske Hradiste,
327736,SK,2,Moravske Kracany,
327737,SK,4,Michalsk˝ Dvor,
327738,SK,7,Dvor Sarolta,
327739,SK,6,Mazur,
327740,SK,5,Vysne Repase,
327741,SK,2,CsallÛkˆz K¸rt,
327742,SK,4,Kir·lyrÈv,
327743,SK,8,Zlien,
327744,SK,1,Janosovka,
327745,SK,6,Biela Voda,
327746,SK,8,Podskalie,
327747,SK,4,Choca,
327748,SK,8,Benov,
327749,SK,4,Durad,
327750,SK,1,Snohy,
327751,SK,3,Stilbach,
327752,SK,6,Lazany,
327753,SK,6,Nevidzany,
327754,SK,6,Dolne Drzkovce,
327755,SK,1,BelÌn,
327756,SK,8,Trnovo,
327757,SK,4,Nemcinany,
327758,SK,1,Straciny,
327759,SK,1,Stredn· Rev˙ca,
327760,SK,4,Sudince,
327761,SK,2,Sorj·kmajor,
327762,SK,2,Kele Majer,
327763,SK,7,Dvor Podh·j,
327764,SK,3,Mur·nska Zdychava,
327765,SK,8,Horna Tizina,
327766,SK,1,Pavcina Lehota,
327767,SK,5,Benkovce,
327768,SK,4,Udvard,
327769,SK,1,Ilija,
327770,SK,1,Svaty Kriz,
327771,SK,7,Dvor Na Frantisku,
327772,SK,4,Diel,
327773,SK,1,Senosek,
327774,SK,6,Bzince,
327775,SK,1,Bl˝skavica,
327776,SK,4,Gondovo,
327777,SK,1,Podholie,
327778,SK,3,Lomnica,
327779,SK,2,Dvor Sosovsky Ostrov,
327780,SK,6,Poruba,
327781,SK,4,Dunamelleki Majer,
327782,SK,4,Doln· Malanta,
327783,SK,6,Horn· Strednia,
327784,SK,4,Baromlak,
327785,SK,4,Bufa,
327786,SK,2,S·rk·nytÛ Pusta,
327787,SK,7,Biksard,
327788,SK,3,Csicser,
327789,SK,4,Sarovce,
327790,SK,1,Kotmanov·,
327791,SK,4,Vics·p Ap·ti,
327792,SK,7,Dvor Jozi,
327793,SK,7,Milcici,
327794,SK,8,Hadviga,
327795,SK,6,Halacovce,
327796,SK,1,DolnÈ Zahorany,
327797,SK,1,Stiavnicke Bane,
327798,SK,8,Polerieka,
327799,SK,3,Teplicka,
327800,SK,6,Matejovec,
327801,SK,8,SvedernÌk,
327802,SK,6,Vradiste,
327803,SK,1,Podhradie,
327804,SK,6,Kyselka,
327805,SK,1,KozelnÌk,
327806,SK,1,Soltyska,
327807,SK,4,Sala Nad Vahom,
327808,SK,6,Svinn·,
327809,SK,2,Kis-borsa,
327810,SK,5,UdavskÈ,
327811,SK,3,MalÈ Trakany,
327812,SK,1,Lopej,
327813,SK,6,Biela Bukovina,
327814,SK,7,Dvor Hrusov,
327815,SK,8,Dolne Kostoliste,
327816,SK,6,Svaty Kriz Nad Vahom,
327817,SK,6,Dvor Pod Malenicou,
327818,SK,6,Paucica,
327819,SK,3,Zboj,
327820,SK,2,Oldza,
327821,SK,3,Trnava Pri Laborci,
327822,SK,5,Kokosovce,
327823,SK,3,Vojka,
327824,SK,8,Prislop,
327825,SK,4,DolnÈ Kopince,
327826,SK,7,Dˆgˆsi Majer,
327827,SK,4,J·nosh·za,
327828,SK,6,Bodovka,
327829,SK,4,Nevidzany,
327830,SK,8,Abramov·,
327831,SK,6,Sisov,
327832,SK,1,Gemerske Dechtare,
327833,SK,3,Brezina,
327834,SK,4,Velcice,
327835,SK,1,Horne Rykyncice,
327836,SK,4,Suranky,
327837,SK,4,Doln˝ And,
327838,SK,6,MojtÌn,
327839,SK,6,Rakovec,
327840,SK,4,Star˝ H·jnik,
327841,SK,3,KacagÛ,
327842,SK,8,Jazernica,
327843,SK,6,Kopec,
327844,SK,1,Svab,
327845,SK,8,Dolne Podvazie,
327846,SK,8,Sklabinsk˝ Podz·mok,
327847,SK,4,Svrbice,
327848,SK,4,Brezina,
327849,SK,4,Farkasd,
327850,SK,7,Presoven,
327851,SK,1,Na Dolink·ch,
327852,SK,7,Dvor Pasienka,
327853,SK,2,Hurbanova Ves,
327854,SK,1,Neuhay,
327855,SK,6,Dolne Motesice,
327856,SK,4,Rudica,
327857,SK,7,Dvor Nemcanka,
327858,SK,4,MalÈ Dvorany,
327859,SK,8,Poruba,
327860,SK,4,Eny,
327861,SK,4,DolnÌ Pial,
327862,SK,6,Matek,
327863,SK,8,Kalamenova,
327864,SK,4,N·dszeg,
327865,SK,4,Cankov,
327866,SK,4,Horna Stefanovicova,
327867,SK,1,Pod Dielom,
327868,SK,8,Horn˝ Lieskov,
327869,SK,2,Rarbok,
327870,SK,6,Michalie,
327871,SK,6,Caltice,
327872,SK,4,Sula,
327873,SK,4,Doln˝ Jatov,
327874,SK,5,Koprivnica,
327875,SK,6,HÙrka Nad V·hom,
327876,SK,8,Pocarova,
327877,SK,4,Dvor Horn· Arma,
327878,SK,4,Velky Bab,
327879,SK,8,SalatÌn,
327880,SK,7,Fornosek,
327881,SK,1,Dvor Hrabov·,
327882,SK,3,Svermovo,
327883,SK,3,Kr·snohorsk· Dlh· L˙ka,
327884,SK,8,Kociny,
327885,SK,4,UrmÌnsky Majer,
327886,SK,5,Pcoline,
327887,SK,4,Terany,
327888,SK,5,Habura,
327889,SK,6,Skodak,
327890,SK,3,Fisar,
327891,SK,4,Horni Siles,
327892,SK,5,Bajerov,
327893,SK,1,Biely Vrch,
327894,SK,6,P·nici,
327895,SK,7,J·nosh·za,
327896,SK,8,Havrania,
327897,SK,4,Z·hradnÌctvo,
327898,SK,5,Kolackov,
327899,SK,1,Michalkov·,
327900,SK,7,TallÛs,
327901,SK,1,Vysna Revuca,
327902,SK,6,Doln· Breznica,
327903,SK,6,Zabudisova Kopanica,
327904,SK,7,Male Canikovce,
327905,SK,2,Cechova,
327906,SK,1,Trnie,
327907,SK,1,Surice,
327908,SK,2,Verekne,
327909,SK,5,Vysne Ladickovce,
327910,SK,2,Sisulaky,
327911,SK,5,Pakostov,
327912,SK,1,Liptovske Klacany,
327913,SK,7,Dobr· Voda,
327914,SK,1,Petova,
327915,SK,1,Ceske Brezovo,
327916,SK,8,Ratkovo,
327917,SK,5,Kapisova,
327918,SK,8,Hubov·,
327919,SK,4,Zalaba,
327920,SK,3,Gercel,
327921,SK,2,Etre-karcsa,
327922,SK,5,DuplÌn,
327923,SK,5,ZubnÈ,
327924,SK,3,Plechotice,
327925,SK,3,SlivnÌk,
327926,SK,5,Medzany,
327927,SK,1,Hrudkov·,
327928,SK,3,Licince,
327929,SK,5,Nov· Polianka,
327930,SK,3,Olsovany,
327931,SK,3,Kolonica,
327932,SK,4,Betarska Pusta,
327933,SK,2,LÈg,
327934,SK,1,Kraskovo,
327935,SK,4,Mal˝ CetÌn,
327936,SK,5,Alt-walddorf,
327937,SK,1,Dobr·,
327938,SK,8,Turcianske Klacany,
327939,SK,3,Paca,
327940,SK,3,Kista,
327941,SK,3,Kaschau,
327942,SK,4,Neutra,
327943,SK,8,Sillein,
327944,SK,7,Tyrnau,
327945,SK,1,Altsohl,
327946,SK,5,Sarisske Jastrabie,
327947,SK,1,Velke Dravce,
327948,SK,8,Kalameny,
327949,SK,3,Drahnov,
327950,SK,8,Martincek,
327951,SK,8,Vanovka,
327952,SK,8,Pokryvac,
327953,SK,1,Ostry Grun,
327954,SK,3,Dvor Lucka,
327955,SK,1,Krmes,
327956,SK,1,PÙtor,
327957,SK,1,Ratkov·,
327958,SK,8,Oravsk˝ Biely Potok,
327959,SK,7,Rovensko,
327960,SK,8,Malinov·,
327961,SK,7,Kerest˙r,
327962,SK,6,Nov· Ves Nad V·hom,
327963,SK,3,Jasenov,
327964,SK,1,KamennÈ Kosihy,
327965,SK,4,Horn˝ Pial,
327966,SK,5,Ovcie,
327967,SK,4,Velka Mana,
327968,SK,4,Voznica,
327969,SK,3,Simonovce,
327970,SK,6,Do Kraloveho,
327971,SK,1,Hradec,
327972,SK,4,Tajn·,
327973,SK,3,Trnava,
327974,SK,3,Poproc,
327975,SK,3,Ostrov,
327976,SK,6,KostolnÈ,
327977,SK,5,Janovce,
327978,SK,1,Polianka,
327979,SK,8,Milochov,
327980,SK,5,Jablon,
327981,SK,1,MalÈ Zlievce,
327982,SK,1,RimavskÈ Janovce,
327983,SK,5,Forbasy,
327984,SK,3,Milhost,
327985,SK,3,B·tka,
327986,SK,8,Pastina Zavada,
327987,SK,5,DubinnÈ,
327988,SK,3,Velka Trna,
327989,SK,5,Klenov,
327990,SK,2,U Soj·kov,
327991,SK,1,Bosenovo,
327992,SK,3,Sarisske Bohdanovce,
327993,SK,3,Michalany,
327994,SK,5,HertnÌk,
327995,SK,2,Ciglad,
327996,SK,5,Cerveny Klastor,
327997,SK,3,Falkusovce,
327998,SK,3,Celovce,
327999,SK,3,Kaluza,
328000,SK,3,KazimÌr,
328001,SK,5,G·novce,
328002,SK,1,Tuh·r,
328003,SK,3,Durkov,
328004,SK,3,Dvor Maria,
328005,SK,6,Trebichava,
328006,SK,3,Kesovce,
328007,SK,5,Jankovce,
328008,SK,5,Busovce,
328009,SK,5,Hrabkov,
328010,SK,1,Prencov,
328011,SK,8,Marcek,
328012,SK,2,Elo Patony,
328013,SK,3,Maly Hores,
328014,SK,5,Lukov,
328015,SK,3,B·novce Nad Ondavou,
328016,SK,3,Kozuchov,
328017,SK,5,Mirkovce,
328018,SK,5,Uloza,
328019,SK,3,Petrovce Nad Laborcom,
328020,SK,3,SuchÈ,
328021,SK,8,Trebostovo,
328022,SK,5,Hrubov,
328023,SK,1,S·sov·,
328024,SK,4,Pogranice,
328025,SK,3,Luckovce,
328026,SK,3,SmolnÌcka Huta,
328027,SK,1,Vrbovka,
328028,SK,3,Meliata,
328029,SK,4,Ondrejovce,
328030,SK,1,BÈna,
328031,SK,3,Jelsava,
328032,SK,2,Kyselica,
328033,SK,3,Pticie,
328034,SK,4,Sellye,
328035,SK,5,Bunde,
328036,SK,4,Hontianske Tes·re,
328037,SK,2,Mad,
328038,SK,1,Smrecany,
328039,SK,1,Selany,
328040,SK,5,Piskorovce,
328041,SK,8,Vlasky,
328042,SK,8,Porecia,
328043,SK,3,Z·vadka,
328044,SK,6,B·novce Nad Bebravou,
328045,SK,5,Vranov Nad Toplou,
328046,SK,6,Podluzany,
328047,SK,5,Kvakovce,
328048,SK,1,Babin·,
328049,SK,3,Kamienka,
328050,SK,1,Bukovec,
328051,SK,8,JablonovÈ,
328052,SK,8,Kliestina,
328053,SK,5,Helenin Dvor,
328054,SK,8,Bacin,
328055,SK,3,Dringac,
328056,SK,3,Kosicka Bela,
328057,SK,8,Kosuty,
328058,SK,3,Hnilec,
328059,SK,5,Cernina,
328060,SK,3,Brestov,
328061,SK,3,Vysna Mysla,
328062,SK,1,Horna Micina,
328063,SK,3,Hran,
328064,SK,5,Vysna Sitnica,
328065,SK,1,Mostenica,
328066,SK,4,MalÈ Vozokany,
328067,SK,5,Mlynica,
328068,SK,8,Svosov,
328069,SK,5,Lukavica,
328070,SK,4,Zbehy,
328071,SK,3,Jastrabie,
328072,SK,3,LesnÈ,
328073,SK,5,Mal˝ LipnÌk,
328074,SK,3,Nizny Lanec,
328075,SK,6,Hrabovka,
328076,SK,5,Snakov,
328077,SK,3,Stos,
328078,SK,6,Cavoj,
328079,SK,1,OzdÌn,
328080,SK,4,Cerveny Dvor,
328081,SK,3,Dvor Lapsa,
328082,SK,8,Stiavnicka,
328083,SK,1,Dacov Lom,
328084,SK,6,Petovka,
328085,SK,6,Hlohovec,
328086,SK,6,Chvojnica,
328087,SK,5,Majerovce,
328088,SK,5,Hanusovce,
328089,SK,8,U GaljerÌ,
328090,SK,6,BabolÌci,
328091,SK,2,Maslovce,
328092,SK,8,Klokocov,
328093,SK,5,Mengusovce,
328094,SK,5,Bzenov,
328095,SK,8,Vysne Vane,
328096,SK,1,D˙brava,
328097,SK,5,Toporec,
328098,SK,8,Beharovce,
328099,SK,8,Liptovsk˝ Michal,
328100,SK,1,Plostin,
328101,SK,6,Selcianky,
328102,SK,3,Byste,
328103,SK,4,Mlynsk˝ Sek,
