locId,country,region,city,postcode
328586,TH,,,
328587,TH,40,Bangkok,
328588,TH,38,Nonthaburi,
328589,TH,62,Phuket,
328590,TH,46,Pattaya,
328591,TH,42,Prakanong,
328592,TH,2,Chiang Mai,
328593,TH,57,Prachuab,
328594,TH,46,Cholburi,
328595,TH,29,Tha Tum,
328596,TH,39,Pathum Thani,
328597,TH,68,Klong,
328598,TH,3,Bhan,
328599,TH,27,Nakhon Ratchasima,
328600,TH,22,Khon Kaen,
328601,TH,36,Ayutthaya,
328602,TH,68,Songkhla,
328603,TH,2,Chiengmai,
328604,TH,49,Trad,
328605,TH,39,Rangsit,
328606,TH,9,Sukhothai,
328607,TH,44,Chachoengsao,
328608,TH,36,Ayudhya,
328609,TH,7,Thong,
328610,TH,27,Korat,
328611,TH,55,Mahachai,
328612,TH,12,Phitsanulok,
328613,TH,12,Muang Pitsanulok,
328614,TH,42,Phra Khanong,
328615,TH,41,Phayao,
328616,TH,48,Chantaburi,
328617,TH,71,Amnat,
328618,TH,68,Songkla,
328619,TH,47,Rayong,
328620,TH,25,Roi-ed,
328621,TH,30,Srisaket,
328622,TH,40,Dusit,
328623,TH,57,Hua Hin,
328624,TH,46,Sriracha,
328625,TH,46,Napa,
328626,TH,6,Lampang,
328627,TH,22,Khonkean,
328628,TH,68,Sala,
328629,TH,58,Lang Suan,
328630,TH,28,Yang,
328631,TH,9,Kong,
328632,TH,42,Samut,
328633,TH,65,Trang,
328634,TH,49,Trat,
328635,TH,5,Lampoon,
328636,TH,4,Chang,
328637,TH,42,Samrong,
328638,TH,7,Prae,
328639,TH,49,Taling,
328640,TH,75,Ubon,
328641,TH,76,Udon,
328642,TH,36,Maharaj,
328643,TH,78,Mukdahan,
328644,TH,10,Uttaradit,
328645,TH,42,Paknam,
328646,TH,52,Ratchaburi,
328647,TH,63,Krabi,
328648,TH,36,Uthai,
328649,TH,70,Yala,
328650,TH,2,Kang,
328651,TH,56,Laem,
328652,TH,46,Phanthong,
328653,TH,27,Nakhonratsima,
328654,TH,60,Surat Thani,
328655,TH,25,Roi Et,
328656,TH,11,Kamphaeng Phet,
328657,TH,59,Ranong,
328658,TH,48,Chanthaburi,
328659,TH,52,Muang Rajburi,
328660,TH,2,Mae Rim,
328661,TH,40,Bankok,
328662,TH,30,Sang,
328663,TH,6,Hong,
328664,TH,35,Chaiyo,
328665,TH,29,Surindra,
328666,TH,28,Buriram,
328667,TH,63,Lanta,
328668,TH,26,Chaiyaphum,
328669,TH,22,Samran,
328670,TH,64,Nakhon Si Thammarat,
328671,TH,20,Sakol,
328672,TH,25,Suwannaphum,
328673,TH,69,Pattani,
328674,TH,29,Surin,
328675,TH,7,Long,
328676,TH,46,Phan Thong,
328677,TH,8,Mae Sord,
328678,TH,55,Samut Sakhon,
328679,TH,57,Pak Klong,
328680,TH,36,Ayuthaya,
328681,TH,26,Chaiyapoom,
328682,TH,23,Kalasin,
328683,TH,72,Yasothon,
328684,TH,12,Pitsanulok,
328685,TH,68,Jana,
328686,TH,39,Thanyaburi,
328687,TH,7,Song,
328688,TH,62,Puket,
328689,TH,13,Pichit,
328690,TH,48,Daun,
328691,TH,66,Patalung,
328692,TH,8,Umphang,
328693,TH,49,Khlong,
328694,TH,61,Phangnga,
328695,TH,3,Chiang Rai,
328696,TH,60,Phanom,
328697,TH,2,Sansai,
328698,TH,16,Nakhon Sawan,
328699,TH,60,Surat,
328700,TH,54,Samut Songkhram,
328701,TH,58,Chumphon,
328702,TH,62,Thalang,
328703,TH,40,Bangkok Noi,
328704,TH,51,Song Phi Nong,
328705,TH,42,Samut Prakan,
328706,TH,56,Phetchaburi,
328707,TH,42,Phra Pradaeng,
328708,TH,46,Si Racha,
328709,TH,42,Bang Bo,
328710,TH,64,Wiang Sa,
328711,TH,76,Udon Thani,
328712,TH,5,Pa Sang,
328713,TH,38,Bang Bua Thong,
328714,TH,38,Pak Kret,
328715,TH,53,Nakhon Pathom,
328716,TH,39,Ban Don Muang,
328717,TH,46,Chon Buri,
328718,TH,46,Ban Bung,
328719,TH,50,Kanchanaburi,
328720,TH,30,Si Sa Ket,
328721,TH,46,Ban Na,
328722,TH,46,Bang Lamung,
328723,TH,68,Hat Yai,
328724,TH,64,Ban Na Hin Tok,
328725,TH,47,Ban Chang,
328726,TH,7,Phrae,
328727,TH,24,Kosum Phisai,
328728,TH,18,Loei,
328729,TH,5,Lamphun,
328730,TH,39,Khlong Luang,
328731,TH,68,Sadao,
328732,TH,14,Phetchabun,
328733,TH,55,Krathum Baen,
328734,TH,42,Chong Nonsi,
328735,TH,52,Photharam,
328736,TH,53,Bang Len,
328737,TH,13,Phichit,
328738,TH,76,Kumphawapi,
328739,TH,36,Bang Sai,
328740,TH,12,Ban Dong Makham,
328741,TH,12,Bung,
328742,TH,9,Khiri Mat,
328743,TH,45,Watana,
328744,TH,5,Mae Tha,
328745,TH,14,Chon Daen,
328746,TH,55,Ban Phaeo,
328747,TH,37,Nong Khae,
328748,TH,36,Phak Hai,
328749,TH,3,Ban Hong Boe Nok,
328750,TH,56,Ban Pak Khlong,
328751,TH,56,Khao Yoi,
328752,TH,50,Tha Muang,
328753,TH,75,Ubon Ratchathani,
328754,TH,53,Sam Phran,
328755,TH,16,Nong Bua,
328756,TH,69,Sai Buri,
328757,TH,67,Satun,
328758,TH,51,Suphan Buri,
328759,TH,6,Ban Na Kae,
328760,TH,6,Ban Aun,
328761,TH,58,Chumpon,
328762,TH,57,Prachuap Khiri Khan,
328763,TH,2,Doi Saket,
328764,TH,42,Bang Kapi,
328765,TH,56,Cha-am,
328766,TH,54,Amphawa,
328767,TH,20,Sakhon Nakhon,
328768,TH,40,Saladaeng,
328769,TH,3,Phan,
328770,TH,52,Bang Phae,
328771,TH,42,Klong Toey,
328772,TH,19,Nong Han,
328773,TH,36,Wang Noi,
328774,TH,33,Ban Bang Chik,
328775,TH,45,Kacha,
328776,TH,52,Chom Bung,
328777,TH,4,Nan,
328778,TH,31,Narathiwat,
328779,TH,73,Nakhon Phanom,
328780,TH,2,Fang,
328781,TH,78,Khamcha-i,
328782,TH,48,Khlung,
328783,TH,62,Kathu,
328784,TH,17,Sangkhom,
328785,TH,64,Tungsong,
328786,TH,15,Uthai Thani,
328787,TH,42,Bang Phli,
328788,TH,36,Phachi,
328789,TH,46,Sattahip,
328790,TH,78,Mukdaharn,
328791,TH,24,Maha Sarakham,
328792,TH,8,Tak,
328793,TH,52,Lak Hok,
328794,TH,24,Borabu,
328795,TH,29,Prasat,
328796,TH,65,Huai Yot,
328797,TH,67,Langu,
328798,TH,66,Phatthalung,
328799,TH,37,Kaeng Khoi,
328800,TH,2,Saraphi,
328801,TH,22,Phon,
328802,TH,42,Bangkhunthien,
328803,TH,62,Rawai,
328804,TH,38,Bang Kruai,
328805,TH,41,Chiang Kham,
328806,TH,17,Nong Khai,
328807,TH,62,Katu,
328808,TH,6,Mae Wa,
328809,TH,3,Chun,
328810,TH,33,Sing Buri,
328811,TH,27,Pak Chong,
328812,TH,27,Sung Noen,
328813,TH,49,Klongyai,
328814,TH,27,Khon Buri,
328815,TH,36,Bang Pa-in,
328816,TH,68,Chana,
328817,TH,34,Lop Buri,
328818,TH,3,Thoeng,
328819,TH,68,Na Muang,
328820,TH,44,Phanom Sarakham,
328821,TH,43,Ongkharak,
328822,TH,2,Hang Dong,
328823,TH,60,Chaiya,
328824,TH,28,Nong Ki,
328825,TH,20,Phang Khon,
328826,TH,69,Yaring,
328827,TH,38,Taling Chan,
328828,TH,36,Nakhon Luang,
328829,TH,32,Chai Nat,
328830,TH,27,Prathai,
328831,TH,28,Satuk,
328832,TH,11,Khlong Khlung,
328833,TH,48,Makham,
328834,TH,2,San Kamphaeng,
328835,TH,47,Klaeng,
328836,TH,38,Bang Su,
328837,TH,39,Lam Luk Ka,
328838,TH,26,Chatturat,
328839,TH,10,Phichai,
328840,TH,52,Ban Pong,
328841,TH,27,Phimai,
328842,TH,31,Bacho,
328843,TH,56,Nong Chok,
328844,TH,77,Phana,
328845,TH,27,Non Sung,
328846,TH,12,Wangthong,
328847,TH,63,Ko Lanta,
328848,TH,45,Srimahapho,
328849,TH,36,Amphoe Bang Pa-in,
328850,TH,46,Bang Saen,
328851,TH,2,Mea Sai,
328852,TH,29,Rattanaburi,
328853,TH,64,Tha Sala,
328854,TH,22,Chum Phae,
328855,TH,1,Mae Hong Son,
328856,TH,3,Mae Sai,
328857,TH,32,Sankhaburi,
328858,TH,59,Laun,
328859,TH,43,Nakhon Nayok,
328860,TH,31,Rangae,
328861,TH,5,Pang,
328862,TH,22,Ban Phai,
328863,TH,3,Mae Suai,
328864,TH,2,Phrao,
328865,TH,40,Makkasan,
328866,TH,30,Khoi,
328867,TH,27,Muaklek,
328868,TH,25,Selaphum,
328869,TH,46,Phanat Nikhom,
328870,TH,80,Aranyaprathet,
328871,TH,29,Thatoom,
328872,TH,44,Bang Khla,
328873,TH,6,Ngao,
328874,TH,46,Chonburi,
328875,TH,32,Amphoe Hankha,
328876,TH,8,Mae Sot,
328877,TH,79,Nong Bua Lamphu,
328878,TH,31,Yingo,
328879,TH,32,Manorom,
328880,TH,64,Thung Song,
328881,TH,6,Ko Kha,
328882,TH,28,Muang Buriram,
328883,TH,68,Ranot,
328884,TH,16,Lat Yao,
328885,TH,22,Chonnabot,
328886,TH,64,Chawang,
328887,TH,64,Sichon,
328888,TH,38,Bang Phlat,
328889,TH,17,Amphoe Si Chiang Mai,
328890,TH,36,Ban Phai,
328891,TH,62,Tharua,
328892,TH,61,Takua Thung,
328893,TH,2,San Pa Tong,
328894,TH,49,Khlong Yai,
328895,TH,61,Takua Pa,
328896,TH,19,Na Klang,
328897,TH,47,Pluak Daeng,
328898,TH,53,Kamphaeng Saen,
328899,TH,42,Paseecharoen,
328900,TH,42,Bangkok Yai,
328901,TH,13,Taphan Hin,
328902,TH,65,Kantang,
328903,TH,47,Ban Kai,
328904,TH,40,Bang Rak,
328905,TH,75,Warin Chamrap,
328906,TH,23,Yang Talat,
328907,TH,31,Chanae,
328908,TH,4,Pua,
328909,TH,34,Tha Wung,
328910,TH,19,Ban Dung,
328911,TH,38,Bang Yai,
328912,TH,2,San Sai,
328913,TH,31,Ruso,
328914,TH,36,Sena,
328915,TH,60,Ko Samui,
328916,TH,27,Chumpuang,
328917,TH,60,Phun Phin,
328918,TH,33,In Buri,
328919,TH,16,Krok Phra,
328920,TH,59,Na,
328921,TH,11,Khanu,
328922,TH,69,Yarang,
328923,TH,19,Phen,
328924,TH,28,Nang Rong,
328925,TH,73,Renu Nakhon,
328926,TH,80,Sa Kaeo,
328927,TH,45,Prachantakham,
328928,TH,45,Prachin Buri,
328929,TH,24,Chiang Yun,
328930,TH,44,Khet Lat Krabang,
328931,TH,42,Rat Burana,
328932,TH,42,Bang Khun Thian,
328933,TH,77,Amnat Charoen,
328934,TH,68,Sathing Phra,
328935,TH,67,Thung Wa,
328936,TH,22,Kranuan,
328937,TH,45,Nadi,
328938,TH,50,Tha Rua,
328939,TH,3,Chiang Muan,
328940,TH,20,Waritchaphum,
328941,TH,26,Bamnet Narong,
328942,TH,17,Phon Charoen,
328943,TH,38,Bang Khen,
328944,TH,61,Kapong,
328945,TH,30,Kantharalak,
328946,TH,27,Chakkarat,
328947,TH,29,Sangkha,
328948,TH,75,Khemmarat,
328949,TH,15,Ban Rai,
328950,TH,40,Sam Sen,
328951,TH,3,Mae Chan,
328952,TH,17,Tha Bo,
328953,TH,17,So Phisai,
328954,TH,68,Rattaphum,
328955,TH,9,Sawankhalok,
328956,TH,52,Ban Pak Raet,
328957,TH,53,Ban Tale Bok,
328958,TH,38,Bankhen,
328959,TH,2,Me,
328960,TH,40,Amphoe Bang Rak,
328961,TH,71,Chanuman,
328962,TH,27,Khong,
328963,TH,28,Prakhon Chai,
328964,TH,39,Thanya Buri,
328965,TH,2,Chiang Dao,
328966,TH,42,Bang Mote,
328967,TH,39,Luk Ka,
328968,TH,7,Sungmen,
328969,TH,13,Thap Khlo,
328970,TH,71,Buntharik,
328971,TH,19,Non Sang,
328972,TH,42,Amphoe Bang Kapi,
328973,TH,32,Tha Bot,
328974,TH,3,Sa,
328975,TH,64,Pak Phanang,
328976,TH,46,Na Wang,
328977,TH,37,Sara Buri,
328978,TH,37,Sraburi,
328979,TH,2,Omkoi,
328980,TH,40,Ban Khlong Lat Bua Khao,
328981,TH,40,Amphoe Dusit,
328982,TH,52,Ban Boek Phrai,
328983,TH,42,Ban Bang Khae,
328984,TH,6,Thoen,
328985,TH,35,Ang Thong,
328986,TH,7,Sung Men,
328987,TH,40,Klong Sam,
328988,TH,68,Kam Phaeng Phet,
328989,TH,3,Moeang Dheung,
328990,TH,2,Samoeng,
328991,TH,23,Kuchinarai,
328992,TH,2,Chom Thong,
328993,TH,53,Ban Bang Rathuk,
328994,TH,42,Ban Bang Samran,
328995,TH,42,Ban Bang Lao,
328996,TH,2,Ban Bua Mung,
328997,TH,40,Ban Rang Pho,
328998,TH,27,Huai Thalaeng,
328999,TH,72,Ban Kham Khon Ta,
329000,TH,5,Ban Song Tha,
329001,TH,64,Ban Lum Pho Tia,
329002,TH,68,Ban Khao Khao,
329003,TH,44,Ban Hua Takhe,
329004,TH,53,Ban Khlong Yong,
329005,TH,68,Ban Khlong Pradu,
329006,TH,73,That Phanom,
329007,TH,44,Bang Pakong,
329008,TH,36,Ban Lad Bua Luang,
329009,TH,42,Ban Tamru,
329010,TH,53,Ban Khlong Nong Yai,
329011,TH,42,Ban Chin Chia,
329012,TH,39,Ban Nong Khwang Tawan,
329013,TH,66,Amphoe Sathing Phra,
329014,TH,46,Ban Phan Sadet Nai,
329015,TH,42,Ban Bang Lamphu,
329016,TH,42,Ban Banj Phli Yai,
329017,TH,1,Mae Sariang,
329018,TH,61,Thai Muang,
329019,TH,32,Hankha,
329020,TH,38,Ban Mai,
329021,TH,38,Bangprat,
329022,TH,42,Khlong Toei,
329023,TH,40,Khlong San,
329024,TH,71,Ban Non Rang,
329025,TH,35,Wiset Chai Chan,
329026,TH,39,Ban Bang Sakae,
329027,TH,10,Ban Fak Bung,
329028,TH,64,Ban Bien,
329029,TH,68,Ban Khlong Sai,
329030,TH,22,Ban Na Ngai,
329031,TH,46,Ban Muang,
329032,TH,46,Bang Khlaung Tam Pru,
329033,TH,55,Ban Hua Phrong,
329034,TH,6,Ban Na Mai,
329035,TH,39,Ban Bang Krabu,
329036,TH,30,Kanthararom,
329037,TH,22,Phu Wiang,
329038,TH,1,Pai,
329039,TH,52,Pak Tho,
329040,TH,6,Ban Pong Men,
329041,TH,63,Ban Pru Na,
329042,TH,60,Don Sak,
329043,TH,68,Ban Tah Nang Hom,
329044,TH,69,Ban Na Chum Saeng,
329045,TH,40,Ban Khlong Si,
329046,TH,46,Ban Chak Kau Bau,
329047,TH,51,U Thong,
329048,TH,6,Phae Kae Phak,
329049,TH,53,Ban Bang Phikun,
329050,TH,36,Bang Ban,
329051,TH,20,Nong Phok,
329052,TH,53,Ban Bang Chaang,
329053,TH,60,Kanchanadit,
329054,TH,70,Betong,
329055,TH,70,Yaha,
329056,TH,47,Ban Ai Khwan,
329057,TH,69,Kampong Kulubang,
329058,TH,62,Ban Ao Tu Khun,
329059,TH,73,Ban Nong Saeng,
329060,TH,30,Ban Lathai,
329061,TH,68,Ban Hua Suan,
329062,TH,73,Pla Pak,
329063,TH,40,Suan Lumphini,
329064,TH,37,Phra Phutthabat,
329065,TH,30,Uthumphon Phisai,
329066,TH,31,Sungai Kolok,
329067,TH,55,Ban Khlong Tan,
329068,TH,23,Ban Pham,
329069,TH,36,Ban Bang Mon,
329070,TH,68,Banta Hmo Jai,
329071,TH,79,Ban Na Chum Saeng,
329072,TH,23,Ban Sang Kho,
329073,TH,37,Amphoe Sao Hai,
329074,TH,16,Suan Luang,
329075,TH,10,Muang Phichai,
329076,TH,64,Khanom,
329077,TH,51,Sam Chuk,
329078,TH,27,Chok Chai,
329079,TH,20,Warichaphum,
329080,TH,53,Nong Khaem,
329081,TH,50,Lao Khwan,
329082,TH,55,Ban Plai Khlong Tan,
329083,TH,42,Ban Thap Nang,
329084,TH,4,Ban Huai Kiu,
329085,TH,16,Ban Nam Song,
329086,TH,55,Angtong,
329087,TH,6,Chae Hom,
329088,TH,47,Phla,
329089,TH,28,Krasang,
329090,TH,3,Chiang Khong,
329091,TH,37,Wihan Daeng,
329092,TH,10,Tha Pla,
329093,TH,2,Ban Cho Lae,
329094,TH,27,Ban Sa Chaeng Nua,
329095,TH,11,Ban Gao Tao Wi,
329096,TH,52,Ban Bang Phai,
329097,TH,43,Ban Khlong Sip Ha,
329098,TH,68,Ban Pak Bang Thepha,
329099,TH,13,Amphoe Pho Thale,
329100,TH,22,Amphoe Mancha Khiri,
329101,TH,24,Kantharawichai,
329102,TH,55,Doem Bang Nang Buat,
329103,TH,29,Kap Choeng,
329104,TH,12,Ban Sap Phang,
329105,TH,38,Ban Lam Ri,
329106,TH,55,Ban Bang Ping,
329107,TH,52,Ban Bua Ngam,
329108,TH,80,Ban Nong Paen,
329109,TH,47,Ban Phlong Ta Khlao,
329110,TH,38,Ban Khlong Khun Si,
329111,TH,68,Ban Khlong Pom,
329112,TH,40,Ban Khlong Sip Ha,
329113,TH,27,Ban Sat,
329114,TH,44,Lat Krabang,
329115,TH,28,Lam Plai Mat,
329116,TH,70,Raman,
329117,TH,19,Si Bun Ruang,
329118,TH,37,Ban Phu Khae,
329119,TH,28,Kok Sung,
329120,TH,12,Ban Beung Lam,
329121,TH,51,Ban Khlong Mong,
329122,TH,9,Ban Wang I Sung,
329123,TH,46,Ban Chak Khao Haeng,
329124,TH,3,Ban Chaba,
329125,TH,9,Si Nakhon,
329126,TH,23,Pho Chai,
329127,TH,52,Ban Pong I Lup,
329128,TH,46,Bo Thong,
329129,TH,23,Kamalasai,
329130,TH,45,Kabin Buri,
329131,TH,44,Katu Mlom,
329132,TH,4,Thung Chang,
329133,TH,53,Ban Pak Khlong Khwang,
329134,TH,42,Ban Bang Po,
329135,TH,9,Ban Nong Ya Plong,
329136,TH,12,Nakhon Thai,
329137,TH,53,Ban Bang Nam Cham,
329138,TH,42,Ban Bang Chalong,
329139,TH,56,Amphoe Ban Laem,
329140,TH,35,Pa Mok,
329141,TH,6,Ban Lang Lat,
329142,TH,20,Amphoe Akat Amnuai,
329143,TH,53,Ban Khok Nua,
329144,TH,39,Ban Thung Si Kan,
329145,TH,42,Phasi Charoen,
329146,TH,47,Ban Ao Makham Pom,
329147,TH,46,Ban Thung Na,
329148,TH,61,Ban Khlong Muang,
329149,TH,2,Ban Pa Miang Mae Sun,
329150,TH,53,Bang Pra,
329151,TH,12,Thong Lang,
329152,TH,68,Bang Re,
329153,TH,52,Nong Song Hong,
329154,TH,53,Ban Tap Luang,
329155,TH,56,Ban Pong,
329156,TH,22,Ban Tha Phra,
329157,TH,12,Ban Naung Keam,
329158,TH,14,Lom Sak,
329159,TH,19,Ban Don Pa Kaeo,
329160,TH,53,Ban Don Yai Hom,
329161,TH,60,Wiang Sa,
329162,TH,61,Thai Chang,
329163,TH,45,Sam Wa,
329164,TH,54,Ban Long Kung,
329165,TH,39,Ban Thai Klon,
329166,TH,25,Kaset Wisai,
329167,TH,3,Ban Huai Nam Klun,
329168,TH,48,Laem Sing,
329169,TH,53,Ban Bang Yang,
329170,TH,11,Ban Thung Muang,
329171,TH,47,Ban Bang Nok,
329172,TH,20,Tao Ngoi,
329173,TH,34,Ban Mi,
329174,TH,56,Ban Huai Sai Tai,
329175,TH,66,Bangkok,
329176,TH,40,Samphanthawong,
329177,TH,22,Mancha Khiri,
329178,TH,56,Amphoe Khao Yoi,
329179,TH,23,Huai Phung,
329180,TH,12,Amphoe Phrom Phiram,
329181,TH,24,Ban Ku Thong,
329182,TH,64,Cha-uat,
329183,TH,25,Ban Tha Bo,
329184,TH,53,Ban Suan Pa Na,
329185,TH,38,Sai Noi,
329186,TH,65,Palean,
329187,TH,2,Ban Ku Daeng,
329188,TH,47,Ban Khai,
329189,TH,40,Min Buri,
329190,TH,52,Damnoen Saduak,
329191,TH,53,Nakhon Chai Si,
329192,TH,23,Somdet,
329193,TH,29,Chom Phra,
329194,TH,79,Ban Kut Chim,
329195,TH,14,Wang Pong,
329196,TH,2,Ban Daun Jan,
329197,TH,38,Ban Bang Phai Yai,
329198,TH,36,Ban Chai Sing,
329199,TH,36,Ban Hua Dom,
329200,TH,44,Ban Pratunam Tha Khai,
329201,TH,40,Ban Chuat Plai Mai,
329202,TH,27,Ban Hua Thale,
329203,TH,62,Ban Ku Ku,
329204,TH,55,Muban Sakhon Phlet,
329205,TH,2,Ban Doi Tai,
329206,TH,79,Ban Khok Kho,
329207,TH,12,Ban Khlong,
329208,TH,11,Ban Tha Dua,
329209,TH,13,Ban Nam Hak,
329210,TH,14,Ban Phlam,
329211,TH,52,Ban Don Pakpao,
329212,TH,50,Ban Don Rak,
329213,TH,1,Ban Thung Mamuang,
329214,TH,55,Ban Khok Hua Thanon,
329215,TH,39,Ban Khlong Paet Lang,
329216,TH,34,Ban Hau Chang,
329217,TH,40,Ban Bang Chak,
329218,TH,41,Ban Mea Tam,
329219,TH,36,Ban Kathum,
329220,TH,18,Ban Na Sam,
329221,TH,57,Ban Thung Iung,
329222,TH,16,Ban Bang Plung,
329223,TH,12,Amphoe Wang Thong,
329224,TH,48,Ban Pong Lang,
329225,TH,69,Ban Laem Nok,
329226,TH,40,Amphoe Thon Buri,
329227,TH,15,Ban Nong Nam Khan,
329228,TH,30,Ban Non Sai Thong,
329229,TH,49,Ban Ko Kankrao,
329230,TH,4,Ban Muang Chang Tai,
329231,TH,32,Ban Laem Ngiu,
329232,TH,9,Si Samrong,
329233,TH,48,Ban Khlong Khlung,
329234,TH,64,Ban Yung,
329235,TH,64,Ban Plai Thon,
329236,TH,70,Ban Cho Pu Lae,
329237,TH,31,Ban Lu Bo Bu Mae,
329238,TH,62,Ban Huai Luk,
329239,TH,33,Ban Bang Mu,
329240,TH,60,Ban Hua Suan,
329241,TH,61,Ban Khaek,
329242,TH,36,Ban Bang Chani,
329243,TH,60,Ban Phang Ka,
329244,TH,40,Prakanong,
329245,TH,62,Ban Na Sakhu,
329246,TH,39,Ban Khlong Chet Sai Lang,
329247,TH,24,Ban Nong Yang,
329248,TH,20,Ban Waritcha Phum,
329249,TH,40,Pom Prap,
329250,TH,57,Ban Khao Noi,
329251,TH,53,Ban Rao Phlap,
329252,TH,47,Ban Na Matum,
329253,TH,64,Hua Sai,
329254,TH,40,Bang Phlat,
329255,TH,68,Ban Na Wa,
329256,TH,40,Khlong Toei,
329257,TH,51,Amphoe Chorache Sam Phan,
329258,TH,3,Ban Pa Mai,
329259,TH,2,Ban Don Kaeo,
329260,TH,55,Ban Khlong Chek,
329261,TH,46,Ban Huai Tak Tai,
329262,TH,40,Ban Khlong Khwang Klang,
329263,TH,15,Nong Chang,
329264,TH,20,Sawang Daen Din,
329265,TH,40,Taling Chan,
329266,TH,40,Prawet,
329267,TH,40,Chatuchak,
329268,TH,40,Bang Khen,
329269,TH,40,Ratchathewi,
329270,TH,40,Bangkok Yai,
329271,TH,40,Lat Phrao,
329272,TH,40,Sathon,
329273,TH,40,Pathum Wan,
329274,TH,40,Bang Na,
329275,TH,41,Chun,
329276,TH,42,Bang Sao Thong,
329277,TH,40,Din Daeng,
329278,TH,53,Salaya,
329279,TH,40,Thon Buri,
329280,TH,26,Phu Khieo,
329281,TH,76,Phen,
329282,TH,40,Watthana,
329283,TH,46,Ban Hin Wong,
329284,TH,76,Nam Som,
329285,TH,23,Ban Don,
329286,TH,24,Kut Rang,
329287,TH,2,Amphoe Mae Rim,
329288,TH,2,Ban San Klang Tai,
329289,TH,8,Mae Ramat,
329290,TH,48,Soi Dao,
329291,TH,41,Chiang Muan,
329292,TH,28,Ban Kruat,
329293,TH,40,Phra Khanong,
329294,TH,23,Kalasindhu,
329295,TH,40,Huai Khwang,
329296,TH,23,Samran,
329297,TH,60,Vibhavadi,
329298,TH,53,Amphoe Nakhon Chai,
329299,TH,57,Pran Buri,
329300,TH,3,Wiang Pa Pao,
329301,TH,24,Borabue,
329302,TH,68,Singhanakhon,
329303,TH,40,Bang Sue,
329304,TH,40,Thung Khru,
329305,TH,40,Bang Khae,
329306,TH,40,Don Mueang,
329307,TH,77,Amnat,
329308,TH,31,Ra-ngae,
329309,TH,39,Sam Khok,
329310,TH,40,Suan Luang,
329311,TH,40,Lat Krabang,
329312,TH,37,Ban Pak Phrieo,
329313,TH,62,Ban Sapa,
329314,TH,31,Ban Sathon,
329315,TH,39,Ban Samakkhi,
329316,TH,58,Sawi,
329317,TH,20,Sakon Nakhon,
329318,TH,20,Song Dao,
329319,TH,30,Khukhan,
329320,TH,55,Krathumban,
329321,TH,40,Sai Mai,
329322,TH,27,Amphoe Sung Noen,
329323,TH,75,Mueang Ubon Ratchathani,
329324,TH,40,Bangkok Metropolis,
329325,TH,40,Paseecharoen,
329326,TH,75,Ubonrajathani,
329327,TH,46,Changwat Chon Buri,
329328,TH,40,Khlong Sam Wa,
329329,TH,27,Nakonratchasima,
329330,TH,12,Pisanuloke,
329331,TH,38,Amphoe Muang Nonthaburi,
329332,TH,9,Sukhobhai,
329333,TH,16,Mueang Nakhon Sawan,
329334,TH,7,Muang Phrae,
329335,TH,58,Chumporn,
329336,TH,59,Amphoe Muang Ranong,
329337,TH,33,Sing,
329338,TH,38,Mueang Nonthaburi,
329339,TH,60,Punpin,
329340,TH,40,Bankhen,
329341,TH,42,Muang Samut Prakan,
329342,TH,42,Pakham,
329343,TH,39,Amphoe Khlong Luang,
329344,TH,17,Nong Kai,
329345,TH,34,Lobh Buri,
329346,TH,34,Muang Lopburi,
329347,TH,51,Supanburi,
329348,TH,75,Ubol,
329349,TH,74,Srimahapho,
329350,TH,52,Mueang Ratchaburi,
329351,TH,55,Mueang Samut Sakhon,
329352,TH,47,Muang Rayong,
329353,TH,56,Petchaburi,
329354,TH,57,Prachuap,
329355,TH,76,Ban Dua Makeng,
329356,TH,22,Khon Khen,
329357,TH,79,Na Klang,
329358,TH,68,Haad Yai,
329359,TH,40,Muban Uea-suk,
329360,TH,58,Ban Huai Thon,
329361,TH,68,Ban Khok Han,
329362,TH,40,Wang Thonglang,
329363,TH,26,Chaturat,
329364,TH,75,Muang Ubon,
329365,TH,9,Si Satchanalai,
329366,TH,40,Lak Si,
329367,TH,25,Thawat Buri,
329368,TH,22,Muang Khon Kaen,
329369,TH,40,Bangkhunthien,
329370,TH,75,Buntharik,
329371,TH,40,Saphan Sung,
329372,TH,75,Ubon Rachatani,
329373,TH,37,Muak Lek,
329374,TH,13,Wang Sai Phun,
329375,TH,74,Prachantakham,
329376,TH,68,Thepha,
329377,TH,12,Pitsanuloke,
329378,TH,24,Ban Bo Yai,
329379,TH,48,Ban Nong Khon,
329380,TH,53,Amphoe Sam Phran,
329381,TH,40,Muban Chom Chuen,
329382,TH,14,Petchabun,
329383,TH,40,Bang Kapi,
329384,TH,36,Phra Nakhon Si Ayutthaya,
329385,TH,17,Ban Kuan Wan Noi,
329386,TH,40,Ban Na Song,
329387,TH,55,Muang Samut Sakhon,
329388,TH,25,Amphoe Muang Roi Et,
329389,TH,51,Doembang Nangbuat,
329390,TH,6,Soem Ngam,
329391,TH,20,Mueang Sakon Nakhon,
329392,TH,23,Nong Kung Si,
329393,TH,4,Naka,
329394,TH,40,Bang Bon,
329395,TH,3,Amphoe Chiang Rai,
329396,TH,59,La-un,
329397,TH,35,Sam Ko,
329398,TH,51,Bang Pla Ma,
329399,TH,51,Dan Chang,
329400,TH,76,Ban Dung,
329401,TH,75,Sirindhorn,
329402,TH,40,Bueng Kum,
329403,TH,13,Ban Dong Pa Kham Tai,
329404,TH,18,Erawan,
329405,TH,22,Nong Na Kham,
329406,TH,74,Kabin Buri,
329407,TH,18,Ban Pathumwan,
329408,TH,34,Ban Bang Mayom,
329409,TH,46,Ban Nong Kong Chak,
329410,TH,25,Phon Thong,
329411,TH,40,Bang Kho Laem,
329412,TH,42,Samudh Prakarn,
329413,TH,37,Nong Don,
329414,TH,34,Amphoe Muang Lop Buri,
329415,TH,61,Ban Khuk Khak,
329416,TH,7,Den Chai,
329417,TH,65,Sikao,
329418,TH,24,Mahasarakam,
329419,TH,14,Amphoe Nong Phai,
329420,TH,16,Tak Fa,
329421,TH,16,Takhli,
329422,TH,16,Tha Tako,
329423,TH,13,Muang Phichit,
329424,TH,27,Ban Khok Kruat,
329425,TH,27,Ban Krok,
329426,TH,37,Ban Klap,
329427,TH,53,Ban Nong Yo,
329428,TH,4,Mueang Nan,
329429,TH,55,Smutsakhon,
329430,TH,16,Muang Nakhon Sawan,
329431,TH,27,Sida,
329432,TH,6,Muang Lampang,
329433,TH,36,Ban Suan Phrik,
329434,TH,37,Muang Sara Buri,
329435,TH,46,Ban Na Mai,
329436,TH,27,Chaloem Phra Kiat,
329437,TH,60,Phunphin,
329438,TH,74,Si Mahosot,
329439,TH,35,Sawaengha,
329440,TH,43,Nayok,
329441,TH,13,Sak Lek,
329442,TH,6,Hang Chat,
329443,TH,47,Ban Nong Suea Klueak,
329444,TH,77,Chanuman,
329445,TH,74,Ban Sang,
329446,TH,76,Ban Phan Don,
329447,TH,50,Tha Maka,
329448,TH,54,Samut Songkram,
329449,TH,40,Yan Nawa,
329450,TH,39,Lat Lum Kaeo,
329451,TH,76,Kumpawapi,
