locId,country,region,city,postcode
329491,TN,,,
329492,TN,26,Tunis,
329493,TN,26,Ariana,
329494,TN,36,Radès,
329495,TN,23,Sousse,
329496,TN,16,Monastir,
329497,TN,17,Béja,
329498,TN,19,Nabeul,
329499,TN,26,Belvédère,
329500,TN,32,Sfax,
329501,TN,26,Kasbah,
329502,TN,26,Manouba,
329503,TN,3,Kairouan,
329504,TN,26,Aryanah,
329505,TN,18,Manzil Jamil,
329506,TN,16,Manzil Kamil,
329507,TN,19,Qurunbaliyah,
329508,TN,36,Radis,
329509,TN,23,Harqalah,
329510,TN,26,Quballat,
329511,TN,23,Susah,
329512,TN,23,Akkudah,
329513,TN,19,Nabul,
329514,TN,29,Mareth,
329515,TN,16,Sidi Bin Nur,
329516,TN,19,Hammamet,
329517,TN,23,Zawiyat Susah,
329518,TN,16,Jammal,
329519,TN,26,Rafraf,
329520,TN,32,El Hashassia,
329521,TN,19,Sulayman,
329522,TN,33,Maknassy,
329523,TN,14,Le Kef,
329524,TN,36,Maqrin,
329525,TN,18,Taburbah,
329526,TN,18,Manzil Bu Ruqaybah,
329527,TN,23,Douar Oulad Znai,
329528,TN,29,Qabis,
329529,TN,36,La Marsa,
329530,TN,16,Qasr Hallal,
329531,TN,32,Safaqis,
329532,TN,26,Manubah,
329533,TN,18,Matir,
329534,TN,17,Bajah,
329535,TN,19,Qurbus,
329536,TN,19,Manzil Bu Zalafah,
329537,TN,32,Jabinyanah,
329538,TN,33,Sidi Bu Zayd,
329539,TN,34,Tatawin,
329540,TN,26,Utique,
329541,TN,33,Hanout Cheïkh,
329542,TN,32,Bir Ali Ben Khalifa,
329543,TN,19,Zriba,
329544,TN,16,Lamtah,
329545,TN,18,Bizerte,
329546,TN,36,Hammam-lif,
329547,TN,19,Tazirkah,
329548,TN,23,Masakin,
329549,TN,18,Dar Al Bay,
329550,TN,29,Sembat,
329551,TN,36,Carthage,
329552,TN,30,Al `ayayishah,
329553,TN,32,Bou Thadi,
329554,TN,26,Bardaw,
329555,TN,18,El Alia,
329556,TN,26,Tastur,
329557,TN,37,Zaghouan,
329558,TN,29,Oudref,
329559,TN,32,Bir Tabeug,
329560,TN,30,Qafsah,
329561,TN,36,Ben Arous,
329562,TN,28,Marsa,
329563,TN,19,Taklisah,
329564,TN,29,Ben Rhilouf,
329565,TN,23,Bir El Bey,
329566,TN,26,Soukra,
329567,TN,36,Le Kram,
329568,TN,28,Djerba,
329569,TN,31,Qibili,
329570,TN,36,Gammarth,
329571,TN,30,Mdilla,
329572,TN,2,Kasserine,
329573,TN,36,Kram,
329574,TN,28,Houmt Souk,
329575,TN,16,Tuzah,
329576,TN,6,Tabursuq,
329577,TN,18,Bizerta,
329578,TN,36,Sidi Bou Saïd,
329579,TN,19,Beni Khiar,
329580,TN,14,Nibbar,
329581,TN,19,Manzil Tamim,
329582,TN,36,La Goulette,
329583,TN,22,Kasra,
329584,TN,26,La Soukra,
329585,TN,16,Tabulbah,
329586,TN,6,Tabarqah,
329587,TN,28,Jarjis,
329588,TN,19,Kélibia,
329589,TN,36,Salambo,
329590,TN,32,Agareb,
329591,TN,15,Sidi Alouane,
329592,TN,15,Mahdia,
329593,TN,19,Qurbah,
329594,TN,19,Dar-chaabane,
329595,TN,15,Souassi,
329596,TN,36,Fouchana,
329597,TN,33,Regueb,
329598,TN,16,Menzel Harb,
329599,TN,26,Mornaguia,
329600,TN,26,Borj El Amri,
329601,TN,18,Jedeïda,
329602,TN,36,El Aouina,
329603,TN,3,Sbikha,
329604,TN,6,Jundubah,
329605,TN,16,Moknine,
329606,TN,28,Midoun,
329607,TN,2,Talah,
329608,TN,36,Goulette,
329609,TN,30,Sened,
329610,TN,36,Mohamedia,
329611,TN,26,El Fahs,
329612,TN,16,Ouardanine,
329613,TN,28,Medenine,
329614,TN,36,Hammam-plage,
329615,TN,28,Houmet Essouk,
329616,TN,31,Seftimi,
329617,TN,23,Kalaa Kebira,
329618,TN,19,Hamam-el-guezeze,
329619,TN,3,Haffouz,
329620,TN,15,Chebba,
329621,TN,22,Silyanah,
329622,TN,36,Jebel Jelloud,
329623,TN,36,Nassen,
329624,TN,30,Metlaoui,
329625,TN,36,Sidi Daoud,
329626,TN,16,Ksibet El Mediouni,
329627,TN,28,Ksar Said,
329628,TN,23,Hammam Sousse,
329629,TN,14,Kef,
329630,TN,29,Menzel,
329631,TN,16,Sahline,
329632,TN,37,Zaghwan,
329633,TN,14,El Kef,
329634,TN,19,Beni Khalled,
329635,TN,26,Slouguia,
329636,TN,34,Dehiba,
329637,TN,32,Maharès,
329638,TN,26,Medina,
329639,TN,19,El Fehri,
329640,TN,35,El Hamma,
329641,TN,19,Dar-chaabane-el-fehri,
329642,TN,36,Oued Ellil,
329643,TN,2,Haïdra,
329644,TN,26,Bab Souika,
329645,TN,18,Tinjah,
329646,TN,16,Bennane,
329647,TN,26,El Omrane,
329648,TN,18,Zarzouna,
329649,TN,15,La Chebba,
329650,TN,3,Kairwan,
329651,TN,36,Ez Zahra,
329652,TN,19,Maamoura,
329653,TN,36,La Manouba,
329654,TN,26,Mutuelleville,
329655,TN,30,Redeyef,
329656,TN,28,El Mây,
329657,TN,26,Lafayette,
329658,TN,16,Zeramdine,
329659,TN,19,Korba,
329660,TN,29,Methouïa,
329661,TN,26,Medjez El Bab,
329662,TN,16,Ksar Hellal,
329663,TN,22,Siliana,
329664,TN,31,Duz,
329665,TN,34,Chenini,
329666,TN,26,Fahs,
329667,TN,15,Ksour Essaf,
329668,TN,26,Franceville,
329669,TN,19,Hammam Djedidi,
329670,TN,19,As Saqalibah,
329671,TN,36,Maafrine,
329672,TN,36,Cité Lescure,
329673,TN,19,Khanguet El Hadjadj,
329674,TN,18,Zahanah,
329675,TN,32,Nakta,
329676,TN,19,Bordj Bou Ficha,
329677,TN,35,Tawzar,
329678,TN,17,Taraf,
329679,TN,19,Réville,
329680,TN,36,Bordj Adj Ali,
329681,TN,18,De Carnières,
329682,TN,27,Douar Bou Beker,
329683,TN,36,Bordj Fouaoud,
329684,TN,26,Al Birin,
329685,TN,26,Dawwar Bed,
329686,TN,16,Bembla,
329687,TN,19,Segermes,
329688,TN,26,El Gelaah,
329689,TN,36,Bordj Cédria-potinville,
329690,TN,26,Al Murnaqiyah,
329691,TN,16,Khenis,
329692,TN,16,Ain Sahalin,
329693,TN,19,Douar El Hadj Ayas,
329694,TN,26,Dar Al Qabisi,
329695,TN,26,Bab Al Jazirah,
329696,TN,36,Graba,
329697,TN,19,Douar El Hadj Mohammed,
329698,TN,19,El Mida,
329699,TN,19,Mianu,
329700,TN,32,Mahrès,
329701,TN,36,Hammam Al Anf,
329702,TN,31,Rabta,
329703,TN,19,El Maamoura,
329704,TN,26,Ra's Al Jabal,
329705,TN,36,Salammbô,
329706,TN,19,Saad,
329707,TN,23,Kalaa Srira,
329708,TN,23,Souani El Adari,
329709,TN,36,Bejaoua,
329710,TN,28,Houmet Es Souk,
329711,TN,6,Aïn Draham,
329712,TN,15,El Jem,
329713,TN,23,Enfida,
329714,TN,19,Douar El Hadj Toumi,
329715,TN,18,Douar Dagma,
329716,TN,36,Douar Touba,
329717,TN,27,Ahmed Zid,
329718,TN,36,Al Aswad,
329719,TN,36,La Gouletta,
329720,TN,37,Bir M'cherga,
329721,TN,26,Jaafar,
329722,TN,36,El Kantara,
329723,TN,32,Dar El Gouadria,
329724,TN,23,Khoussiah,
329725,TN,36,Crétéville,
329726,TN,19,Dawwar Awlad Al Hajj Ahmad,
329727,TN,16,Al Manarah,
329728,TN,23,Sidi Bou Ali,
329729,TN,37,Zaghouane,
329730,TN,16,Bekalta,
329731,TN,26,Zahrouni,
329732,TN,19,Ben Aichoun,
329733,TN,19,Somaa,
329734,TN,26,Saïda,
329735,TN,16,Al Wardanin,
329736,TN,19,Sainte-marie Du Zit,
329737,TN,23,Enfidaville,
329738,TN,16,Ouadenine,
329739,TN,15,Mahedia,
329740,TN,19,Tozegrane,
329741,TN,23,Moureddine,
329742,TN,19,Khannguet El Hajaj,
329743,TN,23,Nafed,
329744,TN,18,Banzart,
329745,TN,26,Borj El Khessous,
329746,TN,16,Al Munastir,
329747,TN,32,Al Mahras,
329748,TN,23,Messadine,
329749,TN,26,Beau Site,
329750,TN,19,Turki,
329751,TN,26,Crémieuxville,
329752,TN,18,Douar El Bezazia,
329753,TN,23,Al Kana'is,
329754,TN,18,Metline,
329755,TN,26,Saminjah,
329756,TN,19,Soma,
329757,TN,19,Douar El Ayad,
329758,TN,23,Ez Zaouaoudi,
329759,TN,23,Dar Ash Shawush `abd Allah,
329760,TN,15,Al Mahdiyah,
329761,TN,16,Bannan,
329762,TN,26,Bab Djarira,
329763,TN,6,Fernana,
329764,TN,23,Kalaa-sghira,
329765,TN,19,El Haouaria,
329766,TN,15,Salakta,
329767,TN,19,Dar Bou Sain,
329768,TN,23,Hamman-sousse,
329769,TN,36,Montfleury,
329770,TN,36,Tunis,
329771,TN,36,Ariana,
329772,TN,36,Belvédère,
329773,TN,36,Kasbah,
329774,TN,36,Manouba,
329775,TN,36,Medina,
329776,TN,36,Bardaw,
329777,TN,36,Aryanah,
329778,TN,39,Borj El Amri,
329779,TN,36,Manubah,
329780,TN,18,Rafraf,
329781,TN,36,Franceville,
329782,TN,36,Soukra,
329783,TN,36,Al Murnaqiyah,
329784,TN,18,Ras Djebel,
329785,TN,19,Chaba Remada,
329786,TN,36,La Soukra,
329787,TN,6,Ahmed El Hakim,
329788,TN,28,Erriadh,
329789,TN,37,El Fahs,
329790,TN,36,Lafayette,
329791,TN,19,Diar El Hajjej,
329792,TN,19,Dar Chabane,
329793,TN,36,Al Mu`allaqah,
329794,TN,16,Manzil Harb,
329795,TN,36,Dar Djeziri,
329796,TN,23,Msaken,
329797,TN,36,Mégrine,
329798,TN,36,Bardo,
329799,TN,19,Menzel Temime,
329800,TN,23,Souse,
329801,TN,30,Gafsa,
329802,TN,23,Akouda,
329803,TN,29,Gabès,
329804,TN,23,Soussa,
329805,TN,31,Kebili,
329806,TN,36,Tunisi,
329807,TN,33,Sidi Bouzid,
329808,TN,6,Teboursouk,
329809,TN,6,Jendouba,
329810,TN,23,Zaouiet Sousse,
329811,TN,36,Le Bardo,
329812,TN,18,Menzel Bourguiba,
329813,TN,16,Teboulba,
329814,TN,23,Sousa,
329815,TN,36,Tunes,
329816,TN,18,Menzel Jemil,
329817,TN,15,Rejiche,
329818,TN,18,Tebourba,
329819,TN,18,Mateur,
329820,TN,36,Tunez,
329821,TN,19,Soliman,
329822,TN,19,Grombalia,
329823,TN,16,Lamta,
329824,TN,16,Moknin,
329825,TN,3,Jedaida,
329826,TN,36,El Omrane,
329827,TN,35,Tozeur,
329828,TN,28,Zarzis,
329829,TN,39,Gourbis,
329830,TN,34,Tataouine,
329831,TN,32,Mellita,
