locId,country,region,city,postcode
329839,TR,,,
329840,TR,68,Ankara,
329841,TR,34,Istanbul,
329842,TR,32,Mersin,
329843,TR,43,Kütahya,
329844,TR,34,Istambul,
329845,TR,26,Eskisehir,
329846,TR,59,Tekirdag,
329847,TR,35,Kavacik,
329848,TR,71,Konya,
329849,TR,48,Bodrum,
329850,TR,33,Isparta,
329851,TR,45,Mecidiyeköy,
329852,TR,35,Izmir,
329853,TR,83,Gaziantep,
329854,TR,55,Samsun,
329855,TR,54,Adapazari,
329856,TR,34,Maltepe,
329857,TR,20,Denizli,
329858,TR,34,Halkali,
329859,TR,63,Zorlu,
329860,TR,15,Türk,
329861,TR,65,Bilgi,
329862,TR,16,Bursa,
329863,TR,81,Doruk,
329864,TR,63,Sabanci,
329865,TR,63,Yasar,
329866,TR,44,Malatya,
329867,TR,60,Fatih,
329868,TR,63,Kara,
329869,TR,45,Süleyman,
329870,TR,60,Tokat,
329871,TR,25,Baskent,
329872,TR,45,Abdi,
329873,TR,8,Sakarya,
329874,TR,68,Kibris,
329875,TR,41,Gebze,
329876,TR,34,Pasabahce,
329877,TR,45,Bakir,
329878,TR,35,Yeni,
329879,TR,14,Bolu,
329880,TR,52,Kavaklidere,
329881,TR,22,Aslan,
329882,TR,13,Beykent,
329883,TR,61,Genel,
329884,TR,65,Polis,
329885,TR,45,Çukurova,
329886,TR,10,Balikesir,
329887,TR,63,Deniz,
329888,TR,22,Edirne,
329889,TR,17,Çanakkale,
329890,TR,38,Kayseri,
329891,TR,20,Pamukkale,
329892,TR,63,Kocatepe,
329893,TR,63,Sanliurfa,
329894,TR,63,Yildiz,
329895,TR,7,Orta,
329896,TR,80,Milli,
329897,TR,21,Çankaya,
329898,TR,52,Celâl,
329899,TR,48,Mugla,
329900,TR,61,Trabzon,
329901,TR,59,Gazi,
329902,TR,44,Firat,
329903,TR,41,Kocaeli,
329904,TR,40,Kirikkale,
329905,TR,25,Erzurum,
329906,TR,22,Sinan,
329907,TR,34,Cekmece,
329908,TR,31,Antakya,
329909,TR,25,Kars,
329910,TR,14,Zonguldak,
329911,TR,7,Antalya,
329912,TR,59,Vakiflar,
329913,TR,45,Marmara,
329914,TR,21,Kadir,
329915,TR,21,Dogus,
329916,TR,26,Atlas,
329917,TR,57,Zincirlikuyu,
329918,TR,16,Yenisehir,
329919,TR,58,Cayirova,
329920,TR,61,Bostanci,
329921,TR,16,Orhangazi,
329922,TR,48,Marmaris,
329923,TR,32,Tepebasi,
329924,TR,35,Bornova,
329925,TR,35,Tekkeköy,
329926,TR,59,Beyoglu,
329927,TR,60,Baglarbasi,
329928,TR,16,Demirtas,
329929,TR,81,Adana,
329930,TR,33,Umraniye,
329931,TR,34,Büyükçekmece,
329932,TR,25,Büyükdere,
329933,TR,41,Izmit,
329934,TR,50,Saglik,
329935,TR,46,Kahramanmaras,
329936,TR,31,Iskenderun,
329937,TR,25,Güvenlik,
329938,TR,61,Büyük,
329939,TR,21,Basari,
329940,TR,14,Ataç,
329941,TR,37,Ulus,
329942,TR,28,Giresun,
329943,TR,37,Arti,
329944,TR,34,Besiktas,
329945,TR,21,Dogan,
329946,TR,8,Borçka,
329947,TR,4,Murathan,
329948,TR,37,Zafer,
329949,TR,59,Çorlu,
329950,TR,25,Gunesli,
329951,TR,58,Sivas,
329952,TR,11,Lefke,
329953,TR,64,Müdürlü,
329954,TR,21,Eglence,
329955,TR,25,Polatli,
329956,TR,23,Acibadem,
329957,TR,59,Çerkezköy,
329958,TR,37,Ibrahim,
329959,TR,21,Çelik,
329960,TR,63,Seker,
329961,TR,28,Eren,
329962,TR,63,Giyim,
329963,TR,7,Esentepe,
329964,TR,21,Tarim,
329965,TR,50,Finans,
329966,TR,21,Mesken,
329967,TR,34,Maslak,
329968,TR,65,Yüksel,
329969,TR,50,Cemil,
329970,TR,62,Peri,
329971,TR,24,Özen,
329972,TR,28,Menekse,
329973,TR,34,Kagithane,
329974,TR,34,Tesvikiye,
329975,TR,44,Levent,
329976,TR,21,Dereboyu,
329977,TR,53,Kaptanpasa,
329978,TR,34,Ayazaga,
329979,TR,25,Meydan,
329980,TR,37,Gemi,
329981,TR,62,Kizi,
329982,TR,16,Yaman,
329983,TR,34,Kisikli,
329984,TR,21,Ataköy,
329985,TR,34,Sisli,
329986,TR,35,Bayindir,
329987,TR,13,Best,
329988,TR,37,Kabul,
329989,TR,25,Avcilar,
329990,TR,34,Taksim,
329991,TR,58,Gunes,
329992,TR,7,Aksaz,
329993,TR,5,Koyuncu,
329994,TR,92,Kadikoy,
329995,TR,13,Tütün,
329996,TR,65,Asit,
329997,TR,73,Nigde,
329998,TR,48,Zeytin,
329999,TR,3,Ismail,
330000,TR,44,Altintop,
330001,TR,22,Vakif,
330002,TR,33,Reis,
330003,TR,37,Çevre,
330004,TR,37,Magaza,
330005,TR,23,Elazig,
330006,TR,63,Eser,
330007,TR,3,Afyon,
330008,TR,16,Nilüfer,
330009,TR,58,Ortaköy,
330010,TR,64,Cemal,
330011,TR,21,Kosuyolu,
330012,TR,68,Bahçelievler,
330013,TR,25,Akdag,
330014,TR,39,Liman,
330015,TR,63,Ileri,
330016,TR,21,Batman,
330017,TR,7,Hüseyin,
330018,TR,41,Gölcük,
330019,TR,19,Kâmil,
330020,TR,38,Ekinciler,
330021,TR,11,Kurt,
330022,TR,55,Toplu,
330023,TR,14,Orman,
330024,TR,63,Destek,
330025,TR,31,Botas,
330026,TR,35,Selçuk,
330027,TR,37,Orma,
330028,TR,31,Karsu,
330029,TR,25,Kaynak,
330030,TR,21,Yonca,
330031,TR,63,Gedik,
330032,TR,49,Evran,
330033,TR,34,Kiziltoprak,
330034,TR,59,Barbaros,
330035,TR,34,Eminönü,
330036,TR,35,Efes,
330037,TR,25,Gültepe,
330038,TR,35,Camlik,
330039,TR,32,Yüksek,
330040,TR,3,Pasa,
330041,TR,83,Kerim,
330042,TR,34,Üsküdar,
330043,TR,66,Yanki,
330044,TR,61,Calik,
330045,TR,37,Koltuk,
330046,TR,38,Konaklar,
330047,TR,13,Kaya,
330048,TR,50,Aksaray,
330049,TR,25,Caglayan,
330050,TR,21,Alpata,
330051,TR,34,Pendik,
330052,TR,37,Mamak,
330053,TR,35,Bogazici,
330054,TR,60,Pazar,
330055,TR,41,Körfez,
330056,TR,63,Urfa,
330057,TR,21,Tepe,
330058,TR,31,Hatay,
330059,TR,83,Kale,
330060,TR,33,Misirli,
330061,TR,41,Aydinli,
330062,TR,20,Tavas,
330063,TR,34,Kirac,
330064,TR,69,Ilac,
330065,TR,25,Aras,
330066,TR,38,Vatan,
330067,TR,80,Atak,
330068,TR,11,Bilecik,
330069,TR,63,Bati,
330070,TR,37,Tüfekçi,
330071,TR,57,Turhan,
330072,TR,45,Elek,
330073,TR,35,Cesme,
330074,TR,45,Manisa,
330075,TR,4,Maya,
330076,TR,35,Alsancak,
330077,TR,5,Kolay,
330078,TR,39,Kamelya,
330079,TR,34,Kalamis,
330080,TR,48,Fethiye,
330081,TR,31,Yeditepe,
330082,TR,37,Öveçler,
330083,TR,7,Kuyumcular,
330084,TR,37,Tellioglu,
330085,TR,65,Ikinci,
330086,TR,34,Silivri,
330087,TR,5,Amasya,
330088,TR,34,Sultanciftligi,
330089,TR,23,Selvi,
330090,TR,34,Samandira,
330091,TR,21,Aksoy,
330092,TR,10,Edremit,
330093,TR,10,Gönen,
330094,TR,25,Begendik,
330095,TR,4,Murat,
330096,TR,33,Ugras,
330097,TR,39,Ceylan,
330098,TR,21,Oztas,
330099,TR,21,Yolbulan,
330100,TR,63,Kopuz,
330101,TR,25,Bayraktar,
330102,TR,24,Erzincan,
330103,TR,92,Çiftlik,
330104,TR,63,Karaca,
330105,TR,63,Basaran,
330106,TR,33,Cedit,
330107,TR,7,Semsettin,
330108,TR,63,Karaköy,
330109,TR,34,Dudullu,
330110,TR,34,Suadiye,
330111,TR,63,Havana,
330112,TR,7,Corus,
330113,TR,90,Kilis,
330114,TR,52,Ordu,
330115,TR,20,Dogal,
330116,TR,63,Diktas,
330117,TR,21,Desan,
330118,TR,70,Aydin,
330119,TR,21,Kâbi,
330120,TR,5,Devre,
330121,TR,83,Sera,
330122,TR,24,Kusak,
330123,TR,22,Ortak,
330124,TR,43,Doga,
330125,TR,38,Tasci,
330126,TR,66,Özer,
330127,TR,33,Baris,
330128,TR,32,Hisar,
330129,TR,38,Hastahane,
330130,TR,46,Altas,
330131,TR,22,Kesan,
330132,TR,62,Balkan,
330133,TR,63,Cakir,
330134,TR,63,Mermer,
330135,TR,12,Zeynep,
330136,TR,63,Karsan,
330137,TR,25,Karakas,
330138,TR,45,Emre,
330139,TR,81,Göztepe,
330140,TR,3,Cumhuriyet,
330141,TR,57,Osman,
330142,TR,44,Boran,
330143,TR,73,Maden,
330144,TR,34,Kucukyali,
330145,TR,37,Esen,
330146,TR,83,Karanfil,
330147,TR,63,Dayanikli,
330148,TR,39,Midye,
330149,TR,58,Emlâk,
330150,TR,21,Diyarbakir,
330151,TR,21,Mardin,
330152,TR,52,Aydogan,
330153,TR,33,Saray,
330154,TR,62,Amil,
330155,TR,71,Halici,
330156,TR,81,Incirlik,
330157,TR,63,Arslanli,
330158,TR,61,Karel,
330159,TR,78,Karaman,
330160,TR,63,Görenler,
330161,TR,16,Yeniköy,
330162,TR,63,Osmanbey,
330163,TR,81,Dikilitas,
330164,TR,17,Biga,
330165,TR,20,Ayvaz,
330166,TR,38,Akin,
330167,TR,25,Özler,
330168,TR,21,Deris,
330169,TR,14,Devrek,
330170,TR,45,Kasar,
330171,TR,14,Kizilcahamam,
330172,TR,34,Hadimkoy,
330173,TR,19,Kuzuluk,
330174,TR,59,Ulas,
330175,TR,52,Seylan,
330176,TR,37,Karabük,
330177,TR,52,Bakirkoy,
330178,TR,37,Araç,
330179,TR,21,Güven,
330180,TR,21,Aygün,
330181,TR,92,Koru,
330182,TR,7,Sevinç,
330183,TR,40,Isitma,
330184,TR,35,Cinar,
330185,TR,35,Karsiyaka,
330186,TR,25,Alemdag,
330187,TR,53,Findikli,
330188,TR,63,Güvercin,
330189,TR,16,Papatya,
330190,TR,14,Serafettin,
330191,TR,25,Nisantasi,
330192,TR,32,Güney,
330193,TR,63,Tunçbilek,
330194,TR,11,Erenköy,
330195,TR,35,Kemer,
330196,TR,11,Inonu,
330197,TR,34,Poyraz,
330198,TR,53,Cami,
330199,TR,21,Cadde,
330200,TR,34,Gumussuyu,
330201,TR,86,Bagdat,
330202,TR,7,Polat,
330203,TR,34,Moda,
330204,TR,8,Artvin,
330205,TR,21,Abdurrahman,
330206,TR,63,Kayalar,
330207,TR,49,Nurettin,
330208,TR,58,Ishani,
330209,TR,11,Harman,
330210,TR,35,Haseki,
330211,TR,34,Kasimpasa,
330212,TR,8,Birlik,
330213,TR,37,Kastamonu,
330214,TR,16,Cihangir,
330215,TR,9,Gölhisar,
330216,TR,60,Özdemir,
330217,TR,71,Eregli,
330218,TR,35,Karaçam,
330219,TR,7,Evren,
330220,TR,8,Ugur,
330221,TR,25,Inci,
330222,TR,21,Arbo,
330223,TR,61,Santa,
330224,TR,28,Diler,
330225,TR,53,Tersane,
330226,TR,65,Deri,
330227,TR,66,Hali,
330228,TR,57,Yazici,
330229,TR,52,Mensa,
330230,TR,68,Kirazoglu,
330231,TR,80,Kurucu,
330232,TR,22,Kemal,
330233,TR,35,Menderes,
330234,TR,22,Degirmenci,
330235,TR,65,Mars,
330236,TR,13,Çetinkaya,
330237,TR,21,Bozkir,
330238,TR,55,Girne,
330239,TR,3,Devlet,
330240,TR,59,Haliç,
330241,TR,16,Feyziye,
330242,TR,60,Heris,
330243,TR,24,Sans,
330244,TR,37,Dumlupinar,
330245,TR,4,Kobi,
330246,TR,50,Alkan,
330247,TR,21,Tepeüstü,
330248,TR,10,Gunaydin,
330249,TR,3,Tekin,
330250,TR,92,Kilic,
330251,TR,21,Solen,
330252,TR,58,Kapak,
330253,TR,64,Usak,
330254,TR,19,Arslan,
330255,TR,37,Seyler,
330256,TR,25,Aksu,
330257,TR,62,Kervan,
330258,TR,35,Cevizli,
330259,TR,9,Söke,
330260,TR,83,Elif,
330261,TR,25,Saritas,
330262,TR,35,Altindag,
330263,TR,9,Isler,
330264,TR,35,Acarlar,
330265,TR,63,Dolunay,
330266,TR,54,Kizilcikli,
330267,TR,34,Tepecik,
330268,TR,22,Baran,
330269,TR,16,Bilâl,
330270,TR,68,Angora,
330271,TR,35,Çanköy,
330272,TR,25,Tanir,
330273,TR,4,Karacan,
330274,TR,14,Hüsamettin,
330275,TR,45,Yilmaz,
330276,TR,50,Kizilkaya,
330277,TR,80,Üçok,
330278,TR,44,Seref,
330279,TR,63,Çubuklu,
330280,TR,34,Firuzköy,
330281,TR,63,Isik,
330282,TR,39,Kirklareli,
330283,TR,5,Semerciler,
330284,TR,59,Degirmen,
330285,TR,31,Mustafa,
330286,TR,28,Yüce,
330287,TR,60,Eyüp,
330288,TR,34,Kartal,
330289,TR,14,Mudurnu,
330290,TR,13,Geli,
330291,TR,63,Altinbasak,
330292,TR,63,Alan,
330293,TR,14,Deren,
330294,TR,83,Gundogan,
330295,TR,11,Adliye,
330296,TR,34,Yenibosna,
330297,TR,65,Hakân,
330298,TR,37,Çevik,
330299,TR,34,Bagcilar,
330300,TR,14,Düzce,
330301,TR,61,Aytaç,
330302,TR,37,Yalcin,
330303,TR,63,Ülkü,
330304,TR,32,Türkmen,
330305,TR,3,Sinir,
330306,TR,14,Oguzhan,
330307,TR,52,Akkus,
330308,TR,63,Sancak,
330309,TR,7,Alanya,
330310,TR,68,Bakanliklar,
330311,TR,21,Calisan,
330312,TR,33,Yesilkoy,
330313,TR,34,Ikitelli,
330314,TR,39,Sefaköy,
330315,TR,16,Yigit,
330316,TR,12,Kârot,
330317,TR,83,Antep,
330318,TR,39,Pancar,
330319,TR,62,Topuzlu,
330320,TR,52,Bayrakli,
330321,TR,81,Çelebi,
330322,TR,34,Topkapi,
330323,TR,63,Cagdas,
330324,TR,28,Kule,
330325,TR,81,Ceritler,
330326,TR,25,Duman,
330327,TR,16,Cihan,
330328,TR,63,Basak,
330329,TR,38,Pasali,
330330,TR,19,Alaca,
330331,TR,83,Cakiroglu,
330332,TR,33,Tahsin,
330333,TR,71,Ölmez,
330334,TR,21,Erler,
330335,TR,37,Genis,
330336,TR,35,Ertugrul,
330337,TR,50,Karkin,
330338,TR,13,Pars,
330339,TR,65,Kart,
330340,TR,12,Bingöl,
330341,TR,35,Camlica,
330342,TR,68,Sihhiye,
330343,TR,25,Yilanli,
330344,TR,68,Esenboga,
330345,TR,63,Harran,
330346,TR,16,Barcin,
330347,TR,39,Babaeski,
330348,TR,35,Tira,
330349,TR,44,Doydum,
330350,TR,9,Nazilli,
330351,TR,65,Emek,
330352,TR,8,Özgüven,
330353,TR,52,Birebir,
330354,TR,57,Cayirlar,
330355,TR,60,Baslik,
330356,TR,32,Gumus,
330357,TR,12,Araba,
330358,TR,68,Iskitler,
330359,TR,16,Kestel,
330360,TR,25,Yalinkaya,
330361,TR,86,Ibis,
330362,TR,35,Gökçen,
330363,TR,84,Calli,
330364,TR,26,Sasa,
330365,TR,70,Suni,
330366,TR,22,Galata,
330367,TR,59,Sahin,
330368,TR,35,Iskan,
330369,TR,60,Ayan,
330370,TR,22,Sipahi,
330371,TR,65,Sampas,
330372,TR,65,Faruk,
330373,TR,35,Sancakli,
330374,TR,59,Güzel,
330375,TR,34,Tarabya,
330376,TR,63,Horoz,
330377,TR,80,Duru,
330378,TR,34,Haydarpasa,
330379,TR,25,Saat,
330380,TR,63,Ambarli,
330381,TR,52,Side,
330382,TR,43,Nasa,
330383,TR,35,Dokuz,
330384,TR,34,Beykoz,
330385,TR,10,Saraylar,
330386,TR,52,Gölköy,
330387,TR,83,Balaban,
330388,TR,33,Saraphane,
330389,TR,37,Kadioglu,
330390,TR,63,Bakaç,
330391,TR,63,Maras,
330392,TR,13,Gökay,
330393,TR,11,Kuyubasi,
330394,TR,21,Eroglu,
330395,TR,38,Hastane,
330396,TR,31,Akilli,
330397,TR,14,Nadas,
330398,TR,7,Karadag,
330399,TR,65,Gezi,
330400,TR,52,Yenikent,
330401,TR,25,Tuzla,
330402,TR,10,Kerem,
330403,TR,32,Tarsus,
330404,TR,10,Kalem,
330405,TR,68,Balgat,
330406,TR,13,Koski,
330407,TR,21,Erdem,
330408,TR,25,Kârar,
330409,TR,52,Sariyer,
330410,TR,34,Küçükçekmece,
330411,TR,34,Bebek,
330412,TR,65,Yesil,
330413,TR,32,Kurtulus,
330414,TR,32,Tanriverdi,
330415,TR,35,Kapikaya,
330416,TR,21,Tasit,
330417,TR,63,Atmaca,
330418,TR,63,Tasan,
330419,TR,39,Lüleburgaz,
330420,TR,35,Bergama,
330421,TR,35,Kisik,
330422,TR,45,Cansa,
330423,TR,4,Hisarönü,
330424,TR,60,Cayir,
330425,TR,66,Yozgat,
330426,TR,32,Konur,
330427,TR,19,Çorum,
330428,TR,35,Cigli,
330429,TR,13,Poga,
330430,TR,25,Altintas,
330431,TR,35,Smyrna,
330432,TR,25,Ugurlu,
330433,TR,34,Harbiye,
330434,TR,53,Rize,
330435,TR,43,Tava,
330436,TR,83,Bahçe,
330437,TR,81,Seyhan,
330438,TR,92,Yalova,
330439,TR,34,Kemerburgaz,
330440,TR,63,Tunali,
330441,TR,32,Kepez,
330442,TR,68,Alici,
330443,TR,32,Yuzbasi,
330444,TR,65,Mustafabey,
330445,TR,34,Yedikule,
330446,TR,34,Çekmeköy,
330447,TR,35,Konak,
330448,TR,21,Sakalli,
330449,TR,28,Kuskaya,
330450,TR,61,Ergin,
330451,TR,34,Buyukcavuslu,
330452,TR,40,Keskin,
330453,TR,68,Elmadag,
330454,TR,58,Banaz,
330455,TR,81,Adali,
330456,TR,31,Kuzupinari,
330457,TR,81,Kaldirim,
330458,TR,31,Kalemli,
330459,TR,31,Kaslica,
330460,TR,31,Gazmaden,
330461,TR,61,Of,
330462,TR,68,Çubuk,
330463,TR,37,Safranbolu,
330464,TR,37,Bartin,
330465,TR,15,Burdur,
330466,TR,70,Hakkari,
330467,TR,15,Bucak,
330468,TR,5,Imir,
330469,TR,62,Tunceli,
330470,TR,23,Colakli,
330471,TR,62,Tilaasan,
330472,TR,23,Kölemehmet,
330473,TR,62,Mercimek,
330474,TR,55,Carsamba,
330475,TR,68,Incegez,
330476,TR,37,Cankiri,
330477,TR,3,Afyonkarahisar,
330478,TR,7,Kovanlik,
330479,TR,31,Vimourtalic,
330480,TR,16,Gemlik,
330481,TR,34,Basibuyuk,
330482,TR,34,Erenköy,
330483,TR,52,Ünye,
330484,TR,55,Terme,
330485,TR,34,Antigone,
330486,TR,38,Kesir,
330487,TR,34,Mimarsinan,
330488,TR,59,Hayrabolu,
330489,TR,34,Selimpasa,
330490,TR,34,Esenyurt,
330491,TR,34,Kumburgaz,
330492,TR,81,Herekli,
330493,TR,3,Dinar,
330494,TR,60,Niksar,
330495,TR,50,Nevsehir,
330496,TR,7,Kizilli,
330497,TR,7,Dereli,
330498,TR,7,Camili,
330499,TR,91,Kadirli,
330500,TR,31,Osmaniye,
330501,TR,81,Ceyhan,
330502,TR,46,Hombur,
330503,TR,13,Siirt,
330504,TR,25,Oltu,
330505,TR,65,Van,
330506,TR,21,Bagacik,
330507,TR,21,Çermik,
330508,TR,21,Karabas,
330509,TR,21,Ergani,
330510,TR,28,Görele,
330511,TR,61,Besikduzu,
330512,TR,55,Bafra,
330513,TR,68,Bâlâpeçenek,
330514,TR,61,Gumushane,
330515,TR,16,Inegol,
330516,TR,34,Büyükbakkal,
330517,TR,34,Küçükbakkal,
330518,TR,20,Kayapinar,
330519,TR,54,Kazimpasa,
330520,TR,54,Karagöl,
330521,TR,40,Kirsehir,
330522,TR,37,Gozpinar,
330523,TR,86,Ardahan,
330524,TR,40,Avci,
330525,TR,34,Celâliye,
330526,TR,34,Ortaköy,
330527,TR,23,Sapmaz,
330528,TR,25,Sidons,
330529,TR,19,Keçili,
330530,TR,40,Eskil,
330531,TR,34,Gumusyaka,
330532,TR,41,Karamürsel,
330533,TR,83,Islahiye,
330534,TR,31,Dörtyol,
330535,TR,32,Inapihoyugu,
330536,TR,32,Olukkonagi,
330537,TR,81,Cakiroren,
330538,TR,63,Birecik,
330539,TR,32,Dogankent,
330540,TR,20,Narli,
330541,TR,34,Yakuplu,
330542,TR,22,Elçili,
330543,TR,10,Saraçköy,
330544,TR,10,Aysebaci,
330545,TR,37,Asagiyanlar,
330546,TR,16,Iznik,
330547,TR,59,Malkara,
330548,TR,81,Pasakoy,
330549,TR,19,Ortaköy,
330550,TR,37,Hacimuslu,
330551,TR,19,Avkaz,
330552,TR,32,Zeamet,
330553,TR,61,Esiroglu,
330554,TR,23,Ancuz,
330555,TR,21,Bismil,
330556,TR,80,Sirnak,
330557,TR,21,Kozluk,
330558,TR,13,Bitlis,
330559,TR,31,Catalpinar,
330560,TR,31,Bahçe,
330561,TR,54,Hendek,
330562,TR,32,Alibeyli,
330563,TR,32,Dervisler,
330564,TR,32,Tuzsuzzâde,
330565,TR,83,Hasancali,
330566,TR,14,Gerede,
330567,TR,21,Disan,
330568,TR,7,Kumluca,
330569,TR,25,Demirciler,
330570,TR,8,Kobak,
330571,TR,32,Karayusuflu,
330572,TR,60,Erbaa,
330573,TR,5,Merzifon,
330574,TR,31,Kelekpinar,
330575,TR,23,Hatun,
330576,TR,73,Adiyaman,
330577,TR,21,Mollapolat,
330578,TR,13,Eruh,
330579,TR,2,Kâhta,
330580,TR,57,Sinop,
330581,TR,14,Bayir,
330582,TR,31,Toprakli,
330583,TR,45,Turgutlu,
330584,TR,45,Alasehir,
330585,TR,20,Hacidurmuslar,
330586,TR,54,Cibuklu,
330587,TR,25,Sosus,
330588,TR,8,Kâmilköy,
330589,TR,7,Manavgat,
330590,TR,34,Kocasinan,
330591,TR,68,Yagbasan,
330592,TR,14,Yagcihuseyin,
330593,TR,23,Cevizlik,
330594,TR,54,Aralik,
330595,TR,41,Bayrakdar,
330596,TR,41,Ortaburun Köyü,
330597,TR,66,Mengen,
330598,TR,12,Kayik,
330599,TR,49,Yukarialagoz,
330600,TR,49,Karkarut,
330601,TR,7,Karatepe,
330602,TR,25,Degirmenli,
330603,TR,19,Palabiyik,
330604,TR,60,Turhal,
330605,TR,5,Sepetli,
330606,TR,55,Vezirköprü,
330607,TR,25,Dolekcayir,
330608,TR,44,Mus,
330609,TR,49,Tasdibek,
330610,TR,71,Alata,
330611,TR,25,Yukarikamisli,
330612,TR,34,Karacaköy,
330613,TR,16,Mudanya,
330614,TR,19,Aktepe,
330615,TR,2,Karagüveç,
330616,TR,81,Belören,
330617,TR,23,Meydancik,
330618,TR,14,Eregli,
330619,TR,33,Gelincik,
330620,TR,37,Bugren,
330621,TR,81,Yesilli,
330622,TR,32,Findikpinaryayla,
330623,TR,62,Altinhuseyin,
330624,TR,43,Dogalar,
330625,TR,19,Gökdere,
330626,TR,24,Üzümlü,
330627,TR,61,Isiklar,
330628,TR,32,Denizkuyusu,
330629,TR,31,Kuzupinarli,
330630,TR,19,Candir,
330631,TR,40,Kaman,
330632,TR,35,Aliaga,
330633,TR,37,Salur,
330634,TR,19,Hüseyinli,
330635,TR,32,Çamalan,
330636,TR,31,Madenli,
330637,TR,48,Cakallik,
330638,TR,45,Salihli,
330639,TR,19,Sungurlu,
330640,TR,19,Tüney,
330641,TR,37,Çubukludere,
330642,TR,37,Seyhyunus,
330643,TR,21,Midyat,
330644,TR,14,Egerlikozoren,
330645,TR,19,Arabhaci,
330646,TR,7,Serik,
330647,TR,25,Varçin,
330648,TR,58,Çekem,
330649,TR,7,Karataskoyu,
330650,TR,5,Yukariharcin,
330651,TR,34,Adalar,
330652,TR,81,Düzce,
330653,TR,5,Suluova,
330654,TR,19,Sarihasan,
330655,TR,68,Sirkeli,
330656,TR,14,Çukurca,
330657,TR,24,Gökdere,
330658,TR,12,Gelinpertek,
330659,TR,5,Halamaz,
330660,TR,14,Sarmasik,
330661,TR,7,Dagbeli,
330662,TR,71,Çumra,
330663,TR,5,Boraboy,
330664,TR,13,Kurtalan,
330665,TR,14,Balcilar,
330666,TR,8,Yusufeli,
330667,TR,43,Almali,
330668,TR,68,Ahi,
330669,TR,68,Lezgi,
330670,TR,32,Sirkenli,
330671,TR,37,Sahme,
330672,TR,7,Hacilar,
330673,TR,52,Fatsa,
330674,TR,63,Siverek,
330675,TR,62,Pertek,
330676,TR,32,Sarmisak,
330677,TR,21,Avcisuyu,
330678,TR,19,Alören,
330679,TR,4,Karaköse,
330680,TR,62,Cat Mezraasi,
330681,TR,50,Asmasiz,
330682,TR,14,Yumakli,
330683,TR,68,Geldibuldu,
330684,TR,55,Kosedag,
330685,TR,31,Fevziyebucagi,
330686,TR,32,Zagarli,
330687,TR,31,Samandag,
330688,TR,81,Karatas,
330689,TR,68,Verimli,
330690,TR,21,Bilindik,
330691,TR,90,Çalkaya,
330692,TR,21,Sergen,
330693,TR,61,Kapikoy,
330694,TR,61,Sincanmesehor,
330695,TR,61,Cardakli,
330696,TR,61,Alçakdere,
330697,TR,61,Beypinar Yaylasi,
330698,TR,55,Çepni,
330699,TR,31,Avakli,
330700,TR,49,Diktepeler,
330701,TR,8,Dörtkilise,
330702,TR,22,Eski,
330703,TR,3,Suhut,
330704,TR,23,Karacalar,
330705,TR,57,Boyabat,
330706,TR,57,Kadi,
330707,TR,7,Eksili,
330708,TR,7,Biyikli,
330709,TR,35,Odemis,
330710,TR,34,Bostanci,
330711,TR,23,Yukari Seyhhaci,
330712,TR,21,Kubacik,
330713,TR,38,Misli,
330714,TR,32,Erdemli,
330715,TR,19,Berk,
330716,TR,19,Karaagac,
330717,TR,38,Develi,
330718,TR,14,Sargun,
330719,TR,14,Egerlialoren,
330720,TR,61,Verizena,
330721,TR,37,Golezkayi,
330722,TR,37,Tosya,
330723,TR,32,Meletmez,
330724,TR,81,Tahiriye,
330725,TR,32,Cirik,
330726,TR,32,Solakli,
330727,TR,31,Cukurkamis,
330728,TR,81,Eegriagac,
330729,TR,7,Avsallar,
330730,TR,7,Haciosmanlar,
330731,TR,68,Igmir,
330732,TR,23,Sebgen,
330733,TR,21,Bahteri,
330734,TR,23,Vertetil,
330735,TR,21,Ikizoluk,
330736,TR,14,Akçakoca,
330737,TR,81,Belveren,
330738,TR,68,Kiliclar,
330739,TR,37,Çörekçiler,
330740,TR,81,Yalmanli,
330741,TR,31,Gebeören,
330742,TR,37,Dendek,
330743,TR,32,Köprügözü,
330744,TR,12,Haror,
330745,TR,19,Sülüklü,
330746,TR,66,Sorgun,
330747,TR,25,Bayburt,
330748,TR,57,Küplüce,
330749,TR,48,Beyobasi,
330750,TR,10,Karaman,
330751,TR,10,Susurluk,
330752,TR,10,Kepsut,
330753,TR,10,Ibirler,
330754,TR,65,Kevcikan,
330755,TR,34,Muratbey,
330756,TR,54,Selâhiye,
330757,TR,41,Pazarli,
330758,TR,41,Kobakli,
330759,TR,41,Ambarci,
330760,TR,41,Zeytinburnu,
330761,TR,16,Mustafakemalpasa,
330762,TR,68,Cavuslu,
330763,TR,10,Akarsu,
330764,TR,10,Eseler,
330765,TR,10,Naipli,
330766,TR,48,Akkaya,
330767,TR,35,Kusadasi,
330768,TR,10,Ergama,
330769,TR,41,Akmese,
330770,TR,65,Sahmaniz,
330771,TR,41,Balören,
330772,TR,34,Dolayba,
330773,TR,35,Tire,
330774,TR,65,Doganci,
330775,TR,65,Harus,
330776,TR,41,Yuvacik,
330777,TR,54,Gündüzler,
330778,TR,41,Ketenciler,
330779,TR,45,Soma,
330780,TR,10,Ayvatlar,
330781,TR,10,Samli,
330782,TR,3,Saltek,
330783,TR,20,Kirbacli,
330784,TR,45,Kula,
330785,TR,16,Kocakavacik,
330786,TR,17,Gelibolu,
330787,TR,17,Çan,
330788,TR,16,Gürsu,
330789,TR,10,Duman,
330790,TR,34,Halki,
330791,TR,10,Bandirma,
330792,TR,11,Bozüyük,
330793,TR,57,Gerze,
330794,TR,10,Mana,
330795,TR,32,Cine,
330796,TR,32,Çaputçu,
330797,TR,11,Bayat,
330798,TR,68,Fethiye,
330799,TR,7,Karaöz,
330800,TR,81,Bebeli,
330801,TR,20,Avdan,
330802,TR,23,Hanevleri,
330803,TR,23,Kavak,
330804,TR,31,Aybazli,
330805,TR,32,Daripinari,
330806,TR,14,Hasanlar,
330807,TR,33,Beysehir,
330808,TR,34,Istinye,
330809,TR,23,Asagiholpenk,
330810,TR,54,Tasoluk,
330811,TR,34,Çanta,
330812,TR,35,Balçova,
330813,TR,35,Kemalpasa,
330814,TR,14,Çukurviran,
330815,TR,54,Sakiharman,
330816,TR,57,Kemerbahçe,
330817,TR,21,Aykut,
330818,TR,32,Avsar,
330819,TR,3,Saltik,
330820,TR,22,Mahmut,
330821,TR,41,Örcün,
330822,TR,46,Turkoglu,
330823,TR,35,Cavus,
330824,TR,37,Yakali,
330825,TR,35,Turan,
330826,TR,81,Imamoglu,
330827,TR,32,Karakaya,
330828,TR,7,Koyunbaba,
330829,TR,58,Buldur,
330830,TR,32,Nadire,
330831,TR,60,Koçak,
330832,TR,35,Subasi,
330833,TR,90,Goktas,
330834,TR,63,Ilhan,
330835,TR,21,Sedat,
330836,TR,25,Olgun,
330837,TR,28,Bayram,
330838,TR,33,Akpinar,
330839,TR,32,Demirkapi,
330840,TR,7,Çiçek,
330841,TR,83,Serdar,
330842,TR,21,Senova,
330843,TR,61,Kalaycioglu,
330844,TR,66,Karabacak,
330845,TR,28,Babacan,
330846,TR,35,Sarnic,
330847,TR,25,Tascilar,
330848,TR,37,Himmet,
330849,TR,10,Hidir,
330850,TR,12,Karliova,
330851,TR,39,Armagan,
330852,TR,7,Uluhan,
330853,TR,21,Yaprak,
330854,TR,10,Servet,
330855,TR,38,Turanli,
330856,TR,25,Kuscu,
330857,TR,3,Odabasi,
330858,TR,71,Hasan,
330859,TR,60,Saraç,
330860,TR,38,Yildirim,
330861,TR,14,Çaylak,
330862,TR,83,Soylu,
330863,TR,4,Senol,
330864,TR,45,Hacer,
330865,TR,37,Canlar,
330866,TR,60,Keçeci,
330867,TR,25,Aydinlar,
330868,TR,58,Kerimoglu,
330869,TR,81,Kirmizidam,
330870,TR,81,Danisment,
330871,TR,25,Basovacik,
330872,TR,7,Martköyü,
330873,TR,25,Kirikhan,
330874,TR,23,Pulutlu,
330875,TR,23,Serince,
330876,TR,11,Oklubali,
330877,TR,16,Karacabey,
330878,TR,58,Karamehmet,
330879,TR,23,Alatarla,
330880,TR,4,Sarikoy,
330881,TR,21,Bozpinar,
330882,TR,54,Yukari Derekoy,
330883,TR,14,Egerlidere,
330884,TR,32,Kadikoyu,
330885,TR,54,Mahmudiye,
330886,TR,14,Ericek,
330887,TR,8,Aydin,
330888,TR,53,Ardesen,
330889,TR,34,Çatalca,
330890,TR,32,Badras,
330891,TR,31,Kesik,
330892,TR,32,Karaçerçili,
330893,TR,32,Sazak,
330894,TR,32,Kayisli,
330895,TR,81,Forlar,
330896,TR,32,Karagöçer,
330897,TR,32,Cagirganli,
330898,TR,32,Yerdelen,
330899,TR,37,Alva,
330900,TR,32,Nalkulak,
330901,TR,40,Sereflikochisar,
330902,TR,19,Tilkiköy,
330903,TR,34,Kavakli,
330904,TR,23,Düzbahçe,
330905,TR,8,Hopa,
330906,TR,14,Bakacakkadi,
330907,TR,23,Sarili,
330908,TR,21,Karaören,
330909,TR,35,Urla,
330910,TR,11,Küçüksusuz,
330911,TR,31,Belen,
330912,TR,12,Solhan,
330913,TR,68,Etimesgut,
330914,TR,19,Elvançelebi,
330915,TR,19,Mahmutlar,
330916,TR,31,Hamzaliburun Ciftligi,
330917,TR,81,Buyukkapili,
330918,TR,20,Geveze,
330919,TR,48,Kiyikoy,
330920,TR,37,Köprülü,
330921,TR,61,Ortamahalle,
330922,TR,31,Helvaci,
330923,TR,40,Ecikagil,
330924,TR,32,Yanikkisla,
330925,TR,71,Calti,
330926,TR,37,Hicip,
330927,TR,37,Hacihasan,
330928,TR,34,Soganlikoy,
330929,TR,25,Kuytuca,
330930,TR,14,Kasimlar,
330931,TR,68,Çalseki,
330932,TR,24,Begendik,
330933,TR,50,Baglama,
330934,TR,80,Cizre,
330935,TR,21,Gelengöç,
330936,TR,8,Cihalet,
330937,TR,25,Kasirik,
330938,TR,66,Yerköy,
330939,TR,81,Seyhmurat,
330940,TR,32,Hasanaliler,
330941,TR,68,Orhaniye,
330942,TR,68,Kapakli,
330943,TR,23,Derebogazi,
330944,TR,21,Susuz,
330945,TR,23,Ekinözü,
330946,TR,61,Armanos,
330947,TR,61,Mendi,
330948,TR,61,Simsirli,
330949,TR,61,Çalköy,
330950,TR,19,Çitli,
330951,TR,3,Emirdag,
330952,TR,57,Dereli,
330953,TR,7,Çepel,
330954,TR,22,Uzunköprü,
330955,TR,23,Engüran,
330956,TR,21,Meteris,
330957,TR,52,Gürgentepe,
330958,TR,5,Tasna,
330959,TR,8,Bostanci,
330960,TR,49,Segiran,
330961,TR,49,Leylek,
330962,TR,21,Danisik,
330963,TR,73,Bor,
330964,TR,63,Saklica,
330965,TR,32,Çöplü,
330966,TR,14,Dikenli,
330967,TR,37,Demirli,
330968,TR,61,Demirciler,
330969,TR,66,Bahariye,
330970,TR,66,Karali,
330971,TR,31,Kamisli,
330972,TR,61,Cal,
330973,TR,32,Tasobasi,
330974,TR,57,Yaykil,
330975,TR,10,Köteyli,
330976,TR,41,Hasancik,
330977,TR,10,Akbas,
330978,TR,10,Ergili,
330979,TR,20,Babadag,
330980,TR,54,Dagyoncali,
330981,TR,10,Armutalan,
330982,TR,65,Ekrak,
330983,TR,41,Yukari Mecidiye,
330984,TR,41,Asagi Mecidiye,
330985,TR,45,Kocaiskan,
330986,TR,10,Karakol,
330987,TR,54,Çatalköprü,
330988,TR,9,Dikmen,
330989,TR,16,Bas,
330990,TR,45,Akhisar,
330991,TR,81,Gaffarli,
330992,TR,21,Ekince,
330993,TR,10,Yenikazaklar,
330994,TR,48,Milas,
330995,TR,19,Devletoglan,
330996,TR,10,Burhaniye,
330997,TR,24,Yamanlar,
330998,TR,25,Akseki,
330999,TR,14,Beydili,
331000,TR,68,Saraçköy,
331001,TR,14,Turnali,
331002,TR,38,Büyük Sivegen,
331003,TR,23,Kavalli,
331004,TR,23,Sariyakup,
331005,TR,44,Keller,
331006,TR,31,Aegoe,
331007,TR,11,Sogucakpinar,
331008,TR,28,Bulancak,
331009,TR,3,Duger,
331010,TR,57,Beybükü,
331011,TR,37,Zeybek,
331012,TR,26,Yunusemre,
331013,TR,60,Arap,
331014,TR,60,Altuntas,
331015,TR,58,Yakupoglu,
331016,TR,35,Kaplan,
331017,TR,81,Agzibuyuk,
331018,TR,38,Aslama,
331019,TR,31,Deveciusagi,
331020,TR,32,Koyluoglu,
331021,TR,10,Bozören,
331022,TR,10,Akçal,
331023,TR,10,Sarialan,
331024,TR,58,Zengi,
331025,TR,20,Ortaköy Kale,
331026,TR,21,Ömerkâyenice,
331027,TR,25,Derince,
331028,TR,3,Doger,
331029,TR,10,Kurtdere Köyü,
331030,TR,90,Senikce,
331031,TR,54,Asagidere,
331032,TR,37,Musaköy,
331033,TR,48,Hamit,
331034,TR,80,Idil,
331035,TR,32,Çuna,
331036,TR,12,Kigi,
331037,TR,34,Zeytinburnu,
331038,TR,32,Yalinizca,
331039,TR,25,Sirli,
331040,TR,40,Yamali,
331041,TR,43,Bezirgân,
331042,TR,17,Dagoba,
331043,TR,20,Gözler,
331044,TR,19,Selamli,
331045,TR,46,Maksutusagi,
331046,TR,21,Bozcali,
331047,TR,25,Güngörmez,
331048,TR,21,Esektepekoy,
331049,TR,37,Cardakli,
331050,TR,21,Mermeri,
331051,TR,21,Dumrul,
331052,TR,61,Horyan,
331053,TR,61,Haçka,
331054,TR,5,Tasabat,
331055,TR,21,Nasiri,
331056,TR,73,Horoz,
331057,TR,61,Hortakobuvaset,
331058,TR,61,Hozarak,
331059,TR,32,Cavusluanapli,
331060,TR,32,Yunusoglu,
331061,TR,21,Boyalitas,
331062,TR,21,Cankatran,
331063,TR,58,Konalga,
331064,TR,58,Basekin,
331065,TR,32,Hacihasan,
331066,TR,19,Büyük Dövenci,
331067,TR,34,Uskumruköy,
331068,TR,10,Fethiye,
331069,TR,10,Isiklar Ciftligi,
331070,TR,10,Candir,
331071,TR,10,Karagedik,
331072,TR,10,Bereketli,
331073,TR,34,Göztepe,
331074,TR,10,Kaziksa,
331075,TR,20,Egridere,
331076,TR,31,Fuadiye,
331077,TR,61,Karaca,
331078,TR,14,Kizicahamam,
331079,TR,46,Göksun,
331080,TR,61,Ogutlu,
331081,TR,68,Keçiören,
331082,TR,11,Bostancilar,
331083,TR,3,Idris,
331084,TR,37,Bozkurt,
331085,TR,11,Alpagut,
331086,TR,17,Serhat,
331087,TR,65,Duran,
331088,TR,31,Ekber,
331089,TR,32,Narli,
331090,TR,34,Tuzla,
331091,TR,14,Semer,
331092,TR,7,Akseki,
331093,TR,14,Çaycuma,
331094,TR,54,Sakarya,
331095,TR,34,Agva,
331096,TR,7,Kemer,
331097,TR,38,Talas,
331098,TR,23,Akgömlek,
331099,TR,31,Beyköy,
331100,TR,50,Ürgüp,
331101,TR,32,Mara,
331102,TR,2,Adiyaman,
331103,TR,13,Bosi,
331104,TR,34,Bakirkoy,
331105,TR,41,Derince,
331106,TR,68,Sincan,
331107,TR,34,Esenköy,
331108,TR,9,Aydin,
331109,TR,68,Dikmen,
331110,TR,25,Göle,
331111,TR,34,Sultançiflikköy,
331112,TR,21,Kayaköy,
331113,TR,31,Kirikhan,
331114,TR,68,Çayyolu,
331115,TR,62,Samak,
331116,TR,53,Kalkandere,
331117,TR,61,Torul,
331118,TR,21,Dibni,
331119,TR,53,Çayeli,
331120,TR,10,Dada,
331121,TR,38,Melikgazi,
331122,TR,68,Yenimahalle,
331123,TR,33,Aksehir,
331124,TR,35,Buca,
331125,TR,43,Bali,
331126,TR,54,Erenler,
331127,TR,17,Ayvacik,
331128,TR,34,Umraniye,
331129,TR,3,Sandikli,
331130,TR,10,Ayvalik,
331131,TR,48,Göcek,
331132,TR,37,Cide,
331133,TR,71,Meram,
331134,TR,68,Güledar,
331135,TR,32,Mezitli,
331136,TR,35,Torbali,
331137,TR,3,Yunak,
331138,TR,64,Ulubey,
331139,TR,41,Kullar,
331140,TR,7,Perakende,
331141,TR,37,Ümitköy,
331142,TR,7,Yavuz,
331143,TR,8,Göcek,
331144,TR,61,Kireçhane,
331145,TR,11,Erikli,
331146,TR,38,Arslantas,
331147,TR,53,Arili,
331148,TR,21,Doganli,
331149,TR,4,Igdir,
331150,TR,54,Karapürçek,
331151,TR,35,Menemen,
331152,TR,10,Bigadiç,
331153,TR,50,Avanos,
331154,TR,32,Silifke,
331155,TR,48,Akyaka,
331156,TR,63,Ank,
331157,TR,48,Dalaman,
331158,TR,28,Siran,
331159,TR,62,Hozat,
331160,TR,46,Elbistan,
331161,TR,68,Mamak,
331162,TR,13,Adilcevaz,
331163,TR,34,Esenler,
331164,TR,10,Dursunbey,
331165,TR,10,Erdek,
331166,TR,54,Cinardibi,
331167,TR,17,Kepez,
331168,TR,34,Güngören,
331169,TR,65,Umut,
331170,TR,66,Orhan,
331171,TR,65,Akar,
331172,TR,9,Germencik,
331173,TR,37,Karaboga,
331174,TR,65,Seçkin,
331175,TR,59,Kadriye,
331176,TR,7,Tekirova,
331177,TR,63,Ekin,
331178,TR,54,Kaynarca,
331179,TR,33,Uluborlu,
331180,TR,55,Havza,
331181,TR,17,Bozcaada,
331182,TR,59,Marmaraereglisi,
331183,TR,34,Safrakköyü,
331184,TR,65,Ercis,
331185,TR,49,Malazgirt,
331186,TR,81,Kozan,
331187,TR,13,Tatvan,
331188,TR,24,Almiyik,
331189,TR,48,Datça,
331190,TR,48,Dalyan,
331191,TR,54,Canlikoy,
331192,TR,54,Kirkpinar,
331193,TR,35,Gaziemir,
331194,TR,32,Ermenek,
331195,TR,34,Kurtdogmaz,
331196,TR,71,Saracoglu,
331197,TR,60,Yagmur,
331198,TR,63,Demo,
331199,TR,31,Dizin,
331200,TR,50,Murtaza,
331201,TR,13,Aydemir,
331202,TR,48,Asar,
331203,TR,22,Abdürrahim,
331204,TR,57,Veysel,
331205,TR,81,Karahan,
331206,TR,10,Cüneyit,
331207,TR,64,Bahadir,
331208,TR,7,Zekeriya,
331209,TR,63,Çakmak,
331210,TR,19,Bugra,
331211,TR,25,Selim,
331212,TR,63,Doganci,
331213,TR,19,Kizilirmak,
331214,TR,52,Ramazan,
331215,TR,60,Kapucu,
331216,TR,37,Hamzaoglu,
331217,TR,25,Tahir,
331218,TR,81,Sevinçli,
331219,TR,4,Kaçmaz,
331220,TR,21,Karamese,
331221,TR,83,Ayintap,
331222,TR,46,Korkmaz,
331223,TR,2,Alkas,
331224,TR,66,Caliskan,
331225,TR,12,Genç,
331226,TR,21,Garzan,
331227,TR,35,Küre,
331228,TR,4,Agri,
331229,TR,48,Asin,
331230,TR,10,Osmanca,
331231,TR,14,Gumusova,
331232,TR,84,Kagizman,
331233,TR,37,Amasra,
331234,TR,61,Hayrat,
331235,TR,21,Derik,
331236,TR,43,Simav,
331237,TR,9,Incirliova,
331238,TR,15,Anbarcik,
331239,TR,52,Özlü,
331240,TR,34,Yenisahra,
331241,TR,37,Kalafatoglu,
331242,TR,28,Tepeören,
331243,TR,21,Sanli,
331244,TR,41,Kandira,
331245,TR,34,Gurpinar,
331246,TR,43,Gediz,
331247,TR,16,Yildirim,
331248,TR,61,Akçaabat,
331249,TR,65,Yüksekova,
331250,TR,21,Sincik,
331251,TR,25,Darbogaz,
331252,TR,28,Sebinkarahisar,
331253,TR,8,Ardanuç,
331254,TR,37,Inebolu,
331255,TR,22,Ipsala,
331256,TR,17,Eceabat,
331257,TR,54,Karasu,
331258,TR,21,Tarakli,
331259,TR,35,Narlidere,
331260,TR,68,Balâ,
331261,TR,83,Nizip,
331262,TR,68,Eski,
331263,TR,10,Yaren,
331264,TR,59,Karahisarli,
331265,TR,90,Acar,
331266,TR,37,Dagli,
331267,TR,65,Albayrak,
331268,TR,10,Hekim,
331269,TR,46,Fakioglu,
331270,TR,21,Kaymaz,
331271,TR,5,Abaci,
331272,TR,7,Alaçam,
331273,TR,4,Taskin,
331274,TR,44,Sepik,
331275,TR,71,Aslantas,
331276,TR,21,Güçlü,
331277,TR,24,Mutlu,
331278,TR,7,Yaris,
331279,TR,22,Iskender,
331280,TR,35,Aydogdu,
331281,TR,37,Abdullah,
331282,TR,65,Adiguzel,
331283,TR,55,Huma,
331284,TR,25,Yunus,
331285,TR,3,Madenler,
331286,TR,80,Bâta,
331287,TR,52,Burhanettin,
331288,TR,80,Cerrahi,
331289,TR,38,Altiparmak,
331290,TR,58,Dereköy,
331291,TR,16,Küçükorhanlar,
331292,TR,48,Koycegiz,
331293,TR,41,Darica,
331294,TR,55,Tekkeköy,
331295,TR,49,Rindali,
331296,TR,9,Palamutçuk,
331297,TR,24,Kelkit,
331298,TR,68,Polatli,
331299,TR,14,Nebolu,
331300,TR,10,Karacalti,
331301,TR,81,Iskele,
331302,TR,48,Yalikavak,
331303,TR,35,Güzelbahçe,
331304,TR,35,Yaglar,
331305,TR,33,Kayi,
331306,TR,35,Beyler,
331307,TR,65,Taris,
331308,TR,21,Zihni,
331309,TR,63,Aktas,
331310,TR,25,Kirmizitas,
331311,TR,24,Sancaktepe,
331312,TR,40,Osmanaga,
331313,TR,19,Karaoglu,
331314,TR,8,Varlik,
331315,TR,37,Çatalköy,
331316,TR,23,Karakoçan,
331317,TR,46,Afsin,
331318,TR,48,Ortaca,
331319,TR,14,Gökçebey,
331320,TR,21,Mazidagi,
331321,TR,54,Sapanca,
331322,TR,50,Ortahisar,
331323,TR,63,Bozova,
331324,TR,35,Mersinli,
331325,TR,63,Viransehir,
331326,TR,7,Akçay,
331327,TR,25,Kayser,
331328,TR,68,Etlik,
331329,TR,50,Göreme,
331330,TR,25,Senkaya,
331331,TR,12,Adakli,
331332,TR,34,Anadoluhisari,
331333,TR,3,Evciler,
331334,TR,35,Yaka,
331335,TR,35,Guzelcamli,
331336,TR,58,Kangal,
331337,TR,34,Sariyer,
331338,TR,32,Gülnar,
331339,TR,35,Süleymaniye,
331340,TR,37,Devrekâni,
331341,TR,71,Sarayönü,
331342,TR,7,Kalkan,
331343,TR,48,Kavaklidere,
331344,TR,41,Hereke,
331345,TR,54,Akyazi,
331346,TR,28,Espiye,
331347,TR,8,Arhavi,
331348,TR,68,Pursaklar,
331349,TR,16,Gune,
331350,TR,38,Erciyes,
331351,TR,23,Hoyer,
331352,TR,53,Özdilek,
331353,TR,44,Colakoglu,
331354,TR,21,Baskil,
331355,TR,14,Konuralp,
331356,TR,25,Horasan,
331357,TR,32,Tece,
331358,TR,38,Yesilhisar,
331359,TR,68,Kazan,
331360,TR,54,Arifiye,
331361,TR,35,Kuyucak,
331362,TR,43,Emet,
331363,TR,11,Burçak,
331364,TR,7,Turunçova,
331365,TR,55,Cilar,
331366,TR,7,Elmali,
331367,TR,35,Çamdibi,
331368,TR,11,Dere,
331369,TR,35,Foça,
331370,TR,68,Lodumlu,
331371,TR,21,Umur,
331372,TR,62,Kalan,
331373,TR,25,Golbasi,
331374,TR,5,Alpaslan,
331375,TR,35,Hacilar,
331376,TR,13,Varan,
331377,TR,38,Kömür,
331378,TR,14,Seben,
331379,TR,68,Altindag,
331380,TR,63,Koçhisar,
331381,TR,71,Bozkir,
331382,TR,10,Manyas,
331383,TR,59,Muratli,
331384,TR,34,Yesilkoy,
331385,TR,59,Mürefte,
331386,TR,4,Dogubeyazit,
331387,TR,54,Geyve,
331388,TR,53,Soguksu,
331389,TR,45,Demirci,
331390,TR,5,Gumushacikoy,
331391,TR,92,Çiftlikköy,
331392,TR,14,Dana,
331393,TR,34,Avcilar,
331394,TR,53,Güneysu,
331395,TR,7,Side,
331396,TR,68,Aydinlikevler,
331397,TR,63,Garbi,
331398,TR,57,Dora,
331399,TR,37,Karatekin,
331400,TR,55,Kuyas,
331401,TR,14,Beypazari,
331402,TR,31,Reyhanli,
331403,TR,76,Bitam,
331404,TR,72,Halkali,
331405,TR,21,Doruk,
331406,TR,72,Yasar,
331407,TR,74,Bakir,
331408,TR,74,Beykent,
331409,TR,53,Kocatepe,
331410,TR,72,Çankaya,
331411,TR,74,Tuzla,
331412,TR,68,Kirikkale,
331413,TR,21,Sinan,
331414,TR,76,Kadir,
331415,TR,72,Dogus,
331416,TR,76,Büyükdere,
331417,TR,74,Dogan,
331418,TR,31,Hürriyet,
331419,TR,72,Seker,
331420,TR,72,Mesken,
331421,TR,80,Özen,
331422,TR,21,Meydan,
331423,TR,80,Hilâl,
331424,TR,21,Bayindir,
331425,TR,74,Avcilar,
331426,TR,74,Tütün,
331427,TR,72,Bati,
331428,TR,34,Basak,
331429,TR,70,Çevre,
331430,TR,72,Kosuyolu,
331431,TR,34,Tophane,
331432,TR,80,Akdag,
331433,TR,31,Toplu,
331434,TR,35,Gültepe,
331435,TR,72,Sari,
331436,TR,80,Aksoy,
331437,TR,74,Begendik,
331438,TR,63,Ceylan,
331439,TR,72,Oztas,
331440,TR,80,Basaran,
331441,TR,76,Üçyol,
331442,TR,72,Desan,
331443,TR,74,Aydin,
331444,TR,76,Tasci,
331445,TR,76,Hisar,
331446,TR,57,Cakir,
331447,TR,72,Sümer,
331448,TR,80,Bostanci,
331449,TR,74,Incirlik,
331450,TR,76,Özler,
331451,TR,72,Deris,
331452,TR,72,Güven,
331453,TR,72,Tarim,
331454,TR,72,Altintas,
331455,TR,72,Kayalar,
331456,TR,80,Birlik,
331457,TR,80,Ugur,
331458,TR,72,Arbo,
331459,TR,70,Deri,
331460,TR,80,Çetinkaya,
331461,TR,72,Elin,
331462,TR,72,Tepeüstü,
331463,TR,68,Uçan,
331464,TR,72,Acar,
331465,TR,33,Kilic,
331466,TR,80,Dönmezler,
331467,TR,72,Dolunay,
331468,TR,72,Yilmaz,
331469,TR,72,Seri,
331470,TR,72,Eglence,
331471,TR,31,Adalet,
331472,TR,72,Baglarbasi,
331473,TR,63,Saide,
331474,TR,35,Türkmen,
331475,TR,31,Denizciler,
331476,TR,83,Yesilkoy,
331477,TR,74,Gunesli,
331478,TR,74,Pars,
331479,TR,33,Yilanli,
331480,TR,72,Akyazi,
331481,TR,63,Güngören,
331482,TR,34,Ambarli,
331483,TR,72,Bilge,
331484,TR,76,Kuyubasi,
331485,TR,72,Calisan,
331486,TR,80,Serkan,
331487,TR,74,Koski,
331488,TR,72,Aykut,
331489,TR,80,Erdem,
331490,TR,80,Kurtulus,
331491,TR,72,Tanriverdi,
331492,TR,74,Cayir,
331493,TR,80,Cigli,
331494,TR,72,Tasit,
331495,TR,72,Sakalli,
331496,TR,63,Turkoglu,
331497,TR,80,Cavus,
331498,TR,72,Karakaya,
331499,TR,63,Goktas,
331500,TR,72,Caglar,
331501,TR,74,Demirkapi,
331502,TR,72,Yagmur,
331503,TR,72,Mardin,
331504,TR,88,Babacan,
331505,TR,72,Odabasi,
331506,TR,21,Ergin,
331507,TR,74,Aydinlar,
331508,TR,76,Basari,
331509,TR,74,Siirt,
331510,TR,12,Alaaddin,
331511,TR,63,Koçak,
331512,TR,72,Erikli,
331513,TR,76,Sifir,
331514,TR,70,Akar,
331515,TR,70,Seçkin,
331516,TR,74,Aydemir,
331517,TR,72,Abdurrahman,
331518,TR,72,Kebapci,
331519,TR,28,Doganci,
331520,TR,76,Batir,
331521,TR,74,Garzan,
331522,TR,80,Güçlü,
331523,TR,63,Aydogdu,
331524,TR,80,Bata,
331525,TR,21,Kayi,
331526,TR,72,Zihni,
331527,TR,74,Aktas,
331528,TR,76,Batman,
331529,TR,21,Sadi,
331530,TR,80,Varlik,
331531,TR,72,Golbasi,
331532,TR,44,Bölünmez,
331533,TR,2,Lokman,
331534,TR,55,Ordu,
331535,TR,25,Igdir,
331536,TR,23,Baskil,
331537,TR,43,Tokat,
331538,TR,34,Kadikoy,
331539,TR,40,Karabük,
331540,TR,34,Eyüp,
331541,TR,68,Igdir,
331542,TR,61,Sürmene,
331543,TR,35,Özdere,
331544,TR,37,Yozgat,
331545,TR,34,Çengelköy,
331546,TR,25,Ispir,
331547,TR,68,Kizilcahamam,
331548,TR,68,Çankaya,
331549,TR,23,Maden,
331550,TR,9,Kuyucak,
331551,TR,17,Lâpseki,
331552,TR,44,Ardahan,
331553,TR,58,Bingöl,
331554,TR,20,Yeni,
331555,TR,14,Tepebasi,
331556,TR,17,Kemer,
331557,TR,46,Maras,
331558,TR,8,Tütüncüler,
331559,TR,21,Akbas,
331560,TR,72,Eroglu,
331561,TR,37,Saka,
331562,TR,10,Musluk,
331563,TR,60,Kizil,
331564,TR,80,Yesilyurt,
331565,TR,20,Cafer,
331566,TR,33,Yalvaç,
331567,TR,54,Tarakli,
331568,TR,39,Vize,
331569,TR,92,Taskopru,
331570,TR,35,Ada,
331571,TR,52,Kabatas,
331572,TR,9,Sultanhisar,
331573,TR,68,Eryaman,
331574,TR,9,Kesir,
331575,TR,37,Korgun,
331576,TR,68,Kavaklidere,
331577,TR,59,Saray,
331578,TR,34,Beyoglu,
331579,TR,44,Dogansehir,
331580,TR,20,Acipayam,
331581,TR,43,Moymul,
331582,TR,72,Oguz,
331583,TR,7,Bereket,
331584,TR,4,Odalar,
331585,TR,80,Tasdelen,
331586,TR,63,Akçakale,
331587,TR,54,Serdivan,
331588,TR,70,Yüksekova,
331589,TR,66,Çekerek,
331590,TR,34,Bayrampasa,
331591,TR,9,Çine,
331592,TR,68,Batikent,
331593,TR,21,Çatal,
331594,TR,59,Osmanli,
331595,TR,45,Adil,
331596,TR,34,Alibeyköy,
331597,TR,3,Çay,
331598,TR,3,Bolvadin,
331599,TR,35,Karatas,
331600,TR,16,Görükle,
331601,TR,19,Iskilip,
331602,TR,34,Mahmutbey,
331603,TR,34,Fatih,
331604,TR,68,Hasanoglan,
331605,TR,83,Inkilap,
331606,TR,45,Halitpasa,
331607,TR,34,Terkos,
331608,TR,40,Efendi,
331609,TR,22,Mercan,
331610,TR,37,Ümit,
331611,TR,21,Akyol,
331612,TR,72,Senocak,
331613,TR,74,Savas,
331614,TR,46,Sadak,
331615,TR,80,Yetkin,
331616,TR,44,Bulguru,
331617,TR,19,Harun,
331618,TR,66,Zincir,
331619,TR,7,Aydogmus,
331620,TR,5,Siyah,
331621,TR,80,Dicle,
331622,TR,7,Kuran,
331623,TR,25,Korkut,
331624,TR,35,Çatak,
331625,TR,70,Akkaya,
331626,TR,50,Ayhan,
331627,TR,2,Baki,
331628,TR,60,Zile,
331629,TR,72,Kiziltepe,
331630,TR,16,Orhaneli,
331631,TR,83,Sahinbey,
331632,TR,33,Dikmen,
331633,TR,55,Bedas,
331634,TR,63,Gurpinar,
331635,TR,76,Geçit,
331636,TR,22,Sultan,
331637,TR,53,Derepazari,
331638,TR,34,Sehremini,
331639,TR,33,Doganhisar,
331640,TR,61,Maçka,
331641,TR,63,Halfeti,
331642,TR,9,Davutlar,
331643,TR,80,Karakol,
331644,TR,8,Sana,
331645,TR,15,Sala,
331646,TR,16,Cali,
331647,TR,74,Milan,
331648,TR,14,Salipazari,
331649,TR,63,Kosker,
331650,TR,7,Arapsuyu,
331651,TR,23,Kovancilar,
331652,TR,59,Kumbag,
331653,TR,10,Belikesir,
331654,TR,21,Silvan,
331655,TR,48,Hisarönü,
331656,TR,25,Güzelyurt,
331657,TR,21,Günova,
331658,TR,22,Haci,
331659,TR,14,Metek,
331660,TR,58,Nevruz,
331661,TR,38,Kas,
331662,TR,59,Sarkoy,
331663,TR,34,Findikli,
331664,TR,35,Seferihisar,
331665,TR,61,Carsibasi,
331666,TR,68,Baglum,
331667,TR,48,Turunç,
331668,TR,7,Korkuteli,
331669,TR,64,Banaz,
331670,TR,34,Beyazit,
331671,TR,68,Cebeci,
331672,TR,34,Beylerbeyi,
331673,TR,48,Turgutreis,
331674,TR,80,Kustepe,
331675,TR,28,Midi,
331676,TR,37,Akbük,
331677,TR,28,Sarpkaya,
331678,TR,39,Pinarhisar,
331679,TR,52,Yenipazar,
331680,TR,54,Kuzuluk,
331681,TR,34,Pera,
331682,TR,72,Doluca,
331683,TR,86,Incilipinar,
331684,TR,43,Aslanapa,
331685,TR,41,Degirmendere,
331686,TR,80,Silopi,
331687,TR,34,Unkapani,
331688,TR,43,Pazarlar,
331689,TR,4,Ilya,
331690,TR,7,Kepez,
331691,TR,4,Palandöken,
331692,TR,34,Kanlica,
331693,TR,35,Üçkuyular,
331694,TR,35,Sigacik,
331695,TR,34,Guzelyali,
331696,TR,20,Buldan,
331697,TR,5,Tasova,
331698,TR,22,Seren,
331699,TR,72,Düben,
331700,TR,19,Dut,
331701,TR,24,Cayiryolu,
331702,TR,7,Sadiklar,
331703,TR,7,Hadim,
331704,TR,72,Cigdem,
331705,TR,34,Yakacik,
331706,TR,19,Bayan,
331707,TR,31,Ordu,
331708,TR,34,Sirkeci,
331709,TR,41,Denizli,
331710,TR,32,Haciishakli,
331711,TR,68,Beytepe,
331712,TR,68,Küçükesat,
331713,TR,10,Kocaeli,
331714,TR,54,Saniye,
331715,TR,26,Tatarcik,
331716,TR,15,Kayis,
331717,TR,7,Yenimahalle,
331718,TR,8,Bicakcilar,
331719,TR,52,Korgan,
331720,TR,31,Erzin,
331721,TR,52,Kumru,
331722,TR,37,Eskiahir,
331723,TR,54,Pamukova,
331724,TR,44,Darende,
331725,TR,10,Gömeç,
331726,TR,35,Basmane,
331727,TR,32,Tekmenteke,
331728,TR,33,Budak,
331729,TR,70,Kardesler,
331730,TR,24,Dostal,
331731,TR,25,Geri,
331732,TR,7,Kas,
331733,TR,34,Göktürk,
331734,TR,35,Dere,
331735,TR,28,Tirebolu,
331736,TR,22,Havsa,
331737,TR,25,Karahasan,
331738,TR,22,Arnavutköy,
331739,TR,25,Rabat,
331740,TR,35,Parsa,
331741,TR,60,Sogutozu,
331742,TR,46,Bakis,
331743,TR,33,Sarkikaraagac,
331744,TR,68,Ümitköy,
331745,TR,68,Golbasi,
331746,TR,68,Ulus,
331747,TR,23,Elaziz,
331748,TR,23,Keban,
331749,TR,23,Uslu,
331750,TR,83,Esenler,
331751,TR,34,Karagümrük,
331752,TR,37,Hasanefendi,
331753,TR,23,Harput,
331754,TR,72,Turgut,
331755,TR,61,Meliksah,
331756,TR,63,Tibil,
331757,TR,76,Incirli,
331758,TR,7,Finike,
331759,TR,34,Sile,
331760,TR,58,Yildizeli,
331761,TR,34,Konstantin Pera,
331762,TR,49,Adivar,
331763,TR,21,Cevizlidere,
331764,TR,63,Yalçinkaya,
331765,TR,21,Solmaz,
331766,TR,63,Alibey,
331767,TR,72,Kanatli,
331768,TR,16,Nüzhetiye,
331769,TR,41,Ereyli,
331770,TR,7,Belen,
331771,TR,72,Mazidagi,
331772,TR,37,Bartan,
331773,TR,21,Lice,
331774,TR,76,Ulas,
331775,TR,14,Dedeoglu,
331776,TR,10,Tütüncü,
331777,TR,25,Ocak,
331778,TR,24,Egin,
331779,TR,17,Bolayir,
331780,TR,53,Dikkaya,
331781,TR,63,Saraçlar,
331782,TR,76,Hasar,
331783,TR,52,Aybasti,
331784,TR,38,Tomarza,
331785,TR,35,Türkeli,
331786,TR,22,Kuzucu,
331787,TR,21,Güvenli,
331788,TR,41,Köse,
331789,TR,80,Ozan,
331790,TR,4,Erdal,
331791,TR,21,Zara,
331792,TR,72,Kuzu,
331793,TR,63,Ogun,
331794,TR,63,Demirli,
331795,TR,68,Yagcioglu,
331796,TR,21,Kurtoglu,
331797,TR,63,Kocyigit,
331798,TR,70,Akdemir,
331799,TR,38,Erdogan,
331800,TR,7,Altinkaya,
331801,TR,21,Kutlu,
331802,TR,37,Fatma,
331803,TR,25,Avci,
331804,TR,61,Göksel,
331805,TR,37,Damla,
331806,TR,84,Karakus,
331807,TR,21,Koyun,
331808,TR,44,Esenbey,
331809,TR,66,Battal,
331810,TR,35,Parlak,
331811,TR,40,Doganay,
331812,TR,66,Kâhya,
331813,TR,72,Kilavuz,
331814,TR,63,Yardimci,
331815,TR,59,Seymen,
331816,TR,21,Anil,
331817,TR,35,Bicakci,
331818,TR,37,Ilgaz,
331819,TR,11,Harmankaya,
331820,TR,52,Bahattin,
331821,TR,90,Akinci,
331822,TR,58,Navruz,
331823,TR,72,Aksu,
331824,TR,37,Oruçlar,
331825,TR,37,Dursun,
331826,TR,63,Kaçar,
331827,TR,49,Imece,
331828,TR,80,Özbek,
331829,TR,35,Sariyurt,
331830,TR,25,Sevik,
331831,TR,32,Sirac,
331832,TR,23,Temür,
331833,TR,21,Kenan,
331834,TR,50,Akarca,
331835,TR,32,Altay,
331836,TR,31,Muratpasa,
331837,TR,68,Demirlibahçe,
331838,TR,61,Tonya,
331839,TR,65,Gevas,
331840,TR,21,Diyaribekir,
331841,TR,35,Ayaklikiri,
331842,TR,43,Aga,
331843,TR,32,Koca,
331844,TR,25,Gökçedere,
331845,TR,33,Kapakli,
331846,TR,69,Eymür,
331847,TR,65,Arikan,
331848,TR,25,Cavusoglu,
331849,TR,70,Bedava,
331850,TR,68,Palanci,
331851,TR,9,Buharkent,
331852,TR,39,Igneada,
331853,TR,40,Horla,
331854,TR,92,Senkoy,
331855,TR,28,Nefsipiraziz,
331856,TR,41,Balcik,
331857,TR,32,Alifaki,
331858,TR,23,Melikân,
331859,TR,41,Merkebli,
331860,TR,13,Ardas,
331861,TR,21,Musa,
331862,TR,53,Ortaklar,
331863,TR,63,Kahraman,
331864,TR,21,Coskun,
331865,TR,33,Balci,
331866,TR,71,Atik,
331867,TR,21,Diyarbekir,
331868,TR,39,Buyukkaristiran,
331869,TR,21,Diarbakir,
331870,TR,32,Anamur,
331871,TR,9,Bakla,
331872,TR,65,Agin,
331873,TR,83,Katranci,
331874,TR,46,Bestepe,
331875,TR,63,Olgunlar,
331876,TR,48,Göker,
331877,TR,49,Kazanan,
331878,TR,37,Taktak,
331879,TR,60,Artova,
331880,TR,64,Esme,
331881,TR,81,Bozdogan,
331882,TR,28,Tekgöz,
331883,TR,10,Banderma,
331884,TR,53,Dutha,
331885,TR,34,Kâmiloba,
331886,TR,7,Belek,
331887,TR,31,Mucahitler,
331888,TR,52,Mersin,
331889,TR,61,Toroslar,
331890,TR,61,Dernekpazari,
331891,TR,49,Varto,
331892,TR,34,Fener,
331893,TR,34,Yeniköy,
331894,TR,72,Dertayyar,
331895,TR,49,Kot,
331896,TR,45,Turgutalp,
331897,TR,83,Ekinci,
331898,TR,90,Selman,
331899,TR,33,Ayvali,
331900,TR,10,Pelit,
331901,TR,81,Pozanti,
331902,TR,21,Diyaribakir,
331903,TR,76,Besiri,
331904,TR,62,Nazimiye,
331905,TR,25,Erinkâr,
331906,TR,33,Kavak,
331907,TR,35,Kozak,
331908,TR,4,Esenkent,
331909,TR,68,Macunköy,
331910,TR,63,Arican,
331911,TR,38,Uzuncayir,
331912,TR,35,Atalan,
331913,TR,2,Samsat,
331914,TR,34,Kadiköi,
331915,TR,21,Çatalköy,
331916,TR,72,Nusaybin,
331917,TR,10,Erecek,
331918,TR,45,Adana,
331919,TR,84,Karabag,
331920,TR,46,Karabiyikli,
331921,TR,21,Amida,
331922,TR,20,Kurbagalik,
331923,TR,34,Orhanli,
331924,TR,34,Kurucesme,
331925,TR,83,Kürüm,
331926,TR,25,Zeyrek,
331927,TR,68,Epik,
331928,TR,70,Sarp,
331929,TR,61,Eskibaglar,
331930,TR,63,Küpeli,
331931,TR,61,Ardasa,
331932,TR,63,Faik,
331933,TR,61,Zigana,
331934,TR,32,Egemen,
331935,TR,21,Recep,
331936,TR,35,Özbey,
331937,TR,74,Seyfi,
331938,TR,37,Celebioglu,
331939,TR,72,Bülbül,
331940,TR,19,Babaoglu,
331941,TR,46,Nasirli,
331942,TR,65,Üçgen,
331943,TR,45,Tekelioglu,
331944,TR,59,Karapürcek,
331945,TR,25,Karakoç,
331946,TR,35,Birgi,
331947,TR,50,Urgub,
331948,TR,45,Macarlar,
331949,TR,59,Teberrük,
331950,TR,35,Türkelli,
331951,TR,76,Hamidi,
331952,TR,38,Üçkuyu,
331953,TR,25,Laloglu,
331954,TR,16,Yenice,
331955,TR,50,Kaymakli,
331956,TR,31,Mecit,
331957,TR,22,Uysal,
331958,TR,66,Arife,
331959,TR,57,Abdulkadir,
331960,TR,7,Toslak,
331961,TR,21,Birsen,
331962,TR,61,Bugali,
331963,TR,72,Uzeyir,
331964,TR,25,Ekrek,
331965,TR,7,Seydisehir,
331966,TR,68,Yenisehir,
331967,TR,16,Eski,
331968,TR,65,Araz,
331969,TR,63,Güvenç,
331970,TR,38,Palas,
331971,TR,59,Hamit,
331972,TR,14,Daglar,
331973,TR,40,Sarioglu,
331974,TR,59,Aksakal,
331975,TR,5,Saygili,
331976,TR,34,Mahmut Sevket Pasa,
331977,TR,3,Horsunlu,
331978,TR,21,Hani,
331979,TR,9,Rebilköyü,
331980,TR,21,Sutagan,
331981,TR,20,Tahtaci,
331982,TR,78,Güzeller,
331983,TR,83,Akkuyu,
331984,TR,38,Tokmak,
331985,TR,63,Buyukyildiz,
331986,TR,83,Tüzel,
331987,TR,21,Aslanoglu,
331988,TR,46,Gökçek,
331989,TR,3,Batik,
331990,TR,34,Davutpasa,
331991,TR,50,Ulukisla,
331992,TR,34,Kumköy,
331993,TR,34,Kuzguncuk,
331994,TR,63,Kasim,
331995,TR,38,Yünören,
331996,TR,15,Kuyubasi,
331997,TR,68,Ataturk Orman Ciftligi,
331998,TR,9,Mursalli,
331999,TR,25,Akbaba,
332000,TR,19,Ayva,
332001,TR,61,Günay,
332002,TR,35,Ovakent,
332003,TR,50,Sahinler,
332004,TR,9,Pamukören,
332005,TR,72,Midyat,
332006,TR,16,Arnavutköy,
332007,TR,17,Gökçeada,
332008,TR,25,Baskale,
332009,TR,63,Suruç,
332010,TR,49,Dersim,
332011,TR,10,Adali,
332012,TR,74,Çetinkol,
332013,TR,65,Yadigâr,
332014,TR,49,Unaldi,
332015,TR,4,Ince,
332016,TR,25,Sarikamis,
332017,TR,4,Patnos,
332018,TR,34,Kömürlük,
332019,TR,21,Sason,
332020,TR,9,Alimbagi,
332021,TR,35,Yelki,
332022,TR,62,Kizilcayir,
332023,TR,52,Camas,
332024,TR,35,Narledere,
332025,TR,12,Yayladere,
332026,TR,63,Ayla,
332027,TR,25,Bozan,
332028,TR,72,Sancar,
332029,TR,38,Kala,
332030,TR,37,Egrioglu,
332031,TR,48,Gumusluk,
332032,TR,72,Derik,
332033,TR,76,Kayapinar,
332034,TR,64,Karahalli,
332035,TR,38,Afsarkarabogaz,
332036,TR,40,Agacoren,
332037,TR,39,Karaabalak,
332038,TR,52,Persembe,
332039,TR,35,Burhniye,
332040,TR,37,Daday,
332041,TR,63,Divan,
332042,TR,57,Bayramoglu,
332043,TR,57,Hacioglu,
332044,TR,7,Tarakci,
332045,TR,25,Direk,
332046,TR,72,Danisman,
332047,TR,35,Gökdere,
332048,TR,57,Koseoglu,
332049,TR,35,Ayaz,
332050,TR,5,Yakup,
332051,TR,71,Boyali,
332052,TR,48,Yatagan,
332053,TR,72,Suri,
332054,TR,16,Menteshe,
332055,TR,72,Dargeçit,
332056,TR,14,Kaynasli,
332057,TR,10,Marmara,
332058,TR,10,Yüregir,
332059,TR,61,Sur,
332060,TR,58,Dogansar,
332061,TR,24,Sengul,
332062,TR,7,Karaibrahim,
332063,TR,45,Veziroglu,
332064,TR,65,Saltuk,
332065,TR,80,Basan,
332066,TR,37,Kurdoglu,
332067,TR,38,Kocaoglu,
332068,TR,80,Cigir,
332069,TR,37,Bakirci,
332070,TR,63,Ergen,
332071,TR,65,Cirak,
332072,TR,33,Karaagac,
332073,TR,5,Bulak,
332074,TR,35,Pasakoy,
332075,TR,50,Alayköy,
332076,TR,14,Alapli,
332077,TR,68,Abidinpasa,
332078,TR,50,Hacibektas,
332079,TR,83,Selver,
332080,TR,20,Kaplanlar,
332081,TR,63,Ediz,
332082,TR,60,Taskiran,
332083,TR,43,Safa,
332084,TR,72,Kebabci,
332085,TR,25,Narman,
332086,TR,31,Hassa,
332087,TR,33,Egirdir,
332088,TR,16,Osmaniye,
332089,TR,46,Pazarcik,
332090,TR,68,Dikimevi,
332091,TR,68,Sabanca,
332092,TR,68,Edge,
332093,TR,21,Çerik,
332094,TR,19,Tekmen,
332095,TR,62,Maci,
332096,TR,17,Yaya,
332097,TR,48,Gürme,
332098,TR,63,Karinca,
332099,TR,11,Bulduk,
332100,TR,35,Burgaz,
332101,TR,31,Bükülmez,
332102,TR,39,Sefa,
332103,TR,25,Yahya,
332104,TR,83,Intepe,
332105,TR,90,Incesu,
332106,TR,25,Adaçay,
332107,TR,5,Kurnaz,
332108,TR,46,Cagan,
332109,TR,48,Narhisar,
332110,TR,37,Sütcü,
332111,TR,49,Kulaç,
332112,TR,76,Gürbüz,
332113,TR,80,Serin,
332114,TR,25,Gündüz,
332115,TR,63,Atsan,
332116,TR,50,Göçmen,
332117,TR,92,Kilinc,
332118,TR,70,Öncü,
332119,TR,48,Mumcular,
332120,TR,68,Yahsihan,
332121,TR,54,Ferizli,
332122,TR,41,Tavsanli,
332123,TR,39,Luleburgaz,
332124,TR,68,Kolej,
332125,TR,84,Kars,
332126,TR,75,Aksaray,
332127,TR,31,Karakese,
332128,TR,89,Karabük,
332129,TR,91,Osmaniye,
332130,TR,31,Barbaros,
332131,TR,85,Zonguldak,
332132,TR,93,Düzce,
332133,TR,52,Kaleyaka,
332134,TR,72,Aynisic,
332135,TR,49,Mus,
332136,TR,79,Kirikkale,
332137,TR,77,Igdir,
332138,TR,69,Gumushane,
332139,TR,52,Cayiralan,
332140,TR,78,Ermenek,
332141,TR,68,Güzelevler,
332142,TR,82,Cankiri,
332143,TR,68,Karabük,
332144,TR,68,Musular,
332145,TR,77,Bayburt,
332146,TR,68,Sokullu Mehmet Pasa,
332147,TR,25,Tambora,
332148,TR,32,Toluobasi,
332149,TR,82,Yozgat,
332150,TR,87,Bartin,
332151,TR,32,Kök,
332152,TR,71,Bilecik,
332153,TR,88,Igdir,
332154,TR,68,Bagcilar,
332155,TR,39,Demirköy,
332156,TR,10,Ivrindi,
332157,TR,68,Bala,
332158,TR,37,Abana,
332159,TR,74,Karsiyaka,
332160,TR,79,Efendi,
332161,TR,21,Meseler,
332162,TR,77,Bayrampasa,
332163,TR,7,Muratpasa,
332164,TR,35,Bakirkoy,
332165,TR,7,Sanayi,
332166,TR,24,Demir,
332167,TR,31,Elektrik,
332168,TR,49,Süleyman,
332169,TR,81,Baskent,
332170,TR,2,Ipekci,
332171,TR,65,Trakya,
332172,TR,68,Dogu,
332173,TR,68,Osmangazi,
332174,TR,28,Orta,
332175,TR,7,Çankaya,
332176,TR,84,Celâl,
332177,TR,7,Deniz,
332178,TR,32,Gazi,
332179,TR,7,Atatürk,
332180,TR,68,Kuzey,
332181,TR,71,Zincirlikuyu,
332182,TR,68,Ziraat,
332183,TR,63,Saglik,
332184,TR,7,Fatih,
332185,TR,7,Ulus,
332186,TR,52,Zafer,
332187,TR,52,Hürriyet,
332188,TR,49,Ibrahim,
332189,TR,17,Radar,
332190,TR,85,Eren,
332191,TR,73,Finans,
332192,TR,14,Selamoglu,
332193,TR,21,Yüksel,
332194,TR,85,Uludag,
332195,TR,7,Toros,
332196,TR,7,Gunes,
332197,TR,7,Zeytin,
332198,TR,85,Vakif,
332199,TR,71,Reis,
332200,TR,87,Bakioglu,
332201,TR,62,Gözen,
332202,TR,75,Ortaköy,
332203,TR,63,Cemal,
332204,TR,7,Liman,
332205,TR,69,Ekinciler,
332206,TR,93,Orman,
332207,TR,7,Kültür,
332208,TR,82,Coca,
332209,TR,72,Hayat,
332210,TR,5,Koltuk,
332211,TR,69,Calik,
332212,TR,7,Misirli,
332213,TR,21,Baykal,
332214,TR,31,Ates,
332215,TR,85,Tellioglu,
332216,TR,37,Elma,
332217,TR,53,Murat,
332218,TR,52,Dogulu,
332219,TR,35,Kavaklidere,
332220,TR,7,Baris,
332221,TR,81,Hastahane,
332222,TR,68,Özgür,
332223,TR,28,Cakir,
332224,TR,84,Karakas,
332225,TR,25,Emre,
332226,TR,7,Gençlik,
332227,TR,53,Sümer,
332228,TR,84,Bayraktar,
332229,TR,68,Emniyet,
332230,TR,71,Selçuklu,
332231,TR,53,Esentepe,
332232,TR,84,Erenköy,
332233,TR,7,Tarim,
332234,TR,84,Polat,
332235,TR,53,Ünalan,
332236,TR,74,Aydogan,
332237,TR,52,Nurettin,
332238,TR,68,Meteoroloji,
332239,TR,63,Nokta,
332240,TR,7,Özdemir,
332241,TR,7,Meltem,
332242,TR,85,Kirazoglu,
332243,TR,63,Ünlü,
332244,TR,68,Altinbas,
332245,TR,72,Çetinkaya,
332246,TR,81,Feyziye,
332247,TR,89,Eyuboglu,
332248,TR,32,Cumhuriyet,
332249,TR,68,Dumlupinar,
332250,TR,63,Emekli,
332251,TR,68,Kizilay,
332252,TR,49,Samanyolu,
332253,TR,84,Kizilkaya,
332254,TR,69,Isik,
332255,TR,13,Yurtici,
332256,TR,58,Refik,
332257,TR,21,Bagcilar,
332258,TR,21,Sinir,
332259,TR,71,Dikmen,
332260,TR,80,Toprak,
332261,TR,90,Gunesli,
332262,TR,89,Topuzlu,
332263,TR,53,Caglayan,
332264,TR,71,Karkin,
332265,TR,84,Ülker,
332266,TR,65,Ilgi,
332267,TR,84,Yalcin,
332268,TR,32,Camlica,
332269,TR,7,Safak,
332270,TR,68,Adnan Menderes,
332271,TR,21,Bayrak,
332272,TR,70,Baslik,
332273,TR,7,Etiler,
332274,TR,63,Gumus,
332275,TR,84,Yalinkaya,
332276,TR,84,Ibis,
332277,TR,63,Sahin,
332278,TR,77,Sancaktepe,
332279,TR,52,Yesilada,
332280,TR,14,Kantaroglu,
332281,TR,63,Yilmaz,
332282,TR,93,Horoz,
332283,TR,91,Okulu,
332284,TR,60,Gaziosmanpasa,
332285,TR,55,Mert,
332286,TR,85,Akilli,
332287,TR,25,Karadag,
332288,TR,38,Gezi,
332289,TR,84,Saat,
332290,TR,75,Yenikent,
332291,TR,52,Istiklal,
332292,TR,69,Yesil,
332293,TR,74,Kapikaya,
332294,TR,25,Tasan,
332295,TR,93,Kalyoncu,
332296,TR,84,Hisarönü,
332297,TR,85,Deren,
332298,TR,68,Ostim,
332299,TR,46,Demirel,
332300,TR,63,Ugurlu,
332301,TR,35,Göztepe,
332302,TR,81,Hastane,
332303,TR,7,Mehmet Akif Ersoy,
332304,TR,85,Kocak,
332305,TR,68,Zaimoglu,
332306,TR,21,Akin,
332307,TR,65,Fevzi,
332308,TR,32,Esen,
332309,TR,63,Umut,
332310,TR,7,Kanal,
332311,TR,72,Kaya,
332312,TR,68,Ataç,
332313,TR,68,Ilker,
332314,TR,32,Özlü,
332315,TR,87,Kalafatoglu,
332316,TR,63,Uluhan,
332317,TR,5,Yatak,
332318,TR,93,Mustafa,
332319,TR,85,Alpaslan,
332320,TR,69,Kömür,
332321,TR,38,Turan,
332322,TR,93,Elmas,
332323,TR,32,Tepe,
332324,TR,82,Karatekin,
332325,TR,46,Reyhanli,
332326,TR,58,Kadife,
332327,TR,68,Seyfi Demirsoy,
332328,TR,37,Dora,
332329,TR,85,Saka,
332330,TR,21,Budak,
332331,TR,84,Odalar,
332332,TR,8,Üçler,
332333,TR,2,Birbir,
332334,TR,71,Kuran,
332335,TR,63,Yusuf,
332336,TR,38,Ismet,
332337,TR,63,Önder,
332338,TR,7,Denizkent,
332339,TR,52,Bahariye,
332340,TR,68,Poyraz,
332341,TR,53,Tütüncüler,
332342,TR,72,Geçit,
332343,TR,13,Ulusoy,
332344,TR,57,Karaoglu,
332345,TR,85,Madenler,
332346,TR,69,Santa,
332347,TR,25,Arili,
332348,TR,91,Bahçe,
332349,TR,49,Acarkent,
332350,TR,7,Cemre,
332351,TR,55,Salipazari,
332352,TR,5,Doluca,
332353,TR,84,Incilipinar,
332354,TR,93,Akçakoca,
332355,TR,81,Koyuncu,
332356,TR,77,Cayiryolu,
332357,TR,68,Aksemsettin,
332358,TR,71,Hadim,
332359,TR,53,Yenimahalle,
332360,TR,85,Kardesler,
332361,TR,58,Kaldi,
332362,TR,21,Beytepe,
332363,TR,21,Mutlu,
332364,TR,63,Korgun,
332365,TR,68,Yunus Emre,
332366,TR,81,Yuzbasi,
332367,TR,81,Hasanefendi,
332368,TR,69,Altuntas,
332369,TR,63,Kanatli,
332370,TR,63,Duran,
332371,TR,85,Dedeoglu,
332372,TR,7,Emek,
332373,TR,68,Kardelen,
332374,TR,65,Ongun,
332375,TR,74,Engin,
332376,TR,81,Pasali,
332377,TR,75,Çetin,
332378,TR,63,Güvenli,
332379,TR,84,Senol,
332380,TR,69,Kurtoglu,
332381,TR,52,Dede,
332382,TR,28,Erdogan,
332383,TR,25,Altinkaya,
332384,TR,25,Ismail,
332385,TR,79,Keskin,
332386,TR,53,Armagan,
332387,TR,91,Kuscu,
332388,TR,53,Doganay,
332389,TR,7,Yavuz Selim,
332390,TR,82,Ilgaz,
332391,TR,70,Burak,
332392,TR,84,Akçay,
332393,TR,74,Adiguzel,
332394,TR,25,Abdurrahman,
332395,TR,21,Çömert,
332396,TR,87,Oruçlar,
332397,TR,60,Terzioglu,
332398,TR,63,Bilge,
332399,TR,21,Altay,
332400,TR,65,Dayan,
332401,TR,63,Derman,
332402,TR,57,Güven,
332403,TR,21,Kayan,
332404,TR,84,Ortaklar,
332405,TR,87,Serdar,
332406,TR,71,Tahsin,
332407,TR,23,Demirlibahçe,
332408,TR,87,Orma,
332409,TR,68,Evliya Çelebi,
332410,TR,55,Celil,
332411,TR,71,Çiçek,
332412,TR,25,Cevizlidere,
332413,TR,49,Tandogan,
332414,TR,84,Esenkent,
332415,TR,53,Bestepe,
332416,TR,72,Sarp,
332417,TR,69,Eskibaglar,
332418,TR,69,Ardasa,
332419,TR,69,Zigana,
332420,TR,32,Dursun,
332421,TR,69,Babacan,
332422,TR,91,Babaoglu,
332423,TR,93,Nasirli,
332424,TR,74,Akinci,
332425,TR,84,Laloglu,
332426,TR,46,Saygili,
332427,TR,46,Özcan,
332428,TR,87,Koca,
332429,TR,21,Yakit,
332430,TR,21,Servet,
332431,TR,68,Gülseren,
332432,TR,32,Bereket,
332433,TR,61,Gülen,
332434,TR,69,Günay,
332435,TR,83,Sehitkamil,
332436,TR,7,Üçgen,
332437,TR,88,Ince,
332438,TR,21,Güner,
332439,TR,68,Emrah,
332440,TR,87,Daglar,
332441,TR,65,Meral,
332442,TR,81,Kuyumcular,
332443,TR,68,Zubeyde Hanim,
332444,TR,85,Bayramoglu,
332445,TR,85,Hacioglu,
332446,TR,93,Albayrak,
332447,TR,71,Tarakci,
332448,TR,83,Güzey,
332449,TR,63,Sanli,
332450,TR,87,Koseoglu,
332451,TR,31,Cerrahoglu,
332452,TR,68,Yildirim Beyazit,
332453,TR,52,Bulut,
332454,TR,85,Gulluoglu,
332455,TR,72,Sayar,
332456,TR,71,Beysehir,
332457,TR,21,Seven,
332458,TR,32,Tekmen,
332459,TR,13,Ucankus,
332460,TR,61,Yilmazlar,
332461,TR,37,Dana,
332462,TR,7,Fevzi Çakmak,
332463,TR,65,Bükülmez,
332464,TR,34,Zekeriya,
332465,TR,69,Kalaycioglu,
332466,TR,84,Tunçkaya,
332467,TR,19,Abdullah,
332468,TR,88,Kobi,
332469,TR,93,Serif,
332470,TR,23,Sarigul,
332471,TR,69,Evren,
332472,TR,81,Göçmen,
332473,TR,63,Güzelyurt,
332474,TR,90,Beylerbeyi,
332475,TR,22,Demirköy,
332476,TR,81,Yuregir,
332477,TR,68,Bahcekapi,
332478,TR,40,Mucur,
332479,TR,85,Alapli,
332480,TR,80,Caliskan,
332481,TR,60,Akgün,
332482,TR,35,Canli,
332483,TR,28,Tasdemir,
332484,TR,84,Karacayir,
332485,TR,23,Tadim,
332486,TR,57,Ayancik,
332487,TR,60,Saltik,
332488,TR,46,Gürsel,
332489,TR,7,Hoca,
332490,TR,7,Fener,
332491,TR,38,Kocasinan,
332492,TR,92,Altinova,
332493,TR,38,Zirve,
332494,TR,81,Pinarlar,
332495,TR,58,Eksi,
332496,TR,90,Koktas,
332497,TR,83,Alagöz,
332498,TR,25,Burhan,
332499,TR,60,Canpolat,
332500,TR,89,Safranbolu,
332501,TR,3,Aydin,
332502,TR,44,Arapgir,
332503,TR,76,Sason,
332504,TR,31,Serinyol,
332505,TR,54,Ada Bazar,
332506,TR,16,Alaattinbey,
332507,TR,59,Kutlugün,
332508,TR,21,Uzunlar,
332509,TR,3,Erten,
332510,TR,83,Davutoglu,
332511,TR,59,Cinarlidere,
332512,TR,31,Arpatepekëy,
332513,TR,71,Seydisehir,
332514,TR,34,Büyükada,
332515,TR,80,Beytussebap,
332516,TR,21,Hazro,
332517,TR,13,Ahlat,
332518,TR,44,Kosar,
332519,TR,58,Saridemir,
332520,TR,69,Uguz,
332521,TR,61,Yeniay,
332522,TR,89,Yaya,
332523,TR,84,Mehmetcik,
332524,TR,76,Kozluk,
332525,TR,74,Tosun,
332526,TR,93,Dilaver,
332527,TR,35,Sarilar,
332528,TR,63,Turna,
332529,TR,31,Fatih Sultan Mehmet,
332530,TR,35,Kadifekale,
332531,TR,46,Nurhak,
332532,TR,37,Küre,
332533,TR,34,Bahçeköy,
332534,TR,35,Dikili,
332535,TR,21,Cungus,
332536,TR,68,Lalahan,
332537,TR,68,Ergazi,
332538,TR,21,Çirit,
332539,TR,71,Sazak,
332540,TR,79,Kocabas,
332541,TR,62,Silk,
332542,TR,25,Irmak,
332543,TR,93,Muratoglu,
332544,TR,38,Kuzoluk,
332545,TR,32,Zübeyir,
332546,TR,72,Kaleli,
332547,TR,77,Rumeli,
332548,TR,68,Fahri Korutürk,
332549,TR,38,Kahveci,
332550,TR,50,Abdi,
332551,TR,32,Yayla,
332552,TR,19,Hamdi,
332553,TR,93,Topuz,
332554,TR,37,Molla,
332555,TR,4,Karayolu,
332556,TR,74,Geli,
332557,TR,21,Kalan,
332558,TR,59,Karababa,
332559,TR,7,Santral,
332560,TR,85,Baglar,
332561,TR,87,Gümü,
332562,TR,63,Bilekli,
332563,TR,68,Gayret,
332564,TR,7,Güzeloba,
332565,TR,81,Aladag,
332566,TR,82,Gumerdigin,
332567,TR,68,Karaman,
332568,TR,58,Sarkisla,
332569,TR,85,Devrek,
332570,TR,58,Erkan,
332571,TR,48,Incir,
332572,TR,45,Kagan,
332573,TR,16,Afsar,
332574,TR,58,Atkiran,
332575,TR,34,Sultanciftligi Koyu,
332576,TR,71,Doganhisar,
332577,TR,9,Yenihisar,
332578,TR,34,Kalikratya,
332579,TR,44,Yesilyurt,
332580,TR,41,Köseköy,
332581,TR,87,Mamak,
332582,TR,23,Palu,
332583,TR,52,Yogunoluk,
332584,TR,68,Beypazari,
332585,TR,4,Kazli,
332586,TR,74,Yurt,
332587,TR,52,Erenli,
332588,TR,85,Elvan,
332589,TR,52,Bahçeler,
332590,TR,63,Sevimli,
332591,TR,33,Sparta,
332592,TR,50,Üçhisar,
332593,TR,32,Icel,
332594,TR,35,Azmir,
332595,TR,7,Antayla,
332596,TR,80,Güçlükonak,
332597,TR,86,Yavuzlar,
332598,TR,35,Durmuslar,
332599,TR,21,Petek,
332600,TR,81,Ayas,
332601,TR,21,Okur,
332602,TR,57,Ömer,
332603,TR,52,Kocaman,
332604,TR,84,Sarikamis,
332605,TR,7,Balbey,
332606,TR,80,Dagdibi,
332607,TR,22,Meriç,
332608,TR,88,Karakoyunlu,
332609,TR,46,Caglayancerit,
332610,TR,83,Nurdagi,
332611,TR,7,Çamyuva,
332612,TR,78,Evsin,
332613,TR,76,Ridvan,
332614,TR,81,Dündar,
332615,TR,7,Uluç,
332616,TR,90,Oylum,
332617,TR,7,Arif,
332618,TR,81,Karsli,
332619,TR,2,Sengil,
332620,TR,52,Hocaoglu,
332621,TR,71,Taskent,
332622,TR,15,Yesilova,
332623,TR,68,Akyurt,
332624,TR,68,Ankyra,
332625,TR,93,Aydin,
332626,TR,81,Saricam,
332627,TR,84,Selim,
332628,TR,72,Erbil,
332629,TR,45,Gölmarmara,
332630,TR,59,Maksutlu,
332631,TR,68,Bugra,
332632,TR,63,Elgün,
332633,TR,72,Özlüce,
332634,TR,72,Adim,
332635,TR,89,Cakaloglu,
332636,TR,2,Bircan,
332637,TR,38,Orucoglu,
332638,TR,19,Erdek,
