locId,country,region,city,postcode
333306,UA,,,
333307,UA,17,Postal,
333308,UA,17,Odessa,
333309,UA,8,Kherson,
333310,UA,7,Kharkov,
333311,UA,11,Frunze,
333312,UA,11,Simferopol,
333313,UA,13,Kiev,
333314,UA,5,Lugansk,
333315,UA,15,Lviv,
333316,UA,27,Zhitomir,
333317,UA,5,Donetsk,
333318,UA,8,Zaporozhye,
333319,UA,13,Kiyiv,
333320,UA,22,Ternopil,
333321,UA,7,Poltava,
333322,UA,5,Mariupol,
333323,UA,5,Artema,
333324,UA,4,Dnepropetrovsk,
333325,UA,4,Dniepropetrovsk,
333326,UA,3,Chernovtsy,
333327,UA,7,Kharkiv,
333328,UA,15,Chervonograd,
333329,UA,11,Azov,
333330,UA,17,Franko,
333331,UA,24,Lutsk,
333332,UA,25,Uzhgorod,
333333,UA,13,Vyshgorod,
333334,UA,22,Kreshchatik,
333335,UA,4,Novomoskovsk,
333336,UA,8,Krivoy Rog,
333337,UA,10,Kirovohrad,
333338,UA,20,Sevastopol,
333339,UA,4,Nikopol,
333340,UA,13,Chernobyl,
333341,UA,11,Feodosia,
333342,UA,14,Melnikova,
333343,UA,7,Artemovsk,
333344,UA,26,Energodar,
333345,UA,27,Shevchenko,
333346,UA,4,Karl Marx,
333347,UA,21,Sumy,
333348,UA,2,Chernigov,
333349,UA,2,Chernihiv,
333350,UA,1,Cherkassy,
333351,UA,25,Bohdan,
333352,UA,9,Khmelnitskiy,
333353,UA,21,Makeyevka,
333354,UA,5,Kirova,
333355,UA,5,Kramatorsk,
333356,UA,26,Melitopol,
333357,UA,16,Nikolaev,
333358,UA,4,Radio,
333359,UA,3,Spasskaya,
333360,UA,13,Vyshneve,
333361,UA,13,Irpin,
333362,UA,20,Sebastopol,
333363,UA,13,Irpen,
333364,UA,10,Kirovograd,
333365,UA,13,Boryspil,
333366,UA,1,Cherkasy,
333367,UA,25,Rivne,
333368,UA,15,Bozhenko,
333369,UA,26,Ukrainskiy,
333370,UA,27,Zhytomyr,
333371,UA,18,Kremenchug,
333372,UA,4,Dnipropetrovsk,
333373,UA,14,Stakhanov,
333374,UA,22,Bazar,
333375,UA,14,Severodonetsk,
333376,UA,11,Gorlovka,
333377,UA,14,Alchevsk,
333378,UA,22,Podillya,
333379,UA,15,Lvov,
333380,UA,13,Chornobyl,
333381,UA,13,Fastov,
333382,UA,7,Yalta,
333383,UA,7,Lenina,
333384,UA,13,Darnitsa,
333385,UA,3,Novodnestrovsk,
333386,UA,5,Dimitrova,
333387,UA,4,Levanevskogo,
333388,UA,7,Vinnitsa,
333389,UA,25,Mukachevo,
333390,UA,7,Oktyabrya,
333391,UA,2,Molchanov,
333392,UA,7,Pokrovskaya,
333393,UA,13,Bila Tserkva,
333394,UA,23,Rovno,
333395,UA,7,Progress,
333396,UA,11,Kamenka,
333397,UA,4,Tolstoy,
333398,UA,23,Obukhov,
333399,UA,3,Ostra,
333400,UA,25,Uzhhorod,
333401,UA,3,Chernivtsi,
333402,UA,19,Mykolayiv,
333403,UA,19,Kuznetsovsk,
333404,UA,21,Sumi,
333405,UA,22,Ternopol,
333406,UA,25,Khust,
333407,UA,19,Nobel,
333408,UA,23,Kazatin,
333409,UA,5,Dzerzhinskogo,
333410,UA,13,Belaya Tserkov,
333411,UA,22,Dolyna,
333412,UA,13,Borispol,
333413,UA,15,Smolnaya,
333414,UA,14,Lisichansk,
333415,UA,7,Dergachi,
333416,UA,18,Boyarka,
333417,UA,5,Zaporizhzhya,
333418,UA,5,Sedova,
333419,UA,15,Ivana Franka,
333420,UA,23,Rivno,
333421,UA,2,Nezhin,
333422,UA,7,Sivash,
333423,UA,3,Mega,
333424,UA,5,Ukraina,
333425,UA,17,Zheleznodorozhnoye,
333426,UA,25,Beregovo,
333427,UA,6,Glushkov,
333428,UA,24,Luck,
333429,UA,11,Yevpatoriya,
333430,UA,18,Obolon,
333431,UA,13,Dymerka,
333432,UA,7,Zolochiv,
333433,UA,11,Oreanda,
333434,UA,11,Kerch,
333435,UA,18,Podol,
333436,UA,7,Marina,
333437,UA,5,Luganskaya,
333438,UA,4,Pavlovskaya,
333439,UA,8,Sadovaya,
333440,UA,5,Pobeda,
333441,UA,21,Promin,
333442,UA,11,Morskaya,
333443,UA,26,Zaliznychne,
333444,UA,5,Chkalova,
333445,UA,5,Liski,
333446,UA,2,Tarasa Shevchenko,
333447,UA,8,Strelka,
333448,UA,23,Antonova,
333449,UA,21,Bolshaya,
333450,UA,5,Malaya,
333451,UA,11,Svet,
333452,UA,6,Verkhnyaya,
333453,UA,17,Ilichevsk,
333454,UA,3,Komarova,
333455,UA,11,Primorskiy,
333456,UA,6,Kalush,
333457,UA,17,Ovidiopol,
333458,UA,26,Berdyansk,
333459,UA,20,Omega,
333460,UA,4,Rybalskaya,
333461,UA,26,Marksa,
333462,UA,8,Stanislav,
333463,UA,27,Baryshevka,
333464,UA,27,Ostrov,
333465,UA,7,Osnova,
333466,UA,26,Petropavlovskiy,
333467,UA,22,Chertkov,
333468,UA,17,Izmail,
333469,UA,5,Horlivka,
333470,UA,11,Kalinovka,
333471,UA,23,Shargorod,
333472,UA,26,Zaporozhe,
333473,UA,27,Nivki,
333474,UA,17,Novy,
333475,UA,5,Chumak,
333476,UA,18,Pogreby,
333477,UA,21,Konotop,
333478,UA,4,Kotovskogo,
333479,UA,13,Sosnova,
333480,UA,21,Petrovskogo,
333481,UA,1,Zolotonosha,
333482,UA,19,Berlin,
333483,UA,19,Zdolbuniv,
333484,UA,22,Brovary,
333485,UA,21,Trostyanets,
333486,UA,11,Simonenko,
333487,UA,8,Ingulets,
333488,UA,11,Ordzhonikidze,
333489,UA,25,Tyachev,
333490,UA,5,Mironovskiy,
333491,UA,21,Mars,
333492,UA,19,Gran,
333493,UA,3,ZelÎna,
333494,UA,25,Tyachiv,
333495,UA,5,Makeevka,
333496,UA,5,Slavyansk,
333497,UA,26,Pavlograd,
333498,UA,21,Moskovskiy,
333499,UA,13,Vasylkiv,
333500,UA,18,Poznyaki,
333501,UA,11,Severnaya,
333502,UA,25,Komsomolsk,
333503,UA,13,Zhovtnya,
333504,UA,6,Kopanky,
333505,UA,25,Svoboda,
333506,UA,13,Obukhiv,
333507,UA,1,TimoshÎvka,
333508,UA,13,Fastiv,
333509,UA,11,Zarya,
333510,UA,15,Stadnik,
333511,UA,21,Zavod,
333512,UA,25,Korolevo,
333513,UA,1,Dengi,
333514,UA,8,Pushkina,
333515,UA,9,Chabany,
333516,UA,21,Verkhniy,
333517,UA,25,Irshava,
333518,UA,14,Luhansk,
333519,UA,17,Illichivsk,
333520,UA,11,Semen,
333521,UA,25,Minay,
333522,UA,8,Skadovsk,
333523,UA,17,Tkachenka,
333524,UA,23,Ivanov,
333525,UA,3,Krivoy,
333526,UA,22,Komsomolskoye,
333527,UA,8,Gorodok,
333528,UA,26,Kichkas,
333529,UA,1,Sarny,
333530,UA,6,Goncharov,
333531,UA,22,Lozovaya,
333532,UA,8,Ilicha,
333533,UA,7,Krasnoarmeysk,
333534,UA,13,Bucha,
333535,UA,11,Krasnoperekopsk,
333536,UA,4,Smolenskaya,
333537,UA,6,Play,
333538,UA,13,Svyatoshino,
333539,UA,27,Malin,
333540,UA,9,Teofipol,
333541,UA,22,Synyava,
333542,UA,9,Letychiv,
333543,UA,13,Zhulyany,
333544,UA,11,Rechnaya,
333545,UA,22,Petrov,
333546,UA,21,Derazhnya,
333547,UA,9,Volochysk,
333548,UA,19,Polonne,
333549,UA,9,Izyaslav,
333550,UA,9,Slavuta,
333551,UA,9,Shepetivka,
333552,UA,9,Netishin,
333553,UA,9,Starokostyantyniv,
333554,UA,21,Shostka,
333555,UA,17,Dmitriy,
333556,UA,3,Spaska,
333557,UA,15,Vladimir,
333558,UA,2,Maksim,
333559,UA,17,Ilya,
333560,UA,4,Pavlova,
333561,UA,23,Lysenka,
333562,UA,11,Tyumen,
333563,UA,5,Petrovskoe,
333564,UA,15,Pavlov,
333565,UA,11,Goncharova,
333566,UA,26,Novgorod,
333567,UA,27,Sokolov,
333568,UA,21,Melnikov,
333569,UA,7,Golubov,
333570,UA,21,Makov,
333571,UA,7,Polevaya,
333572,UA,21,Vasilets,
333573,UA,11,Mayak,
333574,UA,4,Marganets,
333575,UA,18,Leman,
333576,UA,13,Teremki,
333577,UA,14,Pogorelov,
333578,UA,5,Leninskiy,
333579,UA,16,Kuznetsova,
333580,UA,23,Vinnytsya,
333581,UA,14,Krasnodon,
333582,UA,27,Kolodyanka,
333583,UA,3,Moldova,
333584,UA,23,Nemirov,
333585,UA,15,Kulikov,
333586,UA,26,Nadiya,
333587,UA,7,Kovalenkov,
333588,UA,5,Vanyushkin,
333589,UA,17,Oleg,
333590,UA,7,Bobrov,
333591,UA,9,Krasyliv,
333592,UA,8,Novosibirsk,
333593,UA,13,Kief,
333594,UA,5,Novayaignatyevka,
333595,UA,4,Polovitsy,
333596,UA,4,Amurnizhne Dneprovsk,
333597,UA,13,Kievpetrovsky Port,
333598,UA,13,Novopoznyaki,
333599,UA,8,Novaya Zavadovka,
333600,UA,17,Grebeniki,
333601,UA,13,Barakhty,
333602,UA,13,Khotiv,
333603,UA,13,Dachi Irpen,
333604,UA,13,Kyyiv,
333605,UA,13,Kozino,
333606,UA,13,Vishenki,
333607,UA,11,Novovasilyevka,
333608,UA,11,Theodosia,
333609,UA,11,Karach,
333610,UA,11,Tolban,
333611,UA,8,KreshchÎnka,
333612,UA,6,Nadvirna,
333613,UA,13,Prigorod Trukhanov Ostrov,
333614,UA,4,Karnaukhovka,
333615,UA,13,Makarovskaya Buda,
333616,UA,13,LÎtki,
333617,UA,27,Osivtsy,
333618,UA,13,Belgorodka,
333619,UA,13,Charvona Sloboda,
333620,UA,13,Petropavlovskaya Borshchagovka,
333621,UA,3,Parcauti,
333622,UA,13,Pinchuki,
333623,UA,7,Selishche,
333624,UA,19,Petushkov,
333625,UA,8,Bolshaya Kardashinka,
333626,UA,14,Kapitanovo,
333627,UA,14,Teplogorsk,
333628,UA,7,Chuguyev,
333629,UA,15,Gassendorf,
333630,UA,13,PosÎlok Svyatoshino,
333631,UA,13,Malyy Bukrin,
333632,UA,7,Novognilitsa,
333633,UA,14,ArtÎmovsk,
333634,UA,11,Ibraimbay,
333635,UA,4,Sokolovka,
333636,UA,11,Saki,
333637,UA,11,Pakhari,
333638,UA,5,Malaya Ignatyevka,
333639,UA,13,Berkovets,
333640,UA,15,Volya Kholoyevska,
333641,UA,15,Babiche,
333642,UA,15,Reklinets,
333643,UA,15,Mochulki,
333644,UA,22,Igrovitsa,
333645,UA,4,Surskolitovskoye,
333646,UA,26,Blagoveshchenskoye,
333647,UA,8,Georgiyevka,
333648,UA,27,Belaya Krinitsa,
333649,UA,15,Blyshchivody,
333650,UA,21,Vorozhki,
333651,UA,7,Losevo,
333652,UA,7,Karlovka,
333653,UA,17,Prilimanskoye,
333654,UA,16,Ivanivka,
333655,UA,5,Novy Mariyental,
333656,UA,5,Shakhovo,
333657,UA,5,Komsomolskiy,
333658,UA,5,Krasnovka,
333659,UA,16,Karabash,
333660,UA,8,Shevchenko,
333661,UA,5,Ostroye,
333662,UA,5,Nikolayevka Nomer Pervyy,
333663,UA,5,RutchÎnkovo,
333664,UA,5,Gorlovskiy Shakhter,
333665,UA,5,Vasilyevka,
333666,UA,5,Stepnoye,
333667,UA,14,Gorodishche,
333668,UA,5,Stila,
333669,UA,5,Truzhenik,
333670,UA,5,Taramchuk,
333671,UA,5,Novotroitskoye,
333672,UA,6,Selets,
333673,UA,15,Lelechowka,
333674,UA,15,Lasowe,
333675,UA,15,Tverdza,
333676,UA,15,Bar,
333677,UA,10,MolodÎzhnoye,
333678,UA,4,Bereznegovata,
333679,UA,7,Novopokrovka,
333680,UA,7,Korobochkino,
333681,UA,7,Veselyy Poselok,
333682,UA,7,Zelenyy Kolodez,
333683,UA,7,Krasnaya Armiya,
333684,UA,21,Shpilevka,
333685,UA,7,Logachevka,
333686,UA,13,Buzova,
333687,UA,4,Zaporozhye,
333688,UA,8,Protsenkovo,
333689,UA,18,Kremenchuk,
333690,UA,4,Dneprodzerzhinsk,
333691,UA,13,Kiew,
333692,UA,10,Svetlovodsk,
333693,UA,15,Podvezhinets,
333694,UA,3,Dubova,
333695,UA,3,Shushkautsi,
333696,UA,3,Rarancea,
333697,UA,22,Belaya,
333698,UA,13,Yevminka,
333699,UA,15,Zavereshitsa,
333700,UA,19,Zdolbunov,
333701,UA,6,Burshtyn,
333702,UA,15,Khlebovitse Velki,
333703,UA,15,Podgorodishche,
333704,UA,15,Zabuzhzhya,
333705,UA,15,Kizyna,
333706,UA,25,Siurte,
333707,UA,2,Nizhyn,
333708,UA,25,Ivanovtse,
333709,UA,5,Veliki Anadol,
333710,UA,5,Volnoye,
333711,UA,11,Privolnoye,
333712,UA,1,Uman,
333713,UA,4,Chernoglazovka,
333714,UA,4,Osipovka,
333715,UA,7,Bolshaya Tsapovka,
333716,UA,7,Selskoyevozrozhdeniye,
333717,UA,25,Radych,
333718,UA,10,BudÎnnyy,
333719,UA,5,Makeyevka,
333720,UA,13,KurenÎvka,
333721,UA,25,Bedevlya,
333722,UA,13,Kukhmisterskaya Sloboda,
333723,UA,27,Ozeryany,
333724,UA,13,Boyarka,
333725,UA,5,Sholokhovskiy,
333726,UA,27,Chudnov,
333727,UA,7,Prosyanka,
333728,UA,24,Basheva,
333729,UA,27,Ozerne,
333730,UA,11,Sverdlovsk,
333731,UA,21,Girevka,
333732,UA,9,Dzelentsy,
333733,UA,4,Novostepanovka,
333734,UA,4,Dnepropetrowsk,
333735,UA,14,Frunze,
333736,UA,7,Dergachi,
333737,UA,7,Sovetskiy,
333738,UA,23,Kozyatyn,
333739,UA,13,Kailov,
333740,UA,13,Ksaverovka,
333741,UA,13,Veta Pochtovaya,
333742,UA,13,Dachi Nemeshayevo,
333743,UA,2,Kobyzhcha,
333744,UA,2,Markovtsy,
333745,UA,18,Yeremeivka,
333746,UA,13,Bortnichi,
333747,UA,15,KarchÎmka,
333748,UA,13,NovosÎlki Na Desne,
333749,UA,7,Novoburlutskoye,
333750,UA,7,Chubarevka,
333751,UA,25,Chop,
333752,UA,13,Vigurovshchino,
333753,UA,20,Aleksandromikhaylovka,
333754,UA,16,Barmashovo,
333755,UA,13,Buchak,
333756,UA,4,Treytuzna,
333757,UA,13,Choklovka,
333758,UA,24,Charukuv,
333759,UA,15,Sokal,
333760,UA,8,Novoarkhangelskoye,
333761,UA,2,OstÎr,
333762,UA,27,Borsovka,
333763,UA,15,Kozlov,
333764,UA,15,Grud,
333765,UA,13,Roslavichi,
333766,UA,7,Vysokiy,
333767,UA,11,Ivanovka,
333768,UA,14,Krasnyy Liman,
333769,UA,14,Serebryanka,
333770,UA,6,Zalanuv,
333771,UA,24,Nesvich,
333772,UA,5,Kremennaya,
333773,UA,11,Argin,
333774,UA,11,Kurtluk,
333775,UA,11,Vasilevka,
333776,UA,10,Bezspornaya,
333777,UA,7,Bakumtsy,
333778,UA,7,Lyalyuki,
333779,UA,13,Kolonshchina,
333780,UA,7,Sorevnovaniye,
333781,UA,24,Zalesty,
333782,UA,20,Biyukhuskomya,
333783,UA,8,Bolschaja Aleksandrowka,
333784,UA,9,Povetno,
333785,UA,6,Kozara,
333786,UA,6,Cheremkhuv,
333787,UA,15,Kupichvolya,
333788,UA,15,Labach,
333789,UA,15,Lagodiv,
333790,UA,5,Avdeyevka Pervaya,
333791,UA,5,Romanovka,
333792,UA,5,Avdeyevka Vtoraya,
333793,UA,11,Biyukyankoy,
333794,UA,4,SolÎnoye,
333795,UA,5,Nikolaypolye,
333796,UA,5,Jelenowka,
333797,UA,16,Tuzly,
333798,UA,15,Veryny,
333799,UA,7,Artelnoye Aleksandrovka,
333800,UA,7,Lozovaya Vtoraya,
333801,UA,4,Gubinikha,
333802,UA,22,Pokropivna,
333803,UA,13,Belichi,
333804,UA,18,Poltava,
333805,UA,14,Lenina,
333806,UA,5,Shevchenko,
333807,UA,19,Rivne,
333808,UA,11,Yalta,
333809,UA,23,Vinnitsa,
333810,UA,15,Mykolayiv,
333811,UA,26,Zaporizhzhya,
333812,UA,13,Brovary,
333813,UA,15,Zolochiv,
333814,UA,17,Zaliznychne,
333815,UA,4,Ordzhonikidze,
333816,UA,5,Krasnoarmeysk,
333817,UA,9,Derazhnya,
333818,UA,9,Polonne,
333819,UA,18,Zaton,
333820,UA,19,Sarny,
333821,UA,23,Sasha,
333822,UA,7,Avangard,
333823,UA,10,Lugovaya,
333824,UA,24,Rechitsa,
333825,UA,11,Nadezhda,
333826,UA,8,Nyzhni Sirohozy,
333827,UA,4,Krynychky,
333828,UA,8,Lyubymivka,
333829,UA,9,KlimashÎvka,
333830,UA,26,Velyka Bilozerka,
333831,UA,11,Feodosiya,
333832,UA,11,Dobroye,
333833,UA,26,Dniprovka,
333834,UA,8,Vysokopillya,
333835,UA,8,Velyka Oleksandrivka,
333836,UA,13,Piskivka,
333837,UA,13,Stavyshche,
333838,UA,27,Pershotravensk,
333839,UA,3,Khotyn,
333840,UA,11,Uhlove,
333841,UA,16,Snihurivka,
333842,UA,13,Vyshhorod,
333843,UA,19,Olyka,
333844,UA,15,Krasne,
333845,UA,17,Izmayil,
333846,UA,14,Toshkivka,
333847,UA,7,Valky,
333848,UA,15,Ulychne,
333849,UA,4,Solone,
333850,UA,13,Tsybli,
333851,UA,13,Rzhyshchiv,
333852,UA,18,Chutove,
333853,UA,4,Pidhorodne,
333854,UA,11,Rodnykove,
333855,UA,5,Volnovakha,
333856,UA,15,Sambir,
333857,UA,15,Lokachi,
333858,UA,26,Vasylivka,
333859,UA,8,Verkhniy Rohachyk,
333860,UA,4,Tsarychanka,
333861,UA,27,Bila Krynytsya,
333862,UA,15,Peremyshlyany,
333863,UA,7,Chuhuyiv,
333864,UA,7,Kulynychi,
333865,UA,7,Pivdenne,
333866,UA,16,Ochakiv,
333867,UA,20,Chernorechenskoye,
333868,UA,5,Gornyak,
333869,UA,5,Blagodatnoye,
333870,UA,14,Kreminna,
333871,UA,5,Belokamenka,
333872,UA,6,Rohatyn,
333873,UA,24,Rozhyshche,
333874,UA,15,Starychi,
333875,UA,15,Sudova Vyshnya,
333876,UA,16,Bolshaya Pogorelova,
333877,UA,11,Zuya,
333878,UA,4,Auly,
333879,UA,7,Vvedenka,
333880,UA,7,Vasyshcheve,
333881,UA,13,Makariv,
333882,UA,4,Mahdalynivka,
333883,UA,5,Sartana,
333884,UA,5,Makiyivka,
333885,UA,4,Volnogorsk,
333886,UA,11,Bakhchysaray,
333887,UA,20,Rodnoye,
333888,UA,3,Klishkivtsi,
333889,UA,3,Boyany,
333890,UA,22,Bila,
333891,UA,9,Sukhovolya,
333892,UA,19,Ostroh,
333893,UA,19,Lopatyn,
333894,UA,15,Novyy Yarychiv,
333895,UA,15,Bryukhovychi,
333896,UA,25,Berehove,
333897,UA,20,Belokamensk,
333898,UA,25,Mukacheve,
333899,UA,5,Avdiyivka,
333900,UA,5,Keramik,
333901,UA,5,Raigorodok,
333902,UA,5,Shcherbynivka,
333903,UA,4,Novopokrovka,
333904,UA,13,Desna,
333905,UA,7,Balakliya,
333906,UA,25,Turka,
333907,UA,10,Dmytrivka,
333908,UA,5,Kostyantynivka,
333909,UA,5,Kirovsk,
333910,UA,27,Brusyliv,
333911,UA,15,Stai,
333912,UA,15,Zhovkva,
333913,UA,27,Chudniv,
333914,UA,9,Narkevychi,
333915,UA,7,Prudyanka,
333916,UA,22,Ozerna,
333917,UA,13,Borodyanka,
333918,UA,7,Eskhar,
333919,UA,6,Kolomyja,
333920,UA,26,Sich,
333921,UA,15,Dmitrov,
333922,UA,15,Stryj,
333923,UA,26,Nesterenko,
333924,UA,11,Krymskaya,
333925,UA,21,Zheleznyak,
333926,UA,21,Rudenkov,
333927,UA,7,Belousov,
333928,UA,5,Staryy Krym,
333929,UA,26,Kamenkadneprovskaya,
333930,UA,4,Novovorontsovka,
333931,UA,8,Lazurne,
333932,UA,8,Oleksandrivka,
333933,UA,11,Koreiz,
333934,UA,5,Torez,
333935,UA,15,Pustomyty,
333936,UA,7,Zachepylivka,
333937,UA,27,Chernyakhiv,
333938,UA,15,Stebnyk,
333939,UA,5,Telmanove,
333940,UA,24,Kovel,
333941,UA,11,Alushta,
333942,UA,13,Zhurivka,
333943,UA,22,Zaliztsi,
333944,UA,23,Zhmerynka,
333945,UA,5,Krasny Liman,
333946,UA,11,Partenit,
333947,UA,5,Krasnotorka,
333948,UA,27,Olevsk,
333949,UA,16,Pervomaysk,
333950,UA,6,Dubenskaya,
333951,UA,17,Demidova,
333952,UA,5,Debaltsevo,
333953,UA,22,Dolina,
333954,UA,11,Saky,
333955,UA,15,Mostiska,
333956,UA,16,Bashtanka,
333957,UA,2,Mena,
333958,UA,13,Dymer,
333959,UA,26,Vodyane,
333960,UA,26,Dniprorudne,
333961,UA,11,Dzhankoy,
333962,UA,26,Primorsk,
333963,UA,4,Pavlohrad,
333964,UA,4,Zaporzhye,
333965,UA,21,Krolevets,
333966,UA,21,Shalyhyne,
333967,UA,7,Merefa,
333968,UA,7,Malynivka,
333969,UA,27,Priluki,
333970,UA,25,Bogdan,
333971,UA,1,Shpola,
333972,UA,26,Tsvetkov,
333973,UA,11,Srednyaya,
333974,UA,21,Guta,
333975,UA,7,Yuzhniy,
333976,UA,5,Chernyavskiy,
333977,UA,26,Kalinina,
333978,UA,21,Kurilov,
333979,UA,21,Medvedev,
333980,UA,14,Shakhov,
333981,UA,7,Pesochin,
333982,UA,7,Osadchiy,
333983,UA,13,Ukrayinka,
333984,UA,26,Kostyantynivka,
333985,UA,4,Apostolove,
333986,UA,13,Myronivka,
333987,UA,15,Zavada,
333988,UA,15,Boryslav,
333989,UA,15,Belz,
333990,UA,15,Stryy,
333991,UA,22,Petrykiv,
333992,UA,15,Morshyn,
333993,UA,26,Zaporogye,
333994,UA,27,Korostyshiv,
333995,UA,27,Berdychiv,
333996,UA,27,Korosten,
333997,UA,11,Sudak,
333998,UA,7,Zmiyiv,
333999,UA,18,Gadyach,
334000,UA,8,Velyka Lepetykha,
334001,UA,8,Nova Kakhovka,
334002,UA,23,Gnivan,
334003,UA,14,Antratsit,
334004,UA,14,Grakov,
334005,UA,26,Ostrovskiy,
334006,UA,2,Kolos,
334007,UA,17,Ivashkov,
334008,UA,25,Sereda,
334009,UA,26,BogatyrÎv,
334010,UA,21,Samara,
334011,UA,11,Zolotaya,
334012,UA,5,Novaya,
334013,UA,5,KoshelÎv,
334014,UA,26,Konovalov,
334015,UA,19,Rokitno,
334016,UA,26,Mala Bilozerka,
334017,UA,25,Poroshkovo,
334018,UA,7,Kopani,
334019,UA,11,Kirovskoye,
334020,UA,15,Yavoriv,
334021,UA,14,Pervomaysk,
334022,UA,5,Krasnyy Oktyabr,
334023,UA,14,Krasnyy Kut,
334024,UA,4,Vyshchetarasivka,
334025,UA,7,Verbivka,
334026,UA,7,Mirgorod,
334027,UA,26,Zaporozhye,
334028,UA,8,Vishnevskiy,
334029,UA,21,Belous,
334030,UA,4,Sad,
334031,UA,8,TokarÎvo,
334032,UA,18,Kotelva,
334033,UA,4,Chervonohryhorivka,
334034,UA,22,Buchach,
334035,UA,11,Novoulyanovka,
334036,UA,11,Armyansk,
334037,UA,26,Tokmak,
334038,UA,11,Mykolayivka,
334039,UA,15,Zhovtneve,
334040,UA,2,Pryluky,
334041,UA,15,Drogobych,
334042,UA,27,Malinovka,
334043,UA,22,Lapshin,
334044,UA,15,Bozhenka,
334045,UA,22,Antonov,
334046,UA,15,GÛra,
334047,UA,18,Troyany,
334048,UA,21,Romny,
334049,UA,19,Dubno,
334050,UA,25,Svalyava,
334051,UA,8,Tsyurupynsk,
334052,UA,27,Radomyshl,
334053,UA,13,Baryshivka,
334054,UA,5,Khartsyzsk,
334055,UA,1,Smila,
334056,UA,7,Lyman,
334057,UA,27,Ukrainka,
334058,UA,1,Vasilkov,
334059,UA,22,Kozlov,
334060,UA,7,Artel,
334061,UA,11,Katsiveli,
334062,UA,7,Pokotylivka,
334063,UA,7,Nikolayev,
334064,UA,24,Kivertsi,
334065,UA,3,Storozhynets,
334066,UA,25,Vinogradov,
334067,UA,2,Horodnya,
334068,UA,5,Selidovo,
334069,UA,5,Druzhkovka,
334070,UA,10,Aleksandriya,
334071,UA,26,Vesele,
334072,UA,15,Novovolynsk,
334073,UA,4,Verkhnodniprovsk,
334074,UA,15,Rykhtychi,
334075,UA,25,Petrovo,
334076,UA,4,Sinelnikovo,
334077,UA,5,Ilovaysk,
334078,UA,7,Volchansk,
334079,UA,26,Voznesensk,
334080,UA,5,Karla Marksa,
334081,UA,5,ShakhtÎrsk,
334082,UA,27,Sosnivka,
334083,UA,23,Haysyn,
334084,UA,5,Slawjansk,
334085,UA,7,Lyubotyn,
334086,UA,18,Lubny,
334087,UA,17,Balta,
334088,UA,27,Malyn,
334089,UA,1,Verbovka,
334090,UA,6,Kolomyya,
334091,UA,10,Oleksandrivka,
334092,UA,27,Konstantinovka,
334093,UA,21,Hlukhiv,
334094,UA,14,Lugansk,
334095,UA,7,Shevchenka,
334096,UA,7,Ilicha,
334097,UA,14,Voroshilov,
334098,UA,6,Grebenyuk,
334099,UA,7,Volkov,
334100,UA,21,Bolshoy,
334101,UA,11,Azamat,
334102,UA,26,Orlov,
334103,UA,22,Denisov,
334104,UA,27,Luka,
334105,UA,7,Dvorichna,
334106,UA,14,Klenovyy,
334107,UA,11,Kurpaty,
334108,UA,8,Tavriysk,
334109,UA,14,Rozkishne,
334110,UA,5,Luganske,
334111,UA,7,Khorosheve,
334112,UA,17,Kiliya,
334113,UA,19,Brody,
334114,UA,5,Novokrasnovka,
334115,UA,22,Zalishchyky,
334116,UA,5,ArtÎmovsk,
334117,UA,21,BerÎza,
334118,UA,17,Flora,
334119,UA,6,Mogila,
334120,UA,19,SinÎv,
334121,UA,11,Ogni,
334122,UA,18,Gubarev,
334123,UA,18,Ganzovka,
334124,UA,27,Pervomayskiy,
334125,UA,8,Novooleksiyivka,
334126,UA,14,Bryanka,
334127,UA,7,Korotych,
334128,UA,18,Dikanka,
334129,UA,27,Narodychi,
334130,UA,10,Svitlovodsk,
334131,UA,6,Tysmenytsya,
334132,UA,22,BelozÎrka,
334133,UA,7,Lozova,
334134,UA,27,Lenino,
334135,UA,4,Dniprodzerzhynsk,
334136,UA,22,Kozova,
334137,UA,15,Novoyavorovsk,
334138,UA,7,Groza,
334139,UA,17,Teplodar,
334140,UA,13,Borova,
334141,UA,22,Husyatyn,
334142,UA,14,Perevalsk,
334143,UA,17,Yakovlev,
334144,UA,7,Krasnoarmeyskiy,
334145,UA,4,Bondarev,
334146,UA,22,Yanov,
334147,UA,27,Bobrik,
334148,UA,22,Bychkov,
334149,UA,5,Dmytrivka,
334150,UA,18,Karlivka,
334151,UA,6,Delyatyn,
334152,UA,23,Lipovets,
334153,UA,17,Razdelnaya,
334154,UA,5,Dimitrov,
334155,UA,14,Krasnyy Luch,
334156,UA,7,Bohodukhiv,
334157,UA,9,Netishyn,
334158,UA,17,Reni,
334159,UA,17,Paris,
334160,UA,19,Stepan,
334161,UA,13,Boguslav,
334162,UA,17,Tatarbunary,
334163,UA,5,Shakhtne,
334164,UA,21,Okhtyrka,
334165,UA,1,Lebedyn,
334166,UA,15,Khyriv,
334167,UA,13,Tripolye,
334168,UA,21,Bezdrik,
334169,UA,5,Novoazovsk,
334170,UA,14,Lutugino,
334171,UA,22,Chortkiv,
334172,UA,25,Podgortsy,
334173,UA,22,Berezhany,
334174,UA,8,Tsyurupinsk,
334175,UA,21,Buryn,
334176,UA,11,Nikita,
334177,UA,25,Svyatoslav,
334178,UA,2,Mysy,
334179,UA,7,Zhukovskogo,
334180,UA,17,Shabo,
334181,UA,8,Komyshany,
334182,UA,13,Shkarovka,
334183,UA,5,Morozov,
334184,UA,1,Chornobay,
334185,UA,6,Dolgov,
334186,UA,6,Lugova,
334187,UA,5,Lesnoy,
334188,UA,17,Zorya,
334189,UA,25,Vylok,
334190,UA,15,Truskavets,
334191,UA,14,Starobelsk,
334192,UA,22,Kremenets,
334193,UA,14,Molodogvardeysk,
334194,UA,0,MogilÎv,
334195,UA,17,Yaroslava,
334196,UA,16,Pervomaisk,
334197,UA,27,Jitomir,
334198,UA,7,Borovaya,
334199,UA,15,Shutova,
334200,UA,17,Chigrin,
334201,UA,13,Berezan,
334202,UA,13,Vorzel,
334203,UA,13,Ivankiv,
334204,UA,27,Romanov,
334205,UA,4,Zelenodolsk,
334206,UA,11,Perovo,
334207,UA,9,Borisov,
334208,UA,7,Prokopenko,
334209,UA,4,Kabakov,
334210,UA,14,Shevtsov,
334211,UA,9,Kuzmin,
334212,UA,22,Nosov,
334213,UA,7,Repki,
334214,UA,3,Kelmentsy,
334215,UA,26,Burchak,
334216,UA,27,Ternovka,
334217,UA,7,Stat,
334218,UA,21,Prasolov,
334219,UA,6,Chernov,
334220,UA,25,Khizha,
334221,UA,14,Orekhov,
334222,UA,13,Lutezh,
334223,UA,8,Golaya Pristan,
334224,UA,5,Yasinovataya,
334225,UA,5,Soledar,
334226,UA,22,Svitanok,
334227,UA,27,Ivankov,
334228,UA,7,Dobrovolskiy,
334229,UA,17,Kotovskiy,
334230,UA,22,Zhukov,
334231,UA,14,Gurkin,
334232,UA,14,Rubizhne,
334233,UA,24,Zaborol,
334234,UA,5,Marinka,
334235,UA,23,Krizhopol,
334236,UA,18,Veprik,
334237,UA,3,KiselÎv,
334238,UA,5,Logvinov,
334239,UA,17,Tkachenko,
334240,UA,7,Uspenskiy,
334241,UA,19,Police,
334242,UA,2,Volynskiy,
334243,UA,17,Makarova,
334244,UA,26,Novotroitskoe,
334245,UA,18,Korsun,
334246,UA,13,Kaharlyk,
334247,UA,13,Gostomel,
334248,UA,5,Dzerzhinsk,
334249,UA,7,Solonytsivka,
334250,UA,10,ZelÎnovskiy,
334251,UA,25,Bykov,
334252,UA,6,Voronov,
334253,UA,17,Nove,
334254,UA,26,Volnyansk,
334255,UA,8,Kamysh,
334256,UA,21,Pologi,
334257,UA,7,Stulnevo,
334258,UA,11,NovosÎlovka,
334259,UA,7,Znamenka,
334260,UA,11,Hurzuf,
334261,UA,23,Nemyriv,
334262,UA,5,Ugledar,
334263,UA,15,Dobrostany,
334264,UA,18,Beliki,
334265,UA,25,Yavorov,
334266,UA,6,Horodenka,
334267,UA,19,Obarov,
334268,UA,25,Rakhiv,
334269,UA,23,Orativ,
334270,UA,11,Bospor,
334271,UA,27,Dubovets,
334272,UA,13,Pereyaslav,
334273,UA,11,Kolchugino,
334274,UA,17,Bolhrad,
334275,UA,25,Kisberezna,
334276,UA,27,Goropai,
334277,UA,6,Zabolotiv,
334278,UA,7,Tsirkuny,
334279,UA,26,Voznesenka,
334280,UA,13,Gogolev,
334281,UA,4,Dneprodzherzhinsk,
334282,UA,4,Vilnohirsk,
334283,UA,11,Tolga,
334284,UA,15,Dmitrovich,
334285,UA,18,Buzova,
334286,UA,7,Shirokiy,
334287,UA,23,Kalinovskiy,
334288,UA,15,Savchin,
334289,UA,19,Glinki,
334290,UA,13,Aleksandriya,
334291,UA,26,Bolgrad,
334292,UA,13,Vasilkov,
334293,UA,7,Pervomayskiy,
334294,UA,23,Chernivtsi,
334295,UA,23,Gorodok,
334296,UA,7,Rubizhne,
334297,UA,21,Gorlovka,
334298,UA,4,Kryvyy Rih,
334299,UA,13,Skvyra,
334300,UA,14,Chervonopartizansk,
334301,UA,1,Korsun,
334302,UA,24,Turiysk,
334303,UA,13,Lenino,
334304,UA,8,Kakhovka,
334305,UA,18,Hlobyne,
334306,UA,18,Komsomolsk,
334307,UA,4,Verkhnedneprovsk,
334308,UA,25,Negrovets,
334309,UA,1,Monastyryshche,
334310,UA,14,Belovodsk,
334311,UA,18,Myrhorod,
334312,UA,17,Krasnoarmeysk,
334313,UA,25,Mezhgorye,
334314,UA,11,Gavro,
334315,UA,7,Ostrovskogo,
334316,UA,13,Glevakha,
334317,UA,2,Koryukivka,
334318,UA,18,Dergachi,
334319,UA,5,Konstantinovka,
334320,UA,1,Zhashkiv,
334321,UA,13,Ternovka,
334322,UA,7,Krasnohrad,
334323,UA,6,Bohorodchany,
334324,UA,7,Shishkovka,
334325,UA,7,Pavlovo Pole,
334326,UA,15,Guki,
334327,UA,7,Zalyutino,
334328,UA,13,Kaniv,
334329,UA,22,Zbarazh,
334330,UA,13,Ordzhonikidze,
334331,UA,27,Berezniki,
334332,UA,25,Uzhorod,
334333,UA,20,Laspi,
334334,UA,7,Sinelnikov,
334335,UA,26,Osypenko,
334336,UA,19,Kozin,
334337,UA,14,Rodakovo,
334338,UA,27,Berdichev,
334339,UA,21,Kharkiv,
334340,UA,5,Petrovskoye,
334341,UA,2,Bobrovytsya,
334342,UA,4,Krasny Liman,
334343,UA,27,Irshansk,
334344,UA,19,Radyvyliv,
334345,UA,21,Lebedyn,
334346,UA,5,Kurakhovo,
334347,UA,23,Bar,
334348,UA,22,Soroka,
334349,UA,9,Titkov,
334350,UA,11,Gaspra,
334351,UA,25,Zabrid,
334352,UA,7,Plynaya,
334353,UA,17,Sarata,
334354,UA,22,Pidvolochysk,
334355,UA,15,Rozvadiv,
334356,UA,13,Uzyn,
334357,UA,21,Ulitsa,
334358,UA,16,Golta,
334359,UA,5,Zugres,
334360,UA,11,Nayman,
334361,UA,7,Rubezhnoye,
334362,UA,1,Vatutine,
334363,UA,5,Ukrainsk,
334364,UA,9,Volochisk,
334365,UA,14,Mozhnyakovka,
334366,UA,14,Rovenki,
334367,UA,25,Ilnytsya,
334368,UA,11,Komarovka,
334369,UA,7,Charkow,
334370,UA,25,Solomonovo,
334371,UA,23,Sokolova,
334372,UA,5,Zuhres,
334373,UA,11,Armjansk,
334374,UA,5,Yenakiyevo,
334375,UA,7,Dobropolye,
334376,UA,14,Sverdlovsk,
334377,UA,2,Ichnya,
334378,UA,22,Zboriv,
334379,UA,21,Mironovka,
334380,UA,15,Kalyniv,
334381,UA,14,Svatove,
334382,UA,15,Nadychi,
334383,UA,25,Nove Davydkovo,
334384,UA,21,Lebedin,
334385,UA,23,Sharhorod,
334386,UA,17,Kotovsk,
334387,UA,14,Sukhodolsk,
334388,UA,10,Novomyrhorod,
334389,UA,13,Volodarka,
334390,UA,4,MogilÎv,
334391,UA,4,Lotsmanskaya Kamenka,
334392,UA,16,Voznesensk,
334393,UA,19,Kostopil,
334394,UA,5,Nikiforov,
334395,UA,23,Yakubovskiy,
334396,UA,18,Semenov,
334397,UA,5,Novogrodovka,
334398,UA,27,Chernetskiy,
334399,UA,11,Mikhaylovka,
334400,UA,15,Busk,
334401,UA,14,Novopskov,
334402,UA,7,Donets,
334403,UA,7,Ordovka,
334404,UA,23,Belaya,
334405,UA,21,Putivl,
334406,UA,19,Kvasilov,
334407,UA,4,Novotroitsk,
334408,UA,5,Kharkovskiy,
334409,UA,11,Doroshenko,
334410,UA,13,Oliva,
334411,UA,4,Khmelnitskiy,
334412,UA,4,Mezhova,
334413,UA,25,Aknaszlatina,
334414,UA,25,Pryborzhavske,
334415,UA,11,Viline,
334416,UA,7,Kochetok,
334417,UA,19,Klevan,
334418,UA,18,Popovka,
334419,UA,26,Voyskovoye,
334420,UA,26,Orekhovskiy,
334421,UA,11,Beshuy,
334422,UA,10,Krymki,
334423,UA,25,Seredne,
334424,UA,15,Komarno,
334425,UA,14,ArtÎmovskiy Rayon,
334426,UA,5,Reznikovka,
334427,UA,5,Popov Yar,
334428,UA,5,Yasinovka,
334429,UA,5,Rossadka,
334430,UA,5,Berestovaya,
334431,UA,18,LikhachÎvka,
334432,UA,5,Yakovlevka,
334433,UA,14,Novoastrakhanskoye,
334434,UA,20,Bolshaya Sadovaya,
334435,UA,4,Taramskoye,
334436,UA,4,Diyevka,
334437,UA,15,Stankovtsy,
334438,UA,22,Bozhikov,
334439,UA,19,Korpiluvka,
334440,UA,15,Tatariniv,
334441,UA,7,Nova Vodolaha,
334442,UA,5,Kamyshevka,
334443,UA,5,Gorbakonevka,
334444,UA,8,Kopani,
334445,UA,17,Vinogradar,
334446,UA,26,Baburka,
334447,UA,14,Kovalev,
334448,UA,13,Novye Petrovtsy,
334449,UA,1,Katerinopol,
334450,UA,17,Deribasovka,
334451,UA,23,Bershad,
334452,UA,22,Kopychyntsi,
334453,UA,19,Berezne,
334454,UA,15,Olesko,
334455,UA,5,Shcherbinovskiy,
334456,UA,14,Beloye,
334457,UA,26,Avgustinovka,
334458,UA,26,Georgiyevskiy,
334459,UA,25,Strabychovo,
334460,UA,26,Ivanovsk,
334461,UA,7,Mokhnachi,
334462,UA,19,Ivashchuki,
334463,UA,19,Zhornuv,
334464,UA,5,Mikhaylovskiy,
334465,UA,4,Kamennoye,
334466,UA,3,Kochurov,
334467,UA,5,Maya,
334468,UA,9,Khmelnytskyy,
334469,UA,10,Znamenka,
334470,UA,9,Yarmolyntsi,
334471,UA,14,Slavyanoserbsk,
334472,UA,19,Kostopol,
334473,UA,10,Rivne,
334474,UA,22,Velikiy,
334475,UA,19,BerÎzno,
334476,UA,7,Mala Danylivka,
334477,UA,5,Pervomaysk,
334478,UA,8,Kalanchak,
334479,UA,6,Oleshiv,
334480,UA,5,Lozovskoy,
334481,UA,8,Bilozerka,
334482,UA,4,Illarionovo,
334483,UA,17,Kandel,
334484,UA,5,Liman,
334485,UA,25,Vorochevo,
334486,UA,5,Volodarskoye,
334487,UA,13,Kalita,
334488,UA,5,Khutor Zayachiy,
334489,UA,15,Volya Dobrostanska,
334490,UA,15,Khishevichi,
334491,UA,14,Dmitrovka,
334492,UA,19,Kamenitsa,
334493,UA,23,Katsmaziv,
334494,UA,11,Kolodeznoye,
334495,UA,13,Yablonka,
334496,UA,13,Pukhovka,
334497,UA,21,Nyzy,
334498,UA,21,Kuyanivka,
334499,UA,8,Dmitrenko,
334500,UA,18,Ostapenko,
334501,UA,22,Meshkov,
334502,UA,7,Kolomak,
334503,UA,7,Sheludkovka,
334504,UA,13,Zavorichi,
334505,UA,22,Borshchiv,
334506,UA,17,Serbka,
334507,UA,11,Simeiz,
334508,UA,6,Tlumach,
334509,UA,5,Markovo,
334510,UA,13,Litvinovka,
334511,UA,4,Strukovka,
334512,UA,5,Novoselovka Vtoraya,
334513,UA,5,Izmaylovka,
334514,UA,17,Oleksandrivka,
334515,UA,7,Butov,
334516,UA,11,Avrora,
334517,UA,17,Usatove,
334518,UA,7,Berezivka,
334519,UA,9,Dunayivtsi,
334520,UA,9,Konotopy,
334521,UA,23,Ladyzhyn,
334522,UA,5,Manhush,
334523,UA,27,Morozovka,
334524,UA,23,Kuna,
334525,UA,22,Terebovlya,
334526,UA,25,Perechin,
334527,UA,22,Komsomolske,
334528,UA,18,Stasi,
334529,UA,8,Beryslav,
334530,UA,7,Donetskiy,
334531,UA,4,Debaltsevo,
334532,UA,7,Liman,
334533,UA,14,Zorinsk,
334534,UA,5,Imeni Kirova,
334535,UA,4,Preobrazhenka,
334536,UA,7,KrushchÎvaya Nikitovka,
334537,UA,11,Bogatoye Ushchelye,
334538,UA,13,Kozhukhovka,
334539,UA,5,Aleksandrogrigoryevka,
334540,UA,5,Guselskoivanovskiy,
334541,UA,26,Turgenevka,
334542,UA,26,Yulyevka,
334543,UA,5,Umanskiy,
334544,UA,15,German,
334545,UA,5,Markin,
334546,UA,17,Michurina,
334547,UA,21,Dolgiy,
334548,UA,27,VasilÎvka,
334549,UA,6,Zalukva,
334550,UA,22,Dubivtsi,
334551,UA,15,Solonka,
334552,UA,2,Buda,
334553,UA,26,Pryazovske,
334554,UA,18,Vasilivka,
334555,UA,7,Kommunist,
334556,UA,17,Slobidka,
334557,UA,23,Sutysky,
334558,UA,13,Trebukhiv,
334559,UA,17,Savran,
334560,UA,15,Mostyska,
334561,UA,27,Levkov,
334562,UA,25,Vynohradiv,
334563,UA,18,Reshetylivka,
334564,UA,25,Batar,
334565,UA,16,Kavkaz,
334566,UA,5,Chasov Yar,
334567,UA,14,Tarasovka,
334568,UA,14,Serdyukovka,
334569,UA,5,Razdolevka,
334570,UA,26,Neykron,
334571,UA,26,Vovniga,
334572,UA,4,Derezovatka,
334573,UA,4,Dorogoy,
334574,UA,5,Mareyka,
334575,UA,5,Shirokaya Balka,
334576,UA,22,Melnik,
334577,UA,5,Kalinin,
334578,UA,23,Lopatin,
334579,UA,7,Kupin,
334580,UA,7,Komsomolets,
334581,UA,5,KhanzhÎnkovo,
334582,UA,18,Krasnogorovka,
334583,UA,5,Uglegorsk,
334584,UA,14,Krasnogvardeyskiy,
334585,UA,13,Makarov,
334586,UA,3,Sergii,
334587,UA,11,Putilovka,
334588,UA,25,Popove,
334589,UA,23,Tulchin,
334590,UA,5,Donskoye,
334591,UA,27,Novoselitsa,
334592,UA,5,Snizhne,
334593,UA,18,Kobelyaky,
334594,UA,13,Bezradichi,
334595,UA,1,Petropavlovka,
334596,UA,7,Barvinkove,
334597,UA,26,Balabino,
334598,UA,22,Mikulintsy,
334599,UA,7,Huty,
334600,UA,7,Staroverovka,
334601,UA,4,Ternovka,
334602,UA,25,Velikiy BerÎznyy,
334603,UA,15,Vizhomlya,
334604,UA,23,Khmelnik,
334605,UA,16,FÎdorovka,
334606,UA,15,Bojaniec,
334607,UA,5,Severnyy Rudnik,
334608,UA,5,Voronoy,
334609,UA,4,Sukhokalinovskiy,
334610,UA,7,Mikhaylovka Vtoraya,
334611,UA,5,Korsun,
334612,UA,22,Zalestsy,
334613,UA,7,Kolesnikov,
334614,UA,22,Sidorov,
334615,UA,17,Tuchkov,
334616,UA,26,Pyatikhatki,
334617,UA,10,Petrova,
334618,UA,11,Zhukova,
334619,UA,7,Saltovka,
334620,UA,6,Viktorov,
334621,UA,2,Chernysh,
334622,UA,16,SnegirÎvka,
334623,UA,17,Zastava,
334624,UA,5,Petrenko,
334625,UA,13,Lipovets,
334626,UA,11,Pervomayskoye,
334627,UA,25,Chornotysiv,
334628,UA,14,Popasnaya,
334629,UA,16,Veselynove,
334630,UA,7,Davydovka,
334631,UA,18,Dykanka,
334632,UA,5,Mospyne,
334633,UA,19,Manevichi,
334634,UA,3,Snyatyn,
334635,UA,4,Sofiyivka,
334636,UA,13,GrebÎnki,
334637,UA,2,Kozelets,
334638,UA,5,Tsukurino,
334639,UA,8,Chaplynka,
334640,UA,4,Kirovskoye,
334641,UA,5,Amvrosiyivka,
334642,UA,22,Budilov,
334643,UA,15,Polnichna,
334644,UA,14,Uspenka,
334645,UA,14,Preobrazhenka,
334646,UA,4,Adamovka,
334647,UA,8,Podokalinovka,
334648,UA,11,Kumbeteli,
334649,UA,5,Pyatipolye,
334650,UA,13,Sosnivka,
334651,UA,21,Glukhov,
334652,UA,27,Chopovichi,
334653,UA,11,KovalÎvka,
334654,UA,18,Semenivka,
334655,UA,15,Gorokhov,
334656,UA,1,Chyhyryn,
334657,UA,19,Selo,
334658,UA,1,Moshny,
334659,UA,15,Poturzyca,
334660,UA,5,Bozhkovka,
334661,UA,14,Glubokiy,
334662,UA,5,Orlovka,
334663,UA,4,Khutorskoye,
334664,UA,13,Glubokoye,
334665,UA,7,Utkivka,
334666,UA,4,Kurilovka,
334667,UA,13,Borodjanka,
334668,UA,1,Smela,
334669,UA,13,KanÎv,
334670,UA,7,Timchenko,
334671,UA,21,Knyazhichi,
334672,UA,2,Nosivka,
334673,UA,25,Serne,
334674,UA,25,Olshany,
334675,UA,17,Dofinovka,
334676,UA,1,Palanka,
334677,UA,21,Druzhba,
334678,UA,6,Galich,
334679,UA,21,TÎrny,
334680,UA,15,Sokilnyky,
334681,UA,15,Dublyany,
334682,UA,5,Komsomolets,
334683,UA,18,Vysokaya Vakulovka,
334684,UA,16,Lupareve,
334685,UA,14,Prishib,
334686,UA,11,Gelenoye,
334687,UA,11,Audzhikoy,
334688,UA,13,Nisshayadubechnya,
334689,UA,25,Chepa,
334690,UA,15,Zhvirka,
334691,UA,18,Zinkiv,
334692,UA,26,Mykhaylivka,
334693,UA,11,Novyy Otarchik,
334694,UA,23,Kalynivka,
334695,UA,25,Nizhni Koropets,
334696,UA,5,Klinovoye,
334697,UA,26,Lobkavo,
334698,UA,4,Lyubimovka,
334699,UA,14,Novosirotino,
334700,UA,22,Antonovtse,
334701,UA,4,Tomakivka,
334702,UA,11,Belogorsk,
334703,UA,27,Stanishovka,
334704,UA,15,Hora,
334705,UA,22,Podvolochisk,
334706,UA,26,Khortitsa,
334707,UA,5,Skelevoy,
334708,UA,22,Borsuky,
334709,UA,27,Krinichki,
334710,UA,5,Panteleimonowka,
334711,UA,5,Chazepetowka,
334712,UA,5,Krivorotovka,
334713,UA,6,Dolyna,
334714,UA,7,Balki,
334715,UA,15,Remeniv,
334716,UA,6,Svistelniki,
334717,UA,18,Khorol,
334718,UA,17,Dalnik,
334719,UA,4,Dneprovsk,
334720,UA,4,Zhovti Vody,
334721,UA,5,Uritskiye,
334722,UA,26,Tymoshivka,
334723,UA,4,Bykovo,
334724,UA,7,Shmarovka,
334725,UA,8,Nikolaevka,
334726,UA,27,Novoaleksandrovka,
334727,UA,19,Simonov,
334728,UA,21,Litovka,
334729,UA,27,Golovin,
334730,UA,11,Feodosija,
334731,UA,5,Voykova,
334732,UA,13,Bohuslav,
334733,UA,17,Ananyev,
334734,UA,26,Nikolayevka,
334735,UA,22,Dobrovody,
334736,UA,13,Dudarkov,
334737,UA,19,Novy Krayuv,
334738,UA,7,Kalinovka,
334739,UA,5,Telmanovo,
334740,UA,3,Budenets,
334741,UA,4,Dneprodsershinsk,
334742,UA,5,Krasnyy Pakhar,
334743,UA,1,Tinki,
334744,UA,25,Dertsen,
334745,UA,22,Tarnopol,
334746,UA,7,Novonikolayevka,
334747,UA,6,Yasen,
334748,UA,5,Panteleymonovka,
334749,UA,1,Ratsevo,
334750,UA,4,Berezanovka,
334751,UA,8,Chernigovka,
334752,UA,1,Vilshany,
334753,UA,15,Batyatychi,
334754,UA,5,Belogorovka,
334755,UA,14,Lyuksemburg,
334756,UA,16,Kirovo,
334757,UA,17,Fontanka,
334758,UA,15,Velikopolye,
334759,UA,21,Ruda,
334760,UA,5,Krinichnaya,
334761,UA,21,Bilopillya,
334762,UA,14,Glotov,
334763,UA,13,Kopylov,
334764,UA,6,Ivanofrankovsk,
334765,UA,13,Kotsyubinskogo,
334766,UA,21,Khreshchatik,
334767,UA,16,Yelanets,
334768,UA,17,Rozdilna,
334769,UA,19,Novoselki Novocheshskiye,
334770,UA,6,Lipitsa Gurna,
334771,UA,17,Yuzhne,
334772,UA,22,Yahilnytsya,
334773,UA,15,Staryy Sambir,
334774,UA,26,Konechnyy,
334775,UA,23,Kalinovka,
334776,UA,14,Fromandirovka,
334777,UA,4,Mironovka,
334778,UA,7,Brailovka,
334779,UA,13,Trostyanets,
334780,UA,3,Storozhinets,
334781,UA,11,Voron,
334782,UA,5,Stroitel,
334783,UA,7,Krasnograd,
334784,UA,17,Borodavka,
334785,UA,11,Eupatoria,
334786,UA,15,Zamok,
334787,UA,22,Koropets,
334788,UA,23,Lityn,
334789,UA,7,Vysokyy,
334790,UA,2,Gorodnya,
334791,UA,5,Berezovskiy,
334792,UA,25,Bushtyno,
334793,UA,2,Borzna,
334794,UA,11,Novoyemelyanovka,
334795,UA,7,Borova,
334796,UA,26,Pidgirne,
334797,UA,7,Baranova,
334798,UA,27,Yurovka,
334799,UA,13,Tripillya,
334800,UA,6,Yavoriv,
334801,UA,10,Turiya,
334802,UA,7,Konstantovka,
334803,UA,20,Duvankoy,
334804,UA,7,Cherkasskaya,
334805,UA,18,Shishaki,
334806,UA,13,Pogreby,
334807,UA,1,Drabiv,
334808,UA,5,Skotovataya,
334809,UA,6,Kuty,
334810,UA,11,BerÎzovka,
334811,UA,25,Nevitske,
334812,UA,21,Svessa,
334813,UA,4,Yalta,
334814,UA,15,Murovane,
334815,UA,17,Tayirove,
334816,UA,1,Chervona Sloboda,
334817,UA,9,Rudno,
334818,UA,12,Kiev,
334819,UA,26,Lugansk,
334820,UA,12,Kiyiv,
334821,UA,3,Kreshchatik,
334822,UA,5,Artemovsk,
334823,UA,11,Zheleznodorozhnoye,
334824,UA,8,Pobeda,
334825,UA,26,Liski,
334826,UA,18,Levanevskogo,
334827,UA,11,Marta,
334828,UA,15,Berlin,
334829,UA,24,Rovno,
334830,UA,1,Timoshevka,
334831,UA,8,Zarya,
334832,UA,24,Vladimir,
334833,UA,12,Zhulyany,
334834,UA,27,Gorodok,
334835,UA,6,Petrov,
334836,UA,12,Teremki,
334837,UA,15,Nemirov,
334838,UA,11,Timoshenko,
334839,UA,4,Osadchiy,
334840,UA,15,Sereda,
334841,UA,2,Belous,
334842,UA,3,Kiselev,
334843,UA,15,Svyatoslav,
334844,UA,24,Romanov,
334845,UA,5,Shakhtersk,
334846,UA,5,Koshelev,
334847,UA,12,Svyatoshino,
334848,UA,5,Khanzhenkovo,
334849,UA,16,Snegirevka,
334850,UA,1,Kanev,
334851,UA,12,Bortnichi,
334852,UA,27,Polevaya,
334853,UA,12,Kotsyubinskogo,
334854,UA,1,Kaniv,
334855,UA,12,Kyyiv,
334856,UA,14,Artemovskiy Rayon,
334857,UA,2,Tschernigow,
334858,UA,13,Predmestye Zarechye,
334859,UA,10,Taburishche,
334860,UA,18,Avtozavodskiy Rayon,
334861,UA,11,Zamostye,
334862,UA,27,Vasilevka,
334863,UA,5,Gorki,
334864,UA,11,Bospora,
334865,UA,4,Kulebovka,
334866,UA,5,Znamenka,
334867,UA,11,Kovalevka,
334868,UA,22,Dzvinogorod An Der Strypa,
334869,UA,11,Ilichevskoye,
334870,UA,26,Dneprovsk,
334871,UA,18,Gorishni,
334872,UA,23,–ù–ï–°–¢–ï–†–í–ê–†–ö–ê,
334873,UA,15,Brody,
334874,UA,14,Parizhskaya Kommuna,
334875,UA,5,Kuznetsovka,
334876,UA,7,Ozeryanka,
334877,UA,23,Barskiye Chemerisy,
334878,UA,1,Trostyanets,
334879,UA,11,Perove,
334880,UA,21,Terny,
334881,UA,2,Oster,
334882,UA,5,Khutor Novonikolayevskiy,
334883,UA,13,Babintsy,
334884,UA,24,Novovolynsk,
334885,UA,8,Yarmaki,
334886,UA,11,Katsivel,
334887,UA,11,Alupka,
334888,UA,7,Butovka,
334889,UA,6,Babintsy,
334890,UA,2,Desna,
334891,UA,14,Novouspenka,
334892,UA,15,Bartativ,
334893,UA,22,Dolge,
334894,UA,17,Birzula,
334895,UA,11,Danilovka,
334896,UA,11,Ayvazovskaya,
334897,UA,4,Mogilev,
334898,UA,11,Kertch,
334899,UA,12,Poselok Svyatoshino,
334900,UA,12,Darnitsa,
334901,UA,14,Artemovsk,
334902,UA,19,Tynne,
334903,UA,22,Shibalin,
334904,UA,15,Rudno,
334905,UA,22,Dorokhov,
334906,UA,15,Toporov,
334907,UA,5,Zhdanov,
334908,UA,15,Bykova,
334909,UA,18,Davydov,
334910,UA,5,Belaya Gora,
334911,UA,15,Kulykiv,
334912,UA,6,Yaremche,
334913,UA,12,Berkovets,
334914,UA,26,Luganske,
334915,UA,3,Babin,
334916,UA,23,Illintsi,
334917,UA,12,Kurenevka,
334918,UA,23,Pechera,
334919,UA,25,Velikiy Bychkov,
334920,UA,3,Verenchanka,
334921,UA,13,Kachaly,
334922,UA,27,Ovruch,
334923,UA,8,Genichesk,
334924,UA,4,Prosyana,
334925,UA,15,Gorodok,
334926,UA,3,Novoselytsya,
334927,UA,15,Sarny,
334928,UA,14,Engelsovo,
334929,UA,3,Hlyboka,
334930,UA,14,Miusinsk,
334931,UA,6,Bolshovtsy,
334932,UA,5,Nikolaevka,
334933,UA,4,Vesele,
334934,UA,5,Dokuchayevsk,
334935,UA,13,Chernyakhov,
334936,UA,4,Pershotravensk,
334937,UA,22,Ostriv,
334938,UA,7,Izyum,
334939,UA,27,Ruzhyn,
334940,UA,8,Radensk,
334941,UA,11,Kirovske,
334942,UA,0,Mogilev,
334943,UA,5,Dolya,
334944,UA,14,Pavlogradskiy,
334945,UA,12,Kyiv,
334946,UA,11,Sokol,
334947,UA,13,Kotsyubynske,
334948,UA,23,Yaroshenko,
334949,UA,11,SnegirÎvka,
334950,UA,1,KanÎv,
334951,UA,2,Polissya,
334952,UA,2,Klochkov,
334953,UA,23,Chernevtsy,
334954,UA,12,PosÎlok Svyatoshino,
334955,UA,11,Aleksandrovka,
334956,UA,11,Kuybysheve,
334957,UA,7,Rogan,
334958,UA,23,Mikulintsy,
334959,UA,7,Chervonyy Donets,
334960,UA,21,Kamyanka,
334961,UA,11,Novofedorovka,
334962,UA,11,Knet,
334963,UA,5,Voroshilovskiy,
334964,UA,23,Teplyk,
334965,UA,7,Budy,
334966,UA,25,Keretski,
334967,UA,15,Skole,
334968,UA,11,Koktebel,
334969,UA,6,Kosiv,
334970,UA,26,Glubokaya Krinitsa,
334971,UA,15,Kotovaniya,
334972,UA,22,Khorostkiv,
334973,UA,11,Denisovka,
334974,UA,15,Stary Sambor,
334975,UA,7,Dubovka,
334976,UA,10,Dolinskaya,
334977,UA,5,Grodovka,
334978,UA,14,Irmino,
334979,UA,7,Krasnokutsk,
334980,UA,8,Darevka,
334981,UA,11,Mangush,
334982,UA,22,Dobropole,
334983,UA,11,Rechnoye,
334984,UA,13,Hostomel,
334985,UA,6,Ivanofrankivsk,
334986,UA,7,Bezlyudivka,
334987,UA,11,Staryy Krym,
334988,UA,11,Rybache,
334989,UA,5,Starobesheve,
334990,UA,5,Rodinskoye,
334991,UA,6,Golyn,
334992,UA,6,Snyatyn,
334993,UA,4,Pereshepino,
334994,UA,11,Suvorovo,
334995,UA,7,Liptsi,
334996,UA,5,Granitnoye,
334997,UA,7,Staryy Saltiv,
334998,UA,19,Zelin,
334999,UA,26,Krymskiy,
335000,UA,11,Krasnokamenka,
335001,UA,13,Pereyaslavkhmelnytskyy,
335002,UA,13,Demidov,
335003,UA,4,Vodyano,
335004,UA,7,Blyznyuky,
335005,UA,16,Chornomorka,
335006,UA,7,Akimovka,
335007,UA,10,Pomichna,
335008,UA,25,Solotvyno,
335009,UA,11,Shchebetovka,
335010,UA,27,Maryanovka,
335011,UA,13,Guta,
335012,UA,27,Popelnya,
335013,UA,11,Ruske,
335014,UA,5,Yenakiyeve,
335015,UA,14,Georgiyevka,
335016,UA,13,Salivonki,
335017,UA,19,Ilpin,
335018,UA,11,Klepinino,
335019,UA,8,Belogorskiy,
335020,UA,23,Khmilnyk,
335021,UA,17,Polyanetske,
335022,UA,11,Petrovka,
335023,UA,13,Pidgirtsi,
335024,UA,26,Lunacharskoye,
335025,UA,17,Roylyanka,
335026,UA,25,Lokhovo,
335027,UA,20,Akhiar,
335028,UA,4,Pavlograd,
335029,UA,18,Globino,
335030,UA,25,Vilok,
335031,UA,19,Ostrog,
335032,UA,11,Bakhchisaray,
335033,UA,23,Teplik,
335034,UA,2,Nizhin,
335035,UA,5,Gorlovka,
335036,UA,16,Ochakov,
335037,UA,9,Krasilov,
335038,UA,21,Schostka,
335039,UA,12,Kiew,
335040,UA,13,Obukhov,
335041,UA,25,Beregsz·sz,
335042,UA,9,Starokonstantinov,
335043,UA,7,Balakleya,
335044,UA,5,Starobeshevo,
335045,UA,12,KijÛw,
335046,UA,9,Shepetovka,
335047,UA,7,Novaya Vodolaga,
335048,UA,7,Zmiev,
335049,UA,7,Valki,
335050,UA,15,Stebnik,
335051,UA,12,Kiyev,
335052,UA,7,Kulinichi,
335053,UA,7,Bliznyuki,
335054,UA,7,Stary Saltov,
335055,UA,15,LwÛw,
335056,UA,25,Solotvino,
335057,UA,13,Uzin,
335058,UA,25,Csap,
335059,UA,22,Zborov,
335060,UA,27,Motovilovka,
335061,UA,23,Gaysin,
335062,UA,23,Zhmerinka,
335063,UA,17,Odesa,
335064,UA,10,Golovanevsk,
335065,UA,8,Cherson,
335066,UA,6,Voskresyntsi,
335067,UA,11,Poshtove,
335068,UA,7,Zolochev,
335069,UA,5,Sofievka,
335070,UA,27,Belilovka,
335071,UA,5,Ivchenko,
335072,UA,11,Nizhnegorskiy,
335073,UA,7,Barvenkovo,
335074,UA,15,Sukhovolya,
335075,UA,7,Kirillovka,
335076,UA,13,Voronkov,
335077,UA,25,Berehovo,
335078,UA,15,Turka,
335079,UA,4,Apostolovo,
335080,UA,5,Yasnaya Gorka,
335081,UA,17,Petrodolinskoye,
335082,UA,22,Zbaraz,
335083,UA,11,Gurzuf,
335084,UA,19,Mizoch,
335085,UA,17,Bolshoy Dalnik,
335086,UA,13,KovalÎvka,
335087,UA,4,Krivoy Rog,
335088,UA,14,Gorskoye,
335089,UA,19,Rovno,
335090,UA,9,Dunaivtsi,
335091,UA,13,Ukrainka,
335092,UA,3,Glyboka,
335093,UA,13,Slavutych,
335094,UA,18,Kobelyaki,
335095,UA,10,Kompaniyivka,
335096,UA,5,BelozÎrskoye,
335097,UA,11,Bagerovo,
335098,UA,26,Pervomayskiy,
335099,UA,22,Gusyatin,
335100,UA,3,Sokyryany,
335101,UA,14,Krasny Luch,
335102,UA,13,Motovilovka,
335103,UA,8,Chaplinka,
335104,UA,2,Dymarka,
335105,UA,10,ZelÎnaya,
335106,UA,5,Pokrovskoye,
335107,UA,5,Krasnogorovka,
335108,UA,5,Slovyansk,
335109,UA,9,Kamelnitskiy,
335110,UA,15,Konev,
335111,UA,11,Shevchenkovo,
335112,UA,26,Aleksandrovsk,
335113,UA,2,Bakhmach,
335114,UA,13,Khotov,
335115,UA,23,Tulchyn,
335116,UA,23,Kryzhopol,
335117,UA,18,Oposhnya,
335118,UA,27,Radomishl,
335119,UA,23,Britovka,
335120,UA,4,Vasilkovka,
335121,UA,5,Belitskoye,
335122,UA,10,Nova Praha,
335123,UA,3,Novoselitsa,
335124,UA,7,Lyubotin,
335125,UA,7,Molodovaya,
335126,UA,20,Balaklava,
335127,UA,11,Luganskoye,
335128,UA,12,KurenÎvka,
335129,UA,9,Tsvetokha,
335130,UA,15,Utishkiv,
335131,UA,23,Rososha,
335132,UA,14,Syeverodonetsk,
335133,UA,11,Orekhovo,
335134,UA,25,Hut,
335135,UA,22,Lishnya,
335136,UA,11,Vitino,
335137,UA,25,Ungvar,
335138,UA,21,Belopolye,
335139,UA,1,Neterebka,
335140,UA,14,Kolyadovka,
335141,UA,15,Staryy Yarychiv,
335142,UA,25,V·ri,
335143,UA,15,Kamenopol,
335144,UA,26,Bogdanov,
335145,UA,11,Kashtany,
335146,UA,17,Belgoroddnestrovskiy,
335147,UA,9,Kuzmyn,
335148,UA,13,Tetiyiv,
335149,UA,1,Vatutino,
335150,UA,26,Belogorye,
335151,UA,22,Pochayiv,
335152,UA,3,Berehomet,
335153,UA,14,Zolotoye,
335154,UA,6,Obelnitsa,
335155,UA,14,Krasnyy,
335156,UA,25,Tiszaujlak,
335157,UA,23,Litin,
335158,UA,1,Cherkassi,
335159,UA,21,Horlivka,
335160,UA,11,Horlivka,
335161,UA,25,Oleshnik,
335162,UA,27,Andrushovka,
335163,UA,5,Mospino,
335164,UA,15,Sambor,
335165,UA,18,Reshetilovka,
335166,UA,6,Rogatin,
335167,UA,6,Karlov,
335168,UA,14,Bayrachki,
335169,UA,25,Teresva,
335170,UA,7,Rohan,
335171,UA,5,Krasnoarmiysk,
335172,UA,13,Peskovka,
335173,UA,1,Bogushkova,
335174,UA,24,Kulchin,
335175,UA,4,Lozuvatka,
335176,UA,13,Martusivka,
335177,UA,4,Tomakovka,
335178,UA,13,Yagotin,
