locId,country,region,city,postcode
393511,VE,,,
393512,VE,25,Caracas,
393513,VE,7,Valencia,
393514,VE,16,Maturín,
393515,VE,26,Maiquetía,
393516,VE,11,Punto Fijo,
393517,VE,17,Pampatar,
393518,VE,6,Puerto Ordaz,
393519,VE,1,Puerto La Cruz,
393520,VE,26,La Guaira,
393521,VE,13,Barquisimeto,
393522,VE,11,Coro,
393523,VE,23,Maracaibo,
393524,VE,21,Valera,
393525,VE,17,Porlamar,
393526,VE,15,Los Teques,
393527,VE,4,Maracay,
393528,VE,16,Torre,
393529,VE,7,Miranda,
393530,VE,6,Puerto,
393531,VE,11,Santa Fe,
393532,VE,3,Lara,
393533,VE,14,Mérida,
393534,VE,19,Cumaná,
393535,VE,2,Lecheria,
393536,VE,3,Londres,
393537,VE,25,Sabana Grande,
393538,VE,16,Caripe,
393539,VE,20,San Cristóbal,
393540,VE,18,Acarigua,
393541,VE,2,Barcelona,
393542,VE,16,Caripito,
393543,VE,7,Puerto Cabello,
393544,VE,2,El Tigre,
393545,VE,15,Guarenas,
393546,VE,22,San Felipe,
393547,VE,13,Anzoátegui,
393548,VE,22,Chivacoa,
393549,VE,6,Ciudad Bolívar,
393550,VE,11,La Cruz,
393551,VE,22,Yaritagua,
393552,VE,7,Bejuma,
393553,VE,5,Flor Amarillo,
393554,VE,22,Carabobo,
393555,VE,4,La Victoria,
393556,VE,13,Cabudare,
393557,VE,23,Curacao,
393558,VE,18,Guanare,
393559,VE,4,Cagua,
393560,VE,20,El Rosal,
393561,VE,1,Solano,
393562,VE,13,La Verdad,
393563,VE,2,Monte Cristo,
393564,VE,22,El Chorro,
393565,VE,18,María,
393566,VE,7,San Joaquín,
393567,VE,4,Vargas,
393568,VE,21,La Urbina,
393569,VE,11,La Castellana,
393570,VE,11,Caja De Agua,
393571,VE,5,Barinas,
393572,VE,15,Los Ruices,
393573,VE,7,Las Lomas,
393574,VE,15,San Antonio De Los Altos,
393575,VE,23,Cabimas,
393576,VE,6,Ciudad Guayana,
393577,VE,14,Ejido,
393578,VE,15,La Dolorita,
393579,VE,15,Charallave,
393580,VE,15,Baruta,
393581,VE,13,Los Rastrojos,
393582,VE,15,Petare,
393583,VE,15,Cúa,
393584,VE,14,Muchuntuy,
393585,VE,15,Carrizal,
393586,VE,15,Santa Teresa,
393587,VE,15,Caucaguita,
393588,VE,23,Ciudad Ojeda,
393589,VE,23,Santa Rita,
393590,VE,11,San Fernando,
393591,VE,4,Turmero,
393592,VE,7,Güigüe,
393593,VE,22,Nirgua,
393594,VE,4,Palo Negro,
393595,VE,7,Guacara,
393596,VE,8,San Carlos,
393597,VE,7,San Diego,
393598,VE,22,Cocorote,
393599,VE,13,Quíbor,
393600,VE,21,Trujillo,
393601,VE,20,San Juan De Colón,
393602,VE,26,Catia La Mar,
393603,VE,13,Los Naranjos,
393604,VE,20,Táriba,
393605,VE,13,Chupa La Flor,
393606,VE,19,Carúpano,
393607,VE,2,Anaco,
393608,VE,21,Santiago,
393609,VE,2,Cruz De Topocual,
393610,VE,2,Pamatacual,
393611,VE,12,Zaraza,
393612,VE,2,Corocita,
393613,VE,2,Cantaura,
393614,VE,19,Morocoto,
393615,VE,19,Puerto Escondido,
393616,VE,19,Guayana,
393617,VE,2,San José De Guanipa,
393618,VE,19,Valle Grande,
393619,VE,19,Monagal,
393620,VE,16,Río Alegre,
393621,VE,17,Juangriego,
393622,VE,17,Los Romero,
393623,VE,16,La Pega,
393624,VE,16,Mata Negra,
393625,VE,11,San Félix,
393626,VE,11,Píritu,
393627,VE,16,Casa Punta Gorda,
393628,VE,16,Isla Mata De Plátano,
393629,VE,16,Punta De Mata,
393630,VE,8,Tinaquillo,
393631,VE,7,Mariara,
393632,VE,14,Mesa De Moreno,
393633,VE,5,Barinitas,
393634,VE,20,La Amarilla,
393635,VE,20,Los Leónes,
393636,VE,5,La Escasez,
393637,VE,14,El Vigía,
393638,VE,23,Lagunillas,
393639,VE,15,Guatire,
393640,VE,4,El Limón,
393641,VE,11,La Tónica,
393642,VE,16,El Guacharo,
393643,VE,2,Bajo Redondo,
393644,VE,19,Corral Viejo,
393645,VE,15,El Hatillo,
393646,VE,7,Tacarigua,
393647,VE,13,Londres,
393648,VE,13,El Tocuyo,
393649,VE,14,El Churao,
393650,VE,14,La Isla,
393651,VE,14,Apartadero,
393652,VE,12,San Juan De Los Morros,
393653,VE,17,Fuente Dueñas,
393654,VE,7,Naguanagua,
393655,VE,11,Montañita Abajo,
393656,VE,12,Calabozo,
393657,VE,4,La Pavona,
393658,VE,13,Sahoa,
393659,VE,14,Los Pinos,
393660,VE,14,La Asomada,
393661,VE,11,El Tapón,
393662,VE,18,Araure,
393663,VE,21,Santiago De Trujillo,
393664,VE,14,Refugio Universidad De Los Andes,
393665,VE,14,Micarache,
393666,VE,18,Villa Bruzual,
393667,VE,12,Valle De La Pascua,
393668,VE,15,El Cafetal,
393669,VE,4,Villa De Cura,
393670,VE,4,San Mateo,
393671,VE,11,El Callao,
393672,VE,13,Los Gavilanes,
393673,VE,20,San Antonio Del Táchira,
393674,VE,6,La Peluca,
393675,VE,25,El Valle,
393676,VE,13,Los Taturos,
393677,VE,26,Petaquire,
393678,VE,15,Ocumare Del Tuy,
393679,VE,7,Morón,
393680,VE,15,Chacao,
393681,VE,13,Carora,
393682,VE,21,Pampán,
393683,VE,23,Villa Del Rosario,
393684,VE,19,Guacarapo,
393685,VE,17,La Asunción,
393686,VE,6,Upata,
393687,VE,16,Las Marías,
393688,VE,16,El Zumbador,
393689,VE,2,Guaipo,
393690,VE,2,Los Camejos,
393691,VE,16,Los Gonzalez,
393692,VE,11,Socopo,
393693,VE,8,Higuerote,
393694,VE,2,Puerto Píritu,
393695,VE,5,Miradores,
393696,VE,11,Santa Bárbara,
393697,VE,13,San Felipe,
393698,VE,14,Las Vegas,
393699,VE,22,La Perdomera,
393700,VE,11,Corralito,
393701,VE,23,La Cooperativa,
393702,VE,12,Mata,
393703,VE,11,Guaguana,
393704,VE,23,Bolívar,
393705,VE,6,Las Arguacas,
393706,VE,20,Tachira,
393707,VE,7,Tocuyito,
393708,VE,20,Rubio,
393709,VE,3,Guasdualito,
393710,VE,11,San Antonio,
393711,VE,2,Guanta,
393712,VE,13,El Sierral,
393713,VE,11,Meseta De Santa Clara,
393714,VE,18,El Hato,
393715,VE,14,La Caña,
393716,VE,16,Caripe Viejo,
393717,VE,23,El Jajatal,
393718,VE,17,La Vecindad,
393719,VE,16,La Cadena,
393720,VE,14,Gavidia,
393721,VE,14,Bailadores,
393722,VE,14,El Pantano,
393723,VE,14,Huesca,
393724,VE,14,Morro Los Colorados,
393725,VE,14,Los Frailes,
393726,VE,16,Hato Macaure,
393727,VE,13,Las Carras,
393728,VE,14,Casa Gobierno,
393729,VE,14,Rodezno,
393730,VE,2,Oficina,
393731,VE,6,Matanza,
393732,VE,14,Mesa Redonda,
393733,VE,99,El Lirial,
393734,VE,20,La Ciénega,
393735,VE,2,Castillero,
393736,VE,11,El Tigrito,
393737,VE,19,Tijitiji,
393738,VE,14,Mucurubá,
393739,VE,23,La Bola,
393740,VE,19,Paujicillo,
393741,VE,8,Serrano,
393742,VE,11,Cordero,
393743,VE,13,Riecito,
393744,VE,14,Alto De Santo Domingo,
393745,VE,13,Lomas Redondas,
393746,VE,16,Aragua,
393747,VE,11,Mumuche,
393748,VE,12,La Begoña,
393749,VE,5,El Xaguas,
393750,VE,11,Pueblo Nuevo,
393751,VE,14,La Venta,
393752,VE,19,Barbascal,
393753,VE,3,Ayuquita,
393754,VE,19,Río Del Medio,
393755,VE,23,El Dique,
393756,VE,6,Guaritoto,
393757,VE,26,Caraballeda,
393758,VE,11,Judibana,
393759,VE,16,Los Morros,
393760,VE,17,Los Robles,
393761,VE,12,Altagracia De Orituco,
393762,VE,14,La Mucuy,
393763,VE,2,Las Miridas,
393764,VE,11,Repelón,
393765,VE,16,El Saladero,
393766,VE,20,La Fría,
393767,VE,11,Agua Salada,
393768,VE,14,El Águila,
393769,VE,11,Barrancas,
393770,VE,11,Antonio,
393771,VE,7,Sabaneta,
393772,VE,23,Bachaquero,
393773,VE,16,Los Palos Blancos,
393774,VE,2,Pariaguán,
393775,VE,14,Agua Colorada,
393776,VE,23,Sarría,
393777,VE,14,La Musuy,
393778,VE,14,Las Hernandez,
393779,VE,22,Crucito,
393780,VE,20,Zaragoza,
393781,VE,4,Colonia Tovar,
393782,VE,11,Curazao,
393783,VE,11,La Sabanita,
393784,VE,7,Alto De Reyes,
393785,VE,16,Carapito,
393786,VE,11,La Concepción,
393787,VE,23,Alcabala,
393788,VE,11,Soledad,
393789,VE,23,La Guacharaca,
393790,VE,16,La Acequía,
393791,VE,2,Conoma,
393792,VE,19,Catuarito,
393793,VE,11,Turén,
393794,VE,14,El Royal,
393795,VE,14,Los Corrales,
393796,VE,14,Las Mercedes,
393797,VE,5,Pedraza Vieja,
393798,VE,5,Ciudad Bolivia,
393799,VE,11,El Huiguerón,
393800,VE,22,Aroa,
393801,VE,23,Tía Juana,
393802,VE,8,Monagas,
393803,VE,19,Capiantar,
393804,VE,16,Caicara De Maturín,
393805,VE,23,San Francisco,
393806,VE,17,Punta De Piedras,
393807,VE,20,Michelena,
393808,VE,7,Carabobo,
393809,VE,11,Tucupido,
393810,VE,5,Libertad,
393811,VE,22,La Mara,
393812,VE,5,Socopó,
393813,VE,12,El Sombrero,
393814,VE,15,Río Chico,
393815,VE,17,Pedrogonzález,
393816,VE,9,Tucupita,
393817,VE,18,Guanarito,
393818,VE,11,Churuguara,
393819,VE,11,Los Taques,
393820,VE,4,Santa Cruz,
393821,VE,25,Caricuao,
393822,VE,6,Los Pijiguaos,
393823,VE,21,Betijoque,
393824,VE,17,Paraguachi,
393825,VE,17,Las Hernández,
393826,VE,15,San José De Los Altos,
393827,VE,18,Ospino,
393828,VE,17,El Agua,
393829,VE,17,Los Millanes,
393830,VE,22,Sabana De Parra,
393831,VE,18,Turen,
393832,VE,19,San Antonio Del Golfo,
393833,VE,11,Sabaneta,
393834,VE,6,Guri,
393835,VE,16,Barrancas,
393836,VE,4,San Casimiro,
393837,VE,19,Tarabacoa,
393838,VE,8,Cojedes,
393839,VE,19,El Guamache,
393840,VE,2,Clarines,
393841,VE,23,Los Altos,
393842,VE,2,Puerto La Cruz,
393843,VE,7,Guárico,
393844,VE,13,Mamonal,
393845,VE,22,Urachiche,
393846,VE,17,Altagracia,
393847,VE,26,Macuto,
393848,VE,4,Barbacoas,
393849,VE,11,San Sebastián,
393850,VE,15,Guare,
393851,VE,21,Cristobal,
393852,VE,4,Las Dolores,
393853,VE,13,Caballo Muerto,
393854,VE,15,Araira,
393855,VE,19,Güiria,
393856,VE,17,Santa Ana,
393857,VE,22,Sarare,
393858,VE,23,Mene Grande,
393859,VE,3,Bruzual,
393860,VE,4,Las Tejerías,
393861,VE,23,San Carlos Del Zulia,
393862,VE,4,Cata,
393863,VE,25,Montalban,
393864,VE,6,California,
393865,VE,18,Chabasquen,
393866,VE,1,Apure,
393867,VE,18,Sabana,
393868,VE,3,San Fernando De Apure,
393869,VE,19,Unare,
393870,VE,21,Motatán,
393871,VE,11,Tucacas,
393872,VE,3,Biruaca,
393873,VE,13,Aguada Grande,
393874,VE,12,Soublette,
393875,VE,20,Coloncito,
393876,VE,12,Roche,
393877,VE,4,Camatagua,
393878,VE,1,Puerto Ayacucho,
393879,VE,4,Cogolla,
393880,VE,15,Paracotos,
393881,VE,4,El Consejo,
393882,VE,20,Ureña,
393883,VE,14,Nueva Bolivia,
393884,VE,15,Higuerote,
393885,VE,15,San Francisco De Yare,
393886,VE,23,Machiques,
393887,VE,23,El Molinete,
393888,VE,26,Playa Grande,
393889,VE,23,Encontrados,
393890,VE,4,Maraca,
393891,VE,7,Los Guayos,
393892,VE,1,Juan,
393893,VE,23,El Moján,
393894,VE,21,Carache,
393895,VE,15,San Antonio,
393896,VE,12,Río Negro,
393897,VE,11,La Ceiba,
393898,VE,8,Boca,
393899,VE,15,La Carlota,
393900,VE,18,Biscucuy,
393901,VE,4,San Sebastián,
393902,VE,26,Carayaca,
393903,VE,26,Catia,
393904,VE,25,Los Chaguaramos,
393905,VE,15,Caucagua,
393906,VE,20,Seboruco,
393907,VE,17,Guatamare,
393908,VE,23,Los Puertos De Altagracia,
393909,VE,23,San José,
393910,VE,21,La Puerta,
393911,VE,23,Caja Seca,
393912,VE,17,Las Cabreras,
393913,VE,20,La Grita,
393914,VE,17,Agua De Vaca,
393915,VE,6,Tumeremo,
393916,VE,18,Ocumare,
393917,VE,15,Mamporal,
393918,VE,19,Tunapuy,
393919,VE,2,Boca De Uchire,
393920,VE,13,La Miel,
393921,VE,15,San Pedro,
393922,VE,13,Sarare,
393923,VE,26,Puerto La Cruz,
393924,VE,15,San Fernando,
393925,VE,13,Cordero,
393926,VE,2,Bogota,
393927,VE,22,Salom,
393928,VE,14,San Cristóbal,
393929,VE,11,San Francisco,
393930,VE,19,El Tigre,
393931,VE,18,Caracas,
393932,VE,20,El Piñal,
393933,VE,15,Curumo,
393934,VE,11,Bocono,
393935,VE,15,Margarita,
393936,VE,17,Boca De Pozo,
393937,VE,23,Mara,
393938,VE,25,Coche,
393939,VE,15,La Urbina,
393940,VE,2,San Tomé,
393941,VE,25,Las Brisas,
393942,VE,15,San Cristóbal,
393943,VE,7,El Vigía,
393944,VE,17,Manzanillo,
393945,VE,5,Los Chorros,
393946,VE,12,Orituco,
393947,VE,2,La Asunción,
393948,VE,15,La Ceiba,
393949,VE,16,Bolívar,
393950,VE,6,El Callao,
393951,VE,19,Chaguaramas,
393952,VE,5,Santa Fe,
393953,VE,16,La Cruz,
393954,VE,12,Flor Amarillo,
393955,VE,21,Pampanito,
393956,VE,11,San Cristobal,
393957,VE,4,Tucupido,
393958,VE,7,Trigal,
393959,VE,15,Punto Fijo,
393960,VE,8,Tinaco,
393961,VE,17,Boca Del Río,
393962,VE,15,Aragua,
393963,VE,25,San Antonio,
393964,VE,12,Guanare,
393965,VE,7,Montalbán,
393966,VE,15,San José,
393967,VE,21,Boconó,
393968,VE,13,Guarico,
393969,VE,13,Guayana,
393970,VE,13,San Cristóbal,
393971,VE,17,San Juan,
393972,VE,11,Yaracal,
393973,VE,19,Barcelona,
393974,VE,13,Duaca,
393975,VE,23,Altagracia,
393976,VE,20,Pregonero,
393977,VE,12,Camaguán,
393978,VE,6,Margarita,
393979,VE,11,El Paso,
393980,VE,17,San Juan Bautista,
393981,VE,15,San Diego,
393982,VE,11,Cumarebo,
393983,VE,15,El Pilar,
393984,VE,16,Aragua De Maturín,
393985,VE,14,Pueblo Llano,
393986,VE,18,Boconoíto,
393987,VE,22,San Pablo,
393988,VE,7,Vigía,
393989,VE,5,Independencia,
393990,VE,23,Trujillo,
393991,VE,23,Sanfrancisco,
393992,VE,13,Sanare,
393993,VE,20,Las Tienditas,
393994,VE,4,Magdaleno,
393995,VE,16,San Félix,
393996,VE,17,Atamo Sur,
393997,VE,4,Turagua,
393998,VE,21,Esnujaque,
393999,VE,23,Santa Bárbara,
394000,VE,15,Santa Bárbara,
394001,VE,15,Las Mercedes,
394002,VE,4,Ocumare De La Costa,
394003,VE,11,Mene De Mauroa,
394004,VE,11,Mapararí,
394005,VE,20,San José De Bolívar,
394006,VE,22,Boraure,
394007,VE,11,Punta Cardón,
394008,VE,22,Caicara,
394009,VE,8,Los Castores,
394010,VE,7,Caracara,
394011,VE,16,Temblador,
394012,VE,7,Sabanita,
394013,VE,21,El Jagüito,
394014,VE,19,Río Caribe,
394015,VE,15,Tapipa,
394016,VE,16,Guanipa,
394017,VE,15,Bolívar,
394018,VE,23,La Concepción,
394019,VE,7,Tigre,
394020,VE,12,Rubio,
394021,VE,2,Guanipa,
394022,VE,15,Mendoza,
394023,VE,23,Rosario,
394024,VE,4,Caicara,
394025,VE,17,La Mira,
394026,VE,14,San Felipe,
394027,VE,4,Independencia,
394028,VE,3,Apure,
394029,VE,15,Santa Ana,
394030,VE,13,Cúcuta,
394031,VE,13,Maracay,
394032,VE,25,Sabaneta,
394033,VE,19,Cumanacoa,
394034,VE,2,Aragua De Barcelona,
394035,VE,25,El Paraíso,
394036,VE,18,Santa Rosalía,
394037,VE,4,Aroa,
394038,VE,17,El Cardón,
394039,VE,23,San Rafael Del Moján,
394040,VE,11,Boca De Aroa,
394041,VE,4,Sabaneta,
394042,VE,6,Guasipati,
394043,VE,23,Maracaibo Norte,
394044,VE,13,Caballito,
394045,VE,3,Mararay,
394046,VE,25,San Agustín,
394047,VE,23,Tamare,
394048,VE,26,El Raizudo,
394049,VE,7,Yagua,
394050,VE,15,Abreu,
394051,VE,14,Mucuchíes,
394052,VE,18,Florida,
394053,VE,23,El Triunfo,
394054,VE,4,Santa Rita,
394055,VE,23,Zulia Mar,
394056,VE,4,Los Rastrojones,
394057,VE,23,San Juaquin,
394058,VE,23,Valencia,
394059,VE,23,La Fría,
394060,VE,14,Los Ángeles,
394061,VE,26,Las Trincheras,
394062,VE,4,La Canoa,
394063,VE,15,Caiza,
394064,VE,26,Cura Mata,
394065,VE,15,Los Dos Caminos,
394066,VE,4,Cambalache,
394067,VE,15,Cúpira,
394068,VE,18,Maraca,
394069,VE,20,San Antonio,
394070,VE,15,London,
394071,VE,4,Campo Lindo,
394072,VE,3,Achaguas,
394073,VE,15,Santa Elena,
394074,VE,4,El Café,
394075,VE,19,El Brasil,
394076,VE,4,Zuata,
394077,VE,2,Chacopata,
394078,VE,15,El Jarillo,
394079,VE,25,El Apretadero,
394080,VE,21,San Rafael De Carvajal,
394081,VE,21,La Mesa De Esnujaque,
394082,VE,25,Nueva Caracas,
394083,VE,16,Costo Aragua Arriba,
394084,VE,21,Mosquey,
394085,VE,4,Tovar,
394086,VE,4,Cagua La Vieja,
394087,VE,26,Los Cedros,
394088,VE,4,Buen Paso,
394089,VE,4,Hernandez,
394090,VE,15,Pico Lagunetón,
394091,VE,16,Alto De La Iguana,
394092,VE,7,El Playón,
394093,VE,15,Macagüita,
394094,VE,26,La Julia,
394095,VE,13,San Felix,
394096,VE,25,Propatria,
394097,VE,11,Tacuato,
394098,VE,11,Guare,
394099,VE,4,Quiripital,
394100,VE,4,El Peñón,
394101,VE,12,San José De Guaribe,
394102,VE,7,Carabalís,
394103,VE,11,La Adjunta,
394104,VE,15,Ascanio,
394105,VE,11,San José,
394106,VE,26,Petaquirito,
394107,VE,13,La A,
394108,VE,19,Irapa,
394109,VE,7,El Juncal,
394110,VE,2,Juajual,
394111,VE,22,Tejerías,
394112,VE,23,Mogas,
394113,VE,25,Lecherito,
394114,VE,7,Valdespino,
394115,VE,15,Caucagüito,
394116,VE,20,Valencia,
394117,VE,23,Concepcion,
394118,VE,15,Santa Lucía,
394119,VE,19,Carúpano Arriba,
394120,VE,4,La Encrucijada,
394121,VE,4,Mis Amores,
394122,VE,4,Taguay,
394123,VE,23,La Vaca,
394124,VE,4,Urbina,
394125,VE,5,La Pereza,
394126,VE,18,San Rafael De Onoto,
394127,VE,15,Tacarigua,
394128,VE,22,El Guayabo,
394129,VE,20,Vega De Los Patios,
394130,VE,17,El Valle Del Espíritu Santo,
394131,VE,19,Marigüitar,
394132,VE,25,Bermúdez,
394133,VE,11,San Juan,
394134,VE,99,Venevisión,
394135,VE,11,La Florida,
394136,VE,11,La Vela De Coro,
394137,VE,4,San Carlos,
394138,VE,17,San Antonio,
394139,VE,19,Maturín,
394140,VE,13,Portuguesita,
394141,VE,4,Quebrada Seca,
394142,VE,17,Espiritu Santo,
394143,VE,12,Vilches,
394144,VE,22,Roncadores,
394145,VE,15,Barlovento,
394146,VE,15,Urbanización Macaracuay,
394147,VE,25,Las Acacias,
394148,VE,23,San Rafael De El Mojan,
394149,VE,15,Caracarapa,
394150,VE,14,Zea,
394151,VE,11,Gregorio,
394152,VE,26,Guaracarumbo,
394153,VE,4,Capachal,
394154,VE,17,El Yaque,
394155,VE,21,Valerita,
394156,VE,22,Guama,
394157,VE,26,Naiguatá,
394158,VE,17,Chacachacare,
394159,VE,6,Matanzas,
394160,VE,23,San Carlos,
394161,VE,22,La Yaguara,
394162,VE,21,Carvajal,
394163,VE,5,San Juan Bautista,
394164,VE,13,Panamá,
394165,VE,14,Tabay,
394166,VE,7,Vigirima,
394167,VE,17,El Valle,
394168,VE,25,El Junquito,
394169,VE,11,Las Calderas,
394170,VE,6,Santa Elena De Uairén,
394171,VE,5,Mijagua,
394172,VE,15,Cocorote,
394173,VE,26,El Tigre,
394174,VE,15,El Guayabo,
394175,VE,5,Santa Bárbara,
394176,VE,6,España,
394177,VE,15,Corralito,
394178,VE,6,Caicara Del Orinoco,
394179,VE,13,El Eneal,
394180,VE,23,La Sierrita,
394181,VE,21,Sabana De Mendoza,
394182,VE,13,Bobare,
394183,VE,14,Timotes,
394184,VE,7,Chirgua,
394185,VE,25,Mariperez,
394186,VE,20,Santa Ana Del Tachira,
394187,VE,12,Ortiz,
394188,VE,26,Tacagua,
394189,VE,7,Urama,
394190,VE,11,Saga,
394191,VE,7,Canoabo,
394192,VE,7,Mañongo,
394193,VE,20,Cordero,
394194,VE,21,La Mesa,
394195,VE,25,Las Vegas,
394196,VE,15,Colinas De Bello Monte,
394197,VE,21,La Cejita,
394198,VE,17,Loma De Guerra,
394199,VE,11,Santo Domingo,
394200,VE,4,Guayas,
394201,VE,19,El Pilar,
394202,VE,6,Bolívar,
394203,VE,23,El Cují,
394204,VE,6,México,
394205,VE,15,Ocumare,
394206,VE,13,Hacienda La Providencia,
394207,VE,23,El Milagro,
394208,VE,15,Cartanal,
394209,VE,23,La Villa Del Rosario,
394210,VE,17,Las Giles,
394211,VE,13,Tocuyo,
394212,VE,23,San Isidro,
394213,VE,3,Colombia,
394214,VE,26,El Cojo,
394215,VE,19,Guatamare,
394216,VE,6,San Félix,
394217,VE,15,Tucusiapón,
394218,VE,4,San Joaquín,
394219,VE,7,Agüeda,
394220,VE,15,Puerto Escondido,
394221,VE,15,Los Naranjos,
394222,VE,6,Valle,
394223,VE,6,Ciudad Piar,
394224,VE,26,Topo,
