locId,country,region,city,postcode
395214,ZA,,,
395215,ZA,11,Cape Town,
395216,ZA,6,Pretoria,
395217,ZA,2,Pietermaritzburg,
395218,ZA,10,Potchefstroom,
395219,ZA,3,Bloemfontein,
395220,ZA,2,Durban,
395221,ZA,5,Grahamstown,
395222,ZA,11,Stellenbosch,
395223,ZA,6,Sandton,
395224,ZA,6,Johannesburg,
395225,ZA,5,Uitenhage,
395226,ZA,6,Parkview,
395227,ZA,11,Wynberg,
395228,ZA,6,Bedfordview,
395229,ZA,11,Parow,
395230,ZA,6,Vanderbijlpark,
395231,ZA,7,Middelburg,
395232,ZA,6,Marshalltown,
395233,ZA,5,East London,
395234,ZA,6,Olifantsfontein,
395235,ZA,6,Lynnwood,
395236,ZA,6,Rosslyn,
395237,ZA,6,Houghton,
395238,ZA,6,Silverton,
395239,ZA,11,Roggebaai,
395240,ZA,6,Midrand,
395241,ZA,5,Braamfontein,
395242,ZA,11,Waverley,
395243,ZA,6,Parktown,
395244,ZA,5,Hogsback,
395245,ZA,8,Modderfontein,
395246,ZA,2,Umhlanga Rocks,
395247,ZA,11,Faure,
395248,ZA,5,Alice,
395249,ZA,10,Medunsa,
395250,ZA,5,Port Elizabeth,
395251,ZA,11,Elsenburg,
395252,ZA,6,Craighall,
395253,ZA,6,Randburg,
395254,ZA,6,Rivonia,
395255,ZA,11,Claremont,
395256,ZA,6,Honeydew,
395257,ZA,6,Halfway House,
395258,ZA,6,Centurion,
395259,ZA,5,Umtata,
395260,ZA,2,Westville,
395261,ZA,6,Boksburg,
395262,ZA,2,Pinetown,
395263,ZA,5,Doornfontein,
395264,ZA,6,Onderstepoort,
395265,ZA,2,Greytown,
395266,ZA,2,Overport,
395267,ZA,6,Krugersdorp,
395268,ZA,6,Menlo Park,
395269,ZA,5,Korsten,
395270,ZA,11,Sunnyside,
395271,ZA,3,Roodepoort,
395272,ZA,6,Kempton Park,
395273,ZA,5,Trust,
395274,ZA,5,Walmer,
395275,ZA,11,Elandsfontein,
395276,ZA,6,Maraisburg,
395277,ZA,6,Edenvale,
395278,ZA,5,Butterworth,
395279,ZA,11,Bellville,
395280,ZA,3,Welkom,
395281,ZA,6,Isando,
395282,ZA,10,Ga-rankuwa,
395283,ZA,10,Mmabatho,
395284,ZA,9,Thohoyandou,
395285,ZA,6,Ferndale,
395286,ZA,2,New Germany,
395287,ZA,2,Empangeni,
395288,ZA,6,Vereeniging,
395289,ZA,2,Martin,
395290,ZA,11,Somerset West,
395291,ZA,5,Bedford,
395292,ZA,6,Bryanston,
395293,ZA,2,Kloof,
395294,ZA,11,Pinelands,
395295,ZA,6,Germiston,
395296,ZA,11,Stilbaai,
395297,ZA,9,Pietersburg,
395298,ZA,2,Newcastle,
395299,ZA,5,Beacon Bay,
395300,ZA,5,Westering,
395301,ZA,6,Waverly,
395302,ZA,7,Witbank,
395303,ZA,6,Morningside,
395304,ZA,6,Primrose,
395305,ZA,11,Hout Bay,
395306,ZA,5,Lyndhurst,
395307,ZA,11,Muizenberg,
395308,ZA,6,Monument Park,
395309,ZA,5,Peninsula,
395310,ZA,6,Soshanguve,
395311,ZA,11,Newlands,
395312,ZA,10,Atlanta,
395313,ZA,6,Parkhurst,
395314,ZA,11,New Horizons,
395315,ZA,6,Springs,
395316,ZA,11,Constantia,
395317,ZA,11,Malmesbury,
395318,ZA,11,Woodlands,
395319,ZA,9,Tzaneen,
395320,ZA,11,Mowbray,
395321,ZA,11,Rosebank,
395322,ZA,5,Riebeek,
395323,ZA,11,Oudtshoorn,
395324,ZA,11,Edgemead,
395325,ZA,6,Hatfield,
395326,ZA,6,Capital Park,
395327,ZA,7,Nelspruit,
395328,ZA,3,Fichardtpark,
395329,ZA,6,Northcliff,
395330,ZA,11,Bishopscourt,
395331,ZA,6,Laudium,
395332,ZA,6,Garsfontein,
395333,ZA,3,Lusaka,
395334,ZA,8,Campbell,
395335,ZA,7,Weltevreden,
395336,ZA,6,Westdene,
395337,ZA,9,Messina,
395338,ZA,6,Benoni,
395339,ZA,2,Mount Edgecombe,
395340,ZA,11,Sauer,
395341,ZA,10,Rustenburg,
395342,ZA,5,North End,
395343,ZA,5,Emerald Hill,
395344,ZA,2,Mobeni,
395345,ZA,5,Huguenot,
395346,ZA,10,Brits,
395347,ZA,2,Port Shepstone,
395348,ZA,5,Kwa-zulu,
395349,ZA,2,La Lucia,
395350,ZA,7,London,
395351,ZA,3,Juta,
395352,ZA,3,Florida,
395353,ZA,6,Brakpan,
395354,ZA,5,Zwartkop,
395355,ZA,6,Fairland,
395356,ZA,7,Ermelo,
395357,ZA,6,Sandhurst,
395358,ZA,2,Mpumalanga,
395359,ZA,11,Green Point,
395360,ZA,10,Klerksdorp,
395361,ZA,11,Lansdowne,
395362,ZA,2,Point,
395363,ZA,6,Sandown,
395364,ZA,11,Mossel Bay,
395365,ZA,2,Richards Bay,
395366,ZA,11,Brooklyn,
395367,ZA,11,Montana,
395368,ZA,6,Alberton,
395369,ZA,5,Waterkloof,
395370,ZA,11,Rawsonville,
395371,ZA,11,Goodwood,
395372,ZA,11,Wellington,
395373,ZA,2,Sherwood,
395374,ZA,3,Arlington,
395375,ZA,9,Windhoek,
395376,ZA,5,Melrose,
395377,ZA,6,Dunkeld,
395378,ZA,2,Jacobs,
395379,ZA,5,Horton,
395380,ZA,6,Alrode,
395381,ZA,1,Content,
395382,ZA,3,Alfa,
395383,ZA,8,Upington,
395384,ZA,11,Saldanha,
395385,ZA,5,Union,
395386,ZA,11,Caledon,
395387,ZA,3,Villiers,
395388,ZA,8,Jackson,
395389,ZA,11,Brackenfell,
395390,ZA,6,Randfontein,
395391,ZA,6,Booysens,
395392,ZA,5,Outspan,
395393,ZA,7,Loding,
395394,ZA,2,Merebank,
395395,ZA,5,Main,
395396,ZA,11,Tokai,
395397,ZA,6,Cullinan,
395398,ZA,11,Milnerton,
395399,ZA,8,Sishen,
395400,ZA,3,Grootgeluk,
395401,ZA,11,Kaapstad,
395402,ZA,5,Bell,
395403,ZA,2,Hammarsdale,
395404,ZA,10,Avon,
395405,ZA,2,Victoria,
395406,ZA,6,Verwoerdburg,
395407,ZA,11,George,
395408,ZA,6,Soweto,
395409,ZA,6,Tembisa,
395410,ZA,11,Table View,
395411,ZA,11,Knysna,
395412,ZA,2,Umkomaas,
395413,ZA,2,Situndu,
395414,ZA,2,Malvern,
395415,ZA,2,Winston Park,
395416,ZA,2,Hillcrest,
395417,ZA,2,Malukaze,
395418,ZA,6,Lyttelton,
395419,ZA,6,Pretoria North,
395420,ZA,11,Atlantis,
395421,ZA,11,Paarl,
395422,ZA,6,Bronkhorstspruit,
395423,ZA,3,Deneysville,
395424,ZA,3,Brandfort,
395425,ZA,6,Westonaria,
395426,ZA,10,Fochville,
395427,ZA,2,Botha's Hill,
395428,ZA,2,Emberton,
395429,ZA,2,Chatsworth 1,
395430,ZA,2,Forest Hills,
395431,ZA,2,Escombe,
395432,ZA,2,Margate,
395433,ZA,2,Gillitts,
395434,ZA,2,Dassenhoek,
395435,ZA,2,Mariannhill,
395436,ZA,2,Vryheid,
395437,ZA,2,Scottsburgh,
395438,ZA,2,Emadundube,
395439,ZA,5,Queenstown,
395440,ZA,2,Kokstad,
395441,ZA,2,Matatiele,
395442,ZA,2,Stanger,
395443,ZA,5,Kwahlomendlwini,
395444,ZA,6,Ekangala,
395445,ZA,7,Lydenburg,
395446,ZA,11,Grabouw,
395447,ZA,5,Kabeljous-on-sea,
395448,ZA,3,Senekal,
395449,ZA,6,Nigel,
395450,ZA,7,Kriel,
395451,ZA,9,Potgietersrus,
395452,ZA,10,Hartbeespoort,
395453,ZA,7,Delmas,
395454,ZA,7,Belfast,
395455,ZA,7,Witrivier,
395456,ZA,10,Temba,
395457,ZA,2,Umlazi,
395458,ZA,2,Sundumbili,
395459,ZA,11,Plettenberg Bay,
395460,ZA,2,Rossburgh,
395461,ZA,2,Richmond,
395462,ZA,2,Isipingo,
395463,ZA,11,Kingfisher Creek,
395464,ZA,11,Sedgefield,
395465,ZA,11,Wilderness,
395466,ZA,11,Hartenbos,
395467,ZA,5,Bisho,
395468,ZA,11,Ladismith,
395469,ZA,11,Bothastrand,
395470,ZA,11,Worcester,
395471,ZA,11,Heroldsbaai,
395472,ZA,6,Craighall Park,
395473,ZA,7,Daantjielokasie,
395474,ZA,6,Heidelberg,
395475,ZA,3,Bethlehem,
395476,ZA,8,Daniëlskuil,
395477,ZA,10,Schweizer-reneke,
395478,ZA,11,Robertson,
395479,ZA,11,Vredendal,
395480,ZA,2,Kwankunswana,
395481,ZA,2,Winklespruit,
395482,ZA,11,Hopefield,
395483,ZA,5,Stutterheim,
395484,ZA,5,Bathurst,
395485,ZA,11,Bredasdorp,
395486,ZA,11,Hermanus,
395487,ZA,9,Mitxetweni,
395488,ZA,9,Giyani,
395489,ZA,10,Lichtenburg,
395490,ZA,9,Thabazimbi,
395491,ZA,9,Louis Trichardt,
395492,ZA,7,Secunda,
395493,ZA,2,Utrecht,
395494,ZA,2,Ladysmith,
395495,ZA,2,Estcourt,
395496,ZA,2,Roosboom,
395497,ZA,7,Piet Retief,
395498,ZA,10,Leeudoringstad,
395499,ZA,2,Tongaat,
395500,ZA,2,Pinelands,
395501,ZA,2,Claremont,
395502,ZA,2,Gillitts-emberton,
395503,ZA,9,Jack,
395504,ZA,11,Remhoogte,
395505,ZA,2,Amanzimtoti,
395506,ZA,11,Ysterfontein,
395507,ZA,11,Du Toitskloof,
395508,ZA,11,De Doorns,
395509,ZA,11,Durbanville,
395510,ZA,11,Still Bay,
395511,ZA,3,Ladybrand,
395512,ZA,7,Trichardt,
395513,ZA,3,Dahlia,
395514,ZA,5,Doringkloof,
395515,ZA,9,Jane Furse,
395516,ZA,9,Levubu,
395517,ZA,3,Sasolburg,
395518,ZA,5,Port Alfred,
395519,ZA,11,Elsiesrivier,
395520,ZA,5,Lugongqozo,
395521,ZA,3,Harrismith,
395522,ZA,8,Warrenton,
395523,ZA,1,Barkly West,
395524,ZA,3,Philippolis,
395525,ZA,3,Viljoenskroon,
395526,ZA,10,Jan Kempdorp,
395527,ZA,5,Zizityaneni,
395528,ZA,3,Theunissen,
395529,ZA,1,Colesberg,
395530,ZA,8,Kimberley,
395531,ZA,5,Black Hill,
395532,ZA,7,Barberton,
395533,ZA,6,Rayton,
395534,ZA,2,Monteseel,
395535,ZA,2,Esikhawini,
395536,ZA,5,Kwelera,
395537,ZA,5,Mnyibashe,
395538,ZA,5,Fish River Camping Site,
395539,ZA,3,Kroonstad,
395540,ZA,9,Warmbad,
395541,ZA,11,Ceres,
395542,ZA,5,Kirkwood,
395543,ZA,2,Hlobane,
395544,ZA,9,Hoedspruit,
395545,ZA,11,Swellendam,
395546,ZA,7,Onverwag,
395547,ZA,3,Wesselsbron,
395548,ZA,7,Wales,
395549,ZA,11,Droëvlakte,
395550,ZA,10,Stilfontein,
395551,ZA,11,Wittedrif,
395552,ZA,3,Phuthaditjhaba,
395553,ZA,2,Howick,
395554,ZA,9,Duiwelskloof,
395555,ZA,6,Alexandra,
395556,ZA,2,Ballitoville,
395557,ZA,11,Monte Vista,
395558,ZA,5,Kei Mouth,
395559,ZA,11,Welgemoed,
395560,ZA,6,Lombardy East,
395561,ZA,7,Evander,
395562,ZA,2,Mooi River,
395563,ZA,7,Groblersdal,
395564,ZA,6,Thabakhubedu,
395565,ZA,5,Hillcrest,
395566,ZA,11,Lakeside,
395567,ZA,11,Meadowridge,
395568,ZA,6,Valley Nedersettings,
395569,ZA,2,Kwangcolosi,
395570,ZA,3,Ficksburg,
395571,ZA,2,Umzumbe,
395572,ZA,3,Marquard,
395573,ZA,11,Strand,
395574,ZA,2,Amatata,
395575,ZA,2,Reservoir Hills,
395576,ZA,2,Saint Isidore,
395577,ZA,7,Rosshill,
395578,ZA,11,Skilpadgat,
395579,ZA,2,Inkumba,
395580,ZA,9,Hanglip,
395581,ZA,5,Makhetheng,
395582,ZA,11,Duiwe River,
395583,ZA,11,Montagu,
395584,ZA,7,Komatipoort,
395585,ZA,10,Mafikeng,
395586,ZA,5,Cradock,
395587,ZA,5,Somerset East,
395588,ZA,7,Bethal,
395589,ZA,11,Langebaan,
395590,ZA,11,Plumstead,
395591,ZA,11,Citrusdal,
395592,ZA,11,Belhar,
395593,ZA,5,Sisuza,
395594,ZA,10,Orkney,
395595,ZA,3,Virginia,
395596,ZA,2,Kwandengezi,
395597,ZA,11,Glentana,
395598,ZA,6,Hekpoort,
395599,ZA,5,Despatch,
395600,ZA,7,Moloro,
395601,ZA,7,Eendrag,
395602,ZA,11,Riversdal,
395603,ZA,7,Tswafeng,
395604,ZA,6,Roosevelt Park,
395605,ZA,5,Kenton On Sea,
395606,ZA,6,Blackheath,
395607,ZA,2,Nottingham Road,
395608,ZA,9,Phalaborwa,
395609,ZA,6,Northdene Estate,
395610,ZA,3,Heilbron,
395611,ZA,11,Guguletu,
395612,ZA,11,Maitland,
395613,ZA,2,Melmoth,
395614,ZA,6,Clubview,
395615,ZA,11,Piketberg,
395616,ZA,11,Noordhoek,
395617,ZA,11,Little Brak River,
395618,ZA,5,Maxesibeni,
395619,ZA,2,Dundee,
395620,ZA,5,Van Stadensriviermond,
395621,ZA,5,Jeffreysbaai,
395622,ZA,2,Mtunzini,
395623,ZA,2,Teza,
395624,ZA,7,Balmoral,
395625,ZA,2,Gologodo,
395626,ZA,2,Ulundi,
395627,ZA,5,Jeffrey's Bay,
395628,ZA,9,Lebowakgomo,
395629,ZA,9,Nylstroom,
395630,ZA,5,Glassridge,
395631,ZA,6,Weltevredenpark,
395632,ZA,11,Karatara,
395633,ZA,3,Hennenman,
395634,ZA,8,Higgs' Hope,
395635,ZA,8,Kleinzee,
395636,ZA,5,Addo,
395637,ZA,5,Olifants Kop,
395638,ZA,2,Ogonothini,
395639,ZA,5,Saint Francis,
395640,ZA,3,Clarens,
395641,ZA,3,Parys,
395642,ZA,7,Luphisi,
395643,ZA,5,Gonubie,
395644,ZA,7,Grootvlei,
395645,ZA,2,Elangeni,
395646,ZA,5,Begha Mouth,
395647,ZA,5,Kalana Location,
395648,ZA,6,Meyerton,
395649,ZA,6,Strathavon,
395650,ZA,3,Allanridge,
395651,ZA,9,Angledale,
395652,ZA,5,Joubertina,
395653,ZA,6,Duxberry,
395654,ZA,2,Winterton,
395655,ZA,11,Clanwilliam,
395656,ZA,6,Norkem Park,
395657,ZA,5,Mgwalana Mouth,
395658,ZA,3,Reitz,
395659,ZA,11,Bishop Lavis,
395660,ZA,6,Magaliesburg,
395661,ZA,6,Valhalla,
395662,ZA,11,Kuils River,
395663,ZA,6,Inanda,
395664,ZA,6,Parkmore,
395665,ZA,6,Witfield,
395666,ZA,6,Brixton,
395667,ZA,2,Colenso,
395668,ZA,1,Hartswater,
395669,ZA,2,Mtwalume,
395670,ZA,11,Southfield,
395671,ZA,11,Bothasig,
395672,ZA,6,Lenasia,
395673,ZA,11,Stellenberg,
395674,ZA,6,Boskruin,
395675,ZA,11,Sonstraal,
395676,ZA,2,Mtubatuba,
395677,ZA,6,Carletonville,
395678,ZA,11,Danabaai,
395679,ZA,11,Observatory,
395680,ZA,10,Sun City,
395681,ZA,2,Merrivale,
395682,ZA,2,Wartburg,
395683,ZA,6,Hyde Park,
395684,ZA,5,Aston Bay,
395685,ZA,2,Bergville,
395686,ZA,6,Melville,
395687,ZA,2,Hluhluwe,
395688,ZA,6,Erasmia,
395689,ZA,2,Cato Ridge,
395690,ZA,2,Hibberdene,
395691,ZA,8,Postmasburg,
395692,ZA,2,Paulpietersburg,
395693,ZA,7,Hazyview,
395694,ZA,11,Villiersdorp,
395695,ZA,11,Langebaanweg,
395696,ZA,2,Frere,
395697,ZA,6,Glenvista,
395698,ZA,2,Hilton,
395699,ZA,6,Doornpoort,
395700,ZA,11,Molen Drift,
395701,ZA,11,Harkerville,
395702,ZA,9,Ellisras,
395703,ZA,6,Fontainebleau,
395704,ZA,9,Nkowakowa,
395705,ZA,11,Steenberg,
395706,ZA,11,Struisbaai,
395707,ZA,2,Pongola,
395708,ZA,6,Akasia,
395709,ZA,11,Bonnievale,
395710,ZA,11,Bellville South,
395711,ZA,10,Vryburg,
395712,ZA,7,Kuilsrivier,
395713,ZA,11,Vredenburg,
395714,ZA,6,Houghton Estate,
395715,ZA,11,Mcgregor,
395716,ZA,11,Ashton,
395717,ZA,11,Riviersonderend,
395718,ZA,11,Velddrif,
395719,ZA,2,Shelly Beach,
395720,ZA,2,Mossdale,
395721,ZA,11,Mitchells Plain,
395722,ZA,6,Three Rivers,
395723,ZA,5,Fort Beaufort,
395724,ZA,6,Four Ways,
395725,ZA,9,Edinburgh,
395726,ZA,6,Lewisham,
395727,ZA,2,Underberg,
395728,ZA,5,Kwazulu,
395729,ZA,3,Linden,
395730,ZA,6,Clayville,
395731,ZA,6,Katlehong,
395732,ZA,8,Komaggas,
395733,ZA,7,Darling,
395734,ZA,2,Verulam,
395735,ZA,2,Blaauwkrantz,
395736,ZA,2,Eshowe,
395737,ZA,5,Windsor,
395738,ZA,5,Burgersdorp,
395739,ZA,11,Gansbaai,
395740,ZA,6,Henley On Klip,
395741,ZA,6,Vosloorus,
395742,ZA,6,Witpoortjie,
395743,ZA,6,Rooihuiskraal,
395744,ZA,5,Sidwell,
395745,ZA,11,Hoekwil,
395746,ZA,11,Norwood,
395747,ZA,7,Balfour,
395748,ZA,3,Ventersburg,
395749,ZA,8,Springbok,
395750,ZA,2,Ixopo,
395751,ZA,6,Daleside,
395752,ZA,3,Bothaville,
395753,ZA,7,Hendrina,
395754,ZA,5,Patensie,
395755,ZA,7,Marble Hall,
395756,ZA,7,Volksrust,
395757,ZA,7,Standerton,
395758,ZA,5,Adelaide,
395759,ZA,6,Elarduspark,
395760,ZA,6,Wingate Park,
395761,ZA,6,Eldoraigne,
395762,ZA,7,Burgersfort,
395763,ZA,11,Zout Kuil,
395764,ZA,3,Hertzogville,
395765,ZA,6,Petit,
395766,ZA,8,Schmidtsdrif,
395767,ZA,5,Cookhouse,
395768,ZA,11,Franschhoek,
395769,ZA,11,Tygerberg Hills,
395770,ZA,11,Penhill,
395771,ZA,10,Pampierstad,
395772,ZA,7,Crossroads,
395773,ZA,2,Trafalgar,
395774,ZA,2,Umzinto,
395775,ZA,11,Calitzdorp,
395776,ZA,11,Yzerfontein,
395777,ZA,9,Naboomspruit,
395778,ZA,7,Malelane,
395779,ZA,3,Riebeeckstad,
395780,ZA,6,Discovery,
395781,ZA,2,Umtentweni,
395782,ZA,7,Eloff,
395783,ZA,11,Gordon's Bay,
395784,ZA,10,Koster,
395785,ZA,7,Kinross,
395786,ZA,10,De Wildt,
395787,ZA,2,Durban North,
395788,ZA,11,Riebeek-wes,
395789,ZA,11,Breërivier,
395790,ZA,6,Walkerville,
395791,ZA,10,Ventersdorp,
395792,ZA,3,Petrusburg,
395793,ZA,8,Olie Rivier,
395794,ZA,11,Kleinmond,
395795,ZA,5,Kenton,
395796,ZA,11,Lutzville,
395797,ZA,9,Vaalwater,
395798,ZA,2,Glencoe,
395799,ZA,6,Tsakane,
395800,ZA,2,Uvongo,
395801,ZA,7,Douglas,
395802,ZA,8,Victoria West,
395803,ZA,11,Tulbagh,
395804,ZA,11,Moorreesburg,
395805,ZA,2,Curries Post,
395806,ZA,2,Umfolozi,
395807,ZA,11,Stanford,
395808,ZA,5,Graaff-reinet,
395809,ZA,2,Salt Rock,
395810,ZA,3,Rouxville,
395811,ZA,2,Himeville,
395812,ZA,11,Suurbraak,
395813,ZA,2,Waterfall,
395814,ZA,11,Bergvliet,
395815,ZA,11,Kraaifontein,
395816,ZA,11,Camps Bay,
395817,ZA,11,Pringle Bay,
395818,ZA,2,Bellair,
395819,ZA,2,Doonside,
395820,ZA,8,Irene,
395821,ZA,2,Hillary,
395822,ZA,6,Pimville,
395823,ZA,11,Melkbosstrand,
395824,ZA,6,The Village,
395825,ZA,5,Kruisfontein,
395826,ZA,5,King William's Town,
395827,ZA,2,Kingston,
395828,ZA,9,Hartebeespoort,
395829,ZA,11,Philippi,
395830,ZA,3,Vrede,
395831,ZA,7,Sabie,
395832,ZA,11,Riversdale,
395833,ZA,7,Roodekrans,
395834,ZA,6,Sinoville,
395835,ZA,2,Anerley,
395836,ZA,2,Warner Beach,
395837,ZA,11,Wolseley,
395838,ZA,5,Komga,
395839,ZA,3,Frankfort,
395840,ZA,6,Robertsham,
395841,ZA,3,Clocolan,
395842,ZA,6,Sebokeng,
395843,ZA,10,Coligny,
395844,ZA,8,Keimoes,
395845,ZA,7,Machadodorp,
395846,ZA,2,Dannhauser,
395847,ZA,11,Thornton,
395848,ZA,5,Aliwal North,
395849,ZA,2,Ramsgate,
395850,ZA,5,Sunland,
395851,ZA,7,Skukuza,
395852,ZA,6,Fairlands,
395853,ZA,11,Kalk Bay,
395854,ZA,7,Siyabuswa,
395855,ZA,2,Oslo Beach,
395856,ZA,10,Swartruggens,
395857,ZA,9,Waterpoort,
395858,ZA,3,Brackenhurst,
395859,ZA,11,Grassy Park,
395860,ZA,11,Albertinia,
395861,ZA,7,Blinkpan,
395862,ZA,7,Steelpoort,
395863,ZA,5,Mount Frere,
395864,ZA,10,Schoemansville,
395865,ZA,10,Hammanskraal,
395866,ZA,2,Kingsburgh,
395867,ZA,5,Maclear,
395868,ZA,5,Ugie,
395869,ZA,6,Blyvooruitsig,
395870,ZA,7,Trichard,
395871,ZA,11,Betty's Bay,
395872,ZA,11,Ocean View,
395873,ZA,5,Lorraine,
395874,ZA,11,Eerste River,
395875,ZA,11,Lotus River,
395876,ZA,5,Hankey,
395877,ZA,6,Yeoville,
395878,ZA,11,Great Brak River,
395879,ZA,2,Port Edward,
395880,ZA,6,Little Falls,
395881,ZA,2,Amatikulu,
395882,ZA,5,Witelsbos,
395883,ZA,6,Pretoria West,
395884,ZA,8,Kuruman,
395885,ZA,2,Queensburgh,
395886,ZA,6,Westcliff,
395887,ZA,11,Simon's Town,
395888,ZA,6,Rosettenville,
395889,ZA,8,Carnarvon,
395890,ZA,3,Edenburg,
395891,ZA,6,Dobsonville,
395892,ZA,6,Oberholzer,
395893,ZA,2,Illovo,
395894,ZA,11,Uniondale,
395895,ZA,11,Vanrhynsdorp,
395896,ZA,2,Umdloti,
395897,ZA,2,Saint Lucia,
395898,ZA,7,Coalville,
395899,ZA,7,Kiepersol,
395900,ZA,6,Muldersdrift,
395901,ZA,11,Ravensmead,
395902,ZA,10,Kroondal,
395903,ZA,7,Morgenzon,
395904,ZA,6,Mabopane,
395905,ZA,11,Rosendal,
395906,ZA,6,Brentwood Park,
395907,ZA,10,Witpoort,
395908,ZA,11,Elim,
395909,ZA,11,Mamre,
395910,ZA,5,Lady Grey,
395911,ZA,5,Idutywa,
395912,ZA,2,Umbogintwini,
395913,ZA,3,La Rochelle,
395914,ZA,1,Aggeneys,
395915,ZA,5,Cathcart,
395916,ZA,2,Kwambonambi,
395917,ZA,5,Humansdorp,
395918,ZA,5,Humewood,
395919,ZA,5,Mdantsane,
395920,ZA,11,Ottery,
395921,ZA,10,Zeerust,
395922,ZA,11,Van Riebeeckstrand,
395923,ZA,11,The Crags,
395924,ZA,6,Wonderfontein,
395925,ZA,7,Rietkuil,
395926,ZA,11,Westlake,
395927,ZA,6,Elsburg,
395928,ZA,3,Rondebult,
395929,ZA,7,Highlands,
395930,ZA,3,Diepkloof,
395931,ZA,5,Steytlerville,
395932,ZA,2,Dalton,
395933,ZA,8,Calvinia,
395934,ZA,7,Hectorspruit,
395935,ZA,10,Groot-marico,
395936,ZA,3,Warden,
395937,ZA,11,Marina Da Gama,
395938,ZA,7,Carolina,
395939,ZA,8,Mancorp Mine,
395940,ZA,6,Dunnottar,
395941,ZA,5,Qumbu,
395942,ZA,9,Dendron,
395943,ZA,11,Glencairn,
395944,ZA,10,Kosmos,
395945,ZA,2,Widenham,
395946,ZA,9,Linton,
395947,ZA,5,Groenkloof,
395948,ZA,2,Umvoti,
395949,ZA,2,Munster,
395950,ZA,6,West Park,
395951,ZA,11,Suider-paarl,
395952,ZA,11,Botrivier,
395953,ZA,11,Llandudno,
395954,ZA,2,Westbrook,
395955,ZA,2,Mkuze,
395956,ZA,2,Tinley Manor,
395957,ZA,9,Rooiberg,
395958,ZA,7,Waterval Boven,
395959,ZA,5,Onverwacht,
395960,ZA,7,Lothair,
395961,ZA,7,Dullstroom,
395962,ZA,11,Eversdal,
395963,ZA,3,Vaalpark,
395964,ZA,11,Witsand,
395965,ZA,11,Hex River,
395966,ZA,11,Geduld,
395967,ZA,5,Paterson,
395968,ZA,11,Strandfontein,
395969,ZA,11,Porterville,
395970,ZA,10,Christiana,
395971,ZA,2,Southbroom,
395972,ZA,2,Glenwood,
395973,ZA,9,Letsitele,
395974,ZA,5,Paardekraal,
395975,ZA,2,Umdloti Beach,
395976,ZA,2,Felixton,
395977,ZA,2,Gingindlovu,
395978,ZA,6,Modderfontein,
395979,ZA,6,Sunnyside,
395980,ZA,6,Roodepoort,
395981,ZA,5,Weltevreden,
395982,ZA,6,Florida,
395983,ZA,2,Kranskop,
395984,ZA,11,Matroosfontein,
395985,ZA,7,Ogies,
395986,ZA,7,Arnot,
395987,ZA,7,Bushbuckridge,
395988,ZA,6,Rothdene,
395989,ZA,11,Sun Valley,
395990,ZA,6,Kew,
395991,ZA,2,Sheffield Beach,
395992,ZA,7,Kaapmuiden,
395993,ZA,2,Greenwood Park,
395994,ZA,11,Athlone,
395995,ZA,2,Lidgetton,
395996,ZA,11,Helderberg,
395997,ZA,11,Napier,
395998,ZA,3,Kestell,
395999,ZA,11,Clovelly,
396000,ZA,9,Haenertsburg,
396001,ZA,6,Queenswood,
396002,ZA,6,Noordheuwel,
396003,ZA,3,Mooiplaas,
396004,ZA,6,Hillbrow,
396005,ZA,6,Villieria,
396006,ZA,7,Leandra,
396007,ZA,6,Kensington,
396008,ZA,11,Gardens,
396009,ZA,5,Engcobo,
396010,ZA,11,Sea Point,
396011,ZA,11,Windmeul,
396012,ZA,4,Kristal,
396013,ZA,3,Vredefort,
396014,ZA,8,Okiep,
396015,ZA,2,Hlabisa,
396016,ZA,11,Vermont,
396017,ZA,10,Lekgophung,
396018,ZA,2,Baynesfield,
396019,ZA,6,Waterkloof,
396020,ZA,6,Meadowlands,
396021,ZA,11,Riebeek West,
396022,ZA,6,Fordsburg,
396023,ZA,11,Vredehoek,
396024,ZA,2,Musgrave,
396025,ZA,3,Edenville,
396026,ZA,5,Libode,
396027,ZA,6,Kwamhlanga,
396028,ZA,11,Kommetjie,
396029,ZA,2,Camperdown,
396030,ZA,6,Kliprivier,
396031,ZA,6,Paardekraal,
396032,ZA,6,Newlands,
396033,ZA,6,Linden,
396034,ZA,5,Coega,
396035,ZA,2,New Hanover,
396036,ZA,2,Shakaskraal,
396037,ZA,11,Darling,
396038,ZA,11,Tergniet,
396039,ZA,7,Embalenhle,
396040,ZA,6,Krugersdorp West,
396041,ZA,6,Glen Austin,
396042,ZA,6,Randgate,
396043,ZA,9,Sibasa,
396044,ZA,6,Sophiatown,
396045,ZA,2,Isipingo Beach,
396046,ZA,2,Ottawa,
396047,ZA,8,Prieska,
396048,ZA,10,Sannieshof,
396049,ZA,7,Wesselton,
396050,ZA,11,Buffeljagsrivier,
396051,ZA,6,Roodekrans,
396052,ZA,6,Irene,
396053,ZA,11,Kuilsrivier,
396054,ZA,8,Douglas,
396055,ZA,2,Harding,
396056,ZA,6,Gezina,
396057,ZA,9,Northam,
396058,ZA,11,Tamboerskloof,
396059,ZA,6,Atteridgeville,
396060,ZA,11,Windsor Park,
396061,ZA,8,Ritchie,
396062,ZA,9,Driekop,
396063,ZA,5,Boesmansriviermond,
396064,ZA,2,Ashley,
396065,ZA,2,Ballengeich,
396066,ZA,6,Hercules,
396067,ZA,9,Ofcolaco,
396068,ZA,11,Gans Bay,
396069,ZA,6,Brooklyn,
396070,ZA,2,Sezela,
396071,ZA,7,Amersfoort,
396072,ZA,9,Seshego,
396073,ZA,6,Devon,
396074,ZA,6,Eikenhof,
396075,ZA,6,Glenharvie,
396076,ZA,6,Zesfontein,
396077,ZA,2,Sobantu,
396078,ZA,11,Klein-brakrivier,
396079,ZA,3,Oranjeville,
396080,ZA,6,Kagiso,
396081,ZA,11,Woodstock,
396082,ZA,11,Philadelphia,
396083,ZA,2,Village Of Happiness,
396084,ZA,2,Kwamashu,
396085,ZA,2,Marburg,
396086,ZA,7,Ohrigstad,
396087,ZA,6,Waverley,
396088,ZA,3,Dewetsdorp,
396089,ZA,6,Malvern,
396090,ZA,11,Mosselbaai,
396091,ZA,6,De Deur,
396092,ZA,11,Bot River,
396093,ZA,11,Sandhills,
396094,ZA,11,Onrus,
396095,ZA,8,Kakamas,
396096,ZA,5,Whittlesea,
396097,ZA,6,Welverdiend,
396098,ZA,11,Vasco,
396099,ZA,2,Sea Park,
396100,ZA,8,Orania,
396101,ZA,5,Bizana,
396102,ZA,2,Donnybrook,
396103,ZA,9,London,
396104,ZA,6,Ekandustria,
396105,ZA,9,Swartklip,
396106,ZA,11,Jamestown,
396107,ZA,6,Meyerspark,
396108,ZA,11,Mouille Point,
396109,ZA,10,Vaal Reefs,
396110,ZA,6,Bultfontein,
396111,ZA,11,Kenridge,
396112,ZA,11,Macassar,
396113,ZA,6,Mofolo,
396114,ZA,11,Eersterivier,
396115,ZA,2,Heatonville,
396116,ZA,7,Wakkerstroom,
396117,ZA,11,Crawford,
396118,ZA,5,Barkly East,
396119,ZA,6,Randjesfontein,
396120,ZA,8,Kanoneiland,
396121,ZA,2,Illovo Beach,
396122,ZA,2,Ntumeni,
396123,ZA,5,Kleinemonde,
396124,ZA,2,Northdale,
396125,ZA,11,Cravenby,
396126,ZA,11,Onrust,
396127,ZA,3,Kuruman,
396128,ZA,3,Lindley,
396129,ZA,5,Alexandria,
396130,ZA,11,Greyton,
396131,ZA,11,Three Anchor Bay,
396132,ZA,11,Bantry Bay,
396133,ZA,11,Epping,
396134,ZA,2,Mfolozi,
396135,ZA,3,Universitas,
396136,ZA,10,Migdol,
396137,ZA,6,Dersley,
396138,ZA,3,Vaal,
396139,ZA,10,Mogwase,
396140,ZA,8,Kathu,
396141,ZA,9,Settlers,
396142,ZA,3,Boshof,
396143,ZA,11,Khayelitsha,
396144,ZA,11,Hawston,
396145,ZA,2,Curry's Post,
396146,ZA,11,Barrydale,
396147,ZA,7,Evergreen,
396148,ZA,10,Gosport,
396149,ZA,2,Hammersdale,
396150,ZA,1,Dibeng,
396151,ZA,3,Odendaalsrus,
396152,ZA,10,Stella,
396153,ZA,6,Dalview,
396154,ZA,6,Daveyton,
396155,ZA,6,Sharpeville,
396156,ZA,6,Arcon Park,
396157,ZA,11,Hermon,
396158,ZA,2,Tugela Ferry,
396159,ZA,9,Onverwacht,
396160,ZA,3,Kragbron,
396161,ZA,11,Higgovale,
396162,ZA,2,Kingsborough,
396163,ZA,6,Emmarentia,
396164,ZA,6,Pyramid,
396165,ZA,3,Hoopstad,
396166,ZA,3,Hobhouse,
396167,ZA,3,Reddersburg,
396168,ZA,3,Fouriesburg,
396169,ZA,11,Pacaltsdorp,
396170,ZA,6,Casseldale,
396171,ZA,5,Selborne,
396172,ZA,5,Tsomo,
396173,ZA,3,Koppies,
396174,ZA,8,Windsorton,
396175,ZA,7,Kanyamazane,
396176,ZA,2,Cleland,
396177,ZA,5,Haga-haga,
396178,ZA,5,Salem,
396179,ZA,6,Inadan,
396180,ZA,6,Richmond,
396181,ZA,8,Lime Acres,
396182,ZA,10,Wolmaranstad,
396183,ZA,3,Jagersfontein,
396184,ZA,1,Port Nolloth,
396185,ZA,6,Sonlandpark,
396186,ZA,3,Zamdela,
396187,ZA,2,Darnall,
396188,ZA,3,Koffiefontein,
396189,ZA,3,Bultfontein,
396190,ZA,9,Welkom,
396191,ZA,11,Riebeek-kasteel,
396192,ZA,5,Jansenville,
396193,ZA,10,Phokeng,
396194,ZA,6,Elandsfontein,
396195,ZA,8,Vanderkloof,
396196,ZA,5,Storms River,
396197,ZA,11,Reebok,
396198,ZA,3,Petrus Steyn,
396199,ZA,11,Durbanville Hills,
396200,ZA,10,Majaneng,
396201,ZA,6,Selection Park,
396202,ZA,5,Kwazakhele,
396203,ZA,2,Mid Illovo,
396204,ZA,10,Rooigrond,
396205,ZA,6,Protea,
396206,ZA,3,Dealesville,
396207,ZA,5,Umzimkulu,
396208,ZA,5,Thornville,
396209,ZA,6,Lynnwood Manor,
396210,ZA,11,Prince Alfred Hamlet,
396211,ZA,11,Montague Gardens,
396212,ZA,3,Smithfield,
396213,ZA,6,Tarlton,
396214,ZA,2,Clansthal,
396215,ZA,6,Pretoria-wes,
396216,ZA,6,Diepkloof,
396217,ZA,11,Blanco,
396218,ZA,5,Elliot,
396219,ZA,11,Heidelberg,
396220,ZA,5,Breidbach,
396221,ZA,2,Creighton,
396222,ZA,11,Noorder-paarl,
396223,ZA,9,Hluvukani,
396224,ZA,2,Weenen,
396225,ZA,11,Jongensfontein,
396226,ZA,8,Olifantshoek,
396227,ZA,2,Ifafa,
396228,ZA,6,Duduza,
396229,ZA,3,Verkykerskop,
396230,ZA,6,Orlando,
396231,ZA,6,Wynberg,
396232,ZA,2,Park Rynie,
396233,ZA,7,Greylingstad,
396234,ZA,2,Ifafa Beach,
396235,ZA,5,Cape Saint Francis,
396236,ZA,7,Graskop,
396237,ZA,9,Radium,
396238,ZA,11,Laingsburg,
396239,ZA,11,Prince Albert,
396240,ZA,11,Springbok,
396241,ZA,5,Summerstrand,
396242,ZA,2,Adams Mission,
396243,ZA,6,Constantiapark,
396244,ZA,7,Blesbok,
396245,ZA,2,Umbilo,
396246,ZA,5,Lusikisiki,
396247,ZA,6,Rensburg,
396248,ZA,8,Kleinsee,
396249,ZA,2,Bayala,
396250,ZA,6,Windsor,
396251,ZA,2,Congella,
396252,ZA,2,Umdhloti Beach,
396253,ZA,11,Laaiplek,
396254,ZA,11,Pniel,
396255,ZA,3,Steynsrus,
396256,ZA,8,Sutherland,
396257,ZA,5,Tarkastad,
396258,ZA,2,Izotsha,
396259,ZA,3,Witsieshoek,
396260,ZA,10,Ganyesa,
396261,ZA,2,Blythedale Beach,
396262,ZA,6,Danville,
396263,ZA,3,Excelsior,
396264,ZA,1,De Aar,
396265,ZA,5,Flagstaff,
396266,ZA,6,Mohlakeng,
396267,ZA,11,Elgin,
396268,ZA,11,Ysterplaat,
396269,ZA,6,Kwathema,
396270,ZA,11,Melkboschstrand,
396271,ZA,8,Augrabies,
396272,ZA,11,Bitterfontein,
396273,ZA,7,Roossenekal,
396274,ZA,7,Leslie,
396275,ZA,3,York,
396276,ZA,5,Dimbaza,
396277,ZA,11,Wynberg Hill,
396278,ZA,11,Parkwood,
396279,ZA,7,Hartebeeskop,
396280,ZA,2,Inchanga,
396281,ZA,7,Persida,
396282,ZA,10,Baillie Park,
396283,ZA,5,East Bank,
396284,ZA,6,Muldersdrif,
396285,ZA,6,Annlin,
396286,ZA,9,Soekmekaar,
396287,ZA,7,Clewer,
396288,ZA,6,Monavoni,
396289,ZA,10,Magogong,
396290,ZA,11,Kalbaskraal,
396291,ZA,11,Oakdale,
396292,ZA,1,Hotazel,
396293,ZA,9,Athol,
396294,ZA,6,Turffontein,
396295,ZA,10,Pudumong,
396296,ZA,2,Chatsworth,
396297,ZA,2,Paddock,
396298,ZA,11,Saint James,
396299,ZA,7,Badplaas,
396300,ZA,5,Sunridge Park,
396301,ZA,2,Greyville,
396302,ZA,2,Montebello,
396303,ZA,2,Harrison,
396304,ZA,2,Mansfield,
396305,ZA,11,Mandalay,
396306,ZA,11,Windermere,
396307,ZA,11,Morelig,
396308,ZA,6,Tokoza,
396309,ZA,10,Breetsvlei,
396310,ZA,10,Kophou,
396311,ZA,6,Pinedene,
396312,ZA,5,Breakfast Vlei,
396313,ZA,2,Jozini,
396314,ZA,2,Durnacol,
396315,ZA,11,Heathfield,
396316,ZA,8,Welgelegen,
396317,ZA,1,Hopetown,
396318,ZA,9,Haenerstburg,
396319,ZA,11,Hexrivier,
396320,ZA,11,Vishoek,
396321,ZA,6,Tierpoort,
396322,ZA,11,Agulhas,
396323,ZA,5,Sunrise,
396324,ZA,2,Masabe,
396325,ZA,5,Middelburg,
396326,ZA,3,Botshabelo,
396327,ZA,6,Chrissiefontein,
396328,ZA,2,Winkelspruit,
396329,ZA,10,Khuma,
396330,ZA,6,Waaikraal,
396331,ZA,6,Kate Hamel,
396332,ZA,6,Wes-rand,
396333,ZA,11,Kensington,
396334,ZA,5,Try Again,
396335,ZA,7,Botsabelo,
396336,ZA,2,Mayville,
396337,ZA,11,Beaufort West,
396338,ZA,5,Nieu-bethesda,
396339,ZA,2,Berea,
396340,ZA,6,Chartwell,
396341,ZA,2,Panorama,
396342,ZA,2,Isithebe,
396343,ZA,10,Slurry,
396344,ZA,10,Harpington,
396345,ZA,6,Lakeside,
396346,ZA,6,Koedoe,
396347,ZA,3,Cornelia,
396348,ZA,6,Bhongwem,
396349,ZA,5,Keiskammahoek,
396350,ZA,5,Riverview,
396351,ZA,11,Graafwater,
396352,ZA,10,Delareyville,
396353,ZA,8,Griekwastad,
396354,ZA,11,Gordonsbaai,
396355,ZA,3,Bethulie,
396356,ZA,2,Morningside,
396357,ZA,9,Trichardtsdal,
396358,ZA,11,Fishhoek,
396359,ZA,5,Willowmore,
396360,ZA,11,Onrustrivier,
396361,ZA,11,Oranjezicht,
396362,ZA,2,Highflats,
396363,ZA,9,Amatava,
396364,ZA,2,Lynnfield Park,
396365,ZA,11,Pneil,
396366,ZA,2,Ingwavuma,
396367,ZA,5,Greenfields,
396368,ZA,6,Orange Grove,
396369,ZA,6,Pretoria-noord,
396370,ZA,11,Doringbaai,
396371,ZA,7,Endicott,
396372,ZA,5,Cannon Rocks,
396373,ZA,11,Sandbaai,
396374,ZA,11,Redelinghuys,
396375,ZA,11,Rugby,
396376,ZA,3,Winburg,
396377,ZA,3,Bloemspruit,
396378,ZA,6,Swartspruit,
396379,ZA,11,Factreton,
396380,ZA,2,La Mercy,
396381,ZA,2,Imbali,
396382,ZA,6,Mamelodi,
396383,ZA,2,Arbor Park,
396384,ZA,2,Scottburgh South,
396385,ZA,11,Saron,
396386,ZA,6,Randridge,
396387,ZA,5,Southernwood,
396388,ZA,6,East Lynne,
396389,ZA,6,Protea Ridge,
396390,ZA,2,Nyoni,
396391,ZA,11,Salt River,
396392,ZA,6,Roshnee,
396393,ZA,6,Hillshaven,
396394,ZA,11,Lambertsbaai,
396395,ZA,5,Weza,
396396,ZA,6,Triomf,
396397,ZA,8,Louisvale,
396398,ZA,2,Kwanyuswa,
396399,ZA,2,Bedat,
396400,ZA,2,Reunion,
396401,ZA,11,Aurora,
396402,ZA,11,Nyanga,
396403,ZA,2,Faerie Glen,
396404,ZA,7,Mataffin,
396405,ZA,3,Tweeling,
396406,ZA,11,Wesbank,
396407,ZA,8,Kikafela,
396408,ZA,6,Edendale,
396409,ZA,6,Isidule,
396410,ZA,7,Dwarsfontein,
396411,ZA,6,Lyndhurst,
396412,ZA,11,Parowvallei,
396413,ZA,8,Marydale,
396414,ZA,2,Nqutu,
396415,ZA,2,Somerset,
396416,ZA,6,Culemborgpark,
396417,ZA,2,Muden,
396418,ZA,3,Verkeerdevlei,
396419,ZA,5,Zwelitsha,
396420,ZA,2,Job's Town,
396421,ZA,6,Saulsville,
396422,ZA,6,Langlaagte,
396423,ZA,5,Durban Mission Location,
396424,ZA,7,Masobe,
396425,ZA,11,Vyeboom,
396426,ZA,11,Sandberg,
396427,ZA,5,Mount Ayliff,
396428,ZA,2,Phoenix,
396429,ZA,6,Holfontein,
396430,ZA,11,Mfuleni,
396431,ZA,6,Clubview East,
396432,ZA,11,Elands Bay,
396433,ZA,11,Avontuur,
396434,ZA,8,Nieuwoudtville,
396435,ZA,3,Carolina,
396436,ZA,7,Mhluzi,
396437,ZA,3,Talsen,
396438,ZA,5,Aberdeen,
396439,ZA,6,Homestead Apple Orchards,
396440,ZA,11,Scarborough,
396441,ZA,7,Pumalanga,
396442,ZA,9,Dwaalboom,
396443,ZA,6,Eldoradopark,
396444,ZA,6,Voortrekkerhoogte,
396445,ZA,7,Stoffberg,
396446,ZA,6,Welbekend,
396447,ZA,10,Maseru,
396448,ZA,11,Belle Ombre,
396449,ZA,5,Centani,
396450,ZA,11,Klein-drakenstein,
396451,ZA,11,Bakoven,
396452,ZA,6,Kocksoord,
396453,ZA,2,Treasure Beach,
396454,ZA,6,Doornfontein,
396455,ZA,2,Tongaat Village,
396456,ZA,5,Molteno,
396457,ZA,3,Sunnydale,
396458,ZA,6,Randfontein South,
396459,ZA,11,Glencairn Heights,
396460,ZA,6,Doornrandjies,
396461,ZA,6,Golf View,
396462,ZA,7,Kwaggafontein,
396463,ZA,5,Perridgevale,
396464,ZA,11,Kommetje,
396465,ZA,5,Centane,
396466,ZA,6,Putfontein,
396467,ZA,2,Albert Falls,
396468,ZA,9,Gravelotte,
396469,ZA,6,De Deur Estates,
396470,ZA,3,Rosendal,
396471,ZA,2,Essenwood,
396472,ZA,5,Newton Park,
396473,ZA,2,Clermont,
396474,ZA,6,Waterkloof Glen,
396475,ZA,11,Saint Helena Bay,
396476,ZA,11,De Rust,
396477,ZA,6,Evaton,
396478,ZA,11,Gaylee,
396479,ZA,10,Kalkheuvel,
396480,ZA,3,Holfontein,
396481,ZA,10,Putfontein,
396482,ZA,3,Emmarentia,
396483,ZA,10,Ottosdal,
396484,ZA,3,Langlaagte,
396485,ZA,6,Bekkersdal,
396486,ZA,3,Zastron,
396487,ZA,7,Dennilton,
396488,ZA,11,Cloetesville,
396489,ZA,11,Langa,
396490,ZA,5,Rhodes,
396491,ZA,5,Pearston,
396492,ZA,5,Swartkops,
396493,ZA,10,Beestekraal,
396494,ZA,5,Morgan Bay,
396495,ZA,9,Mica,
396496,ZA,11,Gouda,
396497,ZA,1,Ganspan,
396498,ZA,7,White River,
396499,ZA,11,Wildernis,
396500,ZA,5,Hofmeyr,
396501,ZA,5,Mount Fletcher,
396502,ZA,11,Elandsbaai,
396503,ZA,11,Dysselsdorp,
396504,ZA,11,Glen Dirk,
396505,ZA,10,Derby,
396506,ZA,7,Matsulu,
396507,ZA,10,Mafikaneng,
396508,ZA,2,Umhalnga Rocks,
396509,ZA,2,Montclair,
396510,ZA,2,Osizweni,
396511,ZA,11,Bomakierie,
396512,ZA,11,De Novo,
396513,ZA,2,Monzi,
396514,ZA,3,Memel,
396515,ZA,7,Hartbeesfontein,
396516,ZA,9,Lenyenye,
396517,ZA,7,Amsterdam,
396518,ZA,9,Tuinplaas,
396519,ZA,11,Bettysbaai,
396520,ZA,5,Walmer Heights,
396521,ZA,2,Chase Valley,
396522,ZA,6,Eersterus,
396523,ZA,9,Amandelbult,
396524,ZA,10,Babelegi,
396525,ZA,8,Ulco,
396526,ZA,8,Groblershoop,
396527,ZA,9,Sterkrivier,
396528,ZA,11,Oaklands,
396529,ZA,6,Fietas,
396530,ZA,2,Kingsmead,
396531,ZA,6,Western Township,
396532,ZA,5,Buffalo Harbor,
396533,ZA,3,Generaal De Wet,
396534,ZA,2,The Village,
396535,ZA,2,Cato Manor,
396536,ZA,6,Northdene,
396537,ZA,6,Erand,
396538,ZA,2,Saint Annes College,
396539,ZA,2,Cyrildene,
396540,ZA,11,Da Nova,
396541,ZA,11,Square Hill,
396542,ZA,2,Prospect,
396543,ZA,6,Denneboom,
396544,ZA,6,Westcliffe,
396545,ZA,2,Swartberg,
396546,ZA,3,Bedelia,
396547,ZA,9,Pienaarsrivier,
396548,ZA,6,The Highlands,
396549,ZA,11,Bailey's Cottage,
396550,ZA,11,Garden Village,
396551,ZA,8,Hartswater,
396552,ZA,5,Sunnyridge,
396553,ZA,6,Newclare,
396554,ZA,11,Cafda Village,
396555,ZA,11,Eersterivier Settlement,
396556,ZA,11,Raapkraal,
396557,ZA,11,Noll,
396558,ZA,11,Alphen,
396559,ZA,11,Waverley Mills,
396560,ZA,6,Waltloo,
396561,ZA,2,Brown Stones,
396562,ZA,2,Bishopstowe,
396563,ZA,11,Stilbaai-oos,
396564,ZA,2,Kwanzimakwe,
396565,ZA,8,Aggeneys,
396566,ZA,11,Chemory,
396567,ZA,6,Innesdale,
396568,ZA,6,Geldenhuis,
396569,ZA,11,Victory Hill,
396570,ZA,3,Wepener,
396571,ZA,5,Gelvandale,
396572,ZA,6,Willowdene,
396573,ZA,8,Content,
396574,ZA,11,Genadendal,
396575,ZA,11,Bonteheuwel,
396576,ZA,11,Swartwater,
396577,ZA,2,Cedarville,
396578,ZA,5,Krakeelrivier,
396579,ZA,9,Rust De Winter,
396580,ZA,5,Venterstad,
396581,ZA,6,Wespark,
396582,ZA,6,Brenthurst,
396583,ZA,6,Jabavu,
396584,ZA,3,Middleburg,
396585,ZA,11,Hou Moed,
396586,ZA,9,Alldays,
396587,ZA,2,Manor Gardens,
396588,ZA,6,Honeyvale,
396589,ZA,11,Blomtuin,
396590,ZA,11,Herold,
396591,ZA,11,Murraysburg,
396592,ZA,6,Bon Accord,
396593,ZA,6,Vleikop,
396594,ZA,6,Malvern East,
396595,ZA,2,Kwadabeka,
396596,ZA,3,Vierfontein,
396597,ZA,8,Hopetown,
396598,ZA,9,Makonde,
396599,ZA,6,Kloofsig,
396600,ZA,11,Sanddrift,
396601,ZA,11,Epping Forest,
396602,ZA,6,Hatherley,
396603,ZA,6,Antwerp,
396604,ZA,5,Paradise Beach,
396605,ZA,3,Koornland,
396606,ZA,6,Kenilworth,
396607,ZA,11,Klawer,
396608,ZA,2,Izingolweni,
396609,ZA,5,Gamtoos Mouth,
396610,ZA,6,Toekomsrus,
396611,ZA,7,Tweefontein,
396612,ZA,6,Leeuwfontein,
396613,ZA,8,Pofadder,
396614,ZA,5,Adendorp,
396615,ZA,2,Southport,
396616,ZA,6,Kromdraai,
396617,ZA,11,Rylands Estate,
396618,ZA,10,Makwassie,
396619,ZA,11,Koringberg,
396620,ZA,6,Rietfontein,
396621,ZA,6,Jackson's Drift,
396622,ZA,11,Belthorn,
396623,ZA,8,Barkly West,
396624,ZA,5,Quigney,
396625,ZA,10,Pilanesberg,
396626,ZA,2,Hattingspruit,
396627,ZA,11,Simonstad,
396628,ZA,8,Steinkopf,
396629,ZA,6,Helderblom,
396630,ZA,6,Fontainbleau,
396631,ZA,11,Langebaan Road,
396632,ZA,7,Mahlakwena,
396633,ZA,9,Letaba,
396634,ZA,10,Suurman,
396635,ZA,6,Hartzenbergfontein,
396636,ZA,11,Brakenfell,
396637,ZA,6,Centurion,157
396638,ZA,6,Johannesburg,2194
396639,ZA,11,Worcester,6850
396640,ZA,11,Cape Town,7441
396641,ZA,5,Port Elizabeth,6020
396642,ZA,7,London,5247
396643,ZA,9,Warmbaths,
396644,ZA,11,Cape Town,7945
396645,ZA,6,Midrand,1692
396646,ZA,2,Durban,4001
396647,ZA,2,Scottburgh,
396648,ZA,6,Johannesburg,1829
396649,ZA,6,Benoni,1513
396650,ZA,6,Vereeniging,1941
396651,ZA,6,Vanderbijlpark,1911
396652,ZA,6,Boksburg,1475
396653,ZA,6,Johannesburg,2040
396654,ZA,6,Johannesburg,2007
396655,ZA,6,Johannesburg,2091
396656,ZA,6,Johannesburg,2167
396657,ZA,6,Krugersdorp,1751
396658,ZA,6,Meyerton,1961
396659,ZA,6,Johannesburg,2090
396660,ZA,6,Johannesburg,2001
396661,ZA,2,Durban,4093
396662,ZA,5,Amalinda,
396663,ZA,5,Lovemore Park,
396664,ZA,2,Durban,4091
396665,ZA,2,Kingsmead,4404
396666,ZA,2,Durban,3610
396667,ZA,2,Durban,3624
396668,ZA,11,Bellville,7530
396669,ZA,6,Kempton Park,1622
396670,ZA,6,Kempton Park,1619
396671,ZA,9,Polokwane,
396672,ZA,3,Rietspruit,
396673,ZA,6,Pretoria,1
396674,ZA,6,Midrand,1682
396675,ZA,6,Pretoria,81
396676,ZA,6,Pretoria,184
396677,ZA,3,Middelburg,
396678,ZA,6,Johannesburg,2152
396679,ZA,2,Durban,3620
396680,ZA,6,Johannesburg,2119
396681,ZA,5,Port Elizabeth,6001
396682,ZA,11,Heideveld,
396683,ZA,5,Port Elizabeth,6070
396684,ZA,9,Tzaneen,850
396685,ZA,6,Johannesburg,2122
396686,ZA,11,Knysna,6570
396687,ZA,2,Durban,4068
396688,ZA,11,Cape Town,8001
396689,ZA,11,Cape Town,8000
396690,ZA,2,Vryheid,3100
396691,ZA,11,Cape Town,7872
396692,ZA,2,Durban,4037
396693,ZA,7,London,5200
396694,ZA,6,Pretoria,132
396695,ZA,6,Pretoria,181
396696,ZA,3,Bloemfontein,9302
396697,ZA,11,Paarl,7646
396698,ZA,6,Johannesburg,2192
396699,ZA,11,Robertson,6705
396700,ZA,11,Somerset West,7130
396701,ZA,2,Pietermaritzburg,3206
396702,ZA,2,Durban,4320
396703,ZA,6,Johannesburg,2118
396704,ZA,11,Cape Town,7405
396705,ZA,6,Alberton,1457
396706,ZA,3,Bethlehem,9700
396707,ZA,6,Edenvale,1610
396708,ZA,6,Johannesburg,2198
396709,ZA,6,Johannesburg,2000
396710,ZA,5,Queenstown,5320
396711,ZA,6,Johannesburg,2196
396712,ZA,11,Cape Town,7580
396713,ZA,2,Durban,4051
396714,ZA,6,Pretoria,2
396715,ZA,10,Rustenburg,299
396716,ZA,10,Brits,264
396717,ZA,6,Johannesburg,1600
396718,ZA,6,Randburg,2125
396719,ZA,7,Nelspruit,1200
396720,ZA,6,Bronkhorstspruit,1020
396721,ZA,6,Brakpan,1541
396722,ZA,10,Hartbeespoort,216
396723,ZA,6,Johannesburg,2195
396724,ZA,11,Lambert's Bay,
396725,ZA,7,Schoemansdal,
396726,ZA,8,Kathu,8446
396727,ZA,2,Pietermaritzburg,3201
396728,ZA,6,Pretoria,40
396729,ZA,10,Brits,250
396730,ZA,6,Johannesburg,2165
396731,ZA,2,Durban,3630
396732,ZA,2,Durban,4094
396733,ZA,11,Philadelphia,7304
396734,ZA,11,Cape Town,8012
396735,ZA,6,Pretoria,84
396736,ZA,2,Hilton,3245
396737,ZA,11,Cape Town,7536
396738,ZA,6,Pretoria,28
396739,ZA,6,Centurion,158
396740,ZA,11,Cape Town,8005
396741,ZA,2,Newcastle,2940
396742,ZA,6,Johannesburg,2156
396743,ZA,3,Bloemfontein,9301
396744,ZA,6,Benoni,1500
396745,ZA,6,Pretoria,36
396746,ZA,6,Springs,1559
396747,ZA,6,Midrand,1687
396748,ZA,6,Magaliesburg,1791
396749,ZA,6,Johannesburg,2191
396750,ZA,6,Randfontein,1759
396751,ZA,6,Roodepoort,1733
396752,ZA,3,Sasolburg,1947
396753,ZA,11,Cape Town,7806
396754,ZA,6,Edenvale,1609
396755,ZA,6,Krugersdorp,1754
396756,ZA,6,Johannesburg,1710
396757,ZA,6,Roodepoort,1724
396758,ZA,6,Johannesburg,1601
396759,ZA,6,Brakpan,1549
396760,ZA,6,Krugersdorp,1739
396761,ZA,6,Johannesburg,1716
396762,ZA,6,Johannesburg,1872
396763,ZA,11,Cape Town,7141
396764,ZA,11,Cape Town,7448
396765,ZA,11,Cape Town,7925
396766,ZA,11,Stellenbosch,7600
396767,ZA,11,Cape Town,7994
396768,ZA,11,Cape Town,7780
396769,ZA,5,Wonderboom,
396770,ZA,6,Kempton Park,1618
396771,ZA,11,Cape Town,7700
396772,ZA,11,Cape Town,7979
396773,ZA,5,Uitenhage,6229
396774,ZA,11,Strand,7140
396775,ZA,11,Cape Town,7550
396776,ZA,6,Johannesburg,2121
396777,ZA,2,Boston,
396778,ZA,2,Durban,4126
396779,ZA,6,Krugersdorp,1750
396780,ZA,6,Pretoria,82
396781,ZA,7,Bultfontein,
396782,ZA,10,Fochville,2515
396783,ZA,2,Dundee,3000
396784,ZA,2,Richards Bay,3901
396785,ZA,6,Krugersdorp,1740
396786,ZA,2,Stanger,4450
396787,ZA,11,Cape Town,7100
396788,ZA,2,Durban,3640
396789,ZA,2,Port Shepstone,4240
396790,ZA,6,Pretoria,182
396791,ZA,7,London,5241
396792,ZA,11,Oudtshoorn,6620
396793,ZA,6,Midrand,1685
396794,ZA,11,Cape Town,7561
396795,ZA,7,London,5256
396796,ZA,2,Durban,4004
396797,ZA,6,Germiston,1414
396798,ZA,6,Johannesburg,2101
396799,ZA,6,Pretoria,17
396800,ZA,5,Port Elizabeth,6059
396801,ZA,11,Ceres,6835
396802,ZA,11,Cape Town,7430
396803,ZA,6,Johannesburg,2100
396804,ZA,5,Grahamstown,6140
396805,ZA,11,Grabouw,7160
396806,ZA,11,Cape Town,7935
396807,ZA,6,Pretoria,201
396808,ZA,11,Plettenberg Bay,6600
396809,ZA,6,Johannesburg,2123
396810,ZA,6,Pretoria,102
396811,ZA,5,Grahamstown,6139
396812,ZA,11,Cape Town,7501
396813,ZA,6,Pretoria,83
396814,ZA,10,Rustenburg,300
396815,ZA,6,Johannesburg,2062
396816,ZA,2,Richards Bay,3900
396817,ZA,2,Durban,4016
396818,ZA,11,Oudtshoorn,6625
396819,ZA,7,Bethal,2310
396820,ZA,5,Port Alfred,6170
396821,ZA,6,Johannesburg,2060
396822,ZA,9,Thabazimbi,380
396823,ZA,6,Johannesburg,2055
396824,ZA,6,Johannesburg,2008
396825,ZA,5,Walmer,6330
396826,ZA,6,Germiston,1401
396827,ZA,6,Johannesburg,1645
396828,ZA,6,Pretoria,60
396829,ZA,6,Boksburg,1460
396830,ZA,6,Kempton Park,1620
396831,ZA,6,Boksburg,1462
396832,ZA,6,Centurion,62
396833,ZA,6,Pretoria,167
396834,ZA,6,Johannesburg,2014
396835,ZA,2,Durban,4321
396836,ZA,2,Durban,4019
396837,ZA,6,Johannesburg,2073
396838,ZA,2,East Lynn,
396839,ZA,5,Uniedal,
396840,ZA,11,Cape Town,7800
396841,ZA,6,Johannesburg,2070
396842,ZA,6,Johannesburg,2021
396843,ZA,6,Pretoria,48
396844,ZA,6,Centurion,149
396845,ZA,11,Bridgetown,
396846,ZA,6,Johannesburg,2105
396847,ZA,6,Roodepoort,1731
396848,ZA,11,Cape Town,7784
396849,ZA,3,Kroonstad,9500
396850,ZA,6,Johannesburg,1709
396851,ZA,2,Nkwalini,
396852,ZA,6,Johannesburg,2161
396853,ZA,2,Durban,4092
396854,ZA,3,Kranskop,
396855,ZA,9,Sunningdale,
396856,ZA,6,Johannesburg,2193
396857,ZA,11,Bredasdorp,7280
396858,ZA,11,Cape Town,7500
396859,ZA,10,Potchefstroom,2531
396860,ZA,11,Cape Town,8002
396861,ZA,6,Alberton,1448
396862,ZA,6,Johannesburg,2058
396863,ZA,6,Brakpan,1543
396864,ZA,6,Benoni,1512
396865,ZA,6,Kempton Park,1623
396866,ZA,6,Boksburg,1459
396867,ZA,6,Johannesburg,2169
396868,ZA,5,Port Elizabeth,6065
396869,ZA,6,Johannesburg,2157
396870,ZA,6,Nigel,1490
396871,ZA,7,London,5201
396872,ZA,6,Pretoria,145
396873,ZA,6,Alberton,1453
396874,ZA,9,Blouberg,
396875,ZA,6,Johannesburg,2052
396876,ZA,6,Pretoria,63
396877,ZA,6,Pretoria,183
396878,ZA,6,Johannesburg,1732
396879,ZA,6,Westonaria,1779
396880,ZA,2,Durban,3629
396881,ZA,6,Midrand,1651
396882,ZA,6,Germiston,1428
396883,ZA,2,Pietermaritsburg,
396884,ZA,2,Durban,4067
396885,ZA,11,Cape Town,7435
396886,ZA,6,Pretoria,284
396887,ZA,6,Johannesburg,2154
396888,ZA,6,Johannesburg,1864
396889,ZA,2,Vaalbank,
396890,ZA,5,Loerie,
396891,ZA,10,Wilkoppies,
396892,ZA,3,Bloemfontein,9364
396893,ZA,6,Johannesburg,2010
396894,ZA,2,Pinetown,3600
396895,ZA,6,Johannesburg,2057
396896,ZA,2,Pietermaritzburg,3200
396897,ZA,6,Johannesburg,1715
396898,ZA,6,Pretoria,156
396899,ZA,10,Hammanskraal,400
396900,ZA,6,Cullinan,1000
396901,ZA,6,Brakpan,1552
396902,ZA,6,Johannesburg,1712
396903,ZA,11,Cape Town,7151
396904,ZA,11,Bereaville,
396905,ZA,6,Pretoria,47
396906,ZA,2,Durban,3660
396907,ZA,6,Johannesburg,1923
396908,ZA,6,Carletonville,2499
396909,ZA,11,Worcester,6849
396910,ZA,6,Pretoria,50
396911,ZA,5,Alicedale,
396912,ZA,6,Fietas,1945
396913,ZA,10,Hebron,
396914,ZA,6,Johannesburg,2094
396915,ZA,6,Pretoria,44
396916,ZA,11,Cape Town,7740
396917,ZA,7,Secunda,2302
396918,ZA,6,Johannesburg,2015
396919,ZA,5,Mafube,
396920,ZA,8,Concordia,
396921,ZA,6,Midrand,1686
396922,ZA,6,Germiston,1422
396923,ZA,2,Bulwer,
396924,ZA,7,Standerton,2430
396925,ZA,10,Thlabane,
396926,ZA,2,Durban,4113
396927,ZA,5,Port Elizabeth,6017
396928,ZA,11,Cape Town,7460
396929,ZA,11,Hermanus,7200
396930,ZA,2,Tugela,
396931,ZA,6,Johannesburg,1821
396932,ZA,5,Uvongo,
396933,ZA,6,Johannesburg,2188
396934,ZA,6,Johannesburg,2155
396935,ZA,6,Centurion,57
396936,ZA,10,Potchefstroom,2520
396937,ZA,6,Midrand,1683
396938,ZA,11,Cape Town,7708
396939,ZA,11,Cape Town,7785
396940,ZA,2,Freeland Park,
396941,ZA,5,Pretoria,
396942,ZA,6,Pretoria,190
396943,ZA,8,Kuruman,8460
396944,ZA,6,Johannesburg,2076
396945,ZA,6,Johannesburg,2128
396946,ZA,6,Jameson Park,
396947,ZA,3,Trompsburg,
396948,ZA,5,Despatch,6220
396949,ZA,6,Sandton,2146
396950,ZA,11,Stellenbosch,7599
396951,ZA,6,Randburg,2032
396952,ZA,6,Germiston,1402
396953,ZA,6,Alberton,1426
396954,ZA,2,Durban,3690
396955,ZA,2,Kingsmead,4420
396956,ZA,2,Durban,4090
396957,ZA,6,Heidelberg,1441
396958,ZA,6,Benoni,1520
396959,ZA,6,Johannesburg,2170
396960,ZA,6,Kempton Park,1630
396961,ZA,6,Johannesburg,1876
396962,ZA,6,Johannesburg,2006
396963,ZA,6,Johannesburg,2190
396964,ZA,6,Johannesburg,2003
396965,ZA,6,Alberton,1447
396966,ZA,6,Johannesburg,2018
396967,ZA,6,Roodepoort,1736
396968,ZA,6,Johannesburg,2095
396969,ZA,6,Alberton,1458
396970,ZA,6,Johannesburg,1830
396971,ZA,6,Westonaria,1780
396972,ZA,6,Johannesburg,1819
396973,ZA,6,Vereeniging,1939
396974,ZA,6,Johannesburg,1717
396975,ZA,6,Alberton,1449
396976,ZA,6,Vereeniging,1928
396977,ZA,6,Vereeniging,1935
396978,ZA,6,Vereeniging,1982
396979,ZA,6,Johannesburg,1820
396980,ZA,6,Vereeniging,1930
396981,ZA,6,Johannesburg,2047
396982,ZA,2,Durban,4000
396983,ZA,2,Durban,3631
396984,ZA,2,Durban,4052
396985,ZA,11,Cape Town,7560
396986,ZA,11,Cape Town,7975
396987,ZA,11,Cape Town,7551
396988,ZA,11,Cape Town,7764
396989,ZA,5,Port Elizabeth,6000
396990,ZA,2,Durban,4159
396991,ZA,2,Durban,4053
396992,ZA,11,Cape Town,7890
396993,ZA,2,Durban,4301
396994,ZA,2,Kingsmead,4184
396995,ZA,6,Pretoria,7
396996,ZA,6,Alberton,1450
396997,ZA,6,Randfontein,1763
396998,ZA,10,Hartbeespoort,260
396999,ZA,6,Pretoria,37
397000,ZA,6,Vanderbijlpark,1900
397001,ZA,6,Johannesburg,2197
397002,ZA,6,Benoni,1501
397003,ZA,6,Johannesburg,2068
397004,ZA,6,Kempton Park,1621
397005,ZA,2,Amanzimtoti,4125
397006,ZA,6,Pretoria,186
397007,ZA,6,Johannesburg,2189
397008,ZA,6,Pretoria,49
397009,ZA,6,Johannesburg,1811
397010,ZA,8,Kimberley,8301
397011,ZA,6,Johannesburg,2162
397012,ZA,7,Witbank,1035
397013,ZA,11,Cape Town,7995
397014,ZA,6,Centurion,166
397015,ZA,6,Johannesburg,2019
397016,ZA,6,Johannesburg,2013
397017,ZA,6,Centurion,154
397018,ZA,6,Johannesburg,2092
397019,ZA,6,Johannesburg,2093
397020,ZA,11,Cape Town,7450
397021,ZA,6,Centurion,14
397022,ZA,6,Johannesburg,1827
397023,ZA,9,Polokwane,742
397024,ZA,6,Centurion,46
397025,ZA,6,Johannesburg,2022
397026,ZA,6,Pretoria,127
397027,ZA,2,Durban,3609
397028,ZA,6,Fietas,1748
397029,ZA,7,Ermelo,2350
397030,ZA,6,Pretoria,72
397031,ZA,11,Cape Town,7701
397032,ZA,2,Durban,4056
397033,ZA,6,Germiston,1424
397034,ZA,2,Kingsmead,4390
397035,ZA,6,Johannesburg,1613
397036,ZA,2,Winterton,3340
397037,ZA,6,Pretoria,65
397038,ZA,6,Pretoria,16
397039,ZA,6,Johannesburg,2145
397040,ZA,6,Pretoria,194
397041,ZA,6,Pretoria,39
397042,ZA,3,Bloemfontein,9310
397043,ZA,6,Benoni,1511
397044,ZA,6,Benoni,1515
397045,ZA,6,Pretoria,31
397046,ZA,11,Wellington,7654
397047,ZA,11,Rawsonville,6857
397048,ZA,11,Cape Town,7406
397049,ZA,6,Pretoria,27
397050,ZA,6,Pretoria,10
397051,ZA,6,Pretoria,185
397052,ZA,6,Pretoria,116
397053,ZA,6,Pretoria,174
397054,ZA,6,Johannesburg,2132
397055,ZA,6,Centurion,140
397056,ZA,6,Pretoria,187
397057,ZA,6,Pretoria,41
397058,ZA,7,Witbank,1038
397059,ZA,2,Ladysmith,3370
397060,ZA,11,George,6530
397061,ZA,6,Johannesburg,2166
397062,ZA,6,Pretoria,54
397063,ZA,6,Johannesburg,1804
397064,ZA,6,Pretoria,200
397065,ZA,6,Pretoria,240
397066,ZA,9,Polokwane,699
397067,ZA,6,Johannesburg,2107
397068,ZA,6,Johannesburg,2153
397069,ZA,6,Pretoria,97
397070,ZA,6,Pretoria,87
397071,ZA,10,Hartbeespoort,280
397072,ZA,6,Pretoria,110
397073,ZA,6,Pretoria,159
397074,ZA,2,Kingsmead,3265
397075,ZA,9,Louis Trichardt,954
397076,ZA,6,Centurion,169
397077,ZA,6,Johannesburg,2148
397078,ZA,11,Cape Town,8018
397079,ZA,6,Johannesburg,2028
397080,ZA,6,Johannesburg,2056
397081,ZA,6,Pretoria,35
397082,ZA,6,Pretoria,42
397083,ZA,6,Pretoria,153
397084,ZA,7,London,5219
397085,ZA,2,Durban,4319
397086,ZA,11,Cape Town,7358
397087,ZA,11,Cape Town,7965
397088,ZA,11,Cape Town,5099
397089,ZA,11,Cape Town,7801
397090,ZA,6,Johannesburg,2164
397091,ZA,11,Cape Town,7131
397092,ZA,6,Pretoria,105
397093,ZA,9,Baltimore,
397094,ZA,6,Pretoria,64
397095,ZA,11,George,6529
397096,ZA,2,Durban,4115
397097,ZA,2,Glencoe,2930
397098,ZA,11,Cape Town,8003
397099,ZA,2,Durban,3652
397100,ZA,6,Johannesburg,1862
397101,ZA,6,Johannesburg,2086
397102,ZA,6,Randfontein,1760
397103,ZA,6,Boksburg,1464
397104,ZA,6,Johannesburg,2174
397105,ZA,6,Nigel,1491
397106,ZA,6,Springs,1560
397107,ZA,6,Randfontein,1767
397108,ZA,6,Johannesburg,1612
397109,ZA,6,Johannesburg,2067
397110,ZA,6,Alberton,1452
397111,ZA,6,Johannesburg,2031
397112,ZA,6,Benoni,1516
397113,ZA,6,Johannesburg,2143
397114,ZA,6,Brakpan,1544
397115,ZA,6,Heidelberg,1438
397116,ZA,6,Johannesburg,1863
397117,ZA,6,Johannesburg,1841
397118,ZA,6,Kempton Park,1625
397119,ZA,6,Johannesburg,2209
397120,ZA,6,Brakpan,1540
397121,ZA,6,Centurion,96
397122,ZA,6,Johannesburg,2059
397123,ZA,6,Alberton,1451
397124,ZA,6,Kempton Park,1639
397125,ZA,6,Krugersdorp,1756
397126,ZA,6,Johannesburg,1735
397127,ZA,6,Johannesburg,2711
397128,ZA,6,Boksburg,1468
397129,ZA,6,Johannesburg,2109
397130,ZA,11,Stellenbosch,7613
397131,ZA,11,Paarl,7620
397132,ZA,6,Vanderbijlpark,1910
397133,ZA,6,Johannesburg,2104
397134,ZA,6,Meyerton,1964
397135,ZA,6,Roodepoort,1730
397136,ZA,6,Springs,1575
397137,ZA,6,Benoni,1518
397138,ZA,6,Boksburg,1465
397139,ZA,6,Johannesburg,2160
397140,ZA,6,Centurion,109
397141,ZA,6,Johannesburg,2137
397142,ZA,6,Johannesburg,1865
397143,ZA,6,Midrand,1985
397144,ZA,6,Johannesburg,1792
397145,ZA,6,Boksburg,1508
397146,ZA,6,Randfontein,1764
397147,ZA,6,Johannesburg,2106
397148,ZA,6,Kempton Park,1638
397149,ZA,11,Stellenbosch,7603
397150,ZA,11,Cape Town,7974
397151,ZA,11,Stellenbosch,7602
397152,ZA,11,Stellenbosch,7604
397153,ZA,6,Benoni,1506
397154,ZA,6,Centurion,130
397155,ZA,6,Pretoria,1054
397156,ZA,9,Ellisras,557
397157,ZA,6,Johannesburg,1684
397158,ZA,11,Malmesbury,7300
397159,ZA,11,Cape Town,7985
397160,ZA,11,Cape Town,8060
397161,ZA,11,Cape Town,7562
397162,ZA,11,Cape Town,7705
397163,ZA,11,Cape Town,7798
397164,ZA,7,London,5205
397165,ZA,2,Durban,3626
397166,ZA,6,Kempton Park,1629
397167,ZA,2,Scottburgh,4180
397168,ZA,2,Durban,4139
397169,ZA,7,Pankop,
397170,ZA,3,Welkom,9460
397171,ZA,11,Cape Town,7864
397172,ZA,11,Strand,7139
397173,ZA,5,Port Elizabeth,6015
397174,ZA,6,Johannesburg,2144
397175,ZA,11,Cape Town,7824
397176,ZA,5,Port Elizabeth,6025
397177,ZA,6,Pretoria,129
397178,ZA,6,Johannesburg,2065
397179,ZA,9,Pietersburg,601
397180,ZA,6,Johannesburg,2016
397181,ZA,3,Bloemfontein,9332
397182,ZA,6,Brakpan,1542
397183,ZA,2,Durban,3603
397184,ZA,6,Johannesburg,2054
397185,ZA,6,Johannesburg,2163
397186,ZA,2,Durban,3608
397187,ZA,6,Johannesburg,2051
397188,ZA,2,Durban,4110
397189,ZA,5,Port Elizabeth,6045
397190,ZA,6,Johannesburg,2071
397191,ZA,6,Germiston,1413
397192,ZA,6,Johannesburg,2116
397193,ZA,6,Pretoria,101
397194,ZA,6,Johannesburg,1868
397195,ZA,6,Johannesburg,2017
397196,ZA,2,Durban,4260
397197,ZA,2,Durban,4069
397198,ZA,11,Bellville,7537
397199,ZA,10,Klerksdorp,2571
397200,ZA,2,Durban,4025
397201,ZA,5,Adelaide,5760
397202,ZA,6,Pretoria,23
397203,ZA,6,Pretoria,151
397204,ZA,6,Johannesburg,2041
397205,ZA,6,Meyerton,1960
397206,ZA,7,Nelspruit,1206
397207,ZA,11,Cape Town,7745
397208,ZA,6,Benoni,1503
397209,ZA,6,Benoni,1525
397210,ZA,6,Centurion,51
397211,ZA,6,Roodepoort,1725
397212,ZA,2,Howick,3290
397213,ZA,6,Johannesburg,2120
397214,ZA,7,Groblersdal,470
397215,ZA,5,Port Elizabeth,6100
397216,ZA,6,Johannesburg,2158
397217,ZA,7,Marble Hall,450
397218,ZA,6,Kempton Park,1631
397219,ZA,6,Pretoria,9
397220,ZA,3,Kroonstad,9499
397221,ZA,2,Empangeni,3880
397222,ZA,6,Johannesburg,2066
397223,ZA,11,George,6540
397224,ZA,5,Port Elizabeth,6011
397225,ZA,6,Pretoria,126
397226,ZA,6,Johannesburg,2024
397227,ZA,6,Krugersdorp,1742
397228,ZA,6,Johannesburg,2030
397229,ZA,6,Pretoria,45
397230,ZA,6,Vereeniging,1929
397231,ZA,6,Johannesburg,2042
397232,ZA,11,Cape Town,7045
397233,ZA,2,Howick,3275
397234,ZA,6,Krugersdorp,1741
397235,ZA,6,Johannesburg,2149
397236,ZA,6,Roodepoort,1734
397237,ZA,11,Somerset West,7135
397238,ZA,6,Carletonville,2500
397239,ZA,6,Boksburg,1470
397240,ZA,6,Johannesburg,1800
397241,ZA,2,Durban,4309
397242,ZA,6,Johannesburg,2115
397243,ZA,6,Pretoria,152
397244,ZA,6,Pretoria,111
397245,ZA,11,De Grendel,
397246,ZA,6,Avalon,
397247,ZA,6,Fietas,1873
397248,ZA,6,Johannesburg,1824
397249,ZA,2,Durban,4059
397250,ZA,6,Johannesburg,1729
397251,ZA,6,Pretoria,325
397252,ZA,6,Pretoria,179
397253,ZA,5,Port Elizabeth,6014
397254,ZA,6,Brakpan,1550
397255,ZA,10,Moedwil,
397256,ZA,11,Wellington,7655
397257,ZA,6,Benoni,1509
397258,ZA,6,Krugersdorp,1718
397259,ZA,6,Johannesburg,2102
397260,ZA,6,Germiston,1434
397261,ZA,5,Peddie,
397262,ZA,11,Swellendam,6740
397263,ZA,6,Johannesburg,2038
397264,ZA,6,Johannesburg,2032
397265,ZA,6,Johannesburg,1614
397266,ZA,6,Johannesburg,1818
397267,ZA,6,Vereeniging,1945
397268,ZA,6,Johannesburg,1873
397269,ZA,6,Johannesburg,1736
397270,ZA,6,Johannesburg,1609
397271,ZA,2,Durban,4399
397272,ZA,2,Durban,4032
397273,ZA,2,Durban,4360
397274,ZA,2,Durban,4184
397275,ZA,11,Cape Town,7459
397276,ZA,6,Johannesburg,2130
397277,ZA,2,Greytown,3250
397278,ZA,11,Cape Town,8147
397279,ZA,10,Klerksdorp,2570
397280,ZA,2,Durban,4390
397281,ZA,6,Pretoria,400
397282,ZA,6,Bronkhorstspruit,1021
397283,ZA,6,Krugersdorp,1793
397284,ZA,2,Howick,3265
397285,ZA,6,Johannesburg,1860
397286,ZA,6,Johannesburg,1635
397287,ZA,6,Pretoria,1027
397288,ZA,6,Johannesburg,1700
397289,ZA,11,Saldanha,7395
397290,ZA,6,Johannesburg,1730
397291,ZA,6,Kempton Park,1816
397292,ZA,5,Umtata,5099
397293,ZA,11,Cape Town,7766
397294,ZA,11,Cape Town,7532
397295,ZA,11,Cape Town,7570
397296,ZA,2,Durban,4300
397297,ZA,11,L'agulhas,
397298,ZA,6,Germiston,1431
397299,ZA,9,Hoedspruit,1380
397300,ZA,6,Pretoria,122
397301,ZA,6,Johannesburg,1861
397302,ZA,2,Durban,3650
397303,ZA,6,Pretoria,53
397304,ZA,6,Johannesburg,2020
397305,ZA,6,Johannesburg,1734
397306,ZA,11,Newtown,
397307,ZA,8,Postmasburg,8420
397308,ZA,5,Bluewater Bay,
397309,ZA,2,Durban,4302
397310,ZA,7,Piet Retief,2380
397311,ZA,2,Durban,4031
397312,ZA,8,Upington,8800
397313,ZA,6,Johannesburg,2168
397314,ZA,6,Johannesburg,1790
397315,ZA,11,Stellenbosch,7601
397316,ZA,5,Port Elizabeth,6055
397317,ZA,11,Cape Town,8051
397318,ZA,6,Benoni,1505
397319,ZA,6,Springs,1570
397320,ZA,6,Johannesburg,2053
397321,ZA,6,Johannesburg,2002
397322,ZA,6,Pretoria,8
397323,ZA,3,Sasolburg,1948
397324,ZA,6,Johannesburg,1984
397325,ZA,11,Cape Town,7490
397326,ZA,6,Benoni,1502
397327,ZA,6,Johannesburg,0
397328,ZA,6,Pretoria,123
397329,ZA,11,Cape Town,7439
397330,ZA,6,Vereeniging,1936
397331,ZA,11,Cape Town,7950
397332,ZA,6,Germiston,1420
397333,ZA,6,Germiston,1406
397334,ZA,6,Johannesburg,2138
397335,ZA,2,Merewent,
397336,ZA,6,Johannesburg,8491
397337,ZA,6,Boksburg,1469
397338,ZA,2,Durban,4145
397339,ZA,6,Johannesburg,2074
397340,ZA,6,Pretoria,20
397341,ZA,6,Centurion,163
397342,ZA,6,Pretoria,208
397343,ZA,6,Johannesburg,1714
397344,ZA,6,Johannesburg,2025
397345,ZA,6,Boksburg,1467
397346,ZA,6,Johannesburg,2034
397347,ZA,11,Cape Town,7150
397348,ZA,6,Pretoria,118
397349,ZA,6,Pretoria,480
397350,ZA,11,Cape Town,7493
397351,ZA,2,Durban,4080
397352,ZA,10,Wolmaransstad,
397353,ZA,6,Cullinan,1002
397354,ZA,6,Johannesburg,2129
397355,ZA,5,Port Elizabeth,6008
397356,ZA,2,Durban,4021
397357,ZA,2,Durban,4133
397358,ZA,11,Bellville,7535
397359,ZA,11,Cape Town,7349
397360,ZA,6,Pretoria,18
397361,ZA,6,Pretoria,161
397362,ZA,6,Brakpan,1545
397363,ZA,6,Pretoria,155
397364,ZA,11,Cape Town,8040
397365,ZA,6,Johannesburg,1632
397366,ZA,6,Johannesburg,2159
397367,ZA,6,Johannesburg,2187
397368,ZA,6,Benoni,1514
397369,ZA,5,Port Elizabeth,6007
397370,ZA,6,Germiston,1404
397371,ZA,6,Farmall,
397372,ZA,5,Graaff-reinet,6280
397373,ZA,6,Johannesburg,2035
397374,ZA,6,Pretoria,125
397375,ZA,7,Motetema,
397376,ZA,10,Schoemanville,
397377,ZA,11,Groot-brakrivier,
397378,ZA,9,Polokwane,700
397379,ZA,6,Johannesburg,2033
397380,ZA,2,Durban,4162
397381,ZA,6,Johannesburg,2096
397382,ZA,6,Johannesburg,1852
397383,ZA,6,Pretoria,134
397384,ZA,6,Johannesburg,2037
397385,ZA,6,Pretoria,135
397386,ZA,6,Pretoria,30
397387,ZA,3,Roodia,
397388,ZA,2,Durban-noord,
397389,ZA,11,The Homestead,
397390,ZA,6,Trevallyn,
397391,ZA,3,Virginia,9430
397392,ZA,9,Kildare,
397393,ZA,11,Mispah,
397394,ZA,11,Manenberg,
397395,ZA,11,Hanover Park,
397396,ZA,2,Durban,4061
397397,ZA,2,Durban,4567
397398,ZA,2,Verulam,4340
397399,ZA,6,Johannesburg,1828
397400,ZA,6,Johannesburg,2117
397401,ZA,2,Durban,4350
397402,ZA,2,Durban,3625
397403,ZA,6,Johannesburg,2111
397404,ZA,7,Klipfontein,
397405,ZA,6,Pretoria,121
397406,ZA,11,Somerset West,7129
397407,ZA,6,Nigel,1496
397408,ZA,11,Cape Town,7966
397409,ZA,3,Bloemfontein,9322
397410,ZA,8,Kimberley,8345
397411,ZA,6,Johannesburg,1813
397412,ZA,9,Phalaborwa,1390
397413,ZA,6,Pretoria,56
397414,ZA,11,Cape Town,7463
397415,ZA,7,London,5214
397416,ZA,11,Cape Town,7008
397417,ZA,11,Cape Town,7990
397418,ZA,6,Johannesburg,2061
397419,ZA,2,Pietermaritzburg,3202
397420,ZA,6,Johannesburg,2151
397421,ZA,11,Cape Town,7750
397422,ZA,6,Blyvooruitzicht,
397423,ZA,6,Johannesburg,2135
397424,ZA,11,Cape Town,7650
397425,ZA,11,Cape Town,7520
397426,ZA,9,Louis Trichardt,920
397427,ZA,6,Vrededorp,
397428,ZA,9,Ellisras,555
397429,ZA,2,Durban,4153
397430,ZA,11,Cape Town,7449
397431,ZA,11,Cape Town,7941
397432,ZA,6,Boksburg,1463
397433,ZA,7,Lydenburg,1120
397434,ZA,6,Pretoria,59
397435,ZA,2,Eshowe,3816
397436,ZA,5,Dordrecht,
397437,ZA,6,Johannesburg,1809
397438,ZA,6,Randfontein,1771
397439,ZA,6,Zonnehoeve,
397440,ZA,6,Redan,
397441,ZA,2,Nkandla,
397442,ZA,6,Heidelburg,
397443,ZA,2,Lamontville,
397444,ZA,10,Vryburg,8600
397445,ZA,6,Germiston,1419
397446,ZA,6,Johannesburg,1644
397447,ZA,8,De Aar,
397448,ZA,6,Pretoria,165
397449,ZA,11,Cape Town,7485
397450,ZA,11,Cape Town,7404
397451,ZA,10,Motswedi,
397452,ZA,6,Centurion,61
397453,ZA,3,Hoopstad,9479
397454,ZA,5,Port Elizabeth,6033
397455,ZA,6,Pretoria,89
397456,ZA,11,Porterville,6810
397457,ZA,7,Chrissiesmeer,
397458,ZA,6,Johannesburg,1801
397459,ZA,6,Johannesburg,2064
397460,ZA,11,Cape Town,7420
397461,ZA,3,Bloemfontein,9324
397462,ZA,6,Pretoria,76
397463,ZA,11,Langebaan,7357
397464,ZA,11,Cape Town,7475
397465,ZA,11,Cape Town,8010
397466,ZA,2,Durban,4070
397467,ZA,2,Alton,
397468,ZA,8,Christiana,
397469,ZA,6,Pretoria,77
397470,ZA,11,Cape Town,7978
397471,ZA,6,Vanderbijlpark,1912
397472,ZA,6,Johannesburg,2050
397473,ZA,8,Marchand,
397474,ZA,2,Durban,4405
397475,ZA,6,Krugersdorp,1749
397476,ZA,2,Munster,4278
397477,ZA,2,Durban,4060
397478,ZA,11,Knysna,6571
397479,ZA,6,Johannesburg,1975
397480,ZA,6,Kempton Park,1914
397481,ZA,6,Pretoria,1081
397482,ZA,6,Johannesburg,136
397483,ZA,6,Heidelberg,1442
397484,ZA,6,Bantjesloo,
397485,ZA,2,Durban,4058
397486,ZA,6,Johannesburg,2011
397487,ZA,2,Newcastle,2952
397488,ZA,3,Bloemfontein,9300
397489,ZA,11,Cape Town,7350
397490,ZA,2,Scottburg,
397491,ZA,11,Mossel Bay,6500
397492,ZA,2,Durban,4014
397493,ZA,6,Johannesburg,1711
397494,ZA,6,Krugersdorp,1758
397495,ZA,9,Acornhoek,
397496,ZA,3,Paul Roux,
397497,ZA,10,Potchefstroom,2522
397498,ZA,6,Vereeniging,1942
397499,ZA,11,Somerset West,7137
397500,ZA,11,Cape Town,7569
397501,ZA,2,Durban,4023
397502,ZA,2,Durban,4034
397503,ZA,2,Durban,5051
397504,ZA,6,Germiston,1416
397505,ZA,6,Johannesburg,2039
397506,ZA,11,Sedgefield,6573
397507,ZA,6,Boksburg,1477
397508,ZA,6,Johannesburg,1812
397509,ZA,11,Cape Town,7495
397510,ZA,7,London,5275
397511,ZA,2,Pinetown,3606
397512,ZA,11,Cape Town,7401
397513,ZA,11,Cape Town,7848
397514,ZA,11,Cape Town,7951
397515,ZA,11,Cape Town,7779
397516,ZA,6,Germiston,1418
397517,ZA,11,Bloubergsvlei,
397518,ZA,11,Cape Town,7900
397519,ZA,6,Johannesburg,2110
397520,ZA,2,Harburg,
397521,ZA,2,Marina Beach,
397522,ZA,7,London,5208
397523,ZA,6,Midrand,1688
397524,ZA,11,Malmesbury,7299
397525,ZA,6,Benoni,1510
397526,ZA,11,Cape Town,7446
397527,ZA,5,Port Elizabeth,6019
397528,ZA,2,Durban,4062
397529,ZA,6,Johannesburg,2126
397530,ZA,6,Johannesburg,1920
397531,ZA,6,Pretoria,178
397532,ZA,11,Cape Town,7735
397533,ZA,11,Cape Town,7445
397534,ZA,6,Pretoria,108
397535,ZA,6,Johannesburg,1805
